<?xml version='1.0' encoding='utf-8'?>
<q:quakeml xmlns="http://quakeml.org/xmlns/bed/1.2" xmlns:q="http://quakeml.org/xmlns/quakeml/1.2" xmlns:ns0="http://anss.org/xmlns/catalog/0.1">
  <eventParameters publicID="smi:local/b44faef6-361d-4be7-8541-4f10b80602c0">
    <event publicID="quakeml:uw.anss.org/Event/UW/10413673" ns0:datasource="uw" ns0:dataid="uw10413673" ns0:eventsource="uw" ns0:eventid="10413673">
      <preferredOriginID>quakeml:uw.anss.org/Origin/UW/691098</preferredOriginID>
      <preferredMagnitudeID>quakeml:uw.anss.org/Netmag/UW/572893</preferredMagnitudeID>
      <type>earthquake</type>
      <creationInfo>
        <agencyID>UW</agencyID>
        <creationTime>2012-02-28T13:50:13.000000Z</creationTime>
        <version>3</version>
      </creationInfo>
      <origin publicID="quakeml:uw.anss.org/Origin/UW/691098" ns0:datasource="uw" ns0:dataid="uw10413673" ns0:eventsource="uw" ns0:eventid="10413673">
        <time>
          <value>1997-05-03T23:49:44.890000Z</value>
          <uncertainty>0.03</uncertainty>
        </time>
        <latitude>
          <value>48.489</value>
          <uncertainty>0.13</uncertainty>
        </latitude>
        <longitude>
          <value>-121.7103333</value>
          <uncertainty>0.13</uncertainty>
        </longitude>
        <depth>
          <value>-1038.0</value>
          <uncertainty>380.0</uncertainty>
        </depth>
        <depthType>operator assigned</depthType>
        <timeFixed>false</timeFixed>
        <epicenterFixed>false</epicenterFixed>
        <methodID>smi:uw.anss.org/origin/spong</methodID>
        <quality>
          <associatedPhaseCount>113</associatedPhaseCount>
          <usedPhaseCount>27</usedPhaseCount>
          <associatedStationCount>85</associatedStationCount>
          <usedStationCount>0</usedStationCount>
          <standardError>0.33</standardError>
          <azimuthalGap>130.0</azimuthalGap>
        </quality>
        <type>hypocenter</type>
        <evaluationMode>manual</evaluationMode>
        <evaluationStatus>final</evaluationStatus>
        <creationInfo>
          <agencyID>UW</agencyID>
          <creationTime>2012-02-28T13:50:13.000000Z</creationTime>
        </creationInfo>
        <originUncertainty>
          <preferredDescription>horizontal uncertainty</preferredDescription>
          <horizontalUncertainty>184.0</horizontalUncertainty>
        </originUncertainty>
        <arrival publicID="quakeml:uw.anss.org/AssocArO/UW/6149008">
          <pickID>quakeml:uw.anss.org/Arrival/UW/6149008</pickID>
          <phase>P</phase>
          <azimuth>227.4</azimuth>
          <distance>1.234</distance>
          <timeResidual>0.11</timeResidual>
          <creationInfo>
            <agencyID>UW</agencyID>
            <creationTime>2012-02-28T13:50:13.000000Z</creationTime>
          </creationInfo>
        </arrival>
        <arrival publicID="quakeml:uw.anss.org/AssocArO/UW/6149013">
          <pickID>quakeml:uw.anss.org/Arrival/UW/6149013</pickID>
          <phase>S</phase>
          <azimuth>227.4</azimuth>
          <distance>1.234</distance>
          <timeResidual>-0.15</timeResidual>
          <creationInfo>
            <agencyID>UW</agencyID>
            <creationTime>2012-02-28T13:50:13.000000Z</creationTime>
          </creationInfo>
        </arrival>
        <arrival publicID="quakeml:uw.anss.org/AssocArO/UW/6149023">
          <pickID>quakeml:uw.anss.org/Arrival/UW/6149023</pickID>
          <phase>P</phase>
          <azimuth>160.9</azimuth>
          <distance>1.856</distance>
          <timeResidual>-0.3</timeResidual>
          <creationInfo>
            <agencyID>UW</agencyID>
            <creationTime>2012-02-28T13:50:13.000000Z</creationTime>
          </creationInfo>
        </arrival>
        <arrival publicID="quakeml:uw.anss.org/AssocArO/UW/6149028">
          <pickID>quakeml:uw.anss.org/Arrival/UW/6149028</pickID>
          <phase>P</phase>
          <azimuth>114.2</azimuth>
          <distance>1.006</distance>
          <timeResidual>0.12</timeResidual>
          <creationInfo>
            <agencyID>UW</agencyID>
            <creationTime>2012-02-28T13:50:13.000000Z</creationTime>
          </creationInfo>
        </arrival>
        <arrival publicID="quakeml:uw.anss.org/AssocArO/UW/6149038">
          <pickID>quakeml:uw.anss.org/Arrival/UW/6149038</pickID>
          <phase>P</phase>
          <azimuth>237.7</azimuth>
          <timeResidual>0.74</timeResidual>
          <creationInfo>
            <agencyID>UW</agencyID>
            <creationTime>2012-02-28T13:50:13.000000Z</creationTime>
          </creationInfo>
        </arrival>
        <arrival publicID="quakeml:uw.anss.org/AssocArO/UW/6149048">
          <pickID>quakeml:uw.anss.org/Arrival/UW/6149048</pickID>
          <phase>S</phase>
          <azimuth>179.6</azimuth>
          <distance>2.754</distance>
          <timeResidual>5.88</timeResidual>
          <creationInfo>
            <agencyID>UW</agencyID>
            <creationTime>2012-02-28T13:50:13.000000Z</creationTime>
          </creationInfo>
        </arrival>
        <arrival publicID="quakeml:uw.anss.org/AssocArO/UW/6149058">
          <pickID>quakeml:uw.anss.org/Arrival/UW/6149058</pickID>
          <phase>P</phase>
          <azimuth>133.4</azimuth>
          <distance>1.28</distance>
          <timeResidual>-0.06</timeResidual>
          <creationInfo>
            <agencyID>UW</agencyID>
            <creationTime>2012-02-28T13:50:13.000000Z</creationTime>
          </creationInfo>
        </arrival>
        <arrival publicID="quakeml:uw.anss.org/AssocArO/UW/6149073">
          <pickID>quakeml:uw.anss.org/Arrival/UW/6149073</pickID>
          <phase>P</phase>
          <azimuth>139.4</azimuth>
          <distance>2.261</distance>
          <timeResidual>1.31</timeResidual>
          <creationInfo>
            <agencyID>UW</agencyID>
            <creationTime>2012-02-28T13:50:13.000000Z</creationTime>
          </creationInfo>
        </arrival>
        <arrival publicID="quakeml:uw.anss.org/AssocArO/UW/6149083">
          <pickID>quakeml:uw.anss.org/Arrival/UW/6149083</pickID>
          <phase>P</phase>
          <azimuth>138.2</azimuth>
          <distance>2.35</distance>
          <timeResidual>1.88</timeResidual>
          <creationInfo>
            <agencyID>UW</agencyID>
            <creationTime>2012-02-28T13:50:13.000000Z</creationTime>
          </creationInfo>
        </arrival>
        <arrival publicID="quakeml:uw.anss.org/AssocArO/UW/6149093">
          <pickID>quakeml:uw.anss.org/Arrival/UW/6149093</pickID>
          <phase>P</phase>
          <azimuth>223.7</azimuth>
          <distance>1.606</distance>
          <timeResidual>-0.2</timeResidual>
          <creationInfo>
            <agencyID>UW</agencyID>
            <creationTime>2012-02-28T13:50:13.000000Z</creationTime>
          </creationInfo>
        </arrival>
        <arrival publicID="quakeml:uw.anss.org/AssocArO/UW/6149103">
          <pickID>quakeml:uw.anss.org/Arrival/UW/6149103</pickID>
          <phase>P</phase>
          <azimuth>182.2</azimuth>
          <timeResidual>0.01</timeResidual>
          <creationInfo>
            <agencyID>UW</agencyID>
            <creationTime>2012-02-28T13:50:13.000000Z</creationTime>
          </creationInfo>
        </arrival>
        <arrival publicID="quakeml:uw.anss.org/AssocArO/UW/6149123">
          <pickID>quakeml:uw.anss.org/Arrival/UW/6149123</pickID>
          <phase>S</phase>
          <azimuth>182.2</azimuth>
          <timeResidual>-1.63</timeResidual>
          <creationInfo>
            <agencyID>UW</agencyID>
            <creationTime>2012-02-28T13:50:13.000000Z</creationTime>
          </creationInfo>
        </arrival>
        <arrival publicID="quakeml:uw.anss.org/AssocArO/UW/6149133">
          <pickID>quakeml:uw.anss.org/Arrival/UW/6149133</pickID>
          <phase>P</phase>
          <azimuth>195.0</azimuth>
          <distance>2.125</distance>
          <timeResidual>-0.16</timeResidual>
          <creationInfo>
            <agencyID>UW</agencyID>
            <creationTime>2012-02-28T13:50:13.000000Z</creationTime>
          </creationInfo>
        </arrival>
        <arrival publicID="quakeml:uw.anss.org/AssocArO/UW/6149148">
          <pickID>quakeml:uw.anss.org/Arrival/UW/6149148</pickID>
          <phase>S</phase>
          <azimuth>195.0</azimuth>
          <distance>2.125</distance>
          <timeResidual>-0.91</timeResidual>
          <creationInfo>
            <agencyID>UW</agencyID>
            <creationTime>2012-02-28T13:50:13.000000Z</creationTime>
          </creationInfo>
        </arrival>
        <arrival publicID="quakeml:uw.anss.org/AssocArO/UW/6149153">
          <pickID>quakeml:uw.anss.org/Arrival/UW/6149153</pickID>
          <phase>P</phase>
          <azimuth>180.5</azimuth>
          <distance>1.619</distance>
          <timeResidual>0.63</timeResidual>
          <creationInfo>
            <agencyID>UW</agencyID>
            <creationTime>2012-02-28T13:50:13.000000Z</creationTime>
          </creationInfo>
        </arrival>
        <arrival publicID="quakeml:uw.anss.org/AssocArO/UW/6149168">
          <pickID>quakeml:uw.anss.org/Arrival/UW/6149168</pickID>
          <phase>S</phase>
          <azimuth>180.5</azimuth>
          <distance>1.619</distance>
          <timeResidual>-0.62</timeResidual>
          <creationInfo>
            <agencyID>UW</agencyID>
            <creationTime>2012-02-28T13:50:13.000000Z</creationTime>
          </creationInfo>
        </arrival>
        <arrival publicID="quakeml:uw.anss.org/AssocArO/UW/6149173">
          <pickID>quakeml:uw.anss.org/Arrival/UW/6149173</pickID>
          <phase>P</phase>
          <azimuth>180.5</azimuth>
          <timeResidual>0.78</timeResidual>
          <creationInfo>
            <agencyID>UW</agencyID>
            <creationTime>2012-02-28T13:50:13.000000Z</creationTime>
          </creationInfo>
        </arrival>
        <arrival publicID="quakeml:uw.anss.org/AssocArO/UW/6149178">
          <pickID>quakeml:uw.anss.org/Arrival/UW/6149178</pickID>
          <phase>S</phase>
          <azimuth>180.5</azimuth>
          <timeResidual>-0.49</timeResidual>
          <creationInfo>
            <agencyID>UW</agencyID>
            <creationTime>2012-02-28T13:50:13.000000Z</creationTime>
          </creationInfo>
        </arrival>
        <arrival publicID="quakeml:uw.anss.org/AssocArO/UW/6149188">
          <pickID>quakeml:uw.anss.org/Arrival/UW/6149188</pickID>
          <phase>P</phase>
          <azimuth>103.5</azimuth>
          <distance>2.427</distance>
          <timeResidual>-0.25</timeResidual>
          <creationInfo>
            <agencyID>UW</agencyID>
            <creationTime>2012-02-28T13:50:13.000000Z</creationTime>
          </creationInfo>
        </arrival>
        <arrival publicID="quakeml:uw.anss.org/AssocArO/UW/6149198">
          <pickID>quakeml:uw.anss.org/Arrival/UW/6149198</pickID>
          <phase>P</phase>
          <azimuth>187.6</azimuth>
          <distance>2.313</distance>
          <timeResidual>0.59</timeResidual>
          <creationInfo>
            <agencyID>UW</agencyID>
            <creationTime>2012-02-28T13:50:13.000000Z</creationTime>
          </creationInfo>
        </arrival>
        <arrival publicID="quakeml:uw.anss.org/AssocArO/UW/6149208">
          <pickID>quakeml:uw.anss.org/Arrival/UW/6149208</pickID>
          <phase>P</phase>
          <azimuth>135.9</azimuth>
          <distance>2.288</distance>
          <timeResidual>1.98</timeResidual>
          <creationInfo>
            <agencyID>UW</agencyID>
            <creationTime>2012-02-28T13:50:13.000000Z</creationTime>
          </creationInfo>
        </arrival>
        <arrival publicID="quakeml:uw.anss.org/AssocArO/UW/6149213">
          <pickID>quakeml:uw.anss.org/Arrival/UW/6149213</pickID>
          <phase>P</phase>
          <azimuth>157.0</azimuth>
          <distance>1.466</distance>
          <timeResidual>0.62</timeResidual>
          <creationInfo>
            <agencyID>UW</agencyID>
            <creationTime>2012-02-28T13:50:13.000000Z</creationTime>
          </creationInfo>
        </arrival>
        <arrival publicID="quakeml:uw.anss.org/AssocArO/UW/6149223">
          <pickID>quakeml:uw.anss.org/Arrival/UW/6149223</pickID>
          <phase>P</phase>
          <azimuth>127.9</azimuth>
          <distance>1.818</distance>
          <timeResidual>1.1</timeResidual>
          <creationInfo>
            <agencyID>UW</agencyID>
            <creationTime>2012-02-28T13:50:13.000000Z</creationTime>
          </creationInfo>
        </arrival>
        <arrival publicID="quakeml:uw.anss.org/AssocArO/UW/6149228">
          <pickID>quakeml:uw.anss.org/Arrival/UW/6149228</pickID>
          <phase>S</phase>
          <azimuth>127.9</azimuth>
          <distance>1.818</distance>
          <timeResidual>1.23</timeResidual>
          <creationInfo>
            <agencyID>UW</agencyID>
            <creationTime>2012-02-28T13:50:13.000000Z</creationTime>
          </creationInfo>
        </arrival>
        <arrival publicID="quakeml:uw.anss.org/AssocArO/UW/6149238">
          <pickID>quakeml:uw.anss.org/Arrival/UW/6149238</pickID>
          <phase>P</phase>
          <azimuth>256.6</azimuth>
          <distance>0.2806</distance>
          <timeResidual>-0.47</timeResidual>
          <creationInfo>
            <agencyID>UW</agencyID>
            <creationTime>2012-02-28T13:50:13.000000Z</creationTime>
          </creationInfo>
        </arrival>
        <arrival publicID="quakeml:uw.anss.org/AssocArO/UW/6149258">
          <pickID>quakeml:uw.anss.org/Arrival/UW/6149258</pickID>
          <phase>S</phase>
          <azimuth>265.5</azimuth>
          <timeResidual>0.4</timeResidual>
          <creationInfo>
            <agencyID>UW</agencyID>
            <creationTime>2012-02-28T13:50:13.000000Z</creationTime>
          </creationInfo>
        </arrival>
        <arrival publicID="quakeml:uw.anss.org/AssocArO/UW/6149268">
          <pickID>quakeml:uw.anss.org/Arrival/UW/6149268</pickID>
          <phase>P</phase>
          <azimuth>189.4</azimuth>
          <distance>2.054</distance>
          <timeResidual>0.26</timeResidual>
          <creationInfo>
            <agencyID>UW</agencyID>
            <creationTime>2012-02-28T13:50:13.000000Z</creationTime>
          </creationInfo>
        </arrival>
        <arrival publicID="quakeml:uw.anss.org/AssocArO/UW/6149273">
          <pickID>quakeml:uw.anss.org/Arrival/UW/6149273</pickID>
          <phase>S</phase>
          <azimuth>189.4</azimuth>
          <distance>2.054</distance>
          <timeResidual>-0.57</timeResidual>
          <creationInfo>
            <agencyID>UW</agencyID>
            <creationTime>2012-02-28T13:50:13.000000Z</creationTime>
          </creationInfo>
        </arrival>
        <arrival publicID="quakeml:uw.anss.org/AssocArO/UW/6149283">
          <pickID>quakeml:uw.anss.org/Arrival/UW/6149283</pickID>
          <phase>P</phase>
          <azimuth>157.5</azimuth>
          <distance>2.12</distance>
          <timeResidual>-0.27</timeResidual>
          <creationInfo>
            <agencyID>UW</agencyID>
            <creationTime>2012-02-28T13:50:13.000000Z</creationTime>
          </creationInfo>
        </arrival>
        <arrival publicID="quakeml:uw.anss.org/AssocArO/UW/6149298">
          <pickID>quakeml:uw.anss.org/Arrival/UW/6149298</pickID>
          <phase>P</phase>
          <azimuth>182.6</azimuth>
          <timeResidual>0.16</timeResidual>
          <creationInfo>
            <agencyID>UW</agencyID>
            <creationTime>2012-02-28T13:50:13.000000Z</creationTime>
          </creationInfo>
        </arrival>
        <arrival publicID="quakeml:uw.anss.org/AssocArO/UW/6149308">
          <pickID>quakeml:uw.anss.org/Arrival/UW/6149308</pickID>
          <phase>S</phase>
          <azimuth>182.6</azimuth>
          <timeResidual>-0.96</timeResidual>
          <creationInfo>
            <agencyID>UW</agencyID>
            <creationTime>2012-02-28T13:50:13.000000Z</creationTime>
          </creationInfo>
        </arrival>
        <arrival publicID="quakeml:uw.anss.org/AssocArO/UW/6149323">
          <pickID>quakeml:uw.anss.org/Arrival/UW/6149323</pickID>
          <phase>P</phase>
          <azimuth>219.3</azimuth>
          <distance>1.19</distance>
          <timeResidual>0.01</timeResidual>
          <creationInfo>
            <agencyID>UW</agencyID>
            <creationTime>2012-02-28T13:50:13.000000Z</creationTime>
          </creationInfo>
        </arrival>
        <arrival publicID="quakeml:uw.anss.org/AssocArO/UW/6149333">
          <pickID>quakeml:uw.anss.org/Arrival/UW/6149333</pickID>
          <phase>S</phase>
          <azimuth>219.3</azimuth>
          <distance>1.19</distance>
          <timeResidual>-0.41</timeResidual>
          <creationInfo>
            <agencyID>UW</agencyID>
            <creationTime>2012-02-28T13:50:13.000000Z</creationTime>
          </creationInfo>
        </arrival>
        <arrival publicID="quakeml:uw.anss.org/AssocArO/UW/6149343">
          <pickID>quakeml:uw.anss.org/Arrival/UW/6149343</pickID>
          <phase>P</phase>
          <azimuth>186.7</azimuth>
          <distance>1.556</distance>
          <timeResidual>0.15</timeResidual>
          <creationInfo>
            <agencyID>UW</agencyID>
            <creationTime>2012-02-28T13:50:13.000000Z</creationTime>
          </creationInfo>
        </arrival>
        <arrival publicID="quakeml:uw.anss.org/AssocArO/UW/6149358">
          <pickID>quakeml:uw.anss.org/Arrival/UW/6149358</pickID>
          <phase>P</phase>
          <azimuth>182.2</azimuth>
          <distance>1.741</distance>
          <timeResidual>0.02</timeResidual>
          <creationInfo>
            <agencyID>UW</agencyID>
            <creationTime>2012-02-28T13:50:13.000000Z</creationTime>
          </creationInfo>
        </arrival>
        <arrival publicID="quakeml:uw.anss.org/AssocArO/UW/6149368">
          <pickID>quakeml:uw.anss.org/Arrival/UW/6149368</pickID>
          <phase>P</phase>
          <azimuth>174.6</azimuth>
          <distance>1.567</distance>
          <timeResidual>-0.03</timeResidual>
          <creationInfo>
            <agencyID>UW</agencyID>
            <creationTime>2012-02-28T13:50:13.000000Z</creationTime>
          </creationInfo>
        </arrival>
        <arrival publicID="quakeml:uw.anss.org/AssocArO/UW/6149383">
          <pickID>quakeml:uw.anss.org/Arrival/UW/6149383</pickID>
          <phase>S</phase>
          <azimuth>174.6</azimuth>
          <distance>1.567</distance>
          <timeResidual>-0.76</timeResidual>
          <creationInfo>
            <agencyID>UW</agencyID>
            <creationTime>2012-02-28T13:50:13.000000Z</creationTime>
          </creationInfo>
        </arrival>
        <arrival publicID="quakeml:uw.anss.org/AssocArO/UW/6149398">
          <pickID>quakeml:uw.anss.org/Arrival/UW/6149398</pickID>
          <phase>P</phase>
          <azimuth>232.0</azimuth>
          <distance>1.86</distance>
          <timeResidual>0.58</timeResidual>
          <creationInfo>
            <agencyID>UW</agencyID>
            <creationTime>2012-02-28T13:50:13.000000Z</creationTime>
          </creationInfo>
        </arrival>
        <arrival publicID="quakeml:uw.anss.org/AssocArO/UW/6149413">
          <pickID>quakeml:uw.anss.org/Arrival/UW/6149413</pickID>
          <phase>P</phase>
          <azimuth>183.6</azimuth>
          <distance>1.032</distance>
          <timeResidual>0.01</timeResidual>
          <creationInfo>
            <agencyID>UW</agencyID>
            <creationTime>2012-02-28T13:50:13.000000Z</creationTime>
          </creationInfo>
        </arrival>
        <arrival publicID="quakeml:uw.anss.org/AssocArO/UW/6149428">
          <pickID>quakeml:uw.anss.org/Arrival/UW/6149428</pickID>
          <phase>P</phase>
          <azimuth>107.4</azimuth>
