<?xml version='1.0' encoding='utf-8'?>
<q:quakeml xmlns="http://quakeml.org/xmlns/bed/1.2" xmlns:q="http://quakeml.org/xmlns/quakeml/1.2" xmlns:ns0="http://anss.org/xmlns/catalog/0.1">
  <eventParameters publicID="smi:local/ca936c36-7251-4ed9-a8d6-b790f29003f7">
    <event publicID="quakeml:uw.anss.org/Event/UW/10424383" ns0:datasource="uw" ns0:dataid="uw10424383" ns0:eventsource="uw" ns0:eventid="10424383">
      <preferredOriginID>quakeml:uw.anss.org/Origin/UW/701808</preferredOriginID>
      <preferredMagnitudeID>quakeml:uw.anss.org/Netmag/UW/580713</preferredMagnitudeID>
      <type>earthquake</type>
      <creationInfo>
        <agencyID>UW</agencyID>
        <creationTime>2012-02-28T14:11:45.000000Z</creationTime>
        <version>3</version>
      </creationInfo>
      <origin publicID="quakeml:uw.anss.org/Origin/UW/701808" ns0:datasource="uw" ns0:dataid="uw10424383" ns0:eventsource="uw" ns0:eventid="10424383">
        <time>
          <value>1997-08-19T12:34:03.610000Z</value>
          <uncertainty>0.09</uncertainty>
        </time>
        <latitude>
          <value>48.5255</value>
          <uncertainty>0.48</uncertainty>
        </latitude>
        <longitude>
          <value>-122.0748333</value>
          <uncertainty>0.37</uncertainty>
        </longitude>
        <depth>
          <value>980.0</value>
          <uncertainty>780.0</uncertainty>
        </depth>
        <depthType>from location</depthType>
        <timeFixed>false</timeFixed>
        <epicenterFixed>false</epicenterFixed>
        <methodID>smi:uw.anss.org/origin/spong</methodID>
        <quality>
          <associatedPhaseCount>71</associatedPhaseCount>
          <usedPhaseCount>27</usedPhaseCount>
          <associatedStationCount>48</associatedStationCount>
          <usedStationCount>0</usedStationCount>
          <standardError>0.23</standardError>
          <azimuthalGap>97.0</azimuthalGap>
        </quality>
        <type>hypocenter</type>
        <evaluationMode>manual</evaluationMode>
        <evaluationStatus>final</evaluationStatus>
        <creationInfo>
          <agencyID>UW</agencyID>
          <creationTime>2012-02-28T14:11:45.000000Z</creationTime>
        </creationInfo>
        <originUncertainty>
          <preferredDescription>horizontal uncertainty</preferredDescription>
          <horizontalUncertainty>606.0</horizontalUncertainty>
        </originUncertainty>
        <arrival publicID="quakeml:uw.anss.org/AssocArO/UW/6304293">
          <pickID>quakeml:uw.anss.org/Arrival/UW/6304293</pickID>
          <phase>P</phase>
          <azimuth>217.1</azimuth>
          <distance>1.097</distance>
          <timeResidual>-0.17</timeResidual>
          <creationInfo>
            <agencyID>UW</agencyID>
            <creationTime>2012-02-28T14:11:45.000000Z</creationTime>
          </creationInfo>
        </arrival>
        <arrival publicID="quakeml:uw.anss.org/AssocArO/UW/6304298">
          <pickID>quakeml:uw.anss.org/Arrival/UW/6304298</pickID>
          <phase>S</phase>
          <azimuth>217.1</azimuth>
          <distance>1.097</distance>
          <timeResidual>-0.55</timeResidual>
          <creationInfo>
            <agencyID>UW</agencyID>
            <creationTime>2012-02-28T14:11:45.000000Z</creationTime>
          </creationInfo>
        </arrival>
        <arrival publicID="quakeml:uw.anss.org/AssocArO/UW/6304303">
          <pickID>quakeml:uw.anss.org/Arrival/UW/6304303</pickID>
          <phase>P</phase>
          <azimuth>154.4</azimuth>
          <distance>1.983</distance>
          <timeResidual>-0.28</timeResidual>
          <creationInfo>
            <agencyID>UW</agencyID>
            <creationTime>2012-02-28T14:11:45.000000Z</creationTime>
          </creationInfo>
        </arrival>
        <arrival publicID="quakeml:uw.anss.org/AssocArO/UW/6304308">
          <pickID>quakeml:uw.anss.org/Arrival/UW/6304308</pickID>
          <phase>P</phase>
          <azimuth>110.9</azimuth>
          <distance>1.244</distance>
          <timeResidual>0.37</timeResidual>
          <creationInfo>
            <agencyID>UW</agencyID>
            <creationTime>2012-02-28T14:11:45.000000Z</creationTime>
          </creationInfo>
        </arrival>
        <arrival publicID="quakeml:uw.anss.org/AssocArO/UW/6304313">
          <pickID>quakeml:uw.anss.org/Arrival/UW/6304313</pickID>
          <phase>P</phase>
          <azimuth>185.2</azimuth>
          <distance>1.491</distance>
          <timeResidual>-0.18</timeResidual>
          <creationInfo>
            <agencyID>UW</agencyID>
            <creationTime>2012-02-28T14:11:45.000000Z</creationTime>
          </creationInfo>
        </arrival>
        <arrival publicID="quakeml:uw.anss.org/AssocArO/UW/6304318">
          <pickID>quakeml:uw.anss.org/Arrival/UW/6304318</pickID>
          <phase>P</phase>
          <azimuth>127.7</azimuth>
          <distance>1.488</distance>
          <timeResidual>0.24</timeResidual>
          <creationInfo>
            <agencyID>UW</agencyID>
            <creationTime>2012-02-28T14:11:45.000000Z</creationTime>
          </creationInfo>
        </arrival>
        <arrival publicID="quakeml:uw.anss.org/AssocArO/UW/6304323">
          <pickID>quakeml:uw.anss.org/Arrival/UW/6304323</pickID>
          <phase>S</phase>
          <azimuth>127.7</azimuth>
          <distance>1.488</distance>
          <timeResidual>0.04</timeResidual>
          <creationInfo>
            <agencyID>UW</agencyID>
            <creationTime>2012-02-28T14:11:45.000000Z</creationTime>
          </creationInfo>
        </arrival>
        <arrival publicID="quakeml:uw.anss.org/AssocArO/UW/6304328">
          <pickID>quakeml:uw.anss.org/Arrival/UW/6304328</pickID>
          <phase>P</phase>
          <azimuth>174.2</azimuth>
          <timeResidual>0.85</timeResidual>
          <creationInfo>
            <agencyID>UW</agencyID>
            <creationTime>2012-02-28T14:11:45.000000Z</creationTime>
          </creationInfo>
        </arrival>
        <arrival publicID="quakeml:uw.anss.org/AssocArO/UW/6304333">
          <pickID>quakeml:uw.anss.org/Arrival/UW/6304333</pickID>
          <phase>S</phase>
          <azimuth>174.2</azimuth>
          <timeResidual>-0.3</timeResidual>
          <creationInfo>
            <agencyID>UW</agencyID>
            <creationTime>2012-02-28T14:11:45.000000Z</creationTime>
          </creationInfo>
        </arrival>
        <arrival publicID="quakeml:uw.anss.org/AssocArO/UW/6304338">
          <pickID>quakeml:uw.anss.org/Arrival/UW/6304338</pickID>
          <phase>P</phase>
          <azimuth>171.9</azimuth>
          <distance>1.672</distance>
          <timeResidual>0.19</timeResidual>
          <creationInfo>
            <agencyID>UW</agencyID>
            <creationTime>2012-02-28T14:11:45.000000Z</creationTime>
          </creationInfo>
        </arrival>
        <arrival publicID="quakeml:uw.anss.org/AssocArO/UW/6304343">
          <pickID>quakeml:uw.anss.org/Arrival/UW/6304343</pickID>
          <phase>S</phase>
          <azimuth>171.9</azimuth>
          <distance>1.672</distance>
          <timeResidual>-0.51</timeResidual>
          <creationInfo>
            <agencyID>UW</agencyID>
            <creationTime>2012-02-28T14:11:45.000000Z</creationTime>
          </creationInfo>
        </arrival>
        <arrival publicID="quakeml:uw.anss.org/AssocArO/UW/6304348">
          <pickID>quakeml:uw.anss.org/Arrival/UW/6304348</pickID>
          <phase>P</phase>
          <azimuth>172.1</azimuth>
          <timeResidual>0.14</timeResidual>
          <creationInfo>
            <agencyID>UW</agencyID>
            <creationTime>2012-02-28T14:11:45.000000Z</creationTime>
          </creationInfo>
        </arrival>
        <arrival publicID="quakeml:uw.anss.org/AssocArO/UW/6304353">
          <pickID>quakeml:uw.anss.org/Arrival/UW/6304353</pickID>
          <phase>S</phase>
          <azimuth>172.1</azimuth>
          <timeResidual>-1.25</timeResidual>
          <creationInfo>
            <agencyID>UW</agencyID>
            <creationTime>2012-02-28T14:11:45.000000Z</creationTime>
          </creationInfo>
        </arrival>
        <arrival publicID="quakeml:uw.anss.org/AssocArO/UW/6304358">
          <pickID>quakeml:uw.anss.org/Arrival/UW/6304358</pickID>
          <phase>P</phase>
          <azimuth>170.8</azimuth>
          <distance>1.994</distance>
          <timeResidual>0.07</timeResidual>
          <creationInfo>
            <agencyID>UW</agencyID>
            <creationTime>2012-02-28T14:11:45.000000Z</creationTime>
          </creationInfo>
        </arrival>
        <arrival publicID="quakeml:uw.anss.org/AssocArO/UW/6304363">
          <pickID>quakeml:uw.anss.org/Arrival/UW/6304363</pickID>
          <phase>S</phase>
          <azimuth>170.8</azimuth>
          <distance>1.994</distance>
          <timeResidual>-1.16</timeResidual>
          <creationInfo>
            <agencyID>UW</agencyID>
            <creationTime>2012-02-28T14:11:45.000000Z</creationTime>
          </creationInfo>
        </arrival>
        <arrival publicID="quakeml:uw.anss.org/AssocArO/UW/6304368">
          <pickID>quakeml:uw.anss.org/Arrival/UW/6304368</pickID>
          <phase>P</phase>
          <azimuth>132.2</azimuth>
          <distance>2.488</distance>
          <timeResidual>3.48</timeResidual>
          <creationInfo>
            <agencyID>UW</agencyID>
            <creationTime>2012-02-28T14:11:45.000000Z</creationTime>
          </creationInfo>
        </arrival>
        <arrival publicID="quakeml:uw.anss.org/AssocArO/UW/6304373">
          <pickID>quakeml:uw.anss.org/Arrival/UW/6304373</pickID>
          <phase>P</phase>
          <azimuth>149.3</azimuth>
          <distance>1.608</distance>
          <timeResidual>0.88</timeResidual>
          <creationInfo>
            <agencyID>UW</agencyID>
            <creationTime>2012-02-28T14:11:45.000000Z</creationTime>
          </creationInfo>
        </arrival>
        <arrival publicID="quakeml:uw.anss.org/AssocArO/UW/6304378">
          <pickID>quakeml:uw.anss.org/Arrival/UW/6304378</pickID>
          <phase>P</phase>
          <azimuth>196.5</azimuth>
          <distance>0.1064</distance>
          <timeResidual>-0.05</timeResidual>
          <creationInfo>
            <agencyID>UW</agencyID>
            <creationTime>2012-02-28T14:11:45.000000Z</creationTime>
          </creationInfo>
        </arrival>
        <arrival publicID="quakeml:uw.anss.org/AssocArO/UW/6304383">
          <pickID>quakeml:uw.anss.org/Arrival/UW/6304383</pickID>
          <phase>S</phase>
          <azimuth>196.5</azimuth>
          <distance>0.1064</distance>
          <timeResidual>0.05</timeResidual>
          <creationInfo>
            <agencyID>UW</agencyID>
            <creationTime>2012-02-28T14:11:45.000000Z</creationTime>
          </creationInfo>
        </arrival>
        <arrival publicID="quakeml:uw.anss.org/AssocArO/UW/6304388">
          <pickID>quakeml:uw.anss.org/Arrival/UW/6304388</pickID>
          <phase>P</phase>
          <azimuth>182.3</azimuth>
          <distance>2.065</distance>
          <timeResidual>-0.2</timeResidual>
          <creationInfo>
            <agencyID>UW</agencyID>
            <creationTime>2012-02-28T14:11:45.000000Z</creationTime>
          </creationInfo>
        </arrival>
        <arrival publicID="quakeml:uw.anss.org/AssocArO/UW/6304393">
          <pickID>quakeml:uw.anss.org/Arrival/UW/6304393</pickID>
          <phase>P</phase>
          <azimuth>171.8</azimuth>
          <timeResidual>-0.09</timeResidual>
          <creationInfo>
            <agencyID>UW</agencyID>
            <creationTime>2012-02-28T14:11:45.000000Z</creationTime>
          </creationInfo>
        </arrival>
        <arrival publicID="quakeml:uw.anss.org/AssocArO/UW/6304398">
          <pickID>quakeml:uw.anss.org/Arrival/UW/6304398</pickID>
          <phase>S</phase>
          <azimuth>171.8</azimuth>
          <timeResidual>-0.72</timeResidual>
          <creationInfo>
            <agencyID>UW</agencyID>
            <creationTime>2012-02-28T14:11:45.000000Z</creationTime>
          </creationInfo>
        </arrival>
        <arrival publicID="quakeml:uw.anss.org/AssocArO/UW/6304403">
          <pickID>quakeml:uw.anss.org/Arrival/UW/6304403</pickID>
          <phase>P</phase>
          <azimuth>177.5</azimuth>
          <distance>1.584</distance>
          <timeResidual>-0.08</timeResidual>
          <creationInfo>
            <agencyID>UW</agencyID>
            <creationTime>2012-02-28T14:11:45.000000Z</creationTime>
          </creationInfo>
        </arrival>
        <arrival publicID="quakeml:uw.anss.org/AssocArO/UW/6304408">
          <pickID>quakeml:uw.anss.org/Arrival/UW/6304408</pickID>
          <phase>P</phase>
          <azimuth>174.2</azimuth>
          <distance>1.785</distance>
          <timeResidual>-0.17</timeResidual>
          <creationInfo>
            <agencyID>UW</agencyID>
            <creationTime>2012-02-28T14:11:45.000000Z</creationTime>
          </creationInfo>
        </arrival>
        <arrival publicID="quakeml:uw.anss.org/AssocArO/UW/6304413">
          <pickID>quakeml:uw.anss.org/Arrival/UW/6304413</pickID>
          <phase>S</phase>
          <azimuth>174.2</azimuth>
          <distance>1.785</distance>
          <timeResidual>-1.39</timeResidual>
          <creationInfo>
            <agencyID>UW</agencyID>
            <creationTime>2012-02-28T14:11:45.000000Z</creationTime>
          </creationInfo>
        </arrival>
        <arrival publicID="quakeml:uw.anss.org/AssocArO/UW/6304418">
          <pickID>quakeml:uw.anss.org/Arrival/UW/6304418</pickID>
          <phase>P</phase>
          <distance>0.9229</distance>
          <timeResidual>0.06</timeResidual>
          <creationInfo>
            <agencyID>UW</agencyID>
            <creationTime>2012-02-28T14:11:45.000000Z</creationTime>
          </creationInfo>
        </arrival>
        <arrival publicID="quakeml:uw.anss.org/AssocArO/UW/6304423">
          <pickID>quakeml:uw.anss.org/Arrival/UW/6304423</pickID>
          <phase>S</phase>
          <distance>0.9229</distance>
          <timeResidual>-0.03</timeResidual>
          <creationInfo>
            <agencyID>UW</agencyID>
            <creationTime>2012-02-28T14:11:45.000000Z</creationTime>
          </creationInfo>
        </arrival>
        <arrival publicID="quakeml:uw.anss.org/AssocArO/UW/6304428">
          <pickID>quakeml:uw.anss.org/Arrival/UW/6304428</pickID>
          <phase>P</phase>
          <azimuth>101.6</azimuth>
          <distance>0.3805</distance>
          <timeResidual>-0.02</timeResidual>
          <creationInfo>
            <agencyID>UW</agencyID>
            <creationTime>2012-02-28T14:11:45.000000Z</creationTime>
          </creationInfo>
        </arrival>
        <arrival publicID="quakeml:uw.anss.org/AssocArO/UW/6304433">
          <pickID>quakeml:uw.anss.org/Arrival/UW/6304433</pickID>
          <phase>S</phase>
          <azimuth>101.6</azimuth>
          <distance>0.3805</distance>
          <timeResidual>-0.32</timeResidual>
          <creationInfo>
            <agencyID>UW</agencyID>
            <creationTime>2012-02-28T14:11:45.000000Z</creationTime>
          </creationInfo>
        </arrival>
        <arrival publicID="quakeml:uw.anss.org/AssocArO/UW/6304438">
          <pickID>quakeml:uw.anss.org/Arrival/UW/6304438</pickID>
          <phase>P</phase>
          <azimuth>168.6</azimuth>
          <distance>1.864</distance>
          <timeResidual>-0.28</timeResidual>
          <creationInfo>
            <agencyID>UW</agencyID>
            <creationTime>2012-02-28T14:11:45.000000Z</creationTime>
          </creationInfo>
        </arrival>
        <arrival publicID="quakeml:uw.anss.org/AssocArO/UW/6304443">
          <pickID>quakeml:uw.anss.org/Arrival/UW/6304443</pickID>
          <phase>S</phase>
          <azimuth>168.6</azimuth>
          <distance>1.864</distance>
          <timeResidual>-1.33</timeResidual>
          <creationInfo>
            <agencyID>UW</agencyID>
            <creationTime>2012-02-28T14:11:45.000000Z</creationTime>
          </creationInfo>
        </arrival>
        <arrival publicID="quakeml:uw.anss.org/AssocArO/UW/6304448">
          <pickID>quakeml:uw.anss.org/Arrival/UW/6304448</pickID>
          <phase>P</phase>
          <azimuth>162.7</azimuth>
          <distance>0.8707</distance>
          <timeResidual>-0.1</timeResidual>
          <creationInfo>
            <agencyID>UW</agencyID>
            <creationTime>2012-02-28T14:11:45.000000Z</creationTime>
          </creationInfo>
        </arrival>
        <arrival publicID="quakeml:uw.anss.org/AssocArO/UW/6304453">
          <pickID>quakeml:uw.anss.org/Arrival/UW/6304453</pickID>
          <phase>S</phase>
          <azimuth>162.7</azimuth>
          <distance>0.8707</distance>
          <timeResidual>-0.77</timeResidual>
          <creationInfo>
            <agencyID>UW</agencyID>
            <creationTime>2012-02-28T14:11:45.000000Z</creationTime>
          </creationInfo>
        </arrival>
        <arrival publicID="quakeml:uw.anss.org/AssocArO/UW/6304458">
          <pickID>quakeml:uw.anss.org/Arrival/UW/6304458</pickID>
          <phase>P</phase>
          <azimuth>161.4</azimuth>
          <distance>1.579</distance>
          <timeResidual>0.49</timeResidual>
          <creationInfo>
            <agencyID>UW</agencyID>
            <creationTime>2012-02-28T14:11:45.000000Z</creationTime>
          </creationInfo>
        </arrival>
        <arrival publicID="quakeml:uw.anss.org/AssocArO/UW/6304463">
          <pickID>quakeml:uw.anss.org/Arrival/UW/6304463</pickID>
          <phase>P</phase>
          <azimuth>151.9</azimuth>
          <distance>2.257</distance>
          <timeResidual>1.63</timeResidual>
          <creationInfo>
            <agencyID>UW</agencyID>
            <creationTime>2012-02-28T14:11:45.000000Z</creationTime>
          </creationInfo>
        </arrival>
        <arrival publicID="quakeml:uw.anss.org/AssocArO/UW/6304468">
          <pickID>quakeml:uw.anss.org/Arrival/UW/6304468</pickID>
          <phase>P</phase>
          <azimuth>206.7</azimuth>
          <distance>0.7873</distance>
          <timeResidual>0.19</timeResidual>
          <creationInfo>
            <agencyID>UW</agencyID>
            <creationTime>2012-02-28T14:11:45.000000Z</creationTime>
          </creationInfo>
        </arrival>
        <arrival publicID="quakeml:uw.anss.org/AssocArO/UW/6304473">
          <pickID>quakeml:uw.anss.org/Arrival/UW/6304473</pickID>
          <phase>S</phase>
          <azimuth>206.7</azimuth>
          <distance>0.7873</distance>
          <timeResidual>0.11</timeResidual>
          <creationInfo>
            <agencyID>UW</agencyID>
            <creationTime>2012-02-28T14:11:45.000000Z</creationTime>
          </creationInfo>
        </arrival>
        <arrival publicID="quakeml:uw.anss.org/AssocArO/UW/6304483">
          <pickID>quakeml:uw.anss.org/Arrival/UW/6304483</pickID>
          <phase>P</phase>
          <azimuth>181.1</azimuth>
          <distance>2.283</distance>
          <timeResidual>-0.2</timeResidual>
          <creationInfo>
            <agencyID>UW</agencyID>
            <creationTime>2012-02-28T14:11:45.000000Z</creationTime>
          </creationInfo>
        </arrival>
        <arrival publicID="quakeml:uw.anss.org/AssocArO/UW/6304493">
          <pickID>quakeml:uw.anss.org/Arrival/UW/6304493</pickID>
          <phase>P</phase>
          <azimuth>23.9</azimuth>
          <distance>0.2831</distance>
          <timeResidual>-0.03</timeResidual>
          <creationInfo>
            <agencyID>UW</agencyID>
            <creationTime>2012-02-28T14:11:45.000000Z</creationTime>
          </creationInfo>
        </arrival>
        <arrival publicID="quakeml:uw.anss.org/AssocArO/UW/6304498">
          <pickID>quakeml:uw.anss.org/Arrival/UW/6304498</pickID>
          <phase>S</phase>
