<?xml version='1.0' encoding='utf-8'?>
<q:quakeml xmlns="http://quakeml.org/xmlns/bed/1.2" xmlns:q="http://quakeml.org/xmlns/quakeml/1.2" xmlns:ns0="http://anss.org/xmlns/catalog/0.1">
  <eventParameters publicID="smi:local/65d5889e-83ac-4c5d-9f94-ae66fe71b669">
    <event publicID="quakeml:uw.anss.org/Event/UW/10419073" ns0:datasource="uw" ns0:dataid="uw10419073" ns0:eventsource="uw" ns0:eventid="10419073">
      <preferredOriginID>quakeml:uw.anss.org/Origin/UW/696498</preferredOriginID>
      <preferredMagnitudeID>quakeml:uw.anss.org/Netmag/UW/576948</preferredMagnitudeID>
      <type>earthquake</type>
      <creationInfo>
        <agencyID>UW</agencyID>
        <creationTime>2012-02-28T14:00:56.000000Z</creationTime>
        <version>3</version>
      </creationInfo>
      <origin publicID="quakeml:uw.anss.org/Origin/UW/696498" ns0:datasource="uw" ns0:dataid="uw10419073" ns0:eventsource="uw" ns0:eventid="10419073">
        <time>
          <value>1997-02-28T03:55:54.090000Z</value>
          <uncertainty>0.37</uncertainty>
        </time>
        <latitude>
          <value>49.0406667</value>
          <uncertainty>0.98</uncertainty>
        </latitude>
        <longitude>
          <value>-121.2935</value>
          <uncertainty>4.45</uncertainty>
        </longitude>
        <depth>
          <value>-269.0</value>
          <uncertainty>5230.0</uncertainty>
        </depth>
        <depthType>operator assigned</depthType>
        <timeFixed>false</timeFixed>
        <epicenterFixed>true</epicenterFixed>
        <methodID>smi:uw.anss.org/origin/spong</methodID>
        <quality>
          <associatedPhaseCount>28</associatedPhaseCount>
          <usedPhaseCount>19</usedPhaseCount>
          <associatedStationCount>17</associatedStationCount>
          <usedStationCount>0</usedStationCount>
          <standardError>0.46</standardError>
          <azimuthalGap>258.0</azimuthalGap>
        </quality>
        <type>hypocenter</type>
        <evaluationMode>manual</evaluationMode>
        <evaluationStatus>final</evaluationStatus>
        <creationInfo>
          <agencyID>UW</agencyID>
          <creationTime>2012-02-28T14:00:56.000000Z</creationTime>
        </creationInfo>
        <originUncertainty>
          <preferredDescription>horizontal uncertainty</preferredDescription>
          <horizontalUncertainty>4557.0</horizontalUncertainty>
        </originUncertainty>
        <arrival publicID="quakeml:uw.anss.org/AssocArO/UW/6227583">
          <pickID>quakeml:uw.anss.org/Arrival/UW/6227583</pickID>
          <phase>S</phase>
          <azimuth>188.8</azimuth>
          <distance>2.318</distance>
          <timeResidual>0.23</timeResidual>
          <creationInfo>
            <agencyID>UW</agencyID>
            <creationTime>2012-02-28T14:00:56.000000Z</creationTime>
          </creationInfo>
        </arrival>
        <arrival publicID="quakeml:uw.anss.org/AssocArO/UW/6227588">
          <pickID>quakeml:uw.anss.org/Arrival/UW/6227588</pickID>
          <phase>P</phase>
          <azimuth>146.6</azimuth>
          <distance>1.159</distance>
          <timeResidual>0.49</timeResidual>
          <creationInfo>
            <agencyID>UW</agencyID>
            <creationTime>2012-02-28T14:00:56.000000Z</creationTime>
          </creationInfo>
        </arrival>
        <arrival publicID="quakeml:uw.anss.org/AssocArO/UW/6227593">
          <pickID>quakeml:uw.anss.org/Arrival/UW/6227593</pickID>
          <phase>S</phase>
          <azimuth>146.6</azimuth>
          <distance>1.159</distance>
          <timeResidual>-1.21</timeResidual>
          <creationInfo>
            <agencyID>UW</agencyID>
            <creationTime>2012-02-28T14:00:56.000000Z</creationTime>
          </creationInfo>
        </arrival>
        <arrival publicID="quakeml:uw.anss.org/AssocArO/UW/6227598">
          <pickID>quakeml:uw.anss.org/Arrival/UW/6227598</pickID>
          <phase>P</phase>
          <azimuth>206.6</azimuth>
          <timeResidual>-0.07</timeResidual>
          <creationInfo>
            <agencyID>UW</agencyID>
            <creationTime>2012-02-28T14:00:56.000000Z</creationTime>
          </creationInfo>
        </arrival>
        <arrival publicID="quakeml:uw.anss.org/AssocArO/UW/6227603">
          <pickID>quakeml:uw.anss.org/Arrival/UW/6227603</pickID>
          <phase>S</phase>
          <azimuth>206.6</azimuth>
          <timeResidual>0.56</timeResidual>
          <creationInfo>
            <agencyID>UW</agencyID>
            <creationTime>2012-02-28T14:00:56.000000Z</creationTime>
          </creationInfo>
        </arrival>
        <arrival publicID="quakeml:uw.anss.org/AssocArO/UW/6227608">
          <pickID>quakeml:uw.anss.org/Arrival/UW/6227608</pickID>
          <phase>P</phase>
          <azimuth>155.7</azimuth>
          <distance>1.574</distance>
          <timeResidual>0.35</timeResidual>
          <creationInfo>
            <agencyID>UW</agencyID>
            <creationTime>2012-02-28T14:00:56.000000Z</creationTime>
          </creationInfo>
        </arrival>
        <arrival publicID="quakeml:uw.anss.org/AssocArO/UW/6227613">
          <pickID>quakeml:uw.anss.org/Arrival/UW/6227613</pickID>
          <phase>S</phase>
          <azimuth>155.7</azimuth>
          <distance>1.574</distance>
          <timeResidual>-0.55</timeResidual>
          <creationInfo>
            <agencyID>UW</agencyID>
            <creationTime>2012-02-28T14:00:56.000000Z</creationTime>
          </creationInfo>
        </arrival>
        <arrival publicID="quakeml:uw.anss.org/AssocArO/UW/6227618">
          <pickID>quakeml:uw.anss.org/Arrival/UW/6227618</pickID>
          <phase>P</phase>
          <azimuth>193.9</azimuth>
          <distance>0.6108</distance>
          <timeResidual>-0.55</timeResidual>
          <creationInfo>
            <agencyID>UW</agencyID>
            <creationTime>2012-02-28T14:00:56.000000Z</creationTime>
          </creationInfo>
        </arrival>
        <arrival publicID="quakeml:uw.anss.org/AssocArO/UW/6227623">
          <pickID>quakeml:uw.anss.org/Arrival/UW/6227623</pickID>
          <phase>S</phase>
          <azimuth>193.9</azimuth>
          <distance>0.6108</distance>
          <timeResidual>-0.41</timeResidual>
          <creationInfo>
            <agencyID>UW</agencyID>
            <creationTime>2012-02-28T14:00:56.000000Z</creationTime>
          </creationInfo>
        </arrival>
        <arrival publicID="quakeml:uw.anss.org/AssocArO/UW/6227628">
          <pickID>quakeml:uw.anss.org/Arrival/UW/6227628</pickID>
          <phase>S</phase>
          <azimuth>132.9</azimuth>
          <distance>2.392</distance>
          <timeResidual>1.17</timeResidual>
          <creationInfo>
            <agencyID>UW</agencyID>
            <creationTime>2012-02-28T14:00:56.000000Z</creationTime>
          </creationInfo>
        </arrival>
        <arrival publicID="quakeml:uw.anss.org/AssocArO/UW/6227633">
          <pickID>quakeml:uw.anss.org/Arrival/UW/6227633</pickID>
          <phase>S</phase>
          <azimuth>148.8</azimuth>
          <distance>2.437</distance>
          <timeResidual>3.27</timeResidual>
          <creationInfo>
            <agencyID>UW</agencyID>
            <creationTime>2012-02-28T14:00:56.000000Z</creationTime>
          </creationInfo>
        </arrival>
        <arrival publicID="quakeml:uw.anss.org/AssocArO/UW/6227638">
          <pickID>quakeml:uw.anss.org/Arrival/UW/6227638</pickID>
          <phase>P</phase>
          <azimuth>148.8</azimuth>
          <distance>2.437</distance>
          <timeResidual>4.0</timeResidual>
          <creationInfo>
            <agencyID>UW</agencyID>
            <creationTime>2012-02-28T14:00:56.000000Z</creationTime>
          </creationInfo>
        </arrival>
        <arrival publicID="quakeml:uw.anss.org/AssocArO/UW/6227643">
          <pickID>quakeml:uw.anss.org/Arrival/UW/6227643</pickID>
          <phase>P</phase>
          <azimuth>135.8</azimuth>
          <distance>1.462</distance>
          <timeResidual>0.71</timeResidual>
          <creationInfo>
            <agencyID>UW</agencyID>
            <creationTime>2012-02-28T14:00:56.000000Z</creationTime>
          </creationInfo>
        </arrival>
        <arrival publicID="quakeml:uw.anss.org/AssocArO/UW/6227648">
          <pickID>quakeml:uw.anss.org/Arrival/UW/6227648</pickID>
          <phase>P</phase>
          <azimuth>194.5</azimuth>
          <distance>1.278</distance>
          <timeResidual>0.3</timeResidual>
          <creationInfo>
            <agencyID>UW</agencyID>
            <creationTime>2012-02-28T14:00:56.000000Z</creationTime>
          </creationInfo>
        </arrival>
        <arrival publicID="quakeml:uw.anss.org/AssocArO/UW/6227653">
          <pickID>quakeml:uw.anss.org/Arrival/UW/6227653</pickID>
          <phase>S</phase>
          <azimuth>194.5</azimuth>
          <distance>1.278</distance>
          <timeResidual>-0.05</timeResidual>
          <creationInfo>
            <agencyID>UW</agencyID>
            <creationTime>2012-02-28T14:00:56.000000Z</creationTime>
          </creationInfo>
        </arrival>
        <arrival publicID="quakeml:uw.anss.org/AssocArO/UW/6227658">
          <pickID>quakeml:uw.anss.org/Arrival/UW/6227658</pickID>
          <phase>P</phase>
          <azimuth>145.6</azimuth>
          <distance>1.491</distance>
          <timeResidual>0.29</timeResidual>
          <creationInfo>
            <agencyID>UW</agencyID>
            <creationTime>2012-02-28T14:00:56.000000Z</creationTime>
          </creationInfo>
        </arrival>
        <arrival publicID="quakeml:uw.anss.org/AssocArO/UW/6227663">
          <pickID>quakeml:uw.anss.org/Arrival/UW/6227663</pickID>
          <phase>S</phase>
          <azimuth>145.6</azimuth>
          <distance>1.491</distance>
          <timeResidual>-0.25</timeResidual>
          <creationInfo>
            <agencyID>UW</agencyID>
            <creationTime>2012-02-28T14:00:56.000000Z</creationTime>
          </creationInfo>
        </arrival>
        <arrival publicID="quakeml:uw.anss.org/AssocArO/UW/6227668">
          <pickID>quakeml:uw.anss.org/Arrival/UW/6227668</pickID>
          <phase>S</phase>
          <azimuth>166.9</azimuth>
          <distance>2.188</distance>
          <timeResidual>2.21</timeResidual>
          <creationInfo>
            <agencyID>UW</agencyID>
            <creationTime>2012-02-28T14:00:56.000000Z</creationTime>
          </creationInfo>
        </arrival>
        <arrival publicID="quakeml:uw.anss.org/AssocArO/UW/6227673">
          <pickID>quakeml:uw.anss.org/Arrival/UW/6227673</pickID>
          <phase>P</phase>
          <azimuth>145.5</azimuth>
          <distance>2.032</distance>
          <timeResidual>1.53</timeResidual>
          <creationInfo>
            <agencyID>UW</agencyID>
            <creationTime>2012-02-28T14:00:56.000000Z</creationTime>
          </creationInfo>
        </arrival>
        <arrival publicID="quakeml:uw.anss.org/AssocArO/UW/6227678">
          <pickID>quakeml:uw.anss.org/Arrival/UW/6227678</pickID>
          <phase>S</phase>
          <azimuth>145.5</azimuth>
          <distance>2.032</distance>
          <timeResidual>0.61</timeResidual>
          <creationInfo>
            <agencyID>UW</agencyID>
            <creationTime>2012-02-28T14:00:56.000000Z</creationTime>
          </creationInfo>
        </arrival>
        <arrival publicID="quakeml:uw.anss.org/AssocArO/UW/6227683">
          <pickID>quakeml:uw.anss.org/Arrival/UW/6227683</pickID>
          <phase>P</phase>
          <azimuth>221.8</azimuth>
          <distance>0.8253</distance>
          <timeResidual>0.12</timeResidual>
          <creationInfo>
            <agencyID>UW</agencyID>
            <creationTime>2012-02-28T14:00:56.000000Z</creationTime>
          </creationInfo>
        </arrival>
        <arrival publicID="quakeml:uw.anss.org/AssocArO/UW/6227688">
          <pickID>quakeml:uw.anss.org/Arrival/UW/6227688</pickID>
          <phase>S</phase>
          <azimuth>221.8</azimuth>
          <distance>0.8253</distance>
          <timeResidual>0.53</timeResidual>
          <creationInfo>
            <agencyID>UW</agencyID>
            <creationTime>2012-02-28T14:00:56.000000Z</creationTime>
          </creationInfo>
        </arrival>
        <arrival publicID="quakeml:uw.anss.org/AssocArO/UW/6227693">
          <pickID>quakeml:uw.anss.org/Arrival/UW/6227693</pickID>
          <phase>P</phase>
          <azimuth>146.0</azimuth>
          <distance>1.613</distance>
          <timeResidual>-0.38</timeResidual>
          <creationInfo>
            <agencyID>UW</agencyID>
            <creationTime>2012-02-28T14:00:56.000000Z</creationTime>
          </creationInfo>
        </arrival>
        <arrival publicID="quakeml:uw.anss.org/AssocArO/UW/6227698">
          <pickID>quakeml:uw.anss.org/Arrival/UW/6227698</pickID>
          <phase>P</phase>
          <azimuth>237.5</azimuth>
          <distance>0.4761</distance>
          <timeResidual>-1.01</timeResidual>
          <creationInfo>
            <agencyID>UW</agencyID>
            <creationTime>2012-02-28T14:00:56.000000Z</creationTime>
          </creationInfo>
        </arrival>
        <arrival publicID="quakeml:uw.anss.org/AssocArO/UW/6227703">
          <pickID>quakeml:uw.anss.org/Arrival/UW/6227703</pickID>
          <phase>S</phase>
          <azimuth>237.5</azimuth>
          <distance>0.4761</distance>
          <timeResidual>-1.25</timeResidual>
          <creationInfo>
            <agencyID>UW</agencyID>
            <creationTime>2012-02-28T14:00:56.000000Z</creationTime>
          </creationInfo>
        </arrival>
        <arrival publicID="quakeml:uw.anss.org/AssocArO/UW/6227708">
          <pickID>quakeml:uw.anss.org/Arrival/UW/6227708</pickID>
          <phase>P</phase>
          <azimuth>136.1</azimuth>
          <distance>1.84</distance>
          <timeResidual>1.1</timeResidual>
          <creationInfo>
            <agencyID>UW</agencyID>
            <creationTime>2012-02-28T14:00:56.000000Z</creationTime>
          </creationInfo>
        </arrival>
        <arrival publicID="quakeml:uw.anss.org/AssocArO/UW/6227713">
          <pickID>quakeml:uw.anss.org/Arrival/UW/6227713</pickID>
          <phase>S</phase>
          <azimuth>136.1</azimuth>
          <distance>1.84</distance>
          <timeResidual>0.12</timeResidual>
          <creationInfo>
            <agencyID>UW</agencyID>
            <creationTime>2012-02-28T14:00:57.000000Z</creationTime>
          </creationInfo>
        </arrival>
        <arrival publicID="quakeml:uw.anss.org/AssocArO/UW/6227718">
          <pickID>quakeml:uw.anss.org/Arrival/UW/6227718</pickID>
          <phase>S</phase>
          <azimuth>192.4</azimuth>
          <distance>1.619</distance>
          <timeResidual>0.65</timeResidual>
          <creationInfo>
            <agencyID>UW</agencyID>
            <creationTime>2012-02-28T14:00:57.000000Z</creationTime>
          </creationInfo>
        </arrival>
      </origin>
      <magnitude publicID="quakeml:uw.anss.org/Netmag/UW/576948">
        <mag>
          <value>1.6</value>
          <uncertainty>0.07</uncertainty>
        </mag>
        <type>Md</type>
        <originID>quakeml:uw.anss.org/Origin/UW/696498</originID>
        <methodID>smi:uw.anss.org/magnitude/Crosson</methodID>
        <stationCount>7</stationCount>
        <evaluationMode>manual</evaluationMode>
        <evaluationStatus>final</evaluationStatus>
        <stationMagnitudeContribution>
          <stationMagnitudeID>quakeml:uw.anss.org/AssocCoM/UW/1519643</stationMagnitudeID>
          <weight>1.0</weight>
          <residual>0.18</residual>
        </stationMagnitudeContribution>
        <stationMagnitudeContribution>
          <stationMagnitudeID>quakeml:uw.anss.org/AssocCoM/UW/1519653</stationMagnitudeID>
          <weight>1.0</weight>
          <residual>0.06</residual>
        </stationMagnitudeContribution>
        <stationMagnitudeContribution>
          <stationMagnitudeID>quakeml:uw.anss.org/AssocCoM/UW/1519658</stationMagnitudeID>
          <weight>1.0</weight>
          <residual>0.18</residual>
        </stationMagnitudeContribution>
        <stationMagnitudeContribution>
          <stationMagnitudeID>quakeml:uw.anss.org/AssocCoM/UW/1519663</stationMagnitudeID>
          <weight>1.0</weight>
          <residual>0.26</residual>
        </stationMagnitudeContribution>
        <stationMagnitudeContribution>
          <stationMagnitudeID>quakeml:uw.anss.org/AssocCoM/UW/1519673</stationMagnitudeID>
          <weight>1.0</weight>
          <residual>-0.45</residual>
        </stationMagnitudeContribution>
        <stationMagnitudeContribution>
          <stationMagnitudeID>quakeml:uw.anss.org/AssocCoM/UW/1519648</stationMagnitudeID>
          <weight>1.0</weight>
          <residual>-0.02</residual>
        </stationMagnitudeContribution>
        <stationMagnitudeContribution>
          <stationMagnitudeID>quakeml:uw.anss.org/AssocCoM/UW/1519668</stationMagnitudeID>
          <weight>1.0</weight>
          <residual>-0.02</residual>
        </stationMagnitudeContribution>
        <creationInfo>
          <agencyID>UW</agencyID>
          <creationTime>2012-02-28T14:00:56.000000Z</creationTime>
        </creationInfo>
      </magnitude>
      <stationMagnitude publicID="quakeml:uw.anss.org/AssocCoM/UW/1519643">
        <originID>quakeml:uw.anss.org/Origin/UW/696498</originID>
        <mag>
          <value>1.78</value>
        </mag>
        <type>MD</type>
        <amplitudeID>quakeml:uw.anss.org/Coda/UW/1519643</amplitudeID>
        <waveformID networkCode="UW" stationCode="NEL" locationCode="" channelCode="EHZ"></waveformID>
      </stationMagnitude>
      <stationMagnitude publicID="quakeml:uw.anss.org/AssocCoM/UW/1519648">
        <originID>quakeml:uw.anss.org/Origin/UW/696498</originID>
        <mag>
          <value>1.58</value>
        </mag>
        <type>MD</type>
        <amplitudeID>quakeml:uw.anss.org/Coda/UW/1519648</amplitudeID>
        <waveformID networkCode="UW" stationCode="JCW" locationCode="" channelCode="EHZ"></waveformID>
      </stationMagnitude>
      <stationMagnitude publicID="quakeml:uw.anss.org/AssocCoM/UW/1519653">
        <originID>quakeml:uw.anss.org/Origin/UW/696498</originID>
        <mag>
          <value>1.66</value>
        </mag>
        <type>MD</type>
        <amplitudeID>quakeml:uw.anss.org/Coda/UW/1519653</amplitudeID>
        <waveformID networkCode="UW" stationCode="RPW" locationCode="" channelCode="EHZ"></waveformID>
      </stationMagnitude>
      <stationMagnitude publicID="quakeml:uw.anss.org/AssocCoM/UW/1519658">
        <originID>quakeml:uw.anss.org/Origin/UW/696498</originID>
        <mag>
          <value>1.78</value>
        </mag>
        <type>MD</type>
        <amplitudeID>quakeml:uw.anss.org/Coda/UW/1519658</amplitudeID>
        <waveformID networkCode="UW" stationCode="HTW" locationCode="" channelCode="EHZ"></waveformID>
      </stationMagnitude>
      <stationMagnitude publicID="quakeml:uw.anss.org/AssocCoM/UW/1519663">
        <originID>quakeml:uw.anss.org/Origin/UW/696498</originID>
        <mag>
          <value>1.86</value>
        </mag>
        <type>MD</type>
        <amplitudeID>quakeml:uw.anss.org/Coda/UW/1519663</amplitudeID>
        <waveformID networkCode="UW" stationCode="CBS" locationCode="" channelCode="EHZ"></waveformID>
      </stationMagnitude>
      <stationMagnitude publicID="quakeml:uw.anss.org/AssocCoM/UW/1519668">
        <originID>quakeml:uw.anss.org/Origin/UW/696498</originID>
        <mag>
          <value>1.58</value>
        </mag>
        <type>MD</type>
        <amplitudeID>quakeml:uw.anss.org/Coda/UW/1519668</amplitudeID>
        <waveformID networkCode="UW" stationCode="CMW" locationCode="" channelCode="EHZ"></waveformID>
      </stationMagnitude>
      <stationMagnitude publicID="quakeml:uw.anss.org/AssocCoM/UW/1519673">
