<?xml version='1.0' encoding='utf-8'?>
<q:quakeml xmlns="http://quakeml.org/xmlns/bed/1.2" xmlns:q="http://quakeml.org/xmlns/quakeml/1.2" xmlns:ns0="http://anss.org/xmlns/catalog/0.1">
  <eventParameters publicID="smi:local/0b47ca39-50ab-48e0-9806-ac23105946bd">
    <event publicID="quakeml:uw.anss.org/Event/UW/10437623" ns0:datasource="uw" ns0:dataid="uw10437623" ns0:eventsource="uw" ns0:eventid="10437623">
      <preferredOriginID>quakeml:uw.anss.org/Origin/UW/715048</preferredOriginID>
      <preferredMagnitudeID>quakeml:uw.anss.org/Netmag/UW/590978</preferredMagnitudeID>
      <type>earthquake</type>
      <creationInfo>
        <agencyID>UW</agencyID>
        <creationTime>2012-02-28T14:34:13.000000Z</creationTime>
        <version>3</version>
      </creationInfo>
      <origin publicID="quakeml:uw.anss.org/Origin/UW/715048" ns0:datasource="uw" ns0:dataid="uw10437623" ns0:eventsource="uw" ns0:eventid="10437623">
        <time>
          <value>1997-12-24T19:48:42.800000Z</value>
          <uncertainty>1.02</uncertainty>
        </time>
        <latitude>
          <value>48.4831667</value>
          <uncertainty>0.71</uncertainty>
        </latitude>
        <longitude>
          <value>-121.727</value>
          <uncertainty>1.63</uncertainty>
        </longitude>
        <depth>
          <value>4163.0</value>
          <uncertainty>9260.0</uncertainty>
        </depth>
        <depthType>operator assigned</depthType>
        <timeFixed>false</timeFixed>
        <epicenterFixed>true</epicenterFixed>
        <methodID>smi:uw.anss.org/origin/spong</methodID>
        <quality>
          <associatedPhaseCount>29</associatedPhaseCount>
          <usedPhaseCount>23</usedPhaseCount>
          <associatedStationCount>18</associatedStationCount>
          <usedStationCount>0</usedStationCount>
          <standardError>0.34</standardError>
          <azimuthalGap>131.0</azimuthalGap>
        </quality>
        <type>hypocenter</type>
        <evaluationMode>manual</evaluationMode>
        <evaluationStatus>final</evaluationStatus>
        <creationInfo>
          <agencyID>UW</agencyID>
          <creationTime>2012-02-28T14:34:13.000000Z</creationTime>
        </creationInfo>
        <originUncertainty>
          <preferredDescription>horizontal uncertainty</preferredDescription>
          <horizontalUncertainty>1778.0</horizontalUncertainty>
        </originUncertainty>
        <arrival publicID="quakeml:uw.anss.org/AssocArO/UW/6483993">
          <pickID>quakeml:uw.anss.org/Arrival/UW/6483993</pickID>
          <phase>P</phase>
          <azimuth>227.3</azimuth>
          <distance>1.221</distance>
          <timeResidual>0.27</timeResidual>
          <creationInfo>
            <agencyID>UW</agencyID>
            <creationTime>2012-02-28T14:34:13.000000Z</creationTime>
          </creationInfo>
        </arrival>
        <arrival publicID="quakeml:uw.anss.org/AssocArO/UW/6483998">
          <pickID>quakeml:uw.anss.org/Arrival/UW/6483998</pickID>
          <phase>S</phase>
          <azimuth>227.3</azimuth>
          <distance>1.221</distance>
          <timeResidual>0.39</timeResidual>
          <creationInfo>
            <agencyID>UW</agencyID>
            <creationTime>2012-02-28T14:34:13.000000Z</creationTime>
          </creationInfo>
        </arrival>
        <arrival publicID="quakeml:uw.anss.org/AssocArO/UW/6484003">
          <pickID>quakeml:uw.anss.org/Arrival/UW/6484003</pickID>
          <phase>S</phase>
          <azimuth>186.3</azimuth>
          <distance>1.549</distance>
          <timeResidual>0.16</timeResidual>
          <creationInfo>
            <agencyID>UW</agencyID>
            <creationTime>2012-02-28T14:34:13.000000Z</creationTime>
          </creationInfo>
        </arrival>
        <arrival publicID="quakeml:uw.anss.org/AssocArO/UW/6484008">
          <pickID>quakeml:uw.anss.org/Arrival/UW/6484008</pickID>
          <phase>P</phase>
          <azimuth>113.6</azimuth>
          <distance>1.014</distance>
          <timeResidual>-0.1</timeResidual>
          <creationInfo>
            <agencyID>UW</agencyID>
            <creationTime>2012-02-28T14:34:13.000000Z</creationTime>
          </creationInfo>
        </arrival>
        <arrival publicID="quakeml:uw.anss.org/AssocArO/UW/6484013">
          <pickID>quakeml:uw.anss.org/Arrival/UW/6484013</pickID>
          <phase>S</phase>
          <azimuth>113.6</azimuth>
          <distance>1.014</distance>
          <timeResidual>-0.73</timeResidual>
          <creationInfo>
            <agencyID>UW</agencyID>
            <creationTime>2012-02-28T14:34:13.000000Z</creationTime>
          </creationInfo>
        </arrival>
        <arrival publicID="quakeml:uw.anss.org/AssocArO/UW/6484018">
          <pickID>quakeml:uw.anss.org/Arrival/UW/6484018</pickID>
          <phase>P</phase>
          <azimuth>204.9</azimuth>
          <timeResidual>-0.18</timeResidual>
          <creationInfo>
            <agencyID>UW</agencyID>
            <creationTime>2012-02-28T14:34:13.000000Z</creationTime>
          </creationInfo>
        </arrival>
        <arrival publicID="quakeml:uw.anss.org/AssocArO/UW/6484023">
          <pickID>quakeml:uw.anss.org/Arrival/UW/6484023</pickID>
          <phase>S</phase>
          <azimuth>204.9</azimuth>
          <timeResidual>-0.13</timeResidual>
          <creationInfo>
            <agencyID>UW</agencyID>
            <creationTime>2012-02-28T14:34:13.000000Z</creationTime>
          </creationInfo>
        </arrival>
        <arrival publicID="quakeml:uw.anss.org/AssocArO/UW/6484028">
          <pickID>quakeml:uw.anss.org/Arrival/UW/6484028</pickID>
          <phase>P</phase>
          <azimuth>183.0</azimuth>
          <distance>1.026</distance>
          <timeResidual>0.56</timeResidual>
          <creationInfo>
            <agencyID>UW</agencyID>
            <creationTime>2012-02-28T14:34:13.000000Z</creationTime>
          </creationInfo>
        </arrival>
        <arrival publicID="quakeml:uw.anss.org/AssocArO/UW/6484033">
          <pickID>quakeml:uw.anss.org/Arrival/UW/6484033</pickID>
          <phase>S</phase>
          <azimuth>183.0</azimuth>
          <distance>1.026</distance>
          <timeResidual>-0.35</timeResidual>
          <creationInfo>
            <agencyID>UW</agencyID>
            <creationTime>2012-02-28T14:34:13.000000Z</creationTime>
          </creationInfo>
        </arrival>
        <arrival publicID="quakeml:uw.anss.org/AssocArO/UW/6484043">
          <pickID>quakeml:uw.anss.org/Arrival/UW/6484043</pickID>
          <phase>P</phase>
          <azimuth>120.5</azimuth>
          <distance>1.316</distance>
          <timeResidual>0.14</timeResidual>
          <creationInfo>
            <agencyID>UW</agencyID>
            <creationTime>2012-02-28T14:34:13.000000Z</creationTime>
          </creationInfo>
        </arrival>
        <arrival publicID="quakeml:uw.anss.org/AssocArO/UW/6484048">
          <pickID>quakeml:uw.anss.org/Arrival/UW/6484048</pickID>
          <phase>P</phase>
          <azimuth>178.6</azimuth>
          <timeResidual>0.51</timeResidual>
          <creationInfo>
            <agencyID>UW</agencyID>
            <creationTime>2012-02-28T14:34:13.000000Z</creationTime>
          </creationInfo>
        </arrival>
        <arrival publicID="quakeml:uw.anss.org/AssocArO/UW/6484053">
          <pickID>quakeml:uw.anss.org/Arrival/UW/6484053</pickID>
          <phase>P</phase>
          <azimuth>178.2</azimuth>
          <distance>0.7897</distance>
          <timeResidual>-0.23</timeResidual>
          <creationInfo>
            <agencyID>UW</agencyID>
            <creationTime>2012-02-28T14:34:13.000000Z</creationTime>
          </creationInfo>
        </arrival>
        <arrival publicID="quakeml:uw.anss.org/AssocArO/UW/6484058">
          <pickID>quakeml:uw.anss.org/Arrival/UW/6484058</pickID>
          <phase>S</phase>
          <azimuth>178.2</azimuth>
          <distance>0.7897</distance>
          <timeResidual>-1.14</timeResidual>
          <creationInfo>
            <agencyID>UW</agencyID>
            <creationTime>2012-02-28T14:34:13.000000Z</creationTime>
          </creationInfo>
        </arrival>
        <arrival publicID="quakeml:uw.anss.org/AssocArO/UW/6484063">
          <pickID>quakeml:uw.anss.org/Arrival/UW/6484063</pickID>
          <phase>P</phase>
          <azimuth>110.2</azimuth>
          <distance>1.398</distance>
          <timeResidual>0.68</timeResidual>
          <creationInfo>
            <agencyID>UW</agencyID>
            <creationTime>2012-02-28T14:34:13.000000Z</creationTime>
          </creationInfo>
        </arrival>
        <arrival publicID="quakeml:uw.anss.org/AssocArO/UW/6484068">
          <pickID>quakeml:uw.anss.org/Arrival/UW/6484068</pickID>
          <phase>S</phase>
          <azimuth>110.2</azimuth>
          <distance>1.398</distance>
          <timeResidual>-0.08</timeResidual>
          <creationInfo>
            <agencyID>UW</agencyID>
            <creationTime>2012-02-28T14:34:13.000000Z</creationTime>
          </creationInfo>
        </arrival>
        <arrival publicID="quakeml:uw.anss.org/AssocArO/UW/6484073">
          <pickID>quakeml:uw.anss.org/Arrival/UW/6484073</pickID>
          <phase>P</phase>
          <azimuth>180.1</azimuth>
          <distance>1.613</distance>
          <timeResidual>0.78</timeResidual>
          <creationInfo>
            <agencyID>UW</agencyID>
            <creationTime>2012-02-28T14:34:13.000000Z</creationTime>
          </creationInfo>
        </arrival>
        <arrival publicID="quakeml:uw.anss.org/AssocArO/UW/6484078">
          <pickID>quakeml:uw.anss.org/Arrival/UW/6484078</pickID>
          <phase>S</phase>
          <azimuth>180.1</azimuth>
          <distance>1.613</distance>
          <timeResidual>-0.17</timeResidual>
          <creationInfo>
            <agencyID>UW</agencyID>
            <creationTime>2012-02-28T14:34:13.000000Z</creationTime>
          </creationInfo>
        </arrival>
        <arrival publicID="quakeml:uw.anss.org/AssocArO/UW/6484083">
          <pickID>quakeml:uw.anss.org/Arrival/UW/6484083</pickID>
          <phase>P</phase>
          <azimuth>182.4</azimuth>
          <distance>0.6805</distance>
          <timeResidual>-0.1</timeResidual>
          <creationInfo>
            <agencyID>UW</agencyID>
            <creationTime>2012-02-28T14:34:13.000000Z</creationTime>
          </creationInfo>
        </arrival>
        <arrival publicID="quakeml:uw.anss.org/AssocArO/UW/6484088">
          <pickID>quakeml:uw.anss.org/Arrival/UW/6484088</pickID>
          <phase>S</phase>
          <azimuth>182.4</azimuth>
          <distance>0.6805</distance>
          <timeResidual>-0.57</timeResidual>
          <creationInfo>
            <agencyID>UW</agencyID>
            <creationTime>2012-02-28T14:34:13.000000Z</creationTime>
          </creationInfo>
        </arrival>
        <arrival publicID="quakeml:uw.anss.org/AssocArO/UW/6484093">
          <pickID>quakeml:uw.anss.org/Arrival/UW/6484093</pickID>
          <phase>P</phase>
          <azimuth>285.4</azimuth>
          <distance>0.7599</distance>
          <timeResidual>0.35</timeResidual>
          <creationInfo>
            <agencyID>UW</agencyID>
            <creationTime>2012-02-28T14:34:13.000000Z</creationTime>
          </creationInfo>
        </arrival>
        <arrival publicID="quakeml:uw.anss.org/AssocArO/UW/6484098">
          <pickID>quakeml:uw.anss.org/Arrival/UW/6484098</pickID>
          <phase>P</phase>
          <azimuth>160.5</azimuth>
          <distance>1.855</distance>
          <timeResidual>0.84</timeResidual>
          <creationInfo>
            <agencyID>UW</agencyID>
            <creationTime>2012-02-28T14:34:13.000000Z</creationTime>
          </creationInfo>
        </arrival>
        <arrival publicID="quakeml:uw.anss.org/AssocArO/UW/6484103">
          <pickID>quakeml:uw.anss.org/Arrival/UW/6484103</pickID>
          <phase>S</phase>
          <azimuth>160.5</azimuth>
          <distance>1.855</distance>
          <timeResidual>-0.54</timeResidual>
          <creationInfo>
            <agencyID>UW</agencyID>
            <creationTime>2012-02-28T14:34:13.000000Z</creationTime>
          </creationInfo>
        </arrival>
        <arrival publicID="quakeml:uw.anss.org/AssocArO/UW/6484108">
          <pickID>quakeml:uw.anss.org/Arrival/UW/6484108</pickID>
          <phase>P</phase>
          <azimuth>257.3</azimuth>
          <distance>0.2685</distance>
          <timeResidual>-0.45</timeResidual>
          <creationInfo>
            <agencyID>UW</agencyID>
            <creationTime>2012-02-28T14:34:13.000000Z</creationTime>
          </creationInfo>
        </arrival>
        <arrival publicID="quakeml:uw.anss.org/AssocArO/UW/6484113">
          <pickID>quakeml:uw.anss.org/Arrival/UW/6484113</pickID>
          <phase>S</phase>
          <azimuth>257.3</azimuth>
          <distance>0.2685</distance>
          <timeResidual>-0.44</timeResidual>
          <creationInfo>
            <agencyID>UW</agencyID>
            <creationTime>2012-02-28T14:34:13.000000Z</creationTime>
          </creationInfo>
        </arrival>
        <arrival publicID="quakeml:uw.anss.org/AssocArO/UW/6484118">
          <pickID>quakeml:uw.anss.org/Arrival/UW/6484118</pickID>
          <phase>P</phase>
          <azimuth>122.9</azimuth>
          <distance>1.424</distance>
          <timeResidual>0.29</timeResidual>
          <creationInfo>
            <agencyID>UW</agencyID>
            <creationTime>2012-02-28T14:34:13.000000Z</creationTime>
          </creationInfo>
        </arrival>
        <arrival publicID="quakeml:uw.anss.org/AssocArO/UW/6484123">
          <pickID>quakeml:uw.anss.org/Arrival/UW/6484123</pickID>
          <phase>P</phase>
          <azimuth>339.1</azimuth>
          <distance>0.3222</distance>
          <timeResidual>-0.51</timeResidual>
          <creationInfo>
            <agencyID>UW</agencyID>
            <creationTime>2012-02-28T14:34:13.000000Z</creationTime>
          </creationInfo>
        </arrival>
        <arrival publicID="quakeml:uw.anss.org/AssocArO/UW/6484128">
          <pickID>quakeml:uw.anss.org/Arrival/UW/6484128</pickID>
          <phase>P</phase>
          <azimuth>182.1</azimuth>
          <timeResidual>0.42</timeResidual>
          <creationInfo>
            <agencyID>UW</agencyID>
            <creationTime>2012-02-28T14:34:13.000000Z</creationTime>
          </creationInfo>
        </arrival>
        <arrival publicID="quakeml:uw.anss.org/AssocArO/UW/6484133">
          <pickID>quakeml:uw.anss.org/Arrival/UW/6484133</pickID>
          <phase>S</phase>
          <azimuth>182.1</azimuth>
          <timeResidual>-0.46</timeResidual>
          <creationInfo>
            <agencyID>UW</agencyID>
            <creationTime>2012-02-28T14:34:13.000000Z</creationTime>
          </creationInfo>
        </arrival>
        <arrival publicID="quakeml:uw.anss.org/AssocArO/UW/6484138">
          <pickID>quakeml:uw.anss.org/Arrival/UW/6484138</pickID>
          <phase>P</phase>
          <azimuth>132.8</azimuth>
          <distance>1.284</distance>
          <timeResidual>0.14</timeResidual>
          <creationInfo>
            <agencyID>UW</agencyID>
            <creationTime>2012-02-28T14:34:13.000000Z</creationTime>
          </creationInfo>
        </arrival>
      </origin>
      <magnitude publicID="quakeml:uw.anss.org/Netmag/UW/590978">
        <mag>
          <value>1.8</value>
          <uncertainty>0.11</uncertainty>
        </mag>
        <type>Md</type>
        <originID>quakeml:uw.anss.org/Origin/UW/715048</originID>
        <methodID>smi:uw.anss.org/magnitude/Crosson</methodID>
        <stationCount>8</stationCount>
        <evaluationMode>manual</evaluationMode>
        <evaluationStatus>final</evaluationStatus>
        <stationMagnitudeContribution>
          <stationMagnitudeID>quakeml:uw.anss.org/AssocCoM/UW/1566428</stationMagnitudeID>
          <weight>1.0</weight>
          <residual>-0.18</residual>
        </stationMagnitudeContribution>
        <stationMagnitudeContribution>
          <stationMagnitudeID>quakeml:uw.anss.org/AssocCoM/UW/1566413</stationMagnitudeID>
          <weight>1.0</weight>
          <residual>0.13</residual>
        </stationMagnitudeContribution>
        <stationMagnitudeContribution>
          <stationMagnitudeID>quakeml:uw.anss.org/AssocCoM/UW/1566418</stationMagnitudeID>
          <weight>1.0</weight>
          <residual>0.29</residual>
        </stationMagnitudeContribution>
        <stationMagnitudeContribution>
          <stationMagnitudeID>quakeml:uw.anss.org/AssocCoM/UW/1566408</stationMagnitudeID>
          <weight>1.0</weight>
          <residual>0.19</residual>
        </stationMagnitudeContribution>
        <stationMagnitudeContribution>
          <stationMagnitudeID>quakeml:uw.anss.org/AssocCoM/UW/1566433</stationMagnitudeID>
          <weight>1.0</weight>
          <residual>-0.27</residual>
        </stationMagnitudeContribution>
        <stationMagnitudeContribution>
          <stationMagnitudeID>quakeml:uw.anss.org/AssocCoM/UW/1566403</stationMagnitudeID>
          <weight>1.0</weight>
          <residual>0.16</residual>
        </stationMagnitudeContribution>
        <stationMagnitudeContribution>
          <stationMagnitudeID>quakeml:uw.anss.org/AssocCoM/UW/1566398</stationMagnitudeID>
          <weight>1.0</weight>
          <residual>-0.14</residual>
        </stationMagnitudeContribution>
        <stationMagnitudeContribution>
          <stationMagnitudeID>quakeml:uw.anss.org/AssocCoM/UW/1566423</stationMagnitudeID>
          <weight>1.0</weight>
          <residual>-0.09</residual>
        </stationMagnitudeContribution>
        <creationInfo>
          <agencyID>UW</agencyID>
          <creationTime>2012-02-28T14:34:13.000000Z</creationTime>
        </creationInfo>
      </magnitude>
      <stationMagnitude publicID="quakeml:uw.anss.org/AssocCoM/UW/1566398">
        <originID>quakeml:uw.anss.org/Origin/UW/715048</originID>
        <mag>
          <value>1.66</value>
        </mag>
        <type>MD</type>
        <amplitudeID>quakeml:uw.anss.org/Coda/UW/1566398</amplitudeID>
        <waveformID networkCode="UW" stationCode="HDW" locationCode="" channelCode="EHZ"></waveformID>
      </stationMagnitude>
      <stationMagnitude publicID="quakeml:uw.anss.org/AssocCoM/UW/1566403">
        <originID>quakeml:uw.anss.org/Origin/UW/715048</originID>
        <mag>
          <value>1.96</value>
        </mag>
        <type>MD</type>
        <amplitudeID>quakeml:uw.anss.org/Coda/UW/1566403</amplitudeID>
        <waveformID networkCode="UW" stationCode="NEL" locationCode="" channelCode="EHZ"></waveformID>
      </stationMagnitude>
      <stationMagnitude publicID="quakeml:uw.anss.org/AssocCoM/UW/1566408">
        <originID>quakeml:uw.anss.org/Origin/UW/715048</originID>
        <mag>
          <value>1.99</value>
        </mag>
        <type>MD</type>
        <amplitudeID>quakeml:uw.anss.org/Coda/UW/1566408</amplitudeID>
        <waveformID networkCode="UW" stationCode="JCW" locationCode="" channelCode="EHZ"></waveformID>
      </stationMagnitude>
      <stationMagnitude publicID="quakeml:uw.anss.org/AssocCoM/UW/1566413">
        <originID>quakeml:uw.anss.org/Origin/UW/715048</originID>
        <mag>
          <value>1.93</value>
        </mag>
        <type>MD</type>
        <amplitudeID>quakeml:uw.anss.org/Coda/UW/1566413</amplitudeID>
        <waveformID networkCode="UW" stationCode="RMW" locationCode="" channelCode="EHZ"></waveformID>
      </stationMagnitude>
      <stationMagnitude publicID="quakeml:uw.anss.org/AssocCoM/UW/1566418">
        <originID>quakeml:uw.anss.org/Origin/UW/715048</originID>
        <mag>
          <value>2.09</value>
        </mag>
        <type>MD</type>
        <amplitudeID>quakeml:uw.anss.org/Coda/UW/1566418</amplitudeID>
