<?xml version='1.0' encoding='utf-8'?>
<q:quakeml xmlns="http://quakeml.org/xmlns/bed/1.2" xmlns:q="http://quakeml.org/xmlns/quakeml/1.2" xmlns:ns0="http://anss.org/xmlns/catalog/0.1">
  <eventParameters publicID="smi:local/5231fdf6-9fe0-4394-a236-909e2456ff41">
    <event publicID="quakeml:uw.anss.org/Event/UW/10833288" ns0:datasource="uw" ns0:dataid="uw10833288" ns0:eventsource="uw" ns0:eventid="10833288">
      <preferredOriginID>quakeml:uw.anss.org/Origin/UW/1119033</preferredOriginID>
      <preferredMagnitudeID>quakeml:uw.anss.org/Netmag/UW/2510093</preferredMagnitudeID>
      <type>earthquake</type>
      <creationInfo>
        <agencyID>UW</agencyID>
        <creationTime>2016-11-16T23:40:32.000000Z</creationTime>
        <version>4</version>
      </creationInfo>
      <origin publicID="quakeml:uw.anss.org/Origin/UW/1119033" ns0:datasource="uw" ns0:dataid="uw10833288" ns0:eventsource="uw" ns0:eventid="10833288">
        <time>
          <value>2011-10-27T10:26:06.440000Z</value>
          <uncertainty>0.01</uncertainty>
        </time>
        <latitude>
          <value>48.948</value>
          <uncertainty>0.03</uncertainty>
        </latitude>
        <longitude>
          <value>-122.4453333</value>
          <uncertainty>0.09</uncertainty>
        </longitude>
        <depth>
          <value>14838.0</value>
          <uncertainty>90.0</uncertainty>
        </depth>
        <depthType>operator assigned</depthType>
        <timeFixed>false</timeFixed>
        <epicenterFixed>false</epicenterFixed>
        <methodID>smi:uw.anss.org/origin/spong</methodID>
        <quality>
          <associatedPhaseCount>33</associatedPhaseCount>
          <usedPhaseCount>33</usedPhaseCount>
          <associatedStationCount>29</associatedStationCount>
          <usedStationCount>0</usedStationCount>
          <standardError>0.33</standardError>
          <azimuthalGap>154.0</azimuthalGap>
        </quality>
        <type>hypocenter</type>
        <evaluationMode>manual</evaluationMode>
        <evaluationStatus>final</evaluationStatus>
        <creationInfo>
          <agencyID>UW</agencyID>
          <creationTime>2012-03-08T19:17:19.000000Z</creationTime>
        </creationInfo>
        <originUncertainty>
          <preferredDescription>horizontal uncertainty</preferredDescription>
          <horizontalUncertainty>95.0</horizontalUncertainty>
        </originUncertainty>
        <arrival publicID="quakeml:uw.anss.org/AssocArO/UW/10568648">
          <pickID>quakeml:uw.anss.org/Arrival/UW/10568648</pickID>
          <phase>P</phase>
          <azimuth>197.6</azimuth>
          <distance>1.363</distance>
          <timeResidual>-0.27</timeResidual>
          <creationInfo>
            <agencyID>UW</agencyID>
            <creationTime>2012-03-08T19:17:19.000000Z</creationTime>
          </creationInfo>
        </arrival>
        <arrival publicID="quakeml:uw.anss.org/AssocArO/UW/10568653">
          <pickID>quakeml:uw.anss.org/Arrival/UW/10568653</pickID>
          <phase>P</phase>
          <azimuth>161.2</azimuth>
          <distance>0.7227</distance>
          <timeResidual>0.18</timeResidual>
          <creationInfo>
            <agencyID>UW</agencyID>
            <creationTime>2012-03-08T19:17:19.000000Z</creationTime>
          </creationInfo>
        </arrival>
        <arrival publicID="quakeml:uw.anss.org/AssocArO/UW/10568658">
          <pickID>quakeml:uw.anss.org/Arrival/UW/10568658</pickID>
          <phase>P</phase>
          <azimuth>190.7</azimuth>
          <timeResidual>0.21</timeResidual>
          <creationInfo>
            <agencyID>UW</agencyID>
            <creationTime>2012-03-08T19:17:19.000000Z</creationTime>
          </creationInfo>
        </arrival>
        <arrival publicID="quakeml:uw.anss.org/AssocArO/UW/10568663">
          <pickID>quakeml:uw.anss.org/Arrival/UW/10568663</pickID>
          <phase>P</phase>
          <azimuth>173.9</azimuth>
          <distance>0.181</distance>
          <timeResidual>0.19</timeResidual>
          <creationInfo>
            <agencyID>UW</agencyID>
            <creationTime>2012-03-08T19:17:19.000000Z</creationTime>
          </creationInfo>
        </arrival>
        <arrival publicID="quakeml:uw.anss.org/AssocArO/UW/10568668">
          <pickID>quakeml:uw.anss.org/Arrival/UW/10568668</pickID>
          <phase>P</phase>
          <azimuth>246.1</azimuth>
          <distance>0.7273</distance>
          <timeResidual>-0.2</timeResidual>
          <creationInfo>
            <agencyID>UW</agencyID>
            <creationTime>2012-03-08T19:17:19.000000Z</creationTime>
          </creationInfo>
        </arrival>
        <arrival publicID="quakeml:uw.anss.org/AssocArO/UW/10568673">
          <pickID>quakeml:uw.anss.org/Arrival/UW/10568673</pickID>
          <phase>S</phase>
          <azimuth>246.1</azimuth>
          <distance>0.7273</distance>
          <timeResidual>-0.81</timeResidual>
          <creationInfo>
            <agencyID>UW</agencyID>
            <creationTime>2012-03-08T19:17:19.000000Z</creationTime>
          </creationInfo>
        </arrival>
        <arrival publicID="quakeml:uw.anss.org/AssocArO/UW/10568678">
          <pickID>quakeml:uw.anss.org/Arrival/UW/10568678</pickID>
          <phase>P</phase>
          <azimuth>195.4</azimuth>
          <distance>1.177</distance>
          <timeResidual>-0.24</timeResidual>
          <creationInfo>
            <agencyID>UW</agencyID>
            <creationTime>2012-03-08T19:17:19.000000Z</creationTime>
          </creationInfo>
        </arrival>
        <arrival publicID="quakeml:uw.anss.org/AssocArO/UW/10568683">
          <pickID>quakeml:uw.anss.org/Arrival/UW/10568683</pickID>
          <phase>P</phase>
          <azimuth>196.1</azimuth>
          <distance>1.281</distance>
          <timeResidual>-0.25</timeResidual>
          <creationInfo>
            <agencyID>UW</agencyID>
            <creationTime>2012-03-08T19:17:19.000000Z</creationTime>
          </creationInfo>
        </arrival>
        <arrival publicID="quakeml:uw.anss.org/AssocArO/UW/10568688">
          <pickID>quakeml:uw.anss.org/Arrival/UW/10568688</pickID>
          <phase>P</phase>
          <azimuth>206.9</azimuth>
          <distance>1.014</distance>
          <timeResidual>0.21</timeResidual>
          <creationInfo>
            <agencyID>UW</agencyID>
            <creationTime>2012-03-08T19:17:19.000000Z</creationTime>
          </creationInfo>
        </arrival>
        <arrival publicID="quakeml:uw.anss.org/AssocArO/UW/10568693">
          <pickID>quakeml:uw.anss.org/Arrival/UW/10568693</pickID>
          <phase>P</phase>
          <azimuth>100.4</azimuth>
          <distance>0.5159</distance>
          <timeResidual>0.02</timeResidual>
          <creationInfo>
            <agencyID>UW</agencyID>
            <creationTime>2012-03-08T19:17:19.000000Z</creationTime>
          </creationInfo>
        </arrival>
        <arrival publicID="quakeml:uw.anss.org/AssocArO/UW/10568698">
          <pickID>quakeml:uw.anss.org/Arrival/UW/10568698</pickID>
          <phase>P</phase>
          <azimuth>246.2</azimuth>
          <distance>0.7295</distance>
          <timeResidual>0.39</timeResidual>
          <creationInfo>
            <agencyID>UW</agencyID>
            <creationTime>2012-03-08T19:17:19.000000Z</creationTime>
          </creationInfo>
        </arrival>
        <arrival publicID="quakeml:uw.anss.org/AssocArO/UW/10568703">
          <pickID>quakeml:uw.anss.org/Arrival/UW/10568703</pickID>
          <phase>S</phase>
          <azimuth>246.2</azimuth>
          <distance>0.7295</distance>
          <timeResidual>0.3</timeResidual>
          <creationInfo>
            <agencyID>UW</agencyID>
            <creationTime>2012-03-08T19:17:19.000000Z</creationTime>
          </creationInfo>
        </arrival>
        <arrival publicID="quakeml:uw.anss.org/AssocArO/UW/10568708">
          <pickID>quakeml:uw.anss.org/Arrival/UW/10568708</pickID>
          <phase>P</phase>
          <azimuth>128.8</azimuth>
          <distance>0.7939</distance>
          <timeResidual>-0.25</timeResidual>
          <creationInfo>
            <agencyID>UW</agencyID>
            <creationTime>2012-03-08T19:17:19.000000Z</creationTime>
          </creationInfo>
        </arrival>
        <arrival publicID="quakeml:uw.anss.org/AssocArO/UW/10568713">
          <pickID>quakeml:uw.anss.org/Arrival/UW/10568713</pickID>
          <phase>P</phase>
          <azimuth>218.7</azimuth>
          <distance>1.134</distance>
          <timeResidual>-0.3</timeResidual>
          <creationInfo>
            <agencyID>UW</agencyID>
            <creationTime>2012-03-08T19:17:19.000000Z</creationTime>
          </creationInfo>
        </arrival>
        <arrival publicID="quakeml:uw.anss.org/AssocArO/UW/10568718">
          <pickID>quakeml:uw.anss.org/Arrival/UW/10568718</pickID>
          <phase>P</phase>
          <azimuth>98.6</azimuth>
          <distance>0.2027</distance>
          <timeResidual>-0.18</timeResidual>
          <creationInfo>
            <agencyID>UW</agencyID>
            <creationTime>2012-03-08T19:17:19.000000Z</creationTime>
          </creationInfo>
        </arrival>
        <arrival publicID="quakeml:uw.anss.org/AssocArO/UW/10568723">
          <pickID>quakeml:uw.anss.org/Arrival/UW/10568723</pickID>
          <phase>P</phase>
          <azimuth>157.9</azimuth>
          <distance>1.352</distance>
          <timeResidual>0.71</timeResidual>
          <creationInfo>
            <agencyID>UW</agencyID>
            <creationTime>2012-03-08T19:17:19.000000Z</creationTime>
          </creationInfo>
        </arrival>
        <arrival publicID="quakeml:uw.anss.org/AssocArO/UW/10568728">
          <pickID>quakeml:uw.anss.org/Arrival/UW/10568728</pickID>
          <phase>P</phase>
          <azimuth>114.4</azimuth>
          <distance>0.3953</distance>
          <timeResidual>-0.31</timeResidual>
          <creationInfo>
            <agencyID>UW</agencyID>
            <creationTime>2012-03-08T19:17:19.000000Z</creationTime>
          </creationInfo>
        </arrival>
        <arrival publicID="quakeml:uw.anss.org/AssocArO/UW/10568733">
          <pickID>quakeml:uw.anss.org/Arrival/UW/10568733</pickID>
          <phase>P</phase>
          <azimuth>155.3</azimuth>
          <timeResidual>0.22</timeResidual>
          <creationInfo>
            <agencyID>UW</agencyID>
            <creationTime>2012-03-08T19:17:19.000000Z</creationTime>
          </creationInfo>
        </arrival>
        <arrival publicID="quakeml:uw.anss.org/AssocArO/UW/10568738">
          <pickID>quakeml:uw.anss.org/Arrival/UW/10568738</pickID>
          <phase>P</phase>
          <azimuth>218.6</azimuth>
          <distance>1.133</distance>
          <timeResidual>-0.28</timeResidual>
          <creationInfo>
            <agencyID>UW</agencyID>
            <creationTime>2012-03-08T19:17:19.000000Z</creationTime>
          </creationInfo>
        </arrival>
        <arrival publicID="quakeml:uw.anss.org/AssocArO/UW/10568743">
          <pickID>quakeml:uw.anss.org/Arrival/UW/10568743</pickID>
          <phase>P</phase>
          <azimuth>218.6</azimuth>
          <distance>1.136</distance>
          <timeResidual>-0.32</timeResidual>
          <creationInfo>
            <agencyID>UW</agencyID>
            <creationTime>2012-03-08T19:17:19.000000Z</creationTime>
          </creationInfo>
        </arrival>
        <arrival publicID="quakeml:uw.anss.org/AssocArO/UW/10568748">
          <pickID>quakeml:uw.anss.org/Arrival/UW/10568748</pickID>
          <phase>S</phase>
          <azimuth>218.6</azimuth>
          <distance>1.136</distance>
          <timeResidual>-0.84</timeResidual>
          <creationInfo>
            <agencyID>UW</agencyID>
            <creationTime>2012-03-08T19:17:19.000000Z</creationTime>
          </creationInfo>
        </arrival>
        <arrival publicID="quakeml:uw.anss.org/AssocArO/UW/10568753">
          <pickID>quakeml:uw.anss.org/Arrival/UW/10568753</pickID>
          <phase>P</phase>
          <azimuth>217.1</azimuth>
          <distance>0.2859</distance>
          <timeResidual>-0.21</timeResidual>
          <creationInfo>
            <agencyID>UW</agencyID>
            <creationTime>2012-03-08T19:17:19.000000Z</creationTime>
          </creationInfo>
        </arrival>
        <arrival publicID="quakeml:uw.anss.org/AssocArO/UW/10568758">
          <pickID>quakeml:uw.anss.org/Arrival/UW/10568758</pickID>
          <phase>P</phase>
          <azimuth>305.1</azimuth>
          <distance>1.142</distance>
          <timeResidual>0.6</timeResidual>
          <creationInfo>
            <agencyID>UW</agencyID>
            <creationTime>2012-03-08T19:17:19.000000Z</creationTime>
          </creationInfo>
        </arrival>
        <arrival publicID="quakeml:uw.anss.org/AssocArO/UW/10568763">
          <pickID>quakeml:uw.anss.org/Arrival/UW/10568763</pickID>
          <phase>P</phase>
          <azimuth>218.6</azimuth>
          <distance>1.136</distance>
          <timeResidual>-0.28</timeResidual>
          <creationInfo>
            <agencyID>UW</agencyID>
            <creationTime>2012-03-08T19:17:19.000000Z</creationTime>
          </creationInfo>
        </arrival>
        <arrival publicID="quakeml:uw.anss.org/AssocArO/UW/10568768">
          <pickID>quakeml:uw.anss.org/Arrival/UW/10568768</pickID>
          <phase>S</phase>
          <azimuth>218.6</azimuth>
          <distance>1.136</distance>
          <timeResidual>-0.8</timeResidual>
          <creationInfo>
            <agencyID>UW</agencyID>
            <creationTime>2012-03-08T19:17:19.000000Z</creationTime>
          </creationInfo>
        </arrival>
        <arrival publicID="quakeml:uw.anss.org/AssocArO/UW/10568773">
          <pickID>quakeml:uw.anss.org/Arrival/UW/10568773</pickID>
          <phase>P</phase>
          <azimuth>197.1</azimuth>
          <distance>1.478</distance>
          <timeResidual>-0.33</timeResidual>
          <creationInfo>
            <agencyID>UW</agencyID>
            <creationTime>2012-03-08T19:17:19.000000Z</creationTime>
          </creationInfo>
        </arrival>
        <arrival publicID="quakeml:uw.anss.org/AssocArO/UW/10568778">
          <pickID>quakeml:uw.anss.org/Arrival/UW/10568778</pickID>
          <phase>P</phase>
          <azimuth>227.7</azimuth>
          <distance>0.7916</distance>
          <timeResidual>0.36</timeResidual>
          <creationInfo>
            <agencyID>UW</agencyID>
            <creationTime>2012-03-08T19:17:19.000000Z</creationTime>
          </creationInfo>
        </arrival>
        <arrival publicID="quakeml:uw.anss.org/AssocArO/UW/10568783">
          <pickID>quakeml:uw.anss.org/Arrival/UW/10568783</pickID>
          <phase>P</phase>
          <azimuth>250.4</azimuth>
          <distance>0.5103</distance>
          <timeResidual>0.28</timeResidual>
          <creationInfo>
            <agencyID>UW</agencyID>
            <creationTime>2012-03-08T19:17:19.000000Z</creationTime>
          </creationInfo>
        </arrival>
        <arrival publicID="quakeml:uw.anss.org/AssocArO/UW/10568788">
          <pickID>quakeml:uw.anss.org/Arrival/UW/10568788</pickID>
          <phase>P</phase>
          <azimuth>195.4</azimuth>
          <distance>1.177</distance>
          <timeResidual>-0.24</timeResidual>
          <creationInfo>
            <agencyID>UW</agencyID>
            <creationTime>2012-03-08T19:17:19.000000Z</creationTime>
          </creationInfo>
        </arrival>
        <arrival publicID="quakeml:uw.anss.org/AssocArO/UW/10568793">
          <pickID>quakeml:uw.anss.org/Arrival/UW/10568793</pickID>
          <phase>P</phase>
          <azimuth>200.6</azimuth>
          <distance>1.005</distance>
          <timeResidual>0.34</timeResidual>
          <creationInfo>
            <agencyID>UW</agencyID>
            <creationTime>2012-03-08T19:17:19.000000Z</creationTime>
          </creationInfo>
        </arrival>
        <arrival publicID="quakeml:uw.anss.org/AssocArO/UW/10568798">
          <pickID>quakeml:uw.anss.org/Arrival/UW/10568798</pickID>
          <phase>P</phase>
          <azimuth>204.8</azimuth>
          <distance>0.9624</distance>
          <timeResidual>0.42</timeResidual>
          <creationInfo>
            <agencyID>UW</agencyID>
            <creationTime>2012-03-08T19:17:19.000000Z</creationTime>
          </creationInfo>
        </arrival>
        <arrival publicID="quakeml:uw.anss.org/AssocArO/UW/10568803">
          <pickID>quakeml:uw.anss.org/Arrival/UW/10568803</pickID>
          <phase>P</phase>
          <azimuth>223.6</azimuth>
          <distance>0.3715</distance>
          <timeResidual>0.02</timeResidual>
          <creationInfo>
            <agencyID>UW</agencyID>
            <creationTime>2012-03-08T19:17:19.000000Z</creationTime>
          </creationInfo>
        </arrival>
        <arrival publicID="quakeml:uw.anss.org/AssocArO/UW/10568808">
          <pickID>quakeml:uw.anss.org/Arrival/UW/10568808</pickID>
          <phase>P</phase>
          <azimuth>166.0</azimuth>
          <distance>1.146</distance>
          <timeResidual>0.57</timeResidual>
          <creationInfo>
            <agencyID>UW</agencyID>
            <creationTime>2012-03-08T19:17:19.000000Z</creationTime>
          </creationInfo>
        </arrival>
      </origin>
      <magnitude publicID="quakeml:uw.anss.org/Netmag/UW/2510093">
        <mag>
          <value>2.67</value>
          <uncertainty>0.207</uncertainty>
        </mag>
        <type>Ml</type>
        <originID>quakeml:uw.anss.org/Origin/UW/1119033</originID>
        <methodID>smi:uw.anss.org/magnitude/RichterMl2</methodID>
        <stationCount>21</stationCount>
        <azimuthalGap>208.5</azimuthalGap>
        <evaluationMode>automatic</evaluationMode>
        <evaluationStatus>preliminary</evaluationStatus>
        <stationMagnitudeContribution>
          <stationMagnitudeID>quakeml:uw.anss.org/AssocAmM/UW/9144773</stationMagnitudeID>
          <weight>1.0</weight>
          <residual>0.42</residual>
        </stationMagnitudeContribution>
        <stationMagnitudeContribution>
          <stationMagnitudeID>quakeml:uw.anss.org/AssocAmM/UW/9144813</stationMagnitudeID>
          <weight>1.0</weight>
          <residual>-0.48</residual>
        </stationMagnitudeContribution>
        <stationMagnitudeContribution>
          <stationMagnitudeID>quakeml:uw.anss.org/AssocAmM/UW/9144888</stationMagnitudeID>
          <weight>1.0</weight>
          <residual>-0.36</residual>
        </stationMagnitudeContribution>
        <stationMagnitudeContribution>
          <stationMagnitudeID>quakeml:uw.anss.org/AssocAmM/UW/9144878</stationMagnitudeID>
          <weight>1.0</weight>
          <residual>-0.21</residual>
        </stationMagnitudeContribution>
        <stationMagnitudeContribution>
          <stationMagnitudeID>quakeml:uw.anss.org/AssocAmM/UW/9144868</stationMagnitudeID>
          <weight>1.0</weight>
          <residual>0.17</residual>
        </stationMagnitudeContribution>
        <stationMagnitudeContribution>
          <stationMagnitudeID>quakeml:uw.anss.org/AssocAmM/UW/9144778</stationMagnitudeID>
          <weight>1.0</weight>
          <residual>0.6</residual>
        </stationMagnitudeContribution>
        <stationMagnitudeContribution>
          <stationMagnitudeID>quakeml:uw.anss.org/AssocAmM/UW/9144928</stationMagnitudeID>
          <weight>1.0</weight>
          <residual>0.21</residual>
        </stationMagnitudeContribution>
        <stationMagnitudeContribution>
          <stationMagnitudeID>quakeml:uw.anss.org/AssocAmM/UW/9144853</stationMagnitudeID>
          <weight>1.0</weight>
          <residual>0.03</residual>
        </stationMagnitudeContribution>
        <stationMagnitudeContribution>
          <stationMagnitudeID>quakeml:uw.anss.org/AssocAmM/UW/9144883</stationMagnitudeID>
          <weight>1.0</weight>
