<?xml version='1.0' encoding='utf-8'?>
<q:quakeml xmlns="http://quakeml.org/xmlns/bed/1.2" xmlns:q="http://quakeml.org/xmlns/quakeml/1.2" xmlns:ns0="http://anss.org/xmlns/catalog/0.1">
  <eventParameters publicID="smi:local/bd831f86-320a-4af3-ae96-e90ddd5b94f9">
    <event publicID="quakeml:uw.anss.org/Event/UW/10819243" ns0:datasource="uw" ns0:dataid="uw10819243" ns0:eventsource="uw" ns0:eventid="10819243">
      <preferredOriginID>quakeml:uw.anss.org/Origin/UW/1104988</preferredOriginID>
      <preferredMagnitudeID>quakeml:uw.anss.org/Netmag/UW/2502908</preferredMagnitudeID>
      <type>earthquake</type>
      <creationInfo>
        <agencyID>UW</agencyID>
        <creationTime>2016-11-16T21:55:07.000000Z</creationTime>
        <version>4</version>
      </creationInfo>
      <origin publicID="quakeml:uw.anss.org/Origin/UW/1104988" ns0:datasource="uw" ns0:dataid="uw10819243" ns0:eventsource="uw" ns0:eventid="10819243">
        <time>
          <value>2011-08-01T23:27:43.610000Z</value>
          <uncertainty>0.11</uncertainty>
        </time>
        <latitude>
          <value>48.5326667</value>
          <uncertainty>0.42</uncertainty>
        </latitude>
        <longitude>
          <value>-122.1596667</value>
          <uncertainty>0.43</uncertainty>
        </longitude>
        <depth>
          <value>2094.0</value>
          <uncertainty>960.0</uncertainty>
        </depth>
        <depthType>from location</depthType>
        <timeFixed>false</timeFixed>
        <epicenterFixed>false</epicenterFixed>
        <methodID>smi:uw.anss.org/origin/spong</methodID>
        <quality>
          <associatedPhaseCount>30</associatedPhaseCount>
          <usedPhaseCount>29</usedPhaseCount>
          <associatedStationCount>23</associatedStationCount>
          <usedStationCount>0</usedStationCount>
          <standardError>0.29</standardError>
          <azimuthalGap>70.0</azimuthalGap>
        </quality>
        <type>hypocenter</type>
        <evaluationMode>manual</evaluationMode>
        <evaluationStatus>final</evaluationStatus>
        <creationInfo>
          <agencyID>UW</agencyID>
          <creationTime>2012-03-08T17:06:43.000000Z</creationTime>
        </creationInfo>
        <originUncertainty>
          <preferredDescription>horizontal uncertainty</preferredDescription>
          <horizontalUncertainty>601.0</horizontalUncertainty>
        </originUncertainty>
        <arrival publicID="quakeml:uw.anss.org/AssocArO/UW/10402643">
          <pickID>quakeml:uw.anss.org/Arrival/UW/10402643</pickID>
          <phase>P</phase>
          <azimuth>214.4</azimuth>
          <distance>1.07</distance>
          <timeResidual>0.1</timeResidual>
          <creationInfo>
            <agencyID>UW</agencyID>
            <creationTime>2012-03-08T17:06:43.000000Z</creationTime>
          </creationInfo>
        </arrival>
        <arrival publicID="quakeml:uw.anss.org/AssocArO/UW/10402648">
          <pickID>quakeml:uw.anss.org/Arrival/UW/10402648</pickID>
          <phase>S</phase>
          <azimuth>214.4</azimuth>
          <distance>1.07</distance>
          <timeResidual>0.23</timeResidual>
          <creationInfo>
            <agencyID>UW</agencyID>
            <creationTime>2012-03-08T17:06:43.000000Z</creationTime>
          </creationInfo>
        </arrival>
        <arrival publicID="quakeml:uw.anss.org/AssocArO/UW/10402653">
          <pickID>quakeml:uw.anss.org/Arrival/UW/10402653</pickID>
          <phase>P</phase>
          <azimuth>167.7</azimuth>
          <distance>1.134</distance>
          <timeResidual>-1.3</timeResidual>
          <creationInfo>
            <agencyID>UW</agencyID>
            <creationTime>2012-03-08T17:06:43.000000Z</creationTime>
          </creationInfo>
        </arrival>
        <arrival publicID="quakeml:uw.anss.org/AssocArO/UW/10402658">
          <pickID>quakeml:uw.anss.org/Arrival/UW/10402658</pickID>
          <phase>P</phase>
          <azimuth>171.0</azimuth>
          <distance>0.2721</distance>
          <timeResidual>0.02</timeResidual>
          <creationInfo>
            <agencyID>UW</agencyID>
            <creationTime>2012-03-08T17:06:43.000000Z</creationTime>
          </creationInfo>
        </arrival>
        <arrival publicID="quakeml:uw.anss.org/AssocArO/UW/10402663">
          <pickID>quakeml:uw.anss.org/Arrival/UW/10402663</pickID>
          <phase>P</phase>
          <azimuth>324.3</azimuth>
          <distance>0.2907</distance>
          <timeResidual>0.52</timeResidual>
          <creationInfo>
            <agencyID>UW</agencyID>
            <creationTime>2012-03-08T17:06:43.000000Z</creationTime>
          </creationInfo>
        </arrival>
        <arrival publicID="quakeml:uw.anss.org/AssocArO/UW/10402668">
          <pickID>quakeml:uw.anss.org/Arrival/UW/10402668</pickID>
          <phase>P</phase>
          <azimuth>278.3</azimuth>
          <distance>0.8634</distance>
          <timeResidual>-0.54</timeResidual>
          <creationInfo>
            <agencyID>UW</agencyID>
            <creationTime>2012-03-08T17:06:43.000000Z</creationTime>
          </creationInfo>
        </arrival>
        <arrival publicID="quakeml:uw.anss.org/AssocArO/UW/10402673">
          <pickID>quakeml:uw.anss.org/Arrival/UW/10402673</pickID>
          <phase>S</phase>
          <azimuth>213.9</azimuth>
          <distance>0.9808</distance>
          <timeResidual>0.03</timeResidual>
          <creationInfo>
            <agencyID>UW</agencyID>
            <creationTime>2012-03-08T17:06:43.000000Z</creationTime>
          </creationInfo>
        </arrival>
        <arrival publicID="quakeml:uw.anss.org/AssocArO/UW/10402678">
          <pickID>quakeml:uw.anss.org/Arrival/UW/10402678</pickID>
          <phase>P</phase>
          <azimuth>233.2</azimuth>
          <distance>0.8132</distance>
          <timeResidual>0.29</timeResidual>
          <creationInfo>
            <agencyID>UW</agencyID>
            <creationTime>2012-03-08T17:06:43.000000Z</creationTime>
          </creationInfo>
        </arrival>
        <arrival publicID="quakeml:uw.anss.org/AssocArO/UW/10402683">
          <pickID>quakeml:uw.anss.org/Arrival/UW/10402683</pickID>
          <phase>S</phase>
          <azimuth>233.2</azimuth>
          <distance>0.8132</distance>
          <timeResidual>0.63</timeResidual>
          <creationInfo>
            <agencyID>UW</agencyID>
            <creationTime>2012-03-08T17:06:43.000000Z</creationTime>
          </creationInfo>
        </arrival>
        <arrival publicID="quakeml:uw.anss.org/AssocArO/UW/10402688">
          <pickID>quakeml:uw.anss.org/Arrival/UW/10402688</pickID>
          <phase>P</phase>
          <azimuth>166.5</azimuth>
          <distance>0.1123</distance>
          <timeResidual>-0.14</timeResidual>
          <creationInfo>
            <agencyID>UW</agencyID>
            <creationTime>2012-03-08T17:06:43.000000Z</creationTime>
          </creationInfo>
        </arrival>
        <arrival publicID="quakeml:uw.anss.org/AssocArO/UW/10402693">
          <pickID>quakeml:uw.anss.org/Arrival/UW/10402693</pickID>
          <phase>P</phase>
          <azimuth>278.3</azimuth>
          <distance>0.866</distance>
          <timeResidual>0.07</timeResidual>
          <creationInfo>
            <agencyID>UW</agencyID>
            <creationTime>2012-03-08T17:06:43.000000Z</creationTime>
          </creationInfo>
        </arrival>
        <arrival publicID="quakeml:uw.anss.org/AssocArO/UW/10402698">
          <pickID>quakeml:uw.anss.org/Arrival/UW/10402698</pickID>
          <phase>S</phase>
          <azimuth>278.3</azimuth>
          <distance>0.866</distance>
          <timeResidual>-0.27</timeResidual>
          <creationInfo>
            <agencyID>UW</agencyID>
            <creationTime>2012-03-08T17:06:43.000000Z</creationTime>
          </creationInfo>
        </arrival>
        <arrival publicID="quakeml:uw.anss.org/AssocArO/UW/10402703">
          <pickID>quakeml:uw.anss.org/Arrival/UW/10402703</pickID>
          <phase>P</phase>
          <azimuth>100.9</azimuth>
          <distance>0.4372</distance>
          <timeResidual>-0.15</timeResidual>
          <creationInfo>
            <agencyID>UW</agencyID>
            <creationTime>2012-03-08T17:06:43.000000Z</creationTime>
          </creationInfo>
        </arrival>
        <arrival publicID="quakeml:uw.anss.org/AssocArO/UW/10402708">
          <pickID>quakeml:uw.anss.org/Arrival/UW/10402708</pickID>
          <phase>S</phase>
          <azimuth>100.9</azimuth>
          <distance>0.4372</distance>
          <timeResidual>-0.01</timeResidual>
          <creationInfo>
            <agencyID>UW</agencyID>
            <creationTime>2012-03-08T17:06:43.000000Z</creationTime>
          </creationInfo>
        </arrival>
        <arrival publicID="quakeml:uw.anss.org/AssocArO/UW/10402713">
          <pickID>quakeml:uw.anss.org/Arrival/UW/10402713</pickID>
          <phase>P</phase>
          <azimuth>297.6</azimuth>
          <distance>0.4083</distance>
          <timeResidual>-0.23</timeResidual>
          <creationInfo>
            <agencyID>UW</agencyID>
            <creationTime>2012-03-08T17:06:43.000000Z</creationTime>
          </creationInfo>
        </arrival>
        <arrival publicID="quakeml:uw.anss.org/AssocArO/UW/10402718">
          <pickID>quakeml:uw.anss.org/Arrival/UW/10402718</pickID>
          <phase>P</phase>
          <azimuth>34.1</azimuth>
          <distance>0.3043</distance>
          <timeResidual>-0.18</timeResidual>
          <creationInfo>
            <agencyID>UW</agencyID>
            <creationTime>2012-03-08T17:06:43.000000Z</creationTime>
          </creationInfo>
        </arrival>
        <arrival publicID="quakeml:uw.anss.org/AssocArO/UW/10402723">
          <pickID>quakeml:uw.anss.org/Arrival/UW/10402723</pickID>
          <phase>P</phase>
          <azimuth>155.3</azimuth>
          <timeResidual>0.16</timeResidual>
          <creationInfo>
            <agencyID>UW</agencyID>
            <creationTime>2012-03-08T17:06:43.000000Z</creationTime>
          </creationInfo>
        </arrival>
        <arrival publicID="quakeml:uw.anss.org/AssocArO/UW/10402728">
          <pickID>quakeml:uw.anss.org/Arrival/UW/10402728</pickID>
          <phase>P</phase>
          <azimuth>242.5</azimuth>
          <distance>1.013</distance>
          <timeResidual>-0.24</timeResidual>
          <creationInfo>
            <agencyID>UW</agencyID>
            <creationTime>2012-03-08T17:06:43.000000Z</creationTime>
          </creationInfo>
        </arrival>
        <arrival publicID="quakeml:uw.anss.org/AssocArO/UW/10402733">
          <pickID>quakeml:uw.anss.org/Arrival/UW/10402733</pickID>
          <phase>S</phase>
          <azimuth>242.5</azimuth>
          <distance>1.013</distance>
          <timeResidual>-0.59</timeResidual>
          <creationInfo>
            <agencyID>UW</agencyID>
            <creationTime>2012-03-08T17:06:43.000000Z</creationTime>
          </creationInfo>
        </arrival>
        <arrival publicID="quakeml:uw.anss.org/AssocArO/UW/10402738">
          <pickID>quakeml:uw.anss.org/Arrival/UW/10402738</pickID>
          <phase>P</phase>
          <azimuth>242.5</azimuth>
          <distance>1.016</distance>
          <timeResidual>-0.18</timeResidual>
          <creationInfo>
            <agencyID>UW</agencyID>
            <creationTime>2012-03-08T17:06:43.000000Z</creationTime>
          </creationInfo>
        </arrival>
        <arrival publicID="quakeml:uw.anss.org/AssocArO/UW/10402743">
          <pickID>quakeml:uw.anss.org/Arrival/UW/10402743</pickID>
          <phase>S</phase>
          <azimuth>242.5</azimuth>
          <distance>1.016</distance>
          <timeResidual>-0.5</timeResidual>
          <creationInfo>
            <agencyID>UW</agencyID>
            <creationTime>2012-03-08T17:06:43.000000Z</creationTime>
          </creationInfo>
        </arrival>
        <arrival publicID="quakeml:uw.anss.org/AssocArO/UW/10402748">
          <pickID>quakeml:uw.anss.org/Arrival/UW/10402748</pickID>
          <phase>S</phase>
          <azimuth>242.6</azimuth>
          <distance>1.014</distance>
          <timeResidual>-0.61</timeResidual>
          <creationInfo>
            <agencyID>UW</agencyID>
            <creationTime>2012-03-08T17:06:43.000000Z</creationTime>
          </creationInfo>
        </arrival>
        <arrival publicID="quakeml:uw.anss.org/AssocArO/UW/10402753">
          <pickID>quakeml:uw.anss.org/Arrival/UW/10402753</pickID>
          <phase>S</phase>
          <azimuth>242.5</azimuth>
          <distance>1.016</distance>
          <timeResidual>-0.51</timeResidual>
          <creationInfo>
            <agencyID>UW</agencyID>
            <creationTime>2012-03-08T17:06:43.000000Z</creationTime>
          </creationInfo>
        </arrival>
        <arrival publicID="quakeml:uw.anss.org/AssocArO/UW/10402758">
          <pickID>quakeml:uw.anss.org/Arrival/UW/10402758</pickID>
          <phase>P</phase>
          <azimuth>212.3</azimuth>
          <distance>1.178</distance>
          <timeResidual>-0.33</timeResidual>
          <creationInfo>
            <agencyID>UW</agencyID>
            <creationTime>2012-03-08T17:06:43.000000Z</creationTime>
          </creationInfo>
        </arrival>
        <arrival publicID="quakeml:uw.anss.org/AssocArO/UW/10402763">
          <pickID>quakeml:uw.anss.org/Arrival/UW/10402763</pickID>
          <phase>S</phase>
          <azimuth>212.3</azimuth>
          <distance>1.178</distance>
          <timeResidual>-0.43</timeResidual>
          <creationInfo>
            <agencyID>UW</agencyID>
            <creationTime>2012-03-08T17:06:43.000000Z</creationTime>
          </creationInfo>
        </arrival>
        <arrival publicID="quakeml:uw.anss.org/AssocArO/UW/10402768">
          <pickID>quakeml:uw.anss.org/Arrival/UW/10402768</pickID>
          <phase>S</phase>
          <azimuth>261.7</azimuth>
          <distance>0.7847</distance>
          <timeResidual>0.06</timeResidual>
          <creationInfo>
            <agencyID>UW</agencyID>
            <creationTime>2012-03-08T17:06:43.000000Z</creationTime>
          </creationInfo>
        </arrival>
        <arrival publicID="quakeml:uw.anss.org/AssocArO/UW/10402773">
          <pickID>quakeml:uw.anss.org/Arrival/UW/10402773</pickID>
          <phase>P</phase>
          <azimuth>121.0</azimuth>
          <distance>0.7983</distance>
          <timeResidual>0.24</timeResidual>
          <creationInfo>
            <agencyID>UW</agencyID>
            <creationTime>2012-03-08T17:06:43.000000Z</creationTime>
          </creationInfo>
        </arrival>
        <arrival publicID="quakeml:uw.anss.org/AssocArO/UW/10402778">
          <pickID>quakeml:uw.anss.org/Arrival/UW/10402778</pickID>
          <phase>P</phase>
          <azimuth>160.2</azimuth>
          <distance>0.7749</distance>
          <timeResidual>0.55</timeResidual>
          <creationInfo>
            <agencyID>UW</agencyID>
            <creationTime>2012-03-08T17:06:43.000000Z</creationTime>
          </creationInfo>
        </arrival>
        <arrival publicID="quakeml:uw.anss.org/AssocArO/UW/10402783">
          <pickID>quakeml:uw.anss.org/Arrival/UW/10402783</pickID>
          <phase>P</phase>
          <azimuth>226.2</azimuth>
          <distance>0.7564</distance>
          <timeResidual>0.54</timeResidual>
          <creationInfo>
            <agencyID>UW</agencyID>
            <creationTime>2012-03-08T17:06:43.000000Z</creationTime>
          </creationInfo>
        </arrival>
        <arrival publicID="quakeml:uw.anss.org/AssocArO/UW/10402788">
          <pickID>quakeml:uw.anss.org/Arrival/UW/10402788</pickID>
          <phase>P</phase>
          <azimuth>288.5</azimuth>
          <distance>0.47</distance>
          <timeResidual>-0.35</timeResidual>
          <creationInfo>
            <agencyID>UW</agencyID>
            <creationTime>2012-03-08T17:06:43.000000Z</creationTime>
          </creationInfo>
        </arrival>
      </origin>
      <magnitude publicID="quakeml:uw.anss.org/Netmag/UW/2502908">
        <mag>
          <value>1.91</value>
          <uncertainty>0.101</uncertainty>
        </mag>
        <type>Ml</type>
        <originID>quakeml:uw.anss.org/Origin/UW/1104988</originID>
        <methodID>smi:uw.anss.org/magnitude/RichterMl2</methodID>
        <stationCount>17</stationCount>
        <azimuthalGap>96.5</azimuthalGap>
        <evaluationMode>automatic</evaluationMode>
        <evaluationStatus>preliminary</evaluationStatus>
        <stationMagnitudeContribution>
          <stationMagnitudeID>quakeml:uw.anss.org/AssocAmM/UW/9042123</stationMagnitudeID>
          <weight>1.0</weight>
          <residual>-0.06</residual>
        </stationMagnitudeContribution>
        <stationMagnitudeContribution>
          <stationMagnitudeID>quakeml:uw.anss.org/AssocAmM/UW/9042018</stationMagnitudeID>
          <weight>1.0</weight>
          <residual>0.1</residual>
        </stationMagnitudeContribution>
        <stationMagnitudeContribution>
          <stationMagnitudeID>quakeml:uw.anss.org/AssocAmM/UW/9042173</stationMagnitudeID>
          <weight>1.0</weight>
          <residual>0.21</residual>
        </stationMagnitudeContribution>
        <stationMagnitudeContribution>
          <stationMagnitudeID>quakeml:uw.anss.org/AssocAmM/UW/9042078</stationMagnitudeID>
          <weight>1.0</weight>
          <residual>-0.28</residual>
        </stationMagnitudeContribution>
        <stationMagnitudeContribution>
          <stationMagnitudeID>quakeml:uw.anss.org/AssocAmM/UW/9042113</stationMagnitudeID>
          <weight>1.0</weight>
          <residual>0.04</residual>
        </stationMagnitudeContribution>
        <stationMagnitudeContribution>
          <stationMagnitudeID>quakeml:uw.anss.org/AssocAmM/UW/9042083</stationMagnitudeID>
          <weight>1.0</weight>
          <residual>-0.48</residual>
        </stationMagnitudeContribution>
        <stationMagnitudeContribution>
          <stationMagnitudeID>quakeml:uw.anss.org/AssocAmM/UW/9042098</stationMagnitudeID>
          <weight>1.0</weight>
          <residual>-0.07</residual>
        </stationMagnitudeContribution>
        <stationMagnitudeContribution>
          <stationMagnitudeID>quakeml:uw.anss.org/AssocAmM/UW/9042068</stationMagnitudeID>
          <weight>1.0</weight>
          <residual>-0.48</residual>
        </stationMagnitudeContribution>
        <stationMagnitudeContribution>
          <stationMagnitudeID>quakeml:uw.anss.org/AssocAmM/UW/9042118</stationMagnitudeID>
          <weight>1.0</weight>
          <residual>0.3</residual>
        </stationMagnitudeContribution>
        <stationMagnitudeContribution>
          <stationMagnitudeID>quakeml:uw.anss.org/AssocAmM/UW/9042023</stationMagnitudeID>
          <weight>1.0</weight>
          <residual>0.04</residual>
        </stationMagnitudeContribution>
        <stationMagnitudeContribution>
          <stationMagnitudeID>quakeml:uw.anss.org/AssocAmM/UW/9042143</stationMagnitudeID>
          <weight>1.0</weight>
          <residual>-0.02</residual>
        </stationMagnitudeContribution>
        <stationMagnitudeContribution>
          <stationMagnitudeID>quakeml:uw.anss.org/AssocAmM/UW/9042153</stationMagnitudeID>
          <weight>1.0</weight>
          <residual>0.0</residual>
        </stationMagnitudeContribution>
        <stationMagnitudeContribution>
          <stationMagnitudeID>quakeml:uw.anss.org/AssocAmM/UW/9042043</stationMagnitudeID>
          <weight>1.0</weight>
          <residual>0.08</residual>
        </stationMagnitudeContribution>
        <stationMagnitudeContribution>
          <stationMagnitudeID>quakeml:uw.anss.org/AssocAmM/UW/9042178</stationMagnitudeID>
          <weight>1.0</weight>
          <residual>0.1</residual>
        </stationMagnitudeContribution>
        <stationMagnitudeContribution>
