<?xml version='1.0' encoding='utf-8'?>
<q:quakeml xmlns="http://quakeml.org/xmlns/bed/1.2" xmlns:q="http://quakeml.org/xmlns/quakeml/1.2" xmlns:ns0="http://anss.org/xmlns/catalog/0.1">
  <eventParameters publicID="smi:local/598d6a1e-e8a0-4e84-a20c-4ea01f9021c9">
    <event publicID="quakeml:uw.anss.org/Event/UW/10816598" ns0:datasource="uw" ns0:dataid="uw10816598" ns0:eventsource="uw" ns0:eventid="10816598">
      <preferredOriginID>quakeml:uw.anss.org/Origin/UW/1102343</preferredOriginID>
      <preferredMagnitudeID>quakeml:uw.anss.org/Netmag/UW/2501688</preferredMagnitudeID>
      <type>earthquake</type>
      <creationInfo>
        <agencyID>UW</agencyID>
        <creationTime>2016-11-16T21:38:24.000000Z</creationTime>
        <version>4</version>
      </creationInfo>
      <origin publicID="quakeml:uw.anss.org/Origin/UW/1102343" ns0:datasource="uw" ns0:dataid="uw10816598" ns0:eventsource="uw" ns0:eventid="10816598">
        <time>
          <value>2011-01-16T06:40:44.610000Z</value>
          <uncertainty>0.09</uncertainty>
        </time>
        <latitude>
          <value>48.6763333</value>
          <uncertainty>0.33</uncertainty>
        </latitude>
        <longitude>
          <value>-122.4641667</value>
          <uncertainty>0.65</uncertainty>
        </longitude>
        <depth>
          <value>12805.0</value>
          <uncertainty>1490.0</uncertainty>
        </depth>
        <depthType>from location</depthType>
        <timeFixed>false</timeFixed>
        <epicenterFixed>false</epicenterFixed>
        <methodID>smi:uw.anss.org/origin/spong</methodID>
        <quality>
          <associatedPhaseCount>34</associatedPhaseCount>
          <usedPhaseCount>30</usedPhaseCount>
          <associatedStationCount>27</associatedStationCount>
          <usedStationCount>0</usedStationCount>
          <standardError>0.31</standardError>
          <azimuthalGap>93.0</azimuthalGap>
        </quality>
        <type>hypocenter</type>
        <evaluationMode>manual</evaluationMode>
        <evaluationStatus>final</evaluationStatus>
        <creationInfo>
          <agencyID>UW</agencyID>
          <creationTime>2012-03-08T16:36:24.000000Z</creationTime>
        </creationInfo>
        <originUncertainty>
          <preferredDescription>horizontal uncertainty</preferredDescription>
          <horizontalUncertainty>729.0</horizontalUncertainty>
        </originUncertainty>
        <arrival publicID="quakeml:uw.anss.org/AssocArO/UW/10370928">
          <pickID>quakeml:uw.anss.org/Arrival/UW/10370928</pickID>
          <phase>P</phase>
          <azimuth>201.2</azimuth>
          <distance>1.102</distance>
          <timeResidual>-0.19</timeResidual>
          <creationInfo>
            <agencyID>UW</agencyID>
            <creationTime>2012-03-08T16:36:24.000000Z</creationTime>
          </creationInfo>
        </arrival>
        <arrival publicID="quakeml:uw.anss.org/AssocArO/UW/10370933">
          <pickID>quakeml:uw.anss.org/Arrival/UW/10370933</pickID>
          <phase>P</phase>
          <azimuth>112.5</azimuth>
          <distance>1.54</distance>
          <timeResidual>1.5</timeResidual>
          <creationInfo>
            <agencyID>UW</agencyID>
            <creationTime>2012-03-08T16:36:24.000000Z</creationTime>
          </creationInfo>
        </arrival>
        <arrival publicID="quakeml:uw.anss.org/AssocArO/UW/10370938">
          <pickID>quakeml:uw.anss.org/Arrival/UW/10370938</pickID>
          <phase>P</phase>
          <azimuth>149.2</azimuth>
          <distance>0.4798</distance>
          <timeResidual>-0.03</timeResidual>
          <creationInfo>
            <agencyID>UW</agencyID>
            <creationTime>2012-03-08T16:36:24.000000Z</creationTime>
          </creationInfo>
        </arrival>
        <arrival publicID="quakeml:uw.anss.org/AssocArO/UW/10370943">
          <pickID>quakeml:uw.anss.org/Arrival/UW/10370943</pickID>
          <phase>S</phase>
          <azimuth>149.2</azimuth>
          <distance>0.4798</distance>
          <timeResidual>0.61</timeResidual>
          <creationInfo>
            <agencyID>UW</agencyID>
            <creationTime>2012-03-08T16:36:24.000000Z</creationTime>
          </creationInfo>
        </arrival>
        <arrival publicID="quakeml:uw.anss.org/AssocArO/UW/10370948">
          <pickID>quakeml:uw.anss.org/Arrival/UW/10370948</pickID>
          <phase>P</phase>
          <azimuth>19.0</azimuth>
          <distance>0.09719</distance>
          <timeResidual>0.31</timeResidual>
          <creationInfo>
            <agencyID>UW</agencyID>
            <creationTime>2012-03-08T16:36:24.000000Z</creationTime>
          </creationInfo>
        </arrival>
        <arrival publicID="quakeml:uw.anss.org/AssocArO/UW/10370953">
          <pickID>quakeml:uw.anss.org/Arrival/UW/10370953</pickID>
          <phase>P</phase>
          <azimuth>268.0</azimuth>
          <distance>0.6529</distance>
          <timeResidual>-0.18</timeResidual>
          <creationInfo>
            <agencyID>UW</agencyID>
            <creationTime>2012-03-08T16:36:24.000000Z</creationTime>
          </creationInfo>
        </arrival>
        <arrival publicID="quakeml:uw.anss.org/AssocArO/UW/10370958">
          <pickID>quakeml:uw.anss.org/Arrival/UW/10370958</pickID>
          <phase>S</phase>
          <azimuth>268.0</azimuth>
          <distance>0.6529</distance>
          <timeResidual>-0.59</timeResidual>
          <creationInfo>
            <agencyID>UW</agencyID>
            <creationTime>2012-03-08T16:36:24.000000Z</creationTime>
          </creationInfo>
        </arrival>
        <arrival publicID="quakeml:uw.anss.org/AssocArO/UW/10370963">
          <pickID>quakeml:uw.anss.org/Arrival/UW/10370963</pickID>
          <phase>P</phase>
          <azimuth>215.2</azimuth>
          <distance>0.7744</distance>
          <timeResidual>0.35</timeResidual>
          <creationInfo>
            <agencyID>UW</agencyID>
            <creationTime>2012-03-08T16:36:24.000000Z</creationTime>
          </creationInfo>
        </arrival>
        <arrival publicID="quakeml:uw.anss.org/AssocArO/UW/10370968">
          <pickID>quakeml:uw.anss.org/Arrival/UW/10370968</pickID>
          <phase>P</phase>
          <azimuth>137.9</azimuth>
          <distance>0.3409</distance>
          <timeResidual>-0.42</timeResidual>
          <creationInfo>
            <agencyID>UW</agencyID>
            <creationTime>2012-03-08T16:36:24.000000Z</creationTime>
          </creationInfo>
        </arrival>
        <arrival publicID="quakeml:uw.anss.org/AssocArO/UW/10370973">
          <pickID>quakeml:uw.anss.org/Arrival/UW/10370973</pickID>
          <phase>S</phase>
          <azimuth>137.9</azimuth>
          <distance>0.3409</distance>
          <timeResidual>0.07</timeResidual>
          <creationInfo>
            <agencyID>UW</agencyID>
            <creationTime>2012-03-08T16:36:24.000000Z</creationTime>
          </creationInfo>
        </arrival>
        <arrival publicID="quakeml:uw.anss.org/AssocArO/UW/10370978">
          <pickID>quakeml:uw.anss.org/Arrival/UW/10370978</pickID>
          <phase>P</phase>
          <azimuth>126.2</azimuth>
          <distance>1.786</distance>
          <timeResidual>0.91</timeResidual>
          <creationInfo>
            <agencyID>UW</agencyID>
            <creationTime>2012-03-08T16:36:24.000000Z</creationTime>
          </creationInfo>
        </arrival>
        <arrival publicID="quakeml:uw.anss.org/AssocArO/UW/10370983">
          <pickID>quakeml:uw.anss.org/Arrival/UW/10370983</pickID>
          <phase>P</phase>
          <azimuth>268.1</azimuth>
          <distance>0.6555</distance>
          <timeResidual>0.43</timeResidual>
          <creationInfo>
            <agencyID>UW</agencyID>
            <creationTime>2012-03-08T16:36:24.000000Z</creationTime>
          </creationInfo>
        </arrival>
        <arrival publicID="quakeml:uw.anss.org/AssocArO/UW/10370988">
          <pickID>quakeml:uw.anss.org/Arrival/UW/10370988</pickID>
          <phase>S</phase>
          <azimuth>268.1</azimuth>
          <distance>0.6555</distance>
          <timeResidual>0.5</timeResidual>
          <creationInfo>
            <agencyID>UW</agencyID>
            <creationTime>2012-03-08T16:36:24.000000Z</creationTime>
          </creationInfo>
        </arrival>
        <arrival publicID="quakeml:uw.anss.org/AssocArO/UW/10370993">
          <pickID>quakeml:uw.anss.org/Arrival/UW/10370993</pickID>
          <phase>P</phase>
          <azimuth>109.6</azimuth>
          <distance>0.6707</distance>
          <timeResidual>-0.3</timeResidual>
          <creationInfo>
            <agencyID>UW</agencyID>
            <creationTime>2012-03-08T16:36:24.000000Z</creationTime>
          </creationInfo>
        </arrival>
        <arrival publicID="quakeml:uw.anss.org/AssocArO/UW/10370998">
          <pickID>quakeml:uw.anss.org/Arrival/UW/10370998</pickID>
          <phase>P</phase>
          <azimuth>228.6</azimuth>
          <distance>0.928</distance>
          <timeResidual>-0.14</timeResidual>
          <creationInfo>
            <agencyID>UW</agencyID>
            <creationTime>2012-03-08T16:36:24.000000Z</creationTime>
          </creationInfo>
        </arrival>
        <arrival publicID="quakeml:uw.anss.org/AssocArO/UW/10371003">
          <pickID>quakeml:uw.anss.org/Arrival/UW/10371003</pickID>
          <phase>S</phase>
          <azimuth>228.6</azimuth>
          <distance>0.928</distance>
          <timeResidual>-0.62</timeResidual>
          <creationInfo>
            <agencyID>UW</agencyID>
            <creationTime>2012-03-08T16:36:24.000000Z</creationTime>
          </creationInfo>
        </arrival>
        <arrival publicID="quakeml:uw.anss.org/AssocArO/UW/10371008">
          <pickID>quakeml:uw.anss.org/Arrival/UW/10371008</pickID>
          <phase>P</phase>
          <azimuth>41.3</azimuth>
          <distance>0.3212</distance>
          <timeResidual>0.11</timeResidual>
          <creationInfo>
            <agencyID>UW</agencyID>
            <creationTime>2012-03-08T16:36:24.000000Z</creationTime>
          </creationInfo>
        </arrival>
        <arrival publicID="quakeml:uw.anss.org/AssocArO/UW/10371013">
          <pickID>quakeml:uw.anss.org/Arrival/UW/10371013</pickID>
          <phase>P</phase>
          <azimuth>143.3</azimuth>
          <timeResidual>0.09</timeResidual>
          <creationInfo>
            <agencyID>UW</agencyID>
            <creationTime>2012-03-08T16:36:24.000000Z</creationTime>
          </creationInfo>
        </arrival>
        <arrival publicID="quakeml:uw.anss.org/AssocArO/UW/10371018">
          <pickID>quakeml:uw.anss.org/Arrival/UW/10371018</pickID>
          <phase>P</phase>
          <azimuth>228.5</azimuth>
          <distance>0.9272</distance>
          <timeResidual>-0.14</timeResidual>
          <creationInfo>
            <agencyID>UW</agencyID>
            <creationTime>2012-03-08T16:36:24.000000Z</creationTime>
          </creationInfo>
        </arrival>
        <arrival publicID="quakeml:uw.anss.org/AssocArO/UW/10371023">
          <pickID>quakeml:uw.anss.org/Arrival/UW/10371023</pickID>
          <phase>S</phase>
          <azimuth>228.5</azimuth>
          <distance>0.9272</distance>
          <timeResidual>-0.53</timeResidual>
          <creationInfo>
            <agencyID>UW</agencyID>
            <creationTime>2012-03-08T16:36:24.000000Z</creationTime>
          </creationInfo>
        </arrival>
        <arrival publicID="quakeml:uw.anss.org/AssocArO/UW/10371028">
          <pickID>quakeml:uw.anss.org/Arrival/UW/10371028</pickID>
          <phase>P</phase>
          <azimuth>228.5</azimuth>
          <distance>0.9297</distance>
          <timeResidual>-0.1</timeResidual>
          <creationInfo>
            <agencyID>UW</agencyID>
            <creationTime>2012-03-08T16:36:24.000000Z</creationTime>
          </creationInfo>
        </arrival>
        <arrival publicID="quakeml:uw.anss.org/AssocArO/UW/10371033">
          <pickID>quakeml:uw.anss.org/Arrival/UW/10371033</pickID>
          <phase>P</phase>
          <azimuth>285.4</azimuth>
          <distance>0.1663</distance>
          <timeResidual>-0.28</timeResidual>
          <creationInfo>
            <agencyID>UW</agencyID>
            <creationTime>2012-03-08T16:36:24.000000Z</creationTime>
          </creationInfo>
        </arrival>
        <arrival publicID="quakeml:uw.anss.org/AssocArO/UW/10371038">
          <pickID>quakeml:uw.anss.org/Arrival/UW/10371038</pickID>
          <phase>S</phase>
          <azimuth>285.4</azimuth>
          <distance>0.1663</distance>
          <timeResidual>0.15</timeResidual>
          <creationInfo>
            <agencyID>UW</agencyID>
            <creationTime>2012-03-08T16:36:24.000000Z</creationTime>
          </creationInfo>
        </arrival>
        <arrival publicID="quakeml:uw.anss.org/AssocArO/UW/10371043">
          <pickID>quakeml:uw.anss.org/Arrival/UW/10371043</pickID>
          <phase>P</phase>
          <azimuth>162.6</azimuth>
          <timeResidual>0.32</timeResidual>
          <creationInfo>
            <agencyID>UW</agencyID>
            <creationTime>2012-03-08T16:36:24.000000Z</creationTime>
          </creationInfo>
        </arrival>
        <arrival publicID="quakeml:uw.anss.org/AssocArO/UW/10371048">
          <pickID>quakeml:uw.anss.org/Arrival/UW/10371048</pickID>
          <phase>P</phase>
          <azimuth>207.0</azimuth>
          <distance>0.7512</distance>
          <timeResidual>0.4</timeResidual>
          <creationInfo>
            <agencyID>UW</agencyID>
            <creationTime>2012-03-08T16:36:24.000000Z</creationTime>
          </creationInfo>
        </arrival>
        <arrival publicID="quakeml:uw.anss.org/AssocArO/UW/10371053">
          <pickID>quakeml:uw.anss.org/Arrival/UW/10371053</pickID>
          <phase>S</phase>
          <azimuth>245.6</azimuth>
          <distance>0.6299</distance>
          <timeResidual>0.5</timeResidual>
          <creationInfo>
            <agencyID>UW</agencyID>
            <creationTime>2012-03-08T16:36:24.000000Z</creationTime>
          </creationInfo>
        </arrival>
        <arrival publicID="quakeml:uw.anss.org/AssocArO/UW/10371058">
          <pickID>quakeml:uw.anss.org/Arrival/UW/10371058</pickID>
          <phase>P</phase>
          <azimuth>121.9</azimuth>
          <distance>1.046</distance>
          <timeResidual>0.65</timeResidual>
          <creationInfo>
            <agencyID>UW</agencyID>
            <creationTime>2012-03-08T16:36:24.000000Z</creationTime>
          </creationInfo>
        </arrival>
        <arrival publicID="quakeml:uw.anss.org/AssocArO/UW/10371063">
          <pickID>quakeml:uw.anss.org/Arrival/UW/10371063</pickID>
          <phase>P</phase>
          <azimuth>278.1</azimuth>
          <distance>1.113</distance>
          <timeResidual>-0.02</timeResidual>
          <creationInfo>
            <agencyID>UW</agencyID>
            <creationTime>2012-03-08T16:36:24.000000Z</creationTime>
          </creationInfo>
        </arrival>
        <arrival publicID="quakeml:uw.anss.org/AssocArO/UW/10371068">
          <pickID>quakeml:uw.anss.org/Arrival/UW/10371068</pickID>
          <phase>P</phase>
          <azimuth>282.2</azimuth>
          <distance>0.4792</distance>
          <timeResidual>0.33</timeResidual>
          <creationInfo>
            <agencyID>UW</agencyID>
            <creationTime>2012-03-08T16:36:24.000000Z</creationTime>
          </creationInfo>
        </arrival>
        <arrival publicID="quakeml:uw.anss.org/AssocArO/UW/10371073">
          <pickID>quakeml:uw.anss.org/Arrival/UW/10371073</pickID>
          <phase>P</phase>
          <azimuth>174.3</azimuth>
          <distance>1.699</distance>
          <timeResidual>-0.34</timeResidual>
          <creationInfo>
            <agencyID>UW</agencyID>
            <creationTime>2012-03-08T16:36:24.000000Z</creationTime>
          </creationInfo>
        </arrival>
        <arrival publicID="quakeml:uw.anss.org/AssocArO/UW/10371078">
          <pickID>quakeml:uw.anss.org/Arrival/UW/10371078</pickID>
          <phase>P</phase>
          <azimuth>34.1</azimuth>
          <distance>0.4237</distance>
          <timeResidual>-0.12</timeResidual>
          <creationInfo>
            <agencyID>UW</agencyID>
            <creationTime>2012-03-08T16:36:24.000000Z</creationTime>
          </creationInfo>
        </arrival>
        <arrival publicID="quakeml:uw.anss.org/AssocArO/UW/10371083">
          <pickID>quakeml:uw.anss.org/Arrival/UW/10371083</pickID>
          <phase>P</phase>
          <azimuth>213.0</azimuth>
          <distance>0.7178</distance>
          <timeResidual>0.58</timeResidual>
          <creationInfo>
            <agencyID>UW</agencyID>
            <creationTime>2012-03-08T16:36:24.000000Z</creationTime>
          </creationInfo>
        </arrival>
        <arrival publicID="quakeml:uw.anss.org/AssocArO/UW/10371088">
          <pickID>quakeml:uw.anss.org/Arrival/UW/10371088</pickID>
          <phase>P</phase>
          <azimuth>270.8</azimuth>
          <distance>0.2442</distance>
          <timeResidual>-0.35</timeResidual>
          <creationInfo>
            <agencyID>UW</agencyID>
            <creationTime>2012-03-08T16:36:24.000000Z</creationTime>
          </creationInfo>
        </arrival>
        <arrival publicID="quakeml:uw.anss.org/AssocArO/UW/10371093">
          <pickID>quakeml:uw.anss.org/Arrival/UW/10371093</pickID>
          <phase>P</phase>
          <azimuth>161.0</azimuth>
          <distance>0.8889</distance>
          <timeResidual>0.53</timeResidual>
          <creationInfo>
            <agencyID>UW</agencyID>
            <creationTime>2012-03-08T16:36:24.000000Z</creationTime>
          </creationInfo>
        </arrival>
      </origin>
      <magnitude publicID="quakeml:uw.anss.org/Netmag/UW/2501688">
        <mag>
          <value>1.79</value>
          <uncertainty>0.102</uncertainty>
        </mag>
        <type>Ml</type>
        <originID>quakeml:uw.anss.org/Origin/UW/1102343</originID>
        <methodID>smi:uw.anss.org/magnitude/RichterMl2</methodID>
        <stationCount>14</stationCount>
        <azimuthalGap>184.2</azimuthalGap>
        <evaluationMode>automatic</evaluationMode>
        <evaluationStatus>preliminary</evaluationStatus>
        <stationMagnitudeContribution>
          <stationMagnitudeID>quakeml:uw.anss.org/AssocAmM/UW/9024508</stationMagnitudeID>
          <weight>1.0</weight>
          <residual>-0.03</residual>
        </stationMagnitudeContribution>
        <stationMagnitudeContribution>
          <stationMagnitudeID>quakeml:uw.anss.org/AssocAmM/UW/9024503</stationMagnitudeID>
          <weight>1.0</weight>
          <residual>0.19</residual>
        </stationMagnitudeContribution>
        <stationMagnitudeContribution>
          <stationMagnitudeID>quakeml:uw.anss.org/AssocAmM/UW/9024583</stationMagnitudeID>
          <weight>1.0</weight>
          <residual>0.07</residual>
        </stationMagnitudeContribution>
        <stationMagnitudeContribution>
          <stationMagnitudeID>quakeml:uw.anss.org/AssocAmM/UW/9024478</stationMagnitudeID>
          <weight>0.0</weight>
          <residual>0.72</residual>
        </stationMagnitudeContribution>
        <stationMagnitudeContribution>
          <stationMagnitudeID>quakeml:uw.anss.org/AssocAmM/UW/9024488</stationMagnitudeID>
          <weight>1.0</weight>
          <residual>-0.08</residual>
        </stationMagnitudeContribution>
        <stationMagnitudeContribution>
          <stationMagnitudeID>quakeml:uw.anss.org/AssocAmM/UW/9024593</stationMagnitudeID>
          <weight>1.0</weight>
          <residual>-0.07</residual>
        </stationMagnitudeContribution>
        <stationMagnitudeContribution>
          <stationMagnitudeID>quakeml:uw.anss.org/AssocAmM/UW/9024573</stationMagnitudeID>
          <weight>0.0</weight>
          <residual>-0.75</residual>
