<?xml version='1.0' encoding='utf-8'?>
<q:quakeml xmlns="http://quakeml.org/xmlns/bed/1.2" xmlns:q="http://quakeml.org/xmlns/quakeml/1.2" xmlns:ns0="http://anss.org/xmlns/catalog/0.1">
  <eventParameters publicID="smi:local/af9cf724-8bc8-472b-9d5c-9583dca1a086">
    <event publicID="quakeml:uw.anss.org/Event/UW/10816693" ns0:datasource="uw" ns0:dataid="uw10816693" ns0:eventsource="uw" ns0:eventid="10816693">
      <preferredOriginID>quakeml:uw.anss.org/Origin/UW/1102438</preferredOriginID>
      <preferredMagnitudeID>quakeml:uw.anss.org/Netmag/UW/2501753</preferredMagnitudeID>
      <type>earthquake</type>
      <creationInfo>
        <agencyID>UW</agencyID>
        <creationTime>2016-11-16T21:39:04.000000Z</creationTime>
        <version>4</version>
      </creationInfo>
      <origin publicID="quakeml:uw.anss.org/Origin/UW/1102438" ns0:datasource="uw" ns0:dataid="uw10816693" ns0:eventsource="uw" ns0:eventid="10816693">
        <time>
          <value>2011-01-16T07:18:41.970000Z</value>
          <uncertainty>0.06</uncertainty>
        </time>
        <latitude>
          <value>48.6708333</value>
          <uncertainty>0.31</uncertainty>
        </latitude>
        <longitude>
          <value>-122.4593333</value>
          <uncertainty>0.46</uncertainty>
        </longitude>
        <depth>
          <value>16430.0</value>
          <uncertainty>700.0</uncertainty>
        </depth>
        <depthType>from location</depthType>
        <timeFixed>false</timeFixed>
        <epicenterFixed>false</epicenterFixed>
        <methodID>smi:uw.anss.org/origin/spong</methodID>
        <quality>
          <associatedPhaseCount>53</associatedPhaseCount>
          <usedPhaseCount>46</usedPhaseCount>
          <associatedStationCount>38</associatedStationCount>
          <usedStationCount>0</usedStationCount>
          <standardError>0.31</standardError>
          <azimuthalGap>93.0</azimuthalGap>
        </quality>
        <type>hypocenter</type>
        <evaluationMode>manual</evaluationMode>
        <evaluationStatus>final</evaluationStatus>
        <creationInfo>
          <agencyID>UW</agencyID>
          <creationTime>2012-03-08T16:37:04.000000Z</creationTime>
        </creationInfo>
        <originUncertainty>
          <preferredDescription>horizontal uncertainty</preferredDescription>
          <horizontalUncertainty>555.0</horizontalUncertainty>
        </originUncertainty>
        <arrival publicID="quakeml:uw.anss.org/AssocArO/UW/10372113">
          <pickID>quakeml:uw.anss.org/Arrival/UW/10372113</pickID>
          <phase>S</phase>
          <azimuth>201.5</azimuth>
          <distance>1.098</distance>
          <timeResidual>0.73</timeResidual>
          <creationInfo>
            <agencyID>UW</agencyID>
            <creationTime>2012-03-08T16:37:04.000000Z</creationTime>
          </creationInfo>
        </arrival>
        <arrival publicID="quakeml:uw.anss.org/AssocArO/UW/10372118">
          <pickID>quakeml:uw.anss.org/Arrival/UW/10372118</pickID>
          <phase>P</phase>
          <azimuth>201.5</azimuth>
          <distance>1.098</distance>
          <timeResidual>-0.06</timeResidual>
          <creationInfo>
            <agencyID>UW</agencyID>
            <creationTime>2012-03-08T16:37:04.000000Z</creationTime>
          </creationInfo>
        </arrival>
        <arrival publicID="quakeml:uw.anss.org/AssocArO/UW/10372123">
          <pickID>quakeml:uw.anss.org/Arrival/UW/10372123</pickID>
          <phase>P</phase>
          <azimuth>206.9</azimuth>
          <distance>0.2438</distance>
          <timeResidual>-0.58</timeResidual>
          <creationInfo>
            <agencyID>UW</agencyID>
            <creationTime>2012-03-08T16:37:04.000000Z</creationTime>
          </creationInfo>
        </arrival>
        <arrival publicID="quakeml:uw.anss.org/AssocArO/UW/10372128">
          <pickID>quakeml:uw.anss.org/Arrival/UW/10372128</pickID>
          <phase>P</phase>
          <azimuth>126.1</azimuth>
          <distance>1.78</distance>
          <timeResidual>1.16</timeResidual>
          <creationInfo>
            <agencyID>UW</agencyID>
            <creationTime>2012-03-08T16:37:04.000000Z</creationTime>
          </creationInfo>
        </arrival>
        <arrival publicID="quakeml:uw.anss.org/AssocArO/UW/10372133">
          <pickID>quakeml:uw.anss.org/Arrival/UW/10372133</pickID>
          <phase>P</phase>
          <azimuth>196.9</azimuth>
          <timeResidual>0.13</timeResidual>
          <creationInfo>
            <agencyID>UW</agencyID>
            <creationTime>2012-03-08T16:37:04.000000Z</creationTime>
          </creationInfo>
        </arrival>
        <arrival publicID="quakeml:uw.anss.org/AssocArO/UW/10372138">
          <pickID>quakeml:uw.anss.org/Arrival/UW/10372138</pickID>
          <phase>P</phase>
          <azimuth>16.2</azimuth>
          <distance>0.1015</distance>
          <timeResidual>-0.19</timeResidual>
          <creationInfo>
            <agencyID>UW</agencyID>
            <creationTime>2012-03-08T16:37:04.000000Z</creationTime>
          </creationInfo>
        </arrival>
        <arrival publicID="quakeml:uw.anss.org/AssocArO/UW/10372143">
          <pickID>quakeml:uw.anss.org/Arrival/UW/10372143</pickID>
          <phase>S</phase>
          <azimuth>16.2</azimuth>
          <distance>0.1015</distance>
          <timeResidual>0.35</timeResidual>
          <creationInfo>
            <agencyID>UW</agencyID>
            <creationTime>2012-03-08T16:37:04.000000Z</creationTime>
          </creationInfo>
        </arrival>
        <arrival publicID="quakeml:uw.anss.org/AssocArO/UW/10372148">
          <pickID>quakeml:uw.anss.org/Arrival/UW/10372148</pickID>
          <phase>P</phase>
          <azimuth>268.5</azimuth>
          <distance>0.656</distance>
          <timeResidual>-0.23</timeResidual>
          <creationInfo>
            <agencyID>UW</agencyID>
            <creationTime>2012-03-08T16:37:04.000000Z</creationTime>
          </creationInfo>
        </arrival>
        <arrival publicID="quakeml:uw.anss.org/AssocArO/UW/10372153">
          <pickID>quakeml:uw.anss.org/Arrival/UW/10372153</pickID>
          <phase>S</phase>
          <azimuth>268.5</azimuth>
          <distance>0.656</distance>
          <timeResidual>-0.72</timeResidual>
          <creationInfo>
            <agencyID>UW</agencyID>
            <creationTime>2012-03-08T16:37:04.000000Z</creationTime>
          </creationInfo>
        </arrival>
        <arrival publicID="quakeml:uw.anss.org/AssocArO/UW/10372158">
          <pickID>quakeml:uw.anss.org/Arrival/UW/10372158</pickID>
          <phase>P</phase>
          <azimuth>199.5</azimuth>
          <distance>0.91</distance>
          <timeResidual>-0.07</timeResidual>
          <creationInfo>
            <agencyID>UW</agencyID>
            <creationTime>2012-03-08T16:37:04.000000Z</creationTime>
          </creationInfo>
        </arrival>
        <arrival publicID="quakeml:uw.anss.org/AssocArO/UW/10372163">
          <pickID>quakeml:uw.anss.org/Arrival/UW/10372163</pickID>
          <phase>S</phase>
          <azimuth>199.5</azimuth>
          <distance>0.91</distance>
          <timeResidual>-0.08</timeResidual>
          <creationInfo>
            <agencyID>UW</agencyID>
            <creationTime>2012-03-08T16:37:04.000000Z</creationTime>
          </creationInfo>
        </arrival>
        <arrival publicID="quakeml:uw.anss.org/AssocArO/UW/10372168">
          <pickID>quakeml:uw.anss.org/Arrival/UW/10372168</pickID>
          <phase>P</phase>
          <azimuth>199.9</azimuth>
          <distance>1.014</distance>
          <timeResidual>-0.21</timeResidual>
          <creationInfo>
            <agencyID>UW</agencyID>
            <creationTime>2012-03-08T16:37:04.000000Z</creationTime>
          </creationInfo>
        </arrival>
        <arrival publicID="quakeml:uw.anss.org/AssocArO/UW/10372173">
          <pickID>quakeml:uw.anss.org/Arrival/UW/10372173</pickID>
          <phase>S</phase>
          <azimuth>199.9</azimuth>
          <distance>1.014</distance>
          <timeResidual>0.15</timeResidual>
          <creationInfo>
            <agencyID>UW</agencyID>
            <creationTime>2012-03-08T16:37:04.000000Z</creationTime>
          </creationInfo>
        </arrival>
        <arrival publicID="quakeml:uw.anss.org/AssocArO/UW/10372178">
          <pickID>quakeml:uw.anss.org/Arrival/UW/10372178</pickID>
          <phase>P</phase>
          <azimuth>143.2</azimuth>
          <timeResidual>0.18</timeResidual>
          <creationInfo>
            <agencyID>UW</agencyID>
            <creationTime>2012-03-08T16:37:04.000000Z</creationTime>
          </creationInfo>
        </arrival>
        <arrival publicID="quakeml:uw.anss.org/AssocArO/UW/10372183">
          <pickID>quakeml:uw.anss.org/Arrival/UW/10372183</pickID>
          <phase>P</phase>
          <azimuth>137.6</azimuth>
          <distance>0.3347</distance>
          <timeResidual>-0.52</timeResidual>
          <creationInfo>
            <agencyID>UW</agencyID>
            <creationTime>2012-03-08T16:37:04.000000Z</creationTime>
          </creationInfo>
        </arrival>
        <arrival publicID="quakeml:uw.anss.org/AssocArO/UW/10372188">
          <pickID>quakeml:uw.anss.org/Arrival/UW/10372188</pickID>
          <phase>S</phase>
          <azimuth>137.6</azimuth>
          <distance>0.3347</distance>
          <timeResidual>-0.07</timeResidual>
          <creationInfo>
            <agencyID>UW</agencyID>
            <creationTime>2012-03-08T16:37:04.000000Z</creationTime>
          </creationInfo>
        </arrival>
        <arrival publicID="quakeml:uw.anss.org/AssocArO/UW/10372193">
          <pickID>quakeml:uw.anss.org/Arrival/UW/10372193</pickID>
          <phase>P</phase>
          <azimuth>160.3</azimuth>
          <distance>1.322</distance>
          <timeResidual>0.49</timeResidual>
          <creationInfo>
            <agencyID>UW</agencyID>
            <creationTime>2012-03-08T16:37:04.000000Z</creationTime>
          </creationInfo>
        </arrival>
        <arrival publicID="quakeml:uw.anss.org/AssocArO/UW/10372198">
          <pickID>quakeml:uw.anss.org/Arrival/UW/10372198</pickID>
          <phase>P</phase>
          <azimuth>70.3</azimuth>
          <distance>0.5488</distance>
          <timeResidual>-0.18</timeResidual>
          <creationInfo>
            <agencyID>UW</agencyID>
            <creationTime>2012-03-08T16:37:04.000000Z</creationTime>
          </creationInfo>
        </arrival>
        <arrival publicID="quakeml:uw.anss.org/AssocArO/UW/10372203">
          <pickID>quakeml:uw.anss.org/Arrival/UW/10372203</pickID>
          <phase>P</phase>
          <azimuth>102.9</azimuth>
          <distance>0.6649</distance>
          <timeResidual>0.46</timeResidual>
          <creationInfo>
            <agencyID>UW</agencyID>
            <creationTime>2012-03-08T16:37:04.000000Z</creationTime>
          </creationInfo>
        </arrival>
        <arrival publicID="quakeml:uw.anss.org/AssocArO/UW/10372208">
          <pickID>quakeml:uw.anss.org/Arrival/UW/10372208</pickID>
          <phase>P</phase>
          <azimuth>166.9</azimuth>
          <distance>1.971</distance>
          <timeResidual>0.46</timeResidual>
          <creationInfo>
            <agencyID>UW</agencyID>
            <creationTime>2012-03-08T16:37:04.000000Z</creationTime>
          </creationInfo>
        </arrival>
        <arrival publicID="quakeml:uw.anss.org/AssocArO/UW/10372213">
          <pickID>quakeml:uw.anss.org/Arrival/UW/10372213</pickID>
          <phase>P</phase>
          <azimuth>268.6</azimuth>
          <distance>0.6586</distance>
          <timeResidual>0.39</timeResidual>
          <creationInfo>
            <agencyID>UW</agencyID>
            <creationTime>2012-03-08T16:37:04.000000Z</creationTime>
          </creationInfo>
        </arrival>
        <arrival publicID="quakeml:uw.anss.org/AssocArO/UW/10372218">
          <pickID>quakeml:uw.anss.org/Arrival/UW/10372218</pickID>
          <phase>S</phase>
          <azimuth>268.6</azimuth>
          <distance>0.6586</distance>
          <timeResidual>0.37</timeResidual>
          <creationInfo>
            <agencyID>UW</agencyID>
            <creationTime>2012-03-08T16:37:04.000000Z</creationTime>
          </creationInfo>
        </arrival>
        <arrival publicID="quakeml:uw.anss.org/AssocArO/UW/10372223">
          <pickID>quakeml:uw.anss.org/Arrival/UW/10372223</pickID>
          <phase>P</phase>
          <azimuth>109.3</azimuth>
          <distance>0.6658</distance>
          <timeResidual>-0.22</timeResidual>
          <creationInfo>
            <agencyID>UW</agencyID>
            <creationTime>2012-03-08T16:37:04.000000Z</creationTime>
          </creationInfo>
        </arrival>
        <arrival publicID="quakeml:uw.anss.org/AssocArO/UW/10372228">
          <pickID>quakeml:uw.anss.org/Arrival/UW/10372228</pickID>
          <phase>P</phase>
          <azimuth>40.2</azimuth>
          <distance>0.3233</distance>
          <timeResidual>0.1</timeResidual>
          <creationInfo>
            <agencyID>UW</agencyID>
            <creationTime>2012-03-08T16:37:04.000000Z</creationTime>
          </creationInfo>
        </arrival>
        <arrival publicID="quakeml:uw.anss.org/AssocArO/UW/10372233">
          <pickID>quakeml:uw.anss.org/Arrival/UW/10372233</pickID>
          <phase>S</phase>
          <azimuth>40.2</azimuth>
          <distance>0.3233</distance>
          <timeResidual>0.48</timeResidual>
          <creationInfo>
            <agencyID>UW</agencyID>
            <creationTime>2012-03-08T16:37:04.000000Z</creationTime>
          </creationInfo>
        </arrival>
        <arrival publicID="quakeml:uw.anss.org/AssocArO/UW/10372238">
          <pickID>quakeml:uw.anss.org/Arrival/UW/10372238</pickID>
          <phase>P</phase>
          <azimuth>228.9</azimuth>
          <distance>0.9285</distance>
          <timeResidual>-0.14</timeResidual>
          <creationInfo>
            <agencyID>UW</agencyID>
            <creationTime>2012-03-08T16:37:04.000000Z</creationTime>
          </creationInfo>
        </arrival>
        <arrival publicID="quakeml:uw.anss.org/AssocArO/UW/10372243">
          <pickID>quakeml:uw.anss.org/Arrival/UW/10372243</pickID>
          <phase>P</phase>
          <azimuth>152.0</azimuth>
          <distance>1.104</distance>
          <timeResidual>0.47</timeResidual>
          <creationInfo>
            <agencyID>UW</agencyID>
            <creationTime>2012-03-08T16:37:04.000000Z</creationTime>
          </creationInfo>
        </arrival>
        <arrival publicID="quakeml:uw.anss.org/AssocArO/UW/10372248">
          <pickID>quakeml:uw.anss.org/Arrival/UW/10372248</pickID>
          <phase>P</phase>
          <azimuth>152.0</azimuth>
          <distance>1.104</distance>
          <timeResidual>0.57</timeResidual>
          <creationInfo>
            <agencyID>UW</agencyID>
            <creationTime>2012-03-08T16:37:04.000000Z</creationTime>
          </creationInfo>
        </arrival>
        <arrival publicID="quakeml:uw.anss.org/AssocArO/UW/10372253">
          <pickID>quakeml:uw.anss.org/Arrival/UW/10372253</pickID>
          <phase>P</phase>
          <azimuth>242.1</azimuth>
          <distance>1.276</distance>
          <timeResidual>-0.23</timeResidual>
          <creationInfo>
            <agencyID>UW</agencyID>
            <creationTime>2012-03-08T16:37:04.000000Z</creationTime>
          </creationInfo>
        </arrival>
        <arrival publicID="quakeml:uw.anss.org/AssocArO/UW/10372258">
          <pickID>quakeml:uw.anss.org/Arrival/UW/10372258</pickID>
          <phase>P</phase>
          <azimuth>215.7</azimuth>
          <distance>0.7718</distance>
          <timeResidual>0.11</timeResidual>
          <creationInfo>
            <agencyID>UW</agencyID>
            <creationTime>2012-03-08T16:37:04.000000Z</creationTime>
          </creationInfo>
        </arrival>
        <arrival publicID="quakeml:uw.anss.org/AssocArO/UW/10372263">
          <pickID>quakeml:uw.anss.org/Arrival/UW/10372263</pickID>
          <phase>S</phase>
          <azimuth>215.7</azimuth>
          <distance>0.7718</distance>
          <timeResidual>0.95</timeResidual>
          <creationInfo>
            <agencyID>UW</agencyID>
            <creationTime>2012-03-08T16:37:04.000000Z</creationTime>
          </creationInfo>
        </arrival>
        <arrival publicID="quakeml:uw.anss.org/AssocArO/UW/10372268">
          <pickID>quakeml:uw.anss.org/Arrival/UW/10372268</pickID>
          <phase>P</phase>
          <azimuth>228.9</azimuth>
          <distance>0.926</distance>
          <timeResidual>-0.16</timeResidual>
          <creationInfo>
            <agencyID>UW</agencyID>
            <creationTime>2012-03-08T16:37:04.000000Z</creationTime>
          </creationInfo>
        </arrival>
        <arrival publicID="quakeml:uw.anss.org/AssocArO/UW/10372273">
          <pickID>quakeml:uw.anss.org/Arrival/UW/10372273</pickID>
          <phase>S</phase>
          <azimuth>228.9</azimuth>
          <distance>0.926</distance>
          <timeResidual>-0.35</timeResidual>
          <creationInfo>
            <agencyID>UW</agencyID>
            <creationTime>2012-03-08T16:37:04.000000Z</creationTime>
          </creationInfo>
        </arrival>
        <arrival publicID="quakeml:uw.anss.org/AssocArO/UW/10372278">
          <pickID>quakeml:uw.anss.org/Arrival/UW/10372278</pickID>
          <phase>P</phase>
          <azimuth>228.9</azimuth>
          <distance>0.9285</distance>
          <timeResidual>-0.17</timeResidual>
          <creationInfo>
            <agencyID>UW</agencyID>
            <creationTime>2012-03-08T16:37:04.000000Z</creationTime>
          </creationInfo>
        </arrival>
        <arrival publicID="quakeml:uw.anss.org/AssocArO/UW/10372283">
          <pickID>quakeml:uw.anss.org/Arrival/UW/10372283</pickID>
          <phase>S</phase>
          <azimuth>229.0</azimuth>
          <distance>0.9268</distance>
          <timeResidual>-0.42</timeResidual>
          <creationInfo>
            <agencyID>UW</agencyID>
            <creationTime>2012-03-08T16:37:04.000000Z</creationTime>
          </creationInfo>
        </arrival>
        <arrival publicID="quakeml:uw.anss.org/AssocArO/UW/10372288">
          <pickID>quakeml:uw.anss.org/Arrival/UW/10372288</pickID>
          <phase>P</phase>
          <azimuth>229.0</azimuth>
          <distance>0.9268</distance>
          <timeResidual>-0.18</timeResidual>
          <creationInfo>
            <agencyID>UW</agencyID>
            <creationTime>2012-03-08T16:37:04.000000Z</creationTime>
          </creationInfo>
        </arrival>
        <arrival publicID="quakeml:uw.anss.org/AssocArO/UW/10372293">
          <pickID>quakeml:uw.anss.org/Arrival/UW/10372293</pickID>
          <phase>P</phase>
          <azimuth>162.7</azimuth>
          <timeResidual>0.61</timeResidual>
          <creationInfo>
            <agencyID>UW</agencyID>
            <creationTime>2012-03-08T16:37:04.000000Z</creationTime>
          </creationInfo>
        </arrival>
        <arrival publicID="quakeml:uw.anss.org/AssocArO/UW/10372298">
          <pickID>quakeml:uw.anss.org/Arrival/UW/10372298</pickID>
          <phase>P</phase>
          <azimuth>207.4</azimuth>
          <distance>0.7478</distance>
          <timeResidual>0.32</timeResidual>
          <creationInfo>
            <agencyID>UW</agencyID>
            <creationTime>2012-03-08T16:37:04.000000Z</creationTime>
          </creationInfo>
        </arrival>
        <arrival publicID="quakeml:uw.anss.org/AssocArO/UW/10372303">
          <pickID>quakeml:uw.anss.org/Arrival/UW/10372303</pickID>
          <phase>P</phase>
          <azimuth>246.2</azimuth>
          <distance>0.6305</distance>
          <timeResidual>0.41</timeResidual>
          <creationInfo>
            <agencyID>UW</agencyID>
