<?xml version='1.0' encoding='utf-8'?>
<q:quakeml xmlns="http://quakeml.org/xmlns/bed/1.2" xmlns:q="http://quakeml.org/xmlns/quakeml/1.2" xmlns:ns0="http://anss.org/xmlns/catalog/0.1">
  <eventParameters publicID="smi:local/6d18e5c5-5573-4b3a-befa-e6b1242324f6">
    <event publicID="quakeml:uw.anss.org/Event/UW/10827528" ns0:datasource="uw" ns0:dataid="uw10827528" ns0:eventsource="uw" ns0:eventid="10827528">
      <preferredOriginID>quakeml:uw.anss.org/Origin/UW/1113273</preferredOriginID>
      <preferredMagnitudeID>quakeml:uw.anss.org/Netmag/UW/2506828</preferredMagnitudeID>
      <type>earthquake</type>
      <creationInfo>
        <agencyID>UW</agencyID>
        <creationTime>2016-11-16T22:52:21.000000Z</creationTime>
        <version>4</version>
      </creationInfo>
      <origin publicID="quakeml:uw.anss.org/Origin/UW/1113273" ns0:datasource="uw" ns0:dataid="uw10827528" ns0:eventsource="uw" ns0:eventid="10827528">
        <time>
          <value>2011-03-31T03:27:43.710000Z</value>
          <uncertainty>0.18</uncertainty>
        </time>
        <latitude>
          <value>48.6075</value>
          <uncertainty>0.99</uncertainty>
        </latitude>
        <longitude>
          <value>-121.2643333</value>
          <uncertainty>0.36</uncertainty>
        </longitude>
        <depth>
          <value>-854.0</value>
          <uncertainty>7030.0</uncertainty>
        </depth>
        <depthType>operator assigned</depthType>
        <timeFixed>false</timeFixed>
        <epicenterFixed>true</epicenterFixed>
        <methodID>smi:uw.anss.org/origin/spong</methodID>
        <quality>
          <associatedPhaseCount>32</associatedPhaseCount>
          <usedPhaseCount>28</usedPhaseCount>
          <associatedStationCount>27</associatedStationCount>
          <usedStationCount>0</usedStationCount>
          <standardError>0.28</standardError>
          <azimuthalGap>170.0</azimuthalGap>
        </quality>
        <type>hypocenter</type>
        <evaluationMode>manual</evaluationMode>
        <evaluationStatus>final</evaluationStatus>
        <creationInfo>
          <agencyID>UW</agencyID>
          <creationTime>2012-03-08T18:26:16.000000Z</creationTime>
        </creationInfo>
        <originUncertainty>
          <preferredDescription>horizontal uncertainty</preferredDescription>
          <horizontalUncertainty>1053.0</horizontalUncertainty>
        </originUncertainty>
        <arrival publicID="quakeml:uw.anss.org/AssocArO/UW/10498843">
          <pickID>quakeml:uw.anss.org/Arrival/UW/10498843</pickID>
          <phase>P</phase>
          <azimuth>170.9</azimuth>
          <distance>1.899</distance>
          <timeResidual>1.05</timeResidual>
          <creationInfo>
            <agencyID>UW</agencyID>
            <creationTime>2012-03-08T18:26:17.000000Z</creationTime>
          </creationInfo>
        </arrival>
        <arrival publicID="quakeml:uw.anss.org/AssocArO/UW/10498848">
          <pickID>quakeml:uw.anss.org/Arrival/UW/10498848</pickID>
          <phase>P</phase>
          <azimuth>130.9</azimuth>
          <distance>0.8176</distance>
          <timeResidual>-0.4</timeResidual>
          <creationInfo>
            <agencyID>UW</agencyID>
            <creationTime>2012-03-08T18:26:17.000000Z</creationTime>
          </creationInfo>
        </arrival>
        <arrival publicID="quakeml:uw.anss.org/AssocArO/UW/10498853">
          <pickID>quakeml:uw.anss.org/Arrival/UW/10498853</pickID>
          <phase>P</phase>
          <azimuth>197.1</azimuth>
          <distance>1.237</distance>
          <timeResidual>-0.19</timeResidual>
          <creationInfo>
            <agencyID>UW</agencyID>
            <creationTime>2012-03-08T18:26:17.000000Z</creationTime>
          </creationInfo>
        </arrival>
        <arrival publicID="quakeml:uw.anss.org/AssocArO/UW/10498863">
          <pickID>quakeml:uw.anss.org/Arrival/UW/10498863</pickID>
          <phase>P</phase>
          <azimuth>147.9</azimuth>
          <distance>1.182</distance>
          <timeResidual>-0.04</timeResidual>
          <creationInfo>
            <agencyID>UW</agencyID>
            <creationTime>2012-03-08T18:26:17.000000Z</creationTime>
          </creationInfo>
        </arrival>
        <arrival publicID="quakeml:uw.anss.org/AssocArO/UW/10498868">
          <pickID>quakeml:uw.anss.org/Arrival/UW/10498868</pickID>
          <phase>P</phase>
          <azimuth>225.6</azimuth>
          <distance>1.478</distance>
          <timeResidual>-0.23</timeResidual>
          <creationInfo>
            <agencyID>UW</agencyID>
            <creationTime>2012-03-08T18:26:17.000000Z</creationTime>
          </creationInfo>
        </arrival>
        <arrival publicID="quakeml:uw.anss.org/AssocArO/UW/10498873">
          <pickID>quakeml:uw.anss.org/Arrival/UW/10498873</pickID>
          <phase>P</phase>
          <azimuth>272.5</azimuth>
          <distance>1.449</distance>
          <timeResidual>0.08</timeResidual>
          <creationInfo>
            <agencyID>UW</agencyID>
            <creationTime>2012-03-08T18:26:17.000000Z</creationTime>
          </creationInfo>
        </arrival>
        <arrival publicID="quakeml:uw.anss.org/AssocArO/UW/10498878">
          <pickID>quakeml:uw.anss.org/Arrival/UW/10498878</pickID>
          <phase>P</phase>
          <azimuth>234.7</azimuth>
          <distance>1.358</distance>
          <timeResidual>0.24</timeResidual>
          <creationInfo>
            <agencyID>UW</agencyID>
            <creationTime>2012-03-08T18:26:17.000000Z</creationTime>
          </creationInfo>
        </arrival>
        <arrival publicID="quakeml:uw.anss.org/AssocArO/UW/10498883">
          <pickID>quakeml:uw.anss.org/Arrival/UW/10498883</pickID>
          <phase>P</phase>
          <azimuth>232.6</azimuth>
          <distance>1.449</distance>
          <timeResidual>-0.05</timeResidual>
          <creationInfo>
            <agencyID>UW</agencyID>
            <creationTime>2012-03-08T18:26:17.000000Z</creationTime>
          </creationInfo>
        </arrival>
        <arrival publicID="quakeml:uw.anss.org/AssocArO/UW/10498888">
          <pickID>quakeml:uw.anss.org/Arrival/UW/10498888</pickID>
          <phase>P</phase>
          <azimuth>246.2</azimuth>
          <distance>1.368</distance>
          <timeResidual>0.4</timeResidual>
          <creationInfo>
            <agencyID>UW</agencyID>
            <creationTime>2012-03-08T18:26:17.000000Z</creationTime>
          </creationInfo>
        </arrival>
        <arrival publicID="quakeml:uw.anss.org/AssocArO/UW/10498893">
          <pickID>quakeml:uw.anss.org/Arrival/UW/10498893</pickID>
          <phase>P</phase>
          <azimuth>252.3</azimuth>
          <distance>0.5982</distance>
          <timeResidual>0.32</timeResidual>
          <creationInfo>
            <agencyID>UW</agencyID>
            <creationTime>2012-03-08T18:26:17.000000Z</creationTime>
          </creationInfo>
        </arrival>
        <arrival publicID="quakeml:uw.anss.org/AssocArO/UW/10498898">
          <pickID>quakeml:uw.anss.org/Arrival/UW/10498898</pickID>
          <phase>P</phase>
          <azimuth>312.2</azimuth>
          <distance>0.3673</distance>
          <timeResidual>0.07</timeResidual>
          <creationInfo>
            <agencyID>UW</agencyID>
            <creationTime>2012-03-08T18:26:17.000000Z</creationTime>
          </creationInfo>
        </arrival>
        <arrival publicID="quakeml:uw.anss.org/AssocArO/UW/10498903">
          <pickID>quakeml:uw.anss.org/Arrival/UW/10498903</pickID>
          <phase>S</phase>
          <azimuth>312.2</azimuth>
          <distance>0.3673</distance>
          <timeResidual>-0.39</timeResidual>
          <creationInfo>
            <agencyID>UW</agencyID>
            <creationTime>2012-03-08T18:26:17.000000Z</creationTime>
          </creationInfo>
        </arrival>
        <arrival publicID="quakeml:uw.anss.org/AssocArO/UW/10498908">
          <pickID>quakeml:uw.anss.org/Arrival/UW/10498908</pickID>
          <phase>S</phase>
          <azimuth>238.4</azimuth>
          <distance>0.6518</distance>
          <timeResidual>-0.49</timeResidual>
          <creationInfo>
            <agencyID>UW</agencyID>
            <creationTime>2012-03-08T18:26:17.000000Z</creationTime>
          </creationInfo>
        </arrival>
        <arrival publicID="quakeml:uw.anss.org/AssocArO/UW/10498913">
          <pickID>quakeml:uw.anss.org/Arrival/UW/10498913</pickID>
          <phase>P</phase>
          <azimuth>170.2</azimuth>
          <distance>0.4972</distance>
          <timeResidual>-0.01</timeResidual>
          <creationInfo>
            <agencyID>UW</agencyID>
            <creationTime>2012-03-08T18:26:17.000000Z</creationTime>
          </creationInfo>
        </arrival>
        <arrival publicID="quakeml:uw.anss.org/AssocArO/UW/10498918">
          <pickID>quakeml:uw.anss.org/Arrival/UW/10498918</pickID>
          <phase>S</phase>
          <azimuth>170.2</azimuth>
          <distance>0.4972</distance>
          <timeResidual>-0.65</timeResidual>
          <creationInfo>
            <agencyID>UW</agencyID>
            <creationTime>2012-03-08T18:26:17.000000Z</creationTime>
          </creationInfo>
        </arrival>
        <arrival publicID="quakeml:uw.anss.org/AssocArO/UW/10498923">
          <pickID>quakeml:uw.anss.org/Arrival/UW/10498923</pickID>
          <phase>P</phase>
          <azimuth>272.5</azimuth>
          <distance>1.452</distance>
          <timeResidual>0.14</timeResidual>
          <creationInfo>
            <agencyID>UW</agencyID>
            <creationTime>2012-03-08T18:26:17.000000Z</creationTime>
          </creationInfo>
        </arrival>
        <arrival publicID="quakeml:uw.anss.org/AssocArO/UW/10498928">
          <pickID>quakeml:uw.anss.org/Arrival/UW/10498928</pickID>
          <phase>P</phase>
          <azimuth>226.3</azimuth>
          <distance>0.2306</distance>
          <timeResidual>-0.11</timeResidual>
          <creationInfo>
            <agencyID>UW</agencyID>
            <creationTime>2012-03-08T18:26:17.000000Z</creationTime>
          </creationInfo>
        </arrival>
        <arrival publicID="quakeml:uw.anss.org/AssocArO/UW/10498933">
          <pickID>quakeml:uw.anss.org/Arrival/UW/10498933</pickID>
          <phase>S</phase>
          <azimuth>226.3</azimuth>
          <distance>0.2306</distance>
          <timeResidual>-0.5</timeResidual>
          <creationInfo>
            <agencyID>UW</agencyID>
            <creationTime>2012-03-08T18:26:17.000000Z</creationTime>
          </creationInfo>
        </arrival>
        <arrival publicID="quakeml:uw.anss.org/AssocArO/UW/10498938">
          <pickID>quakeml:uw.anss.org/Arrival/UW/10498938</pickID>
          <phase>P</phase>
          <azimuth>293.0</azimuth>
          <distance>0.4572</distance>
          <timeResidual>-0.5</timeResidual>
          <creationInfo>
            <agencyID>UW</agencyID>
            <creationTime>2012-03-08T18:26:17.000000Z</creationTime>
          </creationInfo>
        </arrival>
        <arrival publicID="quakeml:uw.anss.org/AssocArO/UW/10498943">
          <pickID>quakeml:uw.anss.org/Arrival/UW/10498943</pickID>
          <phase>S</phase>
          <azimuth>293.0</azimuth>
          <distance>0.4572</distance>
          <timeResidual>-1.29</timeResidual>
          <creationInfo>
            <agencyID>UW</agencyID>
            <creationTime>2012-03-08T18:26:17.000000Z</creationTime>
          </creationInfo>
        </arrival>
        <arrival publicID="quakeml:uw.anss.org/AssocArO/UW/10498948">
          <pickID>quakeml:uw.anss.org/Arrival/UW/10498948</pickID>
          <phase>P</phase>
          <azimuth>227.1</azimuth>
          <timeResidual>-0.01</timeResidual>
          <creationInfo>
            <agencyID>UW</agencyID>
            <creationTime>2012-03-08T18:26:17.000000Z</creationTime>
          </creationInfo>
        </arrival>
        <arrival publicID="quakeml:uw.anss.org/AssocArO/UW/10498953">
          <pickID>quakeml:uw.anss.org/Arrival/UW/10498953</pickID>
          <phase>P</phase>
          <azimuth>250.6</azimuth>
          <distance>1.593</distance>
          <timeResidual>-0.18</timeResidual>
          <creationInfo>
            <agencyID>UW</agencyID>
            <creationTime>2012-03-08T18:26:17.000000Z</creationTime>
          </creationInfo>
        </arrival>
        <arrival publicID="quakeml:uw.anss.org/AssocArO/UW/10498958">
          <pickID>quakeml:uw.anss.org/Arrival/UW/10498958</pickID>
          <phase>P</phase>
          <azimuth>189.5</azimuth>
          <timeResidual>0.43</timeResidual>
          <creationInfo>
            <agencyID>UW</agencyID>
            <creationTime>2012-03-08T18:26:17.000000Z</creationTime>
          </creationInfo>
        </arrival>
        <arrival publicID="quakeml:uw.anss.org/AssocArO/UW/10498963">
          <pickID>quakeml:uw.anss.org/Arrival/UW/10498963</pickID>
          <phase>P</phase>
          <azimuth>121.5</azimuth>
          <distance>1.175</distance>
          <timeResidual>0.31</timeResidual>
          <creationInfo>
            <agencyID>UW</agencyID>
            <creationTime>2012-03-08T18:26:17.000000Z</creationTime>
          </creationInfo>
        </arrival>
        <arrival publicID="quakeml:uw.anss.org/AssocArO/UW/10498968">
          <pickID>quakeml:uw.anss.org/Arrival/UW/10498968</pickID>
          <phase>P</phase>
          <azimuth>161.2</azimuth>
          <distance>0.7937</distance>
          <timeResidual>-0.19</timeResidual>
          <creationInfo>
            <agencyID>UW</agencyID>
            <creationTime>2012-03-08T18:26:17.000000Z</creationTime>
          </creationInfo>
        </arrival>
        <arrival publicID="quakeml:uw.anss.org/AssocArO/UW/10498973">
          <pickID>quakeml:uw.anss.org/Arrival/UW/10498973</pickID>
          <phase>P</phase>
          <azimuth>135.7</azimuth>
          <distance>1.263</distance>
          <timeResidual>-0.16</timeResidual>
          <creationInfo>
            <agencyID>UW</agencyID>
            <creationTime>2012-03-08T18:26:17.000000Z</creationTime>
          </creationInfo>
        </arrival>
        <arrival publicID="quakeml:uw.anss.org/AssocArO/UW/10498978">
          <pickID>quakeml:uw.anss.org/Arrival/UW/10498978</pickID>
          <phase>P</phase>
          <azimuth>238.6</azimuth>
          <distance>0.1713</distance>
          <timeResidual>0.15</timeResidual>
          <creationInfo>
            <agencyID>UW</agencyID>
            <creationTime>2012-03-08T18:26:17.000000Z</creationTime>
          </creationInfo>
        </arrival>
        <arrival publicID="quakeml:uw.anss.org/AssocArO/UW/10498983">
          <pickID>quakeml:uw.anss.org/Arrival/UW/10498983</pickID>
          <phase>S</phase>
          <azimuth>238.6</azimuth>
          <distance>0.1713</distance>
          <timeResidual>-0.13</timeResidual>
          <creationInfo>
            <agencyID>UW</agencyID>
            <creationTime>2012-03-08T18:26:17.000000Z</creationTime>
          </creationInfo>
        </arrival>
        <arrival publicID="quakeml:uw.anss.org/AssocArO/UW/10498988">
          <pickID>quakeml:uw.anss.org/Arrival/UW/10498988</pickID>
          <phase>P</phase>
          <azimuth>202.9</azimuth>
          <distance>0.8723</distance>
          <timeResidual>-0.05</timeResidual>
          <creationInfo>
            <agencyID>UW</agencyID>
            <creationTime>2012-03-08T18:26:17.000000Z</creationTime>
          </creationInfo>
        </arrival>
        <arrival publicID="quakeml:uw.anss.org/AssocArO/UW/10498993">
          <pickID>quakeml:uw.anss.org/Arrival/UW/10498993</pickID>
          <phase>P</phase>
          <azimuth>134.1</azimuth>
          <distance>1.146</distance>
          <timeResidual>0.03</timeResidual>
          <creationInfo>
            <agencyID>UW</agencyID>
            <creationTime>2012-03-08T18:26:17.000000Z</creationTime>
          </creationInfo>
        </arrival>
        <arrival publicID="quakeml:uw.anss.org/AssocArO/UW/10498998">
          <pickID>quakeml:uw.anss.org/Arrival/UW/10498998</pickID>
          <phase>P</phase>
          <azimuth>274.5</azimuth>
          <distance>1.043</distance>
          <timeResidual>0.22</timeResidual>
          <creationInfo>
            <agencyID>UW</agencyID>
            <creationTime>2012-03-08T18:26:17.000000Z</creationTime>
          </creationInfo>
        </arrival>
        <arrival publicID="quakeml:uw.anss.org/AssocArO/UW/10499003">
          <pickID>quakeml:uw.anss.org/Arrival/UW/10499003</pickID>
          <phase>P</phase>
          <azimuth>213.9</azimuth>
          <distance>0.9274</distance>
          <timeResidual>0.51</timeResidual>
          <creationInfo>
            <agencyID>UW</agencyID>
            <creationTime>2012-03-08T18:26:17.000000Z</creationTime>
          </creationInfo>
        </arrival>
      </origin>
      <magnitude publicID="quakeml:uw.anss.org/Netmag/UW/2506828">
        <mag>
          <value>2.38</value>
          <uncertainty>0.143</uncertainty>
        </mag>
        <type>Ml</type>
        <originID>quakeml:uw.anss.org/Origin/UW/1113273</originID>
        <methodID>smi:uw.anss.org/magnitude/RichterMl2</methodID>
        <stationCount>16</stationCount>
        <azimuthalGap>182.0</azimuthalGap>
        <evaluationMode>automatic</evaluationMode>
        <evaluationStatus>preliminary</evaluationStatus>
        <stationMagnitudeContribution>
          <stationMagnitudeID>quakeml:uw.anss.org/AssocAmM/UW/9098273</stationMagnitudeID>
          <weight>1.0</weight>
          <residual>0.1</residual>
        </stationMagnitudeContribution>
        <stationMagnitudeContribution>
          <stationMagnitudeID>quakeml:uw.anss.org/AssocAmM/UW/9098203</stationMagnitudeID>
          <weight>0.0</weight>
          <residual>0.9</residual>
        </stationMagnitudeContribution>
        <stationMagnitudeContribution>
          <stationMagnitudeID>quakeml:uw.anss.org/AssocAmM/UW/9098213</stationMagnitudeID>
          <weight>1.0</weight>
          <residual>0.01</residual>
        </stationMagnitudeContribution>
        <stationMagnitudeContribution>
          <stationMagnitudeID>quakeml:uw.anss.org/AssocAmM/UW/9098163</stationMagnitudeID>
          <weight>1.0</weight>
          <residual>-0.07</residual>
        </stationMagnitudeContribution>
        <stationMagnitudeContribution>
          <stationMagnitudeID>quakeml:uw.anss.org/AssocAmM/UW/9098138</stationMagnitudeID>
          <weight>1.0</weight>
          <residual>-0.36</residual>
        </stationMagnitudeContribution>
        <stationMagnitudeContribution>
          <stationMagnitudeID>quakeml:uw.anss.org/AssocAmM/UW/9098233</stationMagnitudeID>
          <weight>1.0</weight>
          <residual>0.25</residual>
        </stationMagnitudeContribution>
        <stationMagnitudeContribution>
          <stationMagnitudeID>quakeml:uw.anss.org/AssocAmM/UW/9098228</stationMagnitudeID>
          <weight>1.0</weight>
          <residual>0.15</residual>
        </stationMagnitudeContribution>
        <stationMagnitudeContribution>
          <stationMagnitudeID>quakeml:uw.anss.org/AssocAmM/UW/9098168</stationMagnitudeID>
          <weight>1.0</weight>
          <residual>0.0</residual>
        </stationMagnitudeContribution>
        <stationMagnitudeContribution>
          <stationMagnitudeID>quakeml:uw.anss.org/AssocAmM/UW/9098183</stationMagnitudeID>
          <weight>1.0</weight>
          <residual>-0.15</residual>
        </stationMagnitudeContribution>
        <stationMagnitudeContribution>
          <stationMagnitudeID>quakeml:uw.anss.org/AssocAmM/UW/9098158</stationMagnitudeID>
          <weight>1.0</weight>
          <residual>-0.04</residual>
        </stationMagnitudeContribution>
        <stationMagnitudeContribution>
          <stationMagnitudeID>quakeml:uw.anss.org/AssocAmM/UW/9098208</stationMagnitudeID>
          <weight>1.0</weight>
