<?xml version='1.0' encoding='utf-8'?>
<q:quakeml xmlns="http://quakeml.org/xmlns/bed/1.2" xmlns:q="http://quakeml.org/xmlns/quakeml/1.2" xmlns:ns0="http://anss.org/xmlns/catalog/0.1">
  <eventParameters publicID="smi:local/6cff9f35-604d-4423-9956-cace2870fdef">
    <event publicID="quakeml:uw.anss.org/Event/UW/10821213" ns0:datasource="uw" ns0:dataid="uw10821213" ns0:eventsource="uw" ns0:eventid="10821213">
      <preferredOriginID>quakeml:uw.anss.org/Origin/UW/1106958</preferredOriginID>
      <preferredMagnitudeID>quakeml:uw.anss.org/Netmag/UW/2503768</preferredMagnitudeID>
      <type>earthquake</type>
      <creationInfo>
        <agencyID>UW</agencyID>
        <creationTime>2016-11-16T22:06:47.000000Z</creationTime>
        <version>4</version>
      </creationInfo>
      <origin publicID="quakeml:uw.anss.org/Origin/UW/1106958" ns0:datasource="uw" ns0:dataid="uw10821213" ns0:eventsource="uw" ns0:eventid="10821213">
        <time>
          <value>2011-08-10T22:30:41.370000Z</value>
          <uncertainty>0.15</uncertainty>
        </time>
        <latitude>
          <value>48.8381667</value>
          <uncertainty>0.56</uncertainty>
        </latitude>
        <longitude>
          <value>-122.12</value>
          <uncertainty>0.85</uncertainty>
        </longitude>
        <depth>
          <value>12703.0</value>
          <uncertainty>2240.0</uncertainty>
        </depth>
        <depthType>from location</depthType>
        <timeFixed>false</timeFixed>
        <epicenterFixed>false</epicenterFixed>
        <methodID>smi:uw.anss.org/origin/spong</methodID>
        <quality>
          <associatedPhaseCount>29</associatedPhaseCount>
          <usedPhaseCount>24</usedPhaseCount>
          <associatedStationCount>19</associatedStationCount>
          <usedStationCount>0</usedStationCount>
          <standardError>0.3</standardError>
          <azimuthalGap>97.0</azimuthalGap>
        </quality>
        <type>hypocenter</type>
        <evaluationMode>manual</evaluationMode>
        <evaluationStatus>final</evaluationStatus>
        <creationInfo>
          <agencyID>UW</agencyID>
          <creationTime>2012-03-08T17:24:58.000000Z</creationTime>
        </creationInfo>
        <originUncertainty>
          <preferredDescription>horizontal uncertainty</preferredDescription>
          <horizontalUncertainty>1018.0</horizontalUncertainty>
        </originUncertainty>
        <arrival publicID="quakeml:uw.anss.org/AssocArO/UW/10422913">
          <pickID>quakeml:uw.anss.org/Arrival/UW/10422913</pickID>
          <phase>P</phase>
          <azimuth>122.4</azimuth>
          <distance>1.412</distance>
          <timeResidual>1.51</timeResidual>
          <creationInfo>
            <agencyID>UW</agencyID>
            <creationTime>2012-03-08T17:24:58.000000Z</creationTime>
          </creationInfo>
        </arrival>
        <arrival publicID="quakeml:uw.anss.org/AssocArO/UW/10422918">
          <pickID>quakeml:uw.anss.org/Arrival/UW/10422918</pickID>
          <phase>P</phase>
          <azimuth>168.7</azimuth>
          <timeResidual>0.09</timeResidual>
          <creationInfo>
            <agencyID>UW</agencyID>
            <creationTime>2012-03-08T17:24:58.000000Z</creationTime>
          </creationInfo>
        </arrival>
        <arrival publicID="quakeml:uw.anss.org/AssocArO/UW/10422923">
          <pickID>quakeml:uw.anss.org/Arrival/UW/10422923</pickID>
          <phase>S</phase>
          <azimuth>168.7</azimuth>
          <timeResidual>0.67</timeResidual>
          <creationInfo>
            <agencyID>UW</agencyID>
            <creationTime>2012-03-08T17:24:58.000000Z</creationTime>
          </creationInfo>
        </arrival>
        <arrival publicID="quakeml:uw.anss.org/AssocArO/UW/10422928">
          <pickID>quakeml:uw.anss.org/Arrival/UW/10422928</pickID>
          <phase>P</phase>
          <azimuth>230.1</azimuth>
          <distance>1.206</distance>
          <timeResidual>-0.34</timeResidual>
          <creationInfo>
            <agencyID>UW</agencyID>
            <creationTime>2012-03-08T17:24:58.000000Z</creationTime>
          </creationInfo>
        </arrival>
        <arrival publicID="quakeml:uw.anss.org/AssocArO/UW/10422933">
          <pickID>quakeml:uw.anss.org/Arrival/UW/10422933</pickID>
          <phase>S</phase>
          <azimuth>230.1</azimuth>
          <distance>1.206</distance>
          <timeResidual>-1.29</timeResidual>
          <creationInfo>
            <agencyID>UW</agencyID>
            <creationTime>2012-03-08T17:24:58.000000Z</creationTime>
          </creationInfo>
        </arrival>
        <arrival publicID="quakeml:uw.anss.org/AssocArO/UW/10422938">
          <pickID>quakeml:uw.anss.org/Arrival/UW/10422938</pickID>
          <phase>P</phase>
          <azimuth>178.4</azimuth>
          <distance>0.5748</distance>
          <timeResidual>0.57</timeResidual>
          <creationInfo>
            <agencyID>UW</agencyID>
            <creationTime>2012-03-08T17:24:58.000000Z</creationTime>
          </creationInfo>
        </arrival>
        <arrival publicID="quakeml:uw.anss.org/AssocArO/UW/10422943">
          <pickID>quakeml:uw.anss.org/Arrival/UW/10422943</pickID>
          <phase>S</phase>
          <azimuth>178.4</azimuth>
          <distance>0.5748</distance>
          <timeResidual>0.47</timeResidual>
          <creationInfo>
            <agencyID>UW</agencyID>
            <creationTime>2012-03-08T17:24:58.000000Z</creationTime>
          </creationInfo>
        </arrival>
        <arrival publicID="quakeml:uw.anss.org/AssocArO/UW/10422948">
          <pickID>quakeml:uw.anss.org/Arrival/UW/10422948</pickID>
          <phase>P</phase>
          <azimuth>134.1</azimuth>
          <distance>0.5599</distance>
          <timeResidual>-0.02</timeResidual>
          <creationInfo>
            <agencyID>UW</agencyID>
            <creationTime>2012-03-08T17:24:58.000000Z</creationTime>
          </creationInfo>
        </arrival>
        <arrival publicID="quakeml:uw.anss.org/AssocArO/UW/10422953">
          <pickID>quakeml:uw.anss.org/Arrival/UW/10422953</pickID>
          <phase>S</phase>
          <azimuth>134.1</azimuth>
          <distance>0.5599</distance>
          <timeResidual>-0.42</timeResidual>
          <creationInfo>
            <agencyID>UW</agencyID>
            <creationTime>2012-03-08T17:24:58.000000Z</creationTime>
          </creationInfo>
        </arrival>
        <arrival publicID="quakeml:uw.anss.org/AssocArO/UW/10422958">
          <pickID>quakeml:uw.anss.org/Arrival/UW/10422958</pickID>
          <phase>P</phase>
          <azimuth>230.2</azimuth>
          <distance>1.206</distance>
          <timeResidual>-0.37</timeResidual>
          <creationInfo>
            <agencyID>UW</agencyID>
            <creationTime>2012-03-08T17:24:58.000000Z</creationTime>
          </creationInfo>
        </arrival>
        <arrival publicID="quakeml:uw.anss.org/AssocArO/UW/10422963">
          <pickID>quakeml:uw.anss.org/Arrival/UW/10422963</pickID>
          <phase>S</phase>
          <azimuth>230.2</azimuth>
          <distance>1.206</distance>
          <timeResidual>-1.31</timeResidual>
          <creationInfo>
            <agencyID>UW</agencyID>
            <creationTime>2012-03-08T17:24:58.000000Z</creationTime>
          </creationInfo>
        </arrival>
        <arrival publicID="quakeml:uw.anss.org/AssocArO/UW/10422968">
          <pickID>quakeml:uw.anss.org/Arrival/UW/10422968</pickID>
          <phase>P</phase>
          <azimuth>258.4</azimuth>
          <distance>0.9017</distance>
          <timeResidual>0.18</timeResidual>
          <creationInfo>
            <agencyID>UW</agencyID>
            <creationTime>2012-03-08T17:24:58.000000Z</creationTime>
          </creationInfo>
        </arrival>
        <arrival publicID="quakeml:uw.anss.org/AssocArO/UW/10422973">
          <pickID>quakeml:uw.anss.org/Arrival/UW/10422973</pickID>
          <phase>S</phase>
          <azimuth>258.4</azimuth>
          <distance>0.9017</distance>
          <timeResidual>-0.54</timeResidual>
          <creationInfo>
            <agencyID>UW</agencyID>
            <creationTime>2012-03-08T17:24:58.000000Z</creationTime>
          </creationInfo>
        </arrival>
        <arrival publicID="quakeml:uw.anss.org/AssocArO/UW/10422978">
          <pickID>quakeml:uw.anss.org/Arrival/UW/10422978</pickID>
          <phase>P</phase>
          <azimuth>258.3</azimuth>
          <distance>0.8992</distance>
          <timeResidual>-0.43</timeResidual>
          <creationInfo>
            <agencyID>UW</agencyID>
            <creationTime>2012-03-08T17:24:58.000000Z</creationTime>
          </creationInfo>
        </arrival>
        <arrival publicID="quakeml:uw.anss.org/AssocArO/UW/10422983">
          <pickID>quakeml:uw.anss.org/Arrival/UW/10422983</pickID>
          <phase>S</phase>
          <azimuth>258.3</azimuth>
          <distance>0.8992</distance>
          <timeResidual>-1.57</timeResidual>
          <creationInfo>
            <agencyID>UW</agencyID>
            <creationTime>2012-03-08T17:24:58.000000Z</creationTime>
          </creationInfo>
        </arrival>
        <arrival publicID="quakeml:uw.anss.org/AssocArO/UW/10422988">
          <pickID>quakeml:uw.anss.org/Arrival/UW/10422988</pickID>
          <phase>P</phase>
          <azimuth>349.9</azimuth>
          <distance>0.07959</distance>
          <timeResidual>0.04</timeResidual>
          <creationInfo>
            <agencyID>UW</agencyID>
            <creationTime>2012-03-08T17:24:58.000000Z</creationTime>
          </creationInfo>
        </arrival>
        <arrival publicID="quakeml:uw.anss.org/AssocArO/UW/10422993">
          <pickID>quakeml:uw.anss.org/Arrival/UW/10422993</pickID>
          <phase>P</phase>
          <azimuth>230.1</azimuth>
          <distance>1.208</distance>
          <timeResidual>-0.32</timeResidual>
          <creationInfo>
            <agencyID>UW</agencyID>
            <creationTime>2012-03-08T17:24:58.000000Z</creationTime>
          </creationInfo>
        </arrival>
        <arrival publicID="quakeml:uw.anss.org/AssocArO/UW/10422998">
          <pickID>quakeml:uw.anss.org/Arrival/UW/10422998</pickID>
          <phase>S</phase>
          <azimuth>230.1</azimuth>
          <distance>1.208</distance>
          <timeResidual>-1.19</timeResidual>
          <creationInfo>
            <agencyID>UW</agencyID>
            <creationTime>2012-03-08T17:24:58.000000Z</creationTime>
          </creationInfo>
        </arrival>
        <arrival publicID="quakeml:uw.anss.org/AssocArO/UW/10423003">
          <pickID>quakeml:uw.anss.org/Arrival/UW/10423003</pickID>
          <phase>P</phase>
          <azimuth>303.9</azimuth>
          <distance>1.381</distance>
          <timeResidual>0.3</timeResidual>
          <creationInfo>
            <agencyID>UW</agencyID>
            <creationTime>2012-03-08T17:24:58.000000Z</creationTime>
          </creationInfo>
        </arrival>
        <arrival publicID="quakeml:uw.anss.org/AssocArO/UW/10423008">
          <pickID>quakeml:uw.anss.org/Arrival/UW/10423008</pickID>
          <phase>P</phase>
          <azimuth>251.6</azimuth>
          <distance>0.4977</distance>
          <timeResidual>-0.13</timeResidual>
          <creationInfo>
            <agencyID>UW</agencyID>
            <creationTime>2012-03-08T17:24:58.000000Z</creationTime>
          </creationInfo>
        </arrival>
        <arrival publicID="quakeml:uw.anss.org/AssocArO/UW/10423013">
          <pickID>quakeml:uw.anss.org/Arrival/UW/10423013</pickID>
          <phase>P</phase>
          <azimuth>230.1</azimuth>
          <distance>1.208</distance>
          <timeResidual>-0.34</timeResidual>
          <creationInfo>
            <agencyID>UW</agencyID>
            <creationTime>2012-03-08T17:24:58.000000Z</creationTime>
          </creationInfo>
        </arrival>
        <arrival publicID="quakeml:uw.anss.org/AssocArO/UW/10423018">
          <pickID>quakeml:uw.anss.org/Arrival/UW/10423018</pickID>
          <phase>P</phase>
          <azimuth>220.5</azimuth>
          <distance>1.042</distance>
          <timeResidual>0.29</timeResidual>
          <creationInfo>
            <agencyID>UW</agencyID>
            <creationTime>2012-03-08T17:24:58.000000Z</creationTime>
          </creationInfo>
        </arrival>
        <arrival publicID="quakeml:uw.anss.org/AssocArO/UW/10423023">
          <pickID>quakeml:uw.anss.org/Arrival/UW/10423023</pickID>
          <phase>P</phase>
          <azimuth>242.4</azimuth>
          <distance>0.9057</distance>
          <timeResidual>0.21</timeResidual>
          <creationInfo>
            <agencyID>UW</agencyID>
            <creationTime>2012-03-08T17:24:58.000000Z</creationTime>
          </creationInfo>
        </arrival>
        <arrival publicID="quakeml:uw.anss.org/AssocArO/UW/10423028">
          <pickID>quakeml:uw.anss.org/Arrival/UW/10423028</pickID>
          <phase>P</phase>
          <azimuth>180.0</azimuth>
          <distance>0.415</distance>
          <timeResidual>-0.53</timeResidual>
          <creationInfo>
            <agencyID>UW</agencyID>
            <creationTime>2012-03-08T17:24:58.000000Z</creationTime>
          </creationInfo>
        </arrival>
        <arrival publicID="quakeml:uw.anss.org/AssocArO/UW/10423033">
          <pickID>quakeml:uw.anss.org/Arrival/UW/10423033</pickID>
          <phase>S</phase>
          <azimuth>180.0</azimuth>
          <distance>0.415</distance>
          <timeResidual>0.38</timeResidual>
          <creationInfo>
            <agencyID>UW</agencyID>
            <creationTime>2012-03-08T17:24:58.000000Z</creationTime>
          </creationInfo>
        </arrival>
        <arrival publicID="quakeml:uw.anss.org/AssocArO/UW/10423038">
          <pickID>quakeml:uw.anss.org/Arrival/UW/10423038</pickID>
          <phase>P</phase>
          <azimuth>110.6</azimuth>
          <distance>0.1547</distance>
          <timeResidual>-0.08</timeResidual>
          <creationInfo>
            <agencyID>UW</agencyID>
            <creationTime>2012-03-08T17:24:58.000000Z</creationTime>
          </creationInfo>
        </arrival>
        <arrival publicID="quakeml:uw.anss.org/AssocArO/UW/10423043">
          <pickID>quakeml:uw.anss.org/Arrival/UW/10423043</pickID>
          <phase>P</phase>
          <azimuth>87.0</azimuth>
          <distance>0.293</distance>
          <timeResidual>0.47</timeResidual>
          <creationInfo>
            <agencyID>UW</agencyID>
            <creationTime>2012-03-08T17:24:58.000000Z</creationTime>
          </creationInfo>
        </arrival>
        <arrival publicID="quakeml:uw.anss.org/AssocArO/UW/10423048">
          <pickID>quakeml:uw.anss.org/Arrival/UW/10423048</pickID>
          <phase>P</phase>
          <azimuth>127.1</azimuth>
          <distance>0.5291</distance>
          <timeResidual>0.24</timeResidual>
          <creationInfo>
            <agencyID>UW</agencyID>
            <creationTime>2012-03-08T17:24:58.000000Z</creationTime>
          </creationInfo>
        </arrival>
        <arrival publicID="quakeml:uw.anss.org/AssocArO/UW/10423053">
          <pickID>quakeml:uw.anss.org/Arrival/UW/10423053</pickID>
          <phase>S</phase>
          <azimuth>127.1</azimuth>
          <distance>0.5291</distance>
          <timeResidual>0.08</timeResidual>
          <creationInfo>
            <agencyID>UW</agencyID>
            <creationTime>2012-03-08T17:24:58.000000Z</creationTime>
          </creationInfo>
        </arrival>
      </origin>
      <magnitude publicID="quakeml:uw.anss.org/Netmag/UW/2503768">
        <mag>
          <value>2.1</value>
          <uncertainty>0.163</uncertainty>
        </mag>
        <type>Ml</type>
        <originID>quakeml:uw.anss.org/Origin/UW/1106958</originID>
        <methodID>smi:uw.anss.org/magnitude/RichterMl2</methodID>
        <stationCount>11</stationCount>
        <azimuthalGap>132.8</azimuthalGap>
        <evaluationMode>automatic</evaluationMode>
        <evaluationStatus>preliminary</evaluationStatus>
        <stationMagnitudeContribution>
          <stationMagnitudeID>quakeml:uw.anss.org/AssocAmM/UW/9053753</stationMagnitudeID>
          <weight>1.0</weight>
          <residual>-0.02</residual>
        </stationMagnitudeContribution>
        <stationMagnitudeContribution>
          <stationMagnitudeID>quakeml:uw.anss.org/AssocAmM/UW/9053703</stationMagnitudeID>
          <weight>1.0</weight>
          <residual>0.15</residual>
        </stationMagnitudeContribution>
        <stationMagnitudeContribution>
          <stationMagnitudeID>quakeml:uw.anss.org/AssocAmM/UW/9053718</stationMagnitudeID>
          <weight>1.0</weight>
          <residual>-0.38</residual>
        </stationMagnitudeContribution>
        <stationMagnitudeContribution>
          <stationMagnitudeID>quakeml:uw.anss.org/AssocAmM/UW/9053758</stationMagnitudeID>
          <weight>0.0</weight>
          <residual>-0.84</residual>
        </stationMagnitudeContribution>
        <stationMagnitudeContribution>
          <stationMagnitudeID>quakeml:uw.anss.org/AssocAmM/UW/9053688</stationMagnitudeID>
          <weight>1.0</weight>
          <residual>0.27</residual>
        </stationMagnitudeContribution>
        <stationMagnitudeContribution>
          <stationMagnitudeID>quakeml:uw.anss.org/AssocAmM/UW/9053748</stationMagnitudeID>
          <weight>1.0</weight>
          <residual>-0.01</residual>
        </stationMagnitudeContribution>
        <stationMagnitudeContribution>
          <stationMagnitudeID>quakeml:uw.anss.org/AssocAmM/UW/9053693</stationMagnitudeID>
          <weight>1.0</weight>
          <residual>0.01</residual>
        </stationMagnitudeContribution>
        <stationMagnitudeContribution>
          <stationMagnitudeID>quakeml:uw.anss.org/AssocAmM/UW/9053683</stationMagnitudeID>
          <weight>1.0</weight>
          <residual>-0.02</residual>
        </stationMagnitudeContribution>
        <stationMagnitudeContribution>
          <stationMagnitudeID>quakeml:uw.anss.org/AssocAmM/UW/9053658</stationMagnitudeID>
          <weight>1.0</weight>
          <residual>0.22</residual>
        </stationMagnitudeContribution>
        <stationMagnitudeContribution>
          <stationMagnitudeID>quakeml:uw.anss.org/AssocAmM/UW/9053738</stationMagnitudeID>
          <weight>1.0</weight>
          <residual>0.13</residual>
        </stationMagnitudeContribution>
        <stationMagnitudeContribution>
          <stationMagnitudeID>quakeml:uw.anss.org/AssocAmM/UW/9053698</stationMagnitudeID>
          <weight>1.0</weight>
          <residual>0.24</residual>
        </stationMagnitudeContribution>
        <stationMagnitudeContribution>
          <stationMagnitudeID>quakeml:uw.anss.org/AssocAmM/UW/9053678</stationMagnitudeID>
          <weight>1.0</weight>
          <residual>-0.24</residual>
        </stationMagnitudeContribution>
        <stationMagnitudeContribution>
          <stationMagnitudeID>quakeml:uw.anss.org/AssocAmM/UW/9053723</stationMagnitudeID>
          <weight>1.0</weight>
          <residual>-0.16</residual>
        </stationMagnitudeContribution>
        <stationMagnitudeContribution>
          <stationMagnitudeID>quakeml:uw.anss.org/AssocAmM/UW/9053728</stationMagnitudeID>
          <weight>0.0</weight>
          <residual>-0.8</residual>
        </stationMagnitudeContribution>
        <stationMagnitudeContribution>
          <stationMagnitudeID>quakeml:uw.anss.org/AssocAmM/UW/9053763</stationMagnitudeID>
          <weight>1.0</weight>
          <residual>-0.36</residual>
        </stationMagnitudeContribution>
        <stationMagnitudeContribution>
          <stationMagnitudeID>quakeml:uw.anss.org/AssocAmM/UW/9053663</stationMagnitudeID>
          <weight>1.0</weight>
          <residual>0.18</residual>
        </stationMagnitudeContribution>
        <stationMagnitudeContribution>
