<?xml version='1.0' encoding='utf-8'?>
<q:quakeml xmlns="http://quakeml.org/xmlns/bed/1.2" xmlns:q="http://quakeml.org/xmlns/quakeml/1.2" xmlns:ns0="http://anss.org/xmlns/catalog/0.1">
  <eventParameters publicID="smi:local/5c6b42ae-34ab-423f-b6f1-589f4a2a5ffd">
    <event publicID="quakeml:uw.anss.org/Event/UW/10828513" ns0:datasource="uw" ns0:dataid="uw10828513" ns0:eventsource="uw" ns0:eventid="10828513">
      <preferredOriginID>quakeml:uw.anss.org/Origin/UW/1114258</preferredOriginID>
      <preferredMagnitudeID>quakeml:uw.anss.org/Netmag/UW/2507323</preferredMagnitudeID>
      <type>earthquake</type>
      <creationInfo>
        <agencyID>UW</agencyID>
        <creationTime>2016-11-16T22:59:33.000000Z</creationTime>
        <version>4</version>
      </creationInfo>
      <origin publicID="quakeml:uw.anss.org/Origin/UW/1114258" ns0:datasource="uw" ns0:dataid="uw10828513" ns0:eventsource="uw" ns0:eventid="10828513">
        <time>
          <value>2011-07-29T01:48:09.820000Z</value>
          <uncertainty>0.11</uncertainty>
        </time>
        <latitude>
          <value>48.8336667</value>
          <uncertainty>0.51</uncertainty>
        </latitude>
        <longitude>
          <value>-122.1358333</value>
          <uncertainty>0.74</uncertainty>
        </longitude>
        <depth>
          <value>13513.0</value>
          <uncertainty>1130.0</uncertainty>
        </depth>
        <depthType>from location</depthType>
        <timeFixed>false</timeFixed>
        <epicenterFixed>false</epicenterFixed>
        <methodID>smi:uw.anss.org/origin/spong</methodID>
        <quality>
          <associatedPhaseCount>31</associatedPhaseCount>
          <usedPhaseCount>27</usedPhaseCount>
          <associatedStationCount>23</associatedStationCount>
          <usedStationCount>0</usedStationCount>
          <standardError>0.33</standardError>
          <azimuthalGap>89.0</azimuthalGap>
        </quality>
        <type>hypocenter</type>
        <evaluationMode>manual</evaluationMode>
        <evaluationStatus>final</evaluationStatus>
        <creationInfo>
          <agencyID>UW</agencyID>
          <creationTime>2012-03-08T18:35:14.000000Z</creationTime>
        </creationInfo>
        <originUncertainty>
          <preferredDescription>horizontal uncertainty</preferredDescription>
          <horizontalUncertainty>899.0</horizontalUncertainty>
        </originUncertainty>
        <arrival publicID="quakeml:uw.anss.org/AssocArO/UW/10510128">
          <pickID>quakeml:uw.anss.org/Arrival/UW/10510128</pickID>
          <phase>S</phase>
          <azimuth>170.9</azimuth>
          <distance>1.427</distance>
          <timeResidual>0.38</timeResidual>
          <creationInfo>
            <agencyID>UW</agencyID>
            <creationTime>2012-03-08T18:35:14.000000Z</creationTime>
          </creationInfo>
        </arrival>
        <arrival publicID="quakeml:uw.anss.org/AssocArO/UW/10510133">
          <pickID>quakeml:uw.anss.org/Arrival/UW/10510133</pickID>
          <phase>P</phase>
          <azimuth>177.3</azimuth>
          <distance>0.5706</distance>
          <timeResidual>0.52</timeResidual>
          <creationInfo>
            <agencyID>UW</agencyID>
            <creationTime>2012-03-08T18:35:14.000000Z</creationTime>
          </creationInfo>
        </arrival>
        <arrival publicID="quakeml:uw.anss.org/AssocArO/UW/10510138">
          <pickID>quakeml:uw.anss.org/Arrival/UW/10510138</pickID>
          <phase>S</phase>
          <azimuth>177.3</azimuth>
          <distance>0.5706</distance>
          <timeResidual>0.46</timeResidual>
          <creationInfo>
            <agencyID>UW</agencyID>
            <creationTime>2012-03-08T18:35:14.000000Z</creationTime>
          </creationInfo>
        </arrival>
        <arrival publicID="quakeml:uw.anss.org/AssocArO/UW/10510143">
          <pickID>quakeml:uw.anss.org/Arrival/UW/10510143</pickID>
          <phase>P</phase>
          <azimuth>258.5</azimuth>
          <distance>0.888</distance>
          <timeResidual>-0.35</timeResidual>
          <creationInfo>
            <agencyID>UW</agencyID>
            <creationTime>2012-03-08T18:35:14.000000Z</creationTime>
          </creationInfo>
        </arrival>
        <arrival publicID="quakeml:uw.anss.org/AssocArO/UW/10510148">
          <pickID>quakeml:uw.anss.org/Arrival/UW/10510148</pickID>
          <phase>S</phase>
          <azimuth>206.8</azimuth>
          <distance>1.249</distance>
          <timeResidual>-0.39</timeResidual>
          <creationInfo>
            <agencyID>UW</agencyID>
            <creationTime>2012-03-08T18:35:14.000000Z</creationTime>
          </creationInfo>
        </arrival>
        <arrival publicID="quakeml:uw.anss.org/AssocArO/UW/10510153">
          <pickID>quakeml:uw.anss.org/Arrival/UW/10510153</pickID>
          <phase>P</phase>
          <azimuth>220.2</azimuth>
          <distance>1.032</distance>
          <timeResidual>0.47</timeResidual>
          <creationInfo>
            <agencyID>UW</agencyID>
            <creationTime>2012-03-08T18:35:14.000000Z</creationTime>
          </creationInfo>
        </arrival>
        <arrival publicID="quakeml:uw.anss.org/AssocArO/UW/10510158">
          <pickID>quakeml:uw.anss.org/Arrival/UW/10510158</pickID>
          <phase>P</phase>
          <azimuth>178.6</azimuth>
          <distance>0.4106</distance>
          <timeResidual>-0.49</timeResidual>
          <creationInfo>
            <agencyID>UW</agencyID>
            <creationTime>2012-03-08T18:35:14.000000Z</creationTime>
          </creationInfo>
        </arrival>
        <arrival publicID="quakeml:uw.anss.org/AssocArO/UW/10510163">
          <pickID>quakeml:uw.anss.org/Arrival/UW/10510163</pickID>
          <phase>S</phase>
          <azimuth>178.6</azimuth>
          <distance>0.4106</distance>
          <timeResidual>0.45</timeResidual>
          <creationInfo>
            <agencyID>UW</agencyID>
            <creationTime>2012-03-08T18:35:14.000000Z</creationTime>
          </creationInfo>
        </arrival>
        <arrival publicID="quakeml:uw.anss.org/AssocArO/UW/10510168">
          <pickID>quakeml:uw.anss.org/Arrival/UW/10510168</pickID>
          <phase>P</phase>
          <azimuth>86.2</azimuth>
          <distance>0.3038</distance>
          <timeResidual>0.29</timeResidual>
          <creationInfo>
            <agencyID>UW</agencyID>
            <creationTime>2012-03-08T18:35:14.000000Z</creationTime>
          </creationInfo>
        </arrival>
        <arrival publicID="quakeml:uw.anss.org/AssocArO/UW/10510173">
          <pickID>quakeml:uw.anss.org/Arrival/UW/10510173</pickID>
          <phase>P</phase>
          <azimuth>126.0</azimuth>
          <distance>0.5348</distance>
          <timeResidual>0.04</timeResidual>
          <creationInfo>
            <agencyID>UW</agencyID>
            <creationTime>2012-03-08T18:35:15.000000Z</creationTime>
          </creationInfo>
        </arrival>
        <arrival publicID="quakeml:uw.anss.org/AssocArO/UW/10510178">
          <pickID>quakeml:uw.anss.org/Arrival/UW/10510178</pickID>
          <phase>S</phase>
          <azimuth>126.0</azimuth>
          <distance>0.5348</distance>
          <timeResidual>-0.13</timeResidual>
          <creationInfo>
            <agencyID>UW</agencyID>
            <creationTime>2012-03-08T18:35:15.000000Z</creationTime>
          </creationInfo>
        </arrival>
        <arrival publicID="quakeml:uw.anss.org/AssocArO/UW/10510183">
          <pickID>quakeml:uw.anss.org/Arrival/UW/10510183</pickID>
          <phase>P</phase>
          <azimuth>258.5</azimuth>
          <distance>0.8905</distance>
          <timeResidual>0.25</timeResidual>
          <creationInfo>
            <agencyID>UW</agencyID>
            <creationTime>2012-03-08T18:35:15.000000Z</creationTime>
          </creationInfo>
        </arrival>
        <arrival publicID="quakeml:uw.anss.org/AssocArO/UW/10510188">
          <pickID>quakeml:uw.anss.org/Arrival/UW/10510188</pickID>
          <phase>S</phase>
          <azimuth>258.5</azimuth>
          <distance>0.8905</distance>
          <timeResidual>-0.33</timeResidual>
          <creationInfo>
            <agencyID>UW</agencyID>
            <creationTime>2012-03-08T18:35:15.000000Z</creationTime>
          </creationInfo>
        </arrival>
        <arrival publicID="quakeml:uw.anss.org/AssocArO/UW/10510193">
          <pickID>quakeml:uw.anss.org/Arrival/UW/10510193</pickID>
          <phase>P</phase>
          <azimuth>133.0</azimuth>
          <distance>0.5644</distance>
          <timeResidual>-0.12</timeResidual>
          <creationInfo>
            <agencyID>UW</agencyID>
            <creationTime>2012-03-08T18:35:15.000000Z</creationTime>
          </creationInfo>
        </arrival>
        <arrival publicID="quakeml:uw.anss.org/AssocArO/UW/10510198">
          <pickID>quakeml:uw.anss.org/Arrival/UW/10510198</pickID>
          <phase>S</phase>
          <azimuth>133.0</azimuth>
          <distance>0.5644</distance>
          <timeResidual>-0.59</timeResidual>
          <creationInfo>
            <agencyID>UW</agencyID>
            <creationTime>2012-03-08T18:35:15.000000Z</creationTime>
          </creationInfo>
        </arrival>
        <arrival publicID="quakeml:uw.anss.org/AssocArO/UW/10510203">
          <pickID>quakeml:uw.anss.org/Arrival/UW/10510203</pickID>
          <phase>P</phase>
          <azimuth>357.5</azimuth>
          <distance>0.08288</distance>
          <timeResidual>-0.07</timeResidual>
          <creationInfo>
            <agencyID>UW</agencyID>
            <creationTime>2012-03-08T18:35:15.000000Z</creationTime>
          </creationInfo>
        </arrival>
        <arrival publicID="quakeml:uw.anss.org/AssocArO/UW/10510208">
          <pickID>quakeml:uw.anss.org/Arrival/UW/10510208</pickID>
          <phase>S</phase>
          <azimuth>357.5</azimuth>
          <distance>0.08288</distance>
          <timeResidual>0.13</timeResidual>
          <creationInfo>
            <agencyID>UW</agencyID>
            <creationTime>2012-03-08T18:35:15.000000Z</creationTime>
          </creationInfo>
        </arrival>
        <arrival publicID="quakeml:uw.anss.org/AssocArO/UW/10510213">
          <pickID>quakeml:uw.anss.org/Arrival/UW/10510213</pickID>
          <phase>P</phase>
          <azimuth>107.8</azimuth>
          <distance>0.1631</distance>
          <timeResidual>-0.25</timeResidual>
          <creationInfo>
            <agencyID>UW</agencyID>
            <creationTime>2012-03-08T18:35:15.000000Z</creationTime>
          </creationInfo>
        </arrival>
        <arrival publicID="quakeml:uw.anss.org/AssocArO/UW/10510218">
          <pickID>quakeml:uw.anss.org/Arrival/UW/10510218</pickID>
          <phase>P</phase>
          <azimuth>167.7</azimuth>
          <timeResidual>0.08</timeResidual>
          <creationInfo>
            <agencyID>UW</agencyID>
            <creationTime>2012-03-08T18:35:15.000000Z</creationTime>
          </creationInfo>
        </arrival>
        <arrival publicID="quakeml:uw.anss.org/AssocArO/UW/10510223">
          <pickID>quakeml:uw.anss.org/Arrival/UW/10510223</pickID>
          <phase>P</phase>
          <azimuth>230.0</azimuth>
          <distance>1.195</distance>
          <timeResidual>-0.15</timeResidual>
          <creationInfo>
            <agencyID>UW</agencyID>
            <creationTime>2012-03-08T18:35:15.000000Z</creationTime>
          </creationInfo>
        </arrival>
        <arrival publicID="quakeml:uw.anss.org/AssocArO/UW/10510228">
          <pickID>quakeml:uw.anss.org/Arrival/UW/10510228</pickID>
          <phase>P</phase>
          <azimuth>230.0</azimuth>
          <distance>1.197</distance>
          <timeResidual>-0.39</timeResidual>
          <creationInfo>
            <agencyID>UW</agencyID>
            <creationTime>2012-03-08T18:35:15.000000Z</creationTime>
          </creationInfo>
        </arrival>
        <arrival publicID="quakeml:uw.anss.org/AssocArO/UW/10510233">
          <pickID>quakeml:uw.anss.org/Arrival/UW/10510233</pickID>
          <phase>S</phase>
          <azimuth>230.0</azimuth>
          <distance>1.197</distance>
          <timeResidual>-0.97</timeResidual>
          <creationInfo>
            <agencyID>UW</agencyID>
            <creationTime>2012-03-08T18:35:15.000000Z</creationTime>
          </creationInfo>
        </arrival>
        <arrival publicID="quakeml:uw.anss.org/AssocArO/UW/10510238">
          <pickID>quakeml:uw.anss.org/Arrival/UW/10510238</pickID>
          <phase>P</phase>
          <azimuth>230.0</azimuth>
          <distance>1.195</distance>
          <timeResidual>-0.15</timeResidual>
          <creationInfo>
            <agencyID>UW</agencyID>
            <creationTime>2012-03-08T18:35:15.000000Z</creationTime>
          </creationInfo>
        </arrival>
        <arrival publicID="quakeml:uw.anss.org/AssocArO/UW/10510243">
          <pickID>quakeml:uw.anss.org/Arrival/UW/10510243</pickID>
          <phase>S</phase>
          <azimuth>230.0</azimuth>
          <distance>1.195</distance>
          <timeResidual>-0.99</timeResidual>
          <creationInfo>
            <agencyID>UW</agencyID>
            <creationTime>2012-03-08T18:35:15.000000Z</creationTime>
          </creationInfo>
        </arrival>
        <arrival publicID="quakeml:uw.anss.org/AssocArO/UW/10510248">
          <pickID>quakeml:uw.anss.org/Arrival/UW/10510248</pickID>
          <phase>P</phase>
          <azimuth>304.3</azimuth>
          <distance>1.375</distance>
          <timeResidual>0.38</timeResidual>
          <creationInfo>
            <agencyID>UW</agencyID>
            <creationTime>2012-03-08T18:35:15.000000Z</creationTime>
          </creationInfo>
        </arrival>
        <arrival publicID="quakeml:uw.anss.org/AssocArO/UW/10510253">
          <pickID>quakeml:uw.anss.org/Arrival/UW/10510253</pickID>
          <phase>P</phase>
          <azimuth>230.0</azimuth>
          <distance>1.197</distance>
          <timeResidual>-0.39</timeResidual>
          <creationInfo>
            <agencyID>UW</agencyID>
            <creationTime>2012-03-08T18:35:15.000000Z</creationTime>
          </creationInfo>
        </arrival>
        <arrival publicID="quakeml:uw.anss.org/AssocArO/UW/10510258">
          <pickID>quakeml:uw.anss.org/Arrival/UW/10510258</pickID>
          <phase>P</phase>
          <azimuth>206.4</azimuth>
          <distance>1.448</distance>
          <timeResidual>-0.2</timeResidual>
          <creationInfo>
            <agencyID>UW</agencyID>
            <creationTime>2012-03-08T18:35:15.000000Z</creationTime>
          </creationInfo>
        </arrival>
        <arrival publicID="quakeml:uw.anss.org/AssocArO/UW/10510263">
          <pickID>quakeml:uw.anss.org/Arrival/UW/10510263</pickID>
          <phase>P</phase>
          <azimuth>242.3</azimuth>
          <distance>0.8943</distance>
          <timeResidual>0.5</timeResidual>
          <creationInfo>
            <agencyID>UW</agencyID>
            <creationTime>2012-03-08T18:35:15.000000Z</creationTime>
          </creationInfo>
        </arrival>
        <arrival publicID="quakeml:uw.anss.org/AssocArO/UW/10510268">
          <pickID>quakeml:uw.anss.org/Arrival/UW/10510268</pickID>
          <phase>P</phase>
          <azimuth>166.5</azimuth>
          <distance>1.059</distance>
          <timeResidual>0.59</timeResidual>
          <creationInfo>
            <agencyID>UW</agencyID>
            <creationTime>2012-03-08T18:35:15.000000Z</creationTime>
          </creationInfo>
        </arrival>
        <arrival publicID="quakeml:uw.anss.org/AssocArO/UW/10510273">
          <pickID>quakeml:uw.anss.org/Arrival/UW/10510273</pickID>
          <phase>P</phase>
          <azimuth>214.2</azimuth>
          <distance>0.9979</distance>
          <timeResidual>0.66</timeResidual>
          <creationInfo>
            <agencyID>UW</agencyID>
            <creationTime>2012-03-08T18:35:15.000000Z</creationTime>
          </creationInfo>
        </arrival>
        <arrival publicID="quakeml:uw.anss.org/AssocArO/UW/10510278">
          <pickID>quakeml:uw.anss.org/Arrival/UW/10510278</pickID>
          <phase>P</phase>
          <azimuth>251.7</azimuth>
          <distance>0.4864</distance>
          <timeResidual>-0.04</timeResidual>
          <creationInfo>
            <agencyID>UW</agencyID>
            <creationTime>2012-03-08T18:35:15.000000Z</creationTime>
          </creationInfo>
        </arrival>
      </origin>
      <magnitude publicID="quakeml:uw.anss.org/Netmag/UW/2507323">
        <mag>
          <value>2.11</value>
          <uncertainty>0.134</uncertainty>
        </mag>
        <type>Ml</type>
        <originID>quakeml:uw.anss.org/Origin/UW/1114258</originID>
        <methodID>smi:uw.anss.org/magnitude/RichterMl2</methodID>
        <stationCount>15</stationCount>
        <azimuthalGap>98.8</azimuthalGap>
        <evaluationMode>automatic</evaluationMode>
        <evaluationStatus>preliminary</evaluationStatus>
        <stationMagnitudeContribution>
          <stationMagnitudeID>quakeml:uw.anss.org/AssocAmM/UW/9105303</stationMagnitudeID>
          <weight>1.0</weight>
          <residual>0.36</residual>
        </stationMagnitudeContribution>
        <stationMagnitudeContribution>
          <stationMagnitudeID>quakeml:uw.anss.org/AssocAmM/UW/9105353</stationMagnitudeID>
          <weight>0.0</weight>
          <residual>-0.71</residual>
        </stationMagnitudeContribution>
        <stationMagnitudeContribution>
          <stationMagnitudeID>quakeml:uw.anss.org/AssocAmM/UW/9105393</stationMagnitudeID>
          <weight>1.0</weight>
          <residual>-0.39</residual>
        </stationMagnitudeContribution>
        <stationMagnitudeContribution>
          <stationMagnitudeID>quakeml:uw.anss.org/AssocAmM/UW/9105323</stationMagnitudeID>
          <weight>1.0</weight>
          <residual>-0.32</residual>
        </stationMagnitudeContribution>
        <stationMagnitudeContribution>
          <stationMagnitudeID>quakeml:uw.anss.org/AssocAmM/UW/9105368</stationMagnitudeID>
          <weight>0.0</weight>
          <residual>-0.69</residual>
        </stationMagnitudeContribution>
        <stationMagnitudeContribution>
          <stationMagnitudeID>quakeml:uw.anss.org/AssocAmM/UW/9105378</stationMagnitudeID>
          <weight>1.0</weight>
          <residual>0.0</residual>
        </stationMagnitudeContribution>
        <stationMagnitudeContribution>
          <stationMagnitudeID>quakeml:uw.anss.org/AssocAmM/UW/9105333</stationMagnitudeID>
          <weight>1.0</weight>
          <residual>0.07</residual>
        </stationMagnitudeContribution>
        <stationMagnitudeContribution>
          <stationMagnitudeID>quakeml:uw.anss.org/AssocAmM/UW/9105283</stationMagnitudeID>
          <weight>1.0</weight>
          <residual>-0.1</residual>
        </stationMagnitudeContribution>
        <stationMagnitudeContribution>
          <stationMagnitudeID>quakeml:uw.anss.org/AssocAmM/UW/9105318</stationMagnitudeID>
          <weight>1.0</weight>
          <residual>0.25</residual>
        </stationMagnitudeContribution>
        <stationMagnitudeContribution>
          <stationMagnitudeID>quakeml:uw.anss.org/AssocAmM/UW/9105398</stationMagnitudeID>
          <weight>1.0</weight>
          <residual>-0.22</residual>
        </stationMagnitudeContribution>
        <stationMagnitudeContribution>
          <stationMagnitudeID>quakeml:uw.anss.org/AssocAmM/UW/9105298</stationMagnitudeID>
          <weight>1.0</weight>
          <residual>0.14</residual>
        </stationMagnitudeContribution>
        <stationMagnitudeContribution>
          <stationMagnitudeID>quakeml:uw.anss.org/AssocAmM/UW/9105263</stationMagnitudeID>
          <weight>1.0</weight>
          <residual>0.45</residual>
        </stationMagnitudeContribution>
        <stationMagnitudeContribution>
