<?xml version='1.0' encoding='utf-8'?>
<q:quakeml xmlns="http://quakeml.org/xmlns/bed/1.2" xmlns:q="http://quakeml.org/xmlns/quakeml/1.2" xmlns:ns0="http://anss.org/xmlns/catalog/0.1">
  <eventParameters publicID="smi:local/3a4c52e9-ecd1-47d3-8910-ea42db0c0bbb">
    <event publicID="quakeml:uw.anss.org/Event/UW/10817968" ns0:datasource="uw" ns0:dataid="uw10817968" ns0:eventsource="uw" ns0:eventid="10817968">
      <preferredOriginID>quakeml:uw.anss.org/Origin/UW/1103713</preferredOriginID>
      <preferredMagnitudeID>quakeml:uw.anss.org/Netmag/UW/2502308</preferredMagnitudeID>
      <type>earthquake</type>
      <creationInfo>
        <agencyID>UW</agencyID>
        <creationTime>2016-11-16T21:46:17.000000Z</creationTime>
        <version>4</version>
      </creationInfo>
      <origin publicID="quakeml:uw.anss.org/Origin/UW/1103713" ns0:datasource="uw" ns0:dataid="uw10817968" ns0:eventsource="uw" ns0:eventid="10817968">
        <time>
          <value>2011-06-14T16:14:37.820000Z</value>
          <uncertainty>3.17</uncertainty>
        </time>
        <latitude>
          <value>48.673</value>
          <uncertainty>6.45</uncertainty>
        </latitude>
        <longitude>
          <value>-122.0896667</value>
          <uncertainty>7.03</uncertainty>
        </longitude>
        <depth>
          <value>573.0</value>
          <uncertainty>32450.0</uncertainty>
        </depth>
        <depthType>operator assigned</depthType>
        <timeFixed>false</timeFixed>
        <epicenterFixed>true</epicenterFixed>
        <methodID>smi:uw.anss.org/origin/spong</methodID>
        <quality>
          <associatedPhaseCount>6</associatedPhaseCount>
          <usedPhaseCount>6</usedPhaseCount>
          <associatedStationCount>4</associatedStationCount>
          <usedStationCount>0</usedStationCount>
          <standardError>0.28</standardError>
          <azimuthalGap>223.0</azimuthalGap>
        </quality>
        <type>hypocenter</type>
        <evaluationMode>manual</evaluationMode>
        <evaluationStatus>final</evaluationStatus>
        <creationInfo>
          <agencyID>UW</agencyID>
          <creationTime>2012-03-08T16:52:20.000000Z</creationTime>
        </creationInfo>
        <originUncertainty>
          <preferredDescription>horizontal uncertainty</preferredDescription>
          <horizontalUncertainty>9541.0</horizontalUncertainty>
        </originUncertainty>
        <arrival publicID="quakeml:uw.anss.org/AssocArO/UW/10386483">
          <pickID>quakeml:uw.anss.org/Arrival/UW/10386483</pickID>
          <phase>P</phase>
          <azimuth>184.7</azimuth>
          <distance>0.2505</distance>
          <timeResidual>-0.24</timeResidual>
          <creationInfo>
            <agencyID>UW</agencyID>
            <creationTime>2012-03-08T16:52:20.000000Z</creationTime>
          </creationInfo>
        </arrival>
        <arrival publicID="quakeml:uw.anss.org/AssocArO/UW/10386488">
          <pickID>quakeml:uw.anss.org/Arrival/UW/10386488</pickID>
          <phase>S</phase>
          <azimuth>184.7</azimuth>
          <distance>0.2505</distance>
          <timeResidual>-0.16</timeResidual>
          <creationInfo>
            <agencyID>UW</agencyID>
            <creationTime>2012-03-08T16:52:20.000000Z</creationTime>
          </creationInfo>
        </arrival>
        <arrival publicID="quakeml:uw.anss.org/AssocArO/UW/10386493">
          <pickID>quakeml:uw.anss.org/Arrival/UW/10386493</pickID>
          <phase>S</phase>
          <azimuth>167.2</azimuth>
          <timeResidual>0.42</timeResidual>
          <creationInfo>
            <agencyID>UW</agencyID>
            <creationTime>2012-03-08T16:52:20.000000Z</creationTime>
          </creationInfo>
        </arrival>
        <arrival publicID="quakeml:uw.anss.org/AssocArO/UW/10386498">
          <pickID>quakeml:uw.anss.org/Arrival/UW/10386498</pickID>
          <phase>P</phase>
          <azimuth>48.3</azimuth>
          <distance>0.1671</distance>
          <timeResidual>0.55</timeResidual>
          <creationInfo>
            <agencyID>UW</agencyID>
            <creationTime>2012-03-08T16:52:20.000000Z</creationTime>
          </creationInfo>
        </arrival>
        <arrival publicID="quakeml:uw.anss.org/AssocArO/UW/10386503">
          <pickID>quakeml:uw.anss.org/Arrival/UW/10386503</pickID>
          <phase>P</phase>
          <azimuth>120.4</azimuth>
          <distance>0.4432</distance>
          <timeResidual>0.13</timeResidual>
          <creationInfo>
            <agencyID>UW</agencyID>
            <creationTime>2012-03-08T16:52:20.000000Z</creationTime>
          </creationInfo>
        </arrival>
        <arrival publicID="quakeml:uw.anss.org/AssocArO/UW/10386508">
          <pickID>quakeml:uw.anss.org/Arrival/UW/10386508</pickID>
          <phase>S</phase>
          <azimuth>120.4</azimuth>
          <distance>0.4432</distance>
          <timeResidual>-0.22</timeResidual>
          <creationInfo>
            <agencyID>UW</agencyID>
            <creationTime>2012-03-08T16:52:20.000000Z</creationTime>
          </creationInfo>
        </arrival>
      </origin>
      <magnitude publicID="quakeml:uw.anss.org/Netmag/UW/2502308">
        <mag>
          <value>1.11</value>
          <uncertainty>0.106</uncertainty>
        </mag>
        <type>Ml</type>
        <originID>quakeml:uw.anss.org/Origin/UW/1103713</originID>
        <methodID>smi:uw.anss.org/magnitude/RichterMl2</methodID>
        <stationCount>4</stationCount>
        <azimuthalGap>223.6</azimuthalGap>
        <evaluationMode>automatic</evaluationMode>
        <evaluationStatus>preliminary</evaluationStatus>
        <stationMagnitudeContribution>
          <stationMagnitudeID>quakeml:uw.anss.org/AssocAmM/UW/9032838</stationMagnitudeID>
          <weight>1.0</weight>
          <residual>-0.32</residual>
        </stationMagnitudeContribution>
        <stationMagnitudeContribution>
          <stationMagnitudeID>quakeml:uw.anss.org/AssocAmM/UW/9032853</stationMagnitudeID>
          <weight>1.0</weight>
          <residual>0.03</residual>
        </stationMagnitudeContribution>
        <stationMagnitudeContribution>
          <stationMagnitudeID>quakeml:uw.anss.org/AssocAmM/UW/9032843</stationMagnitudeID>
          <weight>1.0</weight>
          <residual>0.19</residual>
        </stationMagnitudeContribution>
        <stationMagnitudeContribution>
          <stationMagnitudeID>quakeml:uw.anss.org/AssocAmM/UW/9032848</stationMagnitudeID>
          <weight>1.0</weight>
          <residual>-0.02</residual>
        </stationMagnitudeContribution>
        <creationInfo>
          <agencyID>UW</agencyID>
          <creationTime>2016-11-16T21:46:17.000000Z</creationTime>
        </creationInfo>
      </magnitude>
      <stationMagnitude publicID="quakeml:uw.anss.org/AssocAmM/UW/9032838">
        <originID>quakeml:uw.anss.org/Origin/UW/1103713</originID>
        <mag>
          <value>0.79</value>
        </mag>
        <type>ML</type>
        <amplitudeID>quakeml:uw.anss.org/Amp/UW/9032838</amplitudeID>
        <waveformID networkCode="UW" stationCode="MBW" locationCode="" channelCode="EHZ"></waveformID>
      </stationMagnitude>
      <stationMagnitude publicID="quakeml:uw.anss.org/AssocAmM/UW/9032843">
        <originID>quakeml:uw.anss.org/Origin/UW/1103713</originID>
        <mag>
          <value>1.3</value>
        </mag>
        <type>ML</type>
        <amplitudeID>quakeml:uw.anss.org/Amp/UW/9032843</amplitudeID>
        <waveformID networkCode="UW" stationCode="CMW" locationCode="" channelCode="EHZ"></waveformID>
      </stationMagnitude>
      <stationMagnitude publicID="quakeml:uw.anss.org/AssocAmM/UW/9032848">
        <originID>quakeml:uw.anss.org/Origin/UW/1103713</originID>
        <mag>
          <value>1.09</value>
        </mag>
        <type>ML</type>
        <amplitudeID>quakeml:uw.anss.org/Amp/UW/9032848</amplitudeID>
        <waveformID networkCode="UW" stationCode="RPW" locationCode="" channelCode="EHZ"></waveformID>
      </stationMagnitude>
      <stationMagnitude publicID="quakeml:uw.anss.org/AssocAmM/UW/9032853">
        <originID>quakeml:uw.anss.org/Origin/UW/1103713</originID>
        <mag>
          <value>1.14</value>
        </mag>
        <type>ML</type>
        <amplitudeID>quakeml:uw.anss.org/Amp/UW/9032853</amplitudeID>
        <waveformID networkCode="UW" stationCode="JCW" locationCode="" channelCode="EHZ"></waveformID>
      </stationMagnitude>
      <pick publicID="quakeml:uw.anss.org/Arrival/UW/10386483">
        <time>
          <value>2011-06-14T16:14:42.850000Z</value>
          <uncertainty>0.07</uncertainty>
        </time>
        <waveformID networkCode="UW" stationCode="CMW" locationCode="" channelCode="EHZ"></waveformID>
        <polarity>undecidable</polarity>
        <evaluationMode>manual</evaluationMode>
        <evaluationStatus>final</evaluationStatus>
        <creationInfo>
          <agencyID>UW</agencyID>
          <creationTime>2012-03-08T16:52:20.000000Z</creationTime>
        </creationInfo>
      </pick>
      <pick publicID="quakeml:uw.anss.org/Arrival/UW/10386488">
        <time>
          <value>2011-06-14T16:14:47.050000Z</value>
          <uncertainty>0.08</uncertainty>
        </time>
        <waveformID networkCode="UW" stationCode="CMW" locationCode="" channelCode="EHZ"></waveformID>
        <polarity>undecidable</polarity>
        <evaluationMode>manual</evaluationMode>
        <evaluationStatus>final</evaluationStatus>
        <creationInfo>
          <agencyID>UW</agencyID>
          <creationTime>2012-03-08T16:52:20.000000Z</creationTime>
        </creationInfo>
      </pick>
      <pick publicID="quakeml:uw.anss.org/Arrival/UW/10386493">
        <time>
          <value>2011-06-14T16:14:54.430000Z</value>
          <uncertainty>0.05</uncertainty>
        </time>
        <waveformID networkCode="UW" stationCode="JCW" locationCode="" channelCode="EHZ"></waveformID>
        <polarity>undecidable</polarity>
        <evaluationMode>manual</evaluationMode>
        <evaluationStatus>final</evaluationStatus>
        <creationInfo>
          <agencyID>UW</agencyID>
          <creationTime>2012-03-08T16:52:20.000000Z</creationTime>
        </creationInfo>
      </pick>
      <pick publicID="quakeml:uw.anss.org/Arrival/UW/10386498">
        <time>
          <value>2011-06-14T16:14:42.140000Z</value>
          <uncertainty>0.02</uncertainty>
        </time>
        <waveformID networkCode="UW" stationCode="MBW" locationCode="" channelCode="EHZ"></waveformID>
        <polarity>negative</polarity>
        <evaluationMode>manual</evaluationMode>
        <evaluationStatus>final</evaluationStatus>
        <creationInfo>
          <agencyID>UW</agencyID>
          <creationTime>2012-03-08T16:52:20.000000Z</creationTime>
        </creationInfo>
      </pick>
      <pick publicID="quakeml:uw.anss.org/Arrival/UW/10386503">
        <time>
          <value>2011-06-14T16:14:46.480000Z</value>
          <uncertainty>0.06</uncertainty>
        </time>
        <waveformID networkCode="UW" stationCode="RPW" locationCode="" channelCode="EHZ"></waveformID>
        <polarity>undecidable</polarity>
        <evaluationMode>manual</evaluationMode>
        <evaluationStatus>final</evaluationStatus>
        <creationInfo>
          <agencyID>UW</agencyID>
          <creationTime>2012-03-08T16:52:20.000000Z</creationTime>
        </creationInfo>
      </pick>
      <pick publicID="quakeml:uw.anss.org/Arrival/UW/10386508">
        <time>
          <value>2011-06-14T16:14:52.790000Z</value>
          <uncertainty>0.06</uncertainty>
        </time>
        <waveformID networkCode="UW" stationCode="RPW" locationCode="" channelCode="EHZ"></waveformID>
        <polarity>undecidable</polarity>
        <evaluationMode>manual</evaluationMode>
        <evaluationStatus>final</evaluationStatus>
        <creationInfo>
          <agencyID>UW</agencyID>
          <creationTime>2012-03-08T16:52:20.000000Z</creationTime>
        </creationInfo>
      </pick>
      <amplitude publicID="quakeml:uw.anss.org/Amp/UW/9032843">
        <genericAmplitude>
          <value>4.926e-05</value>
        </genericAmplitude>
        <type>AML</type>
        <category>point</category>
        <unit>m</unit>
        <waveformID networkCode="UW" stationCode="CMW" locationCode="" channelCode="EHZ"></waveformID>
        <magnitudeHint>ML</magnitudeHint>
        <evaluationMode>automatic</evaluationMode>
        <evaluationStatus>preliminary</evaluationStatus>
      </amplitude>
      <amplitude publicID="quakeml:uw.anss.org/Amp/UW/9032853">
        <genericAmplitude>
          <value>1.7086e-05</value>
        </genericAmplitude>
        <type>AML</type>
        <category>point</category>
        <unit>m</unit>
        <waveformID networkCode="UW" stationCode="JCW" locationCode="" channelCode="EHZ"></waveformID>
        <magnitudeHint>ML</magnitudeHint>
        <evaluationMode>automatic</evaluationMode>
        <evaluationStatus>preliminary</evaluationStatus>
      </amplitude>
      <amplitude publicID="quakeml:uw.anss.org/Amp/UW/9032838">
        <genericAmplitude>
          <value>1.8364e-05</value>
        </genericAmplitude>
        <type>AML</type>
        <category>point</category>
        <unit>m</unit>
        <waveformID networkCode="UW" stationCode="MBW" locationCode="" channelCode="EHZ"></waveformID>
        <magnitudeHint>ML</magnitudeHint>
        <evaluationMode>automatic</evaluationMode>
        <evaluationStatus>preliminary</evaluationStatus>
      </amplitude>
      <amplitude publicID="quakeml:uw.anss.org/Amp/UW/9032848">
        <genericAmplitude>
          <value>1.6181e-05</value>
        </genericAmplitude>
        <type>AML</type>
        <category>point</category>
        <unit>m</unit>
        <waveformID networkCode="UW" stationCode="RPW" locationCode="" channelCode="EHZ"></waveformID>
        <magnitudeHint>ML</magnitudeHint>
        <evaluationMode>automatic</evaluationMode>
        <evaluationStatus>preliminary</evaluationStatus>
      </amplitude>
    </event>
  </eventParameters>
</q:quakeml>
