<?xml version='1.0' encoding='utf-8'?>
<q:quakeml xmlns="http://quakeml.org/xmlns/bed/1.2" xmlns:q="http://quakeml.org/xmlns/quakeml/1.2" xmlns:ns0="http://anss.org/xmlns/catalog/0.1">
  <eventParameters publicID="smi:local/53db51bf-9d0a-42cf-8b96-0413e7477323">
    <event publicID="quakeml:uw.anss.org/Event/UW/10824303" ns0:datasource="uw" ns0:dataid="uw10824303" ns0:eventsource="uw" ns0:eventid="10824303">
      <preferredOriginID>quakeml:uw.anss.org/Origin/UW/1110048</preferredOriginID>
      <preferredMagnitudeID>quakeml:uw.anss.org/Netmag/UW/2505163</preferredMagnitudeID>
      <type>earthquake</type>
      <creationInfo>
        <agencyID>UW</agencyID>
        <creationTime>2016-11-16T22:27:09.000000Z</creationTime>
        <version>4</version>
      </creationInfo>
      <origin publicID="quakeml:uw.anss.org/Origin/UW/1110048" ns0:datasource="uw" ns0:dataid="uw10824303" ns0:eventsource="uw" ns0:eventid="10824303">
        <time>
          <value>2011-01-27T09:23:31.990000Z</value>
          <uncertainty>0.08</uncertainty>
        </time>
        <latitude>
          <value>48.524</value>
          <uncertainty>0.05</uncertainty>
        </latitude>
        <longitude>
          <value>-122.0868333</value>
          <uncertainty>0.19</uncertainty>
        </longitude>
        <depth>
          <value>1174.0</value>
          <uncertainty>630.0</uncertainty>
        </depth>
        <depthType>from location</depthType>
        <timeFixed>false</timeFixed>
        <epicenterFixed>false</epicenterFixed>
        <methodID>smi:uw.anss.org/origin/spong</methodID>
        <quality>
          <associatedPhaseCount>34</associatedPhaseCount>
          <usedPhaseCount>26</usedPhaseCount>
          <associatedStationCount>28</associatedStationCount>
          <usedStationCount>0</usedStationCount>
          <standardError>0.2</standardError>
          <azimuthalGap>63.0</azimuthalGap>
        </quality>
        <type>hypocenter</type>
        <evaluationMode>manual</evaluationMode>
        <evaluationStatus>final</evaluationStatus>
        <creationInfo>
          <agencyID>UW</agencyID>
          <creationTime>2012-03-08T17:55:39.000000Z</creationTime>
        </creationInfo>
        <originUncertainty>
          <preferredDescription>horizontal uncertainty</preferredDescription>
          <horizontalUncertainty>196.0</horizontalUncertainty>
        </originUncertainty>
        <arrival publicID="quakeml:uw.anss.org/AssocArO/UW/10459273">
          <pickID>quakeml:uw.anss.org/Arrival/UW/10459273</pickID>
          <phase>P</phase>
          <azimuth>216.8</azimuth>
          <distance>1.091</distance>
          <timeResidual>0.1</timeResidual>
          <creationInfo>
            <agencyID>UW</agencyID>
            <creationTime>2012-03-08T17:55:39.000000Z</creationTime>
          </creationInfo>
        </arrival>
        <arrival publicID="quakeml:uw.anss.org/AssocArO/UW/10459278">
          <pickID>quakeml:uw.anss.org/Arrival/UW/10459278</pickID>
          <phase>S</phase>
          <azimuth>216.8</azimuth>
          <distance>1.091</distance>
          <timeResidual>-0.08</timeResidual>
          <creationInfo>
            <agencyID>UW</agencyID>
            <creationTime>2012-03-08T17:55:39.000000Z</creationTime>
          </creationInfo>
        </arrival>
        <arrival publicID="quakeml:uw.anss.org/AssocArO/UW/10459283">
          <pickID>quakeml:uw.anss.org/Arrival/UW/10459283</pickID>
          <phase>P</phase>
          <azimuth>154.1</azimuth>
          <distance>1.985</distance>
          <timeResidual>0.63</timeResidual>
          <creationInfo>
            <agencyID>UW</agencyID>
            <creationTime>2012-03-08T17:55:39.000000Z</creationTime>
          </creationInfo>
        </arrival>
        <arrival publicID="quakeml:uw.anss.org/AssocArO/UW/10459288">
          <pickID>quakeml:uw.anss.org/Arrival/UW/10459288</pickID>
          <phase>P</phase>
          <azimuth>110.7</azimuth>
          <distance>1.251</distance>
          <timeResidual>0.39</timeResidual>
          <creationInfo>
            <agencyID>UW</agencyID>
            <creationTime>2012-03-08T17:55:39.000000Z</creationTime>
          </creationInfo>
        </arrival>
        <arrival publicID="quakeml:uw.anss.org/AssocArO/UW/10459293">
          <pickID>quakeml:uw.anss.org/Arrival/UW/10459293</pickID>
          <phase>P</phase>
          <azimuth>170.1</azimuth>
          <distance>1.116</distance>
          <timeResidual>0.66</timeResidual>
          <creationInfo>
            <agencyID>UW</agencyID>
            <creationTime>2012-03-08T17:55:39.000000Z</creationTime>
          </creationInfo>
        </arrival>
        <arrival publicID="quakeml:uw.anss.org/AssocArO/UW/10459298">
          <pickID>quakeml:uw.anss.org/Arrival/UW/10459298</pickID>
          <phase>P</phase>
          <azimuth>181.3</azimuth>
          <distance>0.2602</distance>
          <timeResidual>-0.14</timeResidual>
          <creationInfo>
            <agencyID>UW</agencyID>
            <creationTime>2012-03-08T17:55:39.000000Z</creationTime>
          </creationInfo>
        </arrival>
        <arrival publicID="quakeml:uw.anss.org/AssocArO/UW/10459303">
          <pickID>quakeml:uw.anss.org/Arrival/UW/10459303</pickID>
          <phase>P</phase>
          <azimuth>318.4</azimuth>
          <distance>0.3278</distance>
          <timeResidual>0.78</timeResidual>
          <creationInfo>
            <agencyID>UW</agencyID>
            <creationTime>2012-03-08T17:55:39.000000Z</creationTime>
          </creationInfo>
        </arrival>
        <arrival publicID="quakeml:uw.anss.org/AssocArO/UW/10459308">
          <pickID>quakeml:uw.anss.org/Arrival/UW/10459308</pickID>
          <phase>P</phase>
          <azimuth>278.4</azimuth>
          <distance>0.9126</distance>
          <timeResidual>-0.37</timeResidual>
          <creationInfo>
            <agencyID>UW</agencyID>
            <creationTime>2012-03-08T17:55:39.000000Z</creationTime>
          </creationInfo>
        </arrival>
        <arrival publicID="quakeml:uw.anss.org/AssocArO/UW/10459313">
          <pickID>quakeml:uw.anss.org/Arrival/UW/10459313</pickID>
          <phase>S</phase>
          <azimuth>278.4</azimuth>
          <distance>0.9126</distance>
          <timeResidual>-1.11</timeResidual>
          <creationInfo>
            <agencyID>UW</agencyID>
            <creationTime>2012-03-08T17:55:40.000000Z</creationTime>
          </creationInfo>
        </arrival>
        <arrival publicID="quakeml:uw.anss.org/AssocArO/UW/10459318">
          <pickID>quakeml:uw.anss.org/Arrival/UW/10459318</pickID>
          <phase>P</phase>
          <azimuth>218.0</azimuth>
          <distance>0.9003</distance>
          <timeResidual>0.33</timeResidual>
          <creationInfo>
            <agencyID>UW</agencyID>
            <creationTime>2012-03-08T17:55:40.000000Z</creationTime>
          </creationInfo>
        </arrival>
        <arrival publicID="quakeml:uw.anss.org/AssocArO/UW/10459323">
          <pickID>quakeml:uw.anss.org/Arrival/UW/10459323</pickID>
          <phase>S</phase>
          <azimuth>218.0</azimuth>
          <distance>0.9003</distance>
          <timeResidual>-0.03</timeResidual>
          <creationInfo>
            <agencyID>UW</agencyID>
            <creationTime>2012-03-08T17:55:40.000000Z</creationTime>
          </creationInfo>
        </arrival>
        <arrival publicID="quakeml:uw.anss.org/AssocArO/UW/10459328">
          <pickID>quakeml:uw.anss.org/Arrival/UW/10459328</pickID>
          <phase>P</phase>
          <azimuth>358.8</azimuth>
          <distance>0.5026</distance>
          <timeResidual>-0.09</timeResidual>
          <creationInfo>
            <agencyID>UW</agencyID>
            <creationTime>2012-03-08T17:55:40.000000Z</creationTime>
          </creationInfo>
        </arrival>
        <arrival publicID="quakeml:uw.anss.org/AssocArO/UW/10459333">
          <pickID>quakeml:uw.anss.org/Arrival/UW/10459333</pickID>
          <phase>P</phase>
          <azimuth>149.0</azimuth>
          <distance>1.611</distance>
          <timeResidual>2.05</timeResidual>
          <creationInfo>
            <agencyID>UW</agencyID>
            <creationTime>2012-03-08T17:55:40.000000Z</creationTime>
          </creationInfo>
        </arrival>
        <arrival publicID="quakeml:uw.anss.org/AssocArO/UW/10459338">
          <pickID>quakeml:uw.anss.org/Arrival/UW/10459338</pickID>
          <phase>P</phase>
          <azimuth>192.4</azimuth>
          <distance>0.103</distance>
          <timeResidual>-0.01</timeResidual>
          <creationInfo>
            <agencyID>UW</agencyID>
            <creationTime>2012-03-08T17:55:40.000000Z</creationTime>
          </creationInfo>
        </arrival>
        <arrival publicID="quakeml:uw.anss.org/AssocArO/UW/10459343">
          <pickID>quakeml:uw.anss.org/Arrival/UW/10459343</pickID>
          <phase>S</phase>
          <azimuth>39.3</azimuth>
          <distance>0.4267</distance>
          <timeResidual>0.19</timeResidual>
          <creationInfo>
            <agencyID>UW</agencyID>
            <creationTime>2012-03-08T17:55:40.000000Z</creationTime>
          </creationInfo>
        </arrival>
        <arrival publicID="quakeml:uw.anss.org/AssocArO/UW/10459348">
          <pickID>quakeml:uw.anss.org/Arrival/UW/10459348</pickID>
          <phase>P</phase>
          <azimuth>90.6</azimuth>
          <distance>0.4005</distance>
          <timeResidual>0.39</timeResidual>
          <creationInfo>
            <agencyID>UW</agencyID>
            <creationTime>2012-03-08T17:55:40.000000Z</creationTime>
          </creationInfo>
        </arrival>
        <arrival publicID="quakeml:uw.anss.org/AssocArO/UW/10459353">
          <pickID>quakeml:uw.anss.org/Arrival/UW/10459353</pickID>
          <phase>S</phase>
          <azimuth>90.6</azimuth>
          <distance>0.4005</distance>
          <timeResidual>-0.29</timeResidual>
          <creationInfo>
            <agencyID>UW</agencyID>
            <creationTime>2012-03-08T17:55:40.000000Z</creationTime>
          </creationInfo>
        </arrival>
        <arrival publicID="quakeml:uw.anss.org/AssocArO/UW/10459358">
          <pickID>quakeml:uw.anss.org/Arrival/UW/10459358</pickID>
          <phase>P</phase>
          <azimuth>278.5</azimuth>
          <distance>0.9152</distance>
          <timeResidual>0.33</timeResidual>
          <creationInfo>
            <agencyID>UW</agencyID>
            <creationTime>2012-03-08T17:55:40.000000Z</creationTime>
          </creationInfo>
        </arrival>
        <arrival publicID="quakeml:uw.anss.org/AssocArO/UW/10459363">
          <pickID>quakeml:uw.anss.org/Arrival/UW/10459363</pickID>
          <phase>S</phase>
          <azimuth>278.5</azimuth>
          <distance>0.9152</distance>
          <timeResidual>-0.02</timeResidual>
          <creationInfo>
            <agencyID>UW</agencyID>
            <creationTime>2012-03-08T17:55:40.000000Z</creationTime>
          </creationInfo>
        </arrival>
        <arrival publicID="quakeml:uw.anss.org/AssocArO/UW/10459368">
          <pickID>quakeml:uw.anss.org/Arrival/UW/10459368</pickID>
          <phase>P</phase>
          <azimuth>101.1</azimuth>
          <distance>0.388</distance>
          <timeResidual>-0.1</timeResidual>
          <creationInfo>
            <agencyID>UW</agencyID>
            <creationTime>2012-03-08T17:55:40.000000Z</creationTime>
          </creationInfo>
        </arrival>
        <arrival publicID="quakeml:uw.anss.org/AssocArO/UW/10459373">
          <pickID>quakeml:uw.anss.org/Arrival/UW/10459373</pickID>
          <phase>S</phase>
          <azimuth>101.1</azimuth>
          <distance>0.388</distance>
          <timeResidual>-0.13</timeResidual>
          <creationInfo>
            <agencyID>UW</agencyID>
            <creationTime>2012-03-08T17:55:40.000000Z</creationTime>
          </creationInfo>
        </arrival>
        <arrival publicID="quakeml:uw.anss.org/AssocArO/UW/10459378">
          <pickID>quakeml:uw.anss.org/Arrival/UW/10459378</pickID>
          <phase>P</phase>
          <azimuth>295.8</azimuth>
          <distance>0.4555</distance>
          <timeResidual>0.06</timeResidual>
          <creationInfo>
            <agencyID>UW</agencyID>
            <creationTime>2012-03-08T17:55:40.000000Z</creationTime>
          </creationInfo>
        </arrival>
        <arrival publicID="quakeml:uw.anss.org/AssocArO/UW/10459383">
          <pickID>quakeml:uw.anss.org/Arrival/UW/10459383</pickID>
          <phase>P</phase>
          <azimuth>25.2</azimuth>
          <distance>0.2878</distance>
          <timeResidual>-0.08</timeResidual>
          <creationInfo>
            <agencyID>UW</agencyID>
            <creationTime>2012-03-08T17:55:40.000000Z</creationTime>
          </creationInfo>
        </arrival>
        <arrival publicID="quakeml:uw.anss.org/AssocArO/UW/10459388">
          <pickID>quakeml:uw.anss.org/Arrival/UW/10459388</pickID>
          <phase>P</phase>
          <azimuth>162.1</azimuth>
          <timeResidual>0.02</timeResidual>
          <creationInfo>
            <agencyID>UW</agencyID>
            <creationTime>2012-03-08T17:55:40.000000Z</creationTime>
          </creationInfo>
        </arrival>
        <arrival publicID="quakeml:uw.anss.org/AssocArO/UW/10459393">
          <pickID>quakeml:uw.anss.org/Arrival/UW/10459393</pickID>
          <phase>P</phase>
          <azimuth>244.2</azimuth>
          <distance>1.053</distance>
          <timeResidual>0.24</timeResidual>
          <creationInfo>
            <agencyID>UW</agencyID>
            <creationTime>2012-03-08T17:55:40.000000Z</creationTime>
          </creationInfo>
        </arrival>
        <arrival publicID="quakeml:uw.anss.org/AssocArO/UW/10459398">
          <pickID>quakeml:uw.anss.org/Arrival/UW/10459398</pickID>
          <phase>P</phase>
          <azimuth>244.2</azimuth>
          <distance>1.055</distance>
          <timeResidual>0.08</timeResidual>
          <creationInfo>
            <agencyID>UW</agencyID>
            <creationTime>2012-03-08T17:55:40.000000Z</creationTime>
          </creationInfo>
        </arrival>
        <arrival publicID="quakeml:uw.anss.org/AssocArO/UW/10459403">
          <pickID>quakeml:uw.anss.org/Arrival/UW/10459403</pickID>
          <phase>P</phase>
          <azimuth>147.1</azimuth>
          <distance>1.914</distance>
          <timeResidual>0.46</timeResidual>
          <creationInfo>
            <agencyID>UW</agencyID>
            <creationTime>2012-03-08T17:55:40.000000Z</creationTime>
          </creationInfo>
        </arrival>
        <arrival publicID="quakeml:uw.anss.org/AssocArO/UW/10459408">
          <pickID>quakeml:uw.anss.org/Arrival/UW/10459408</pickID>
          <phase>P</phase>
          <azimuth>244.3</azimuth>
          <distance>1.054</distance>
          <timeResidual>0.11</timeResidual>
          <creationInfo>
            <agencyID>UW</agencyID>
            <creationTime>2012-03-08T17:55:40.000000Z</creationTime>
          </creationInfo>
        </arrival>
        <arrival publicID="quakeml:uw.anss.org/AssocArO/UW/10459413">
          <pickID>quakeml:uw.anss.org/Arrival/UW/10459413</pickID>
          <phase>P</phase>
          <azimuth>169.8</azimuth>
          <timeResidual>0.3</timeResidual>
          <creationInfo>
            <agencyID>UW</agencyID>
            <creationTime>2012-03-08T17:55:40.000000Z</creationTime>
          </creationInfo>
        </arrival>
        <arrival publicID="quakeml:uw.anss.org/AssocArO/UW/10459418">
          <pickID>quakeml:uw.anss.org/Arrival/UW/10459418</pickID>
          <phase>P</phase>
          <azimuth>129.3</azimuth>
          <distance>1.046</distance>
          <timeResidual>0.38</timeResidual>
          <creationInfo>
            <agencyID>UW</agencyID>
            <creationTime>2012-03-08T17:55:40.000000Z</creationTime>
          </creationInfo>
        </arrival>
        <arrival publicID="quakeml:uw.anss.org/AssocArO/UW/10459423">
          <pickID>quakeml:uw.anss.org/Arrival/UW/10459423</pickID>
          <phase>P</phase>
          <azimuth>262.8</azimuth>
          <distance>0.8315</distance>
          <timeResidual>0.82</timeResidual>
          <creationInfo>
            <agencyID>UW</agencyID>
            <creationTime>2012-03-08T17:55:40.000000Z</creationTime>
          </creationInfo>
        </arrival>
        <arrival publicID="quakeml:uw.anss.org/AssocArO/UW/10459428">
          <pickID>quakeml:uw.anss.org/Arrival/UW/10459428</pickID>
          <phase>P</phase>
          <azimuth>122.4</azimuth>
          <distance>0.7525</distance>
          <timeResidual>0.2</timeResidual>
          <creationInfo>
            <agencyID>UW</agencyID>
            <creationTime>2012-03-08T17:55:40.000000Z</creationTime>
          </creationInfo>
        </arrival>
        <arrival publicID="quakeml:uw.anss.org/AssocArO/UW/10459433">
          <pickID>quakeml:uw.anss.org/Arrival/UW/10459433</pickID>
          <phase>P</phase>
          <azimuth>163.5</azimuth>
          <distance>0.7515</distance>
          <timeResidual>0.15</timeResidual>
          <creationInfo>
            <agencyID>UW</agencyID>
            <creationTime>2012-03-08T17:55:40.000000Z</creationTime>
          </creationInfo>
        </arrival>
        <arrival publicID="quakeml:uw.anss.org/AssocArO/UW/10459438">
          <pickID>quakeml:uw.anss.org/Arrival/UW/10459438</pickID>
          <phase>P</phase>
          <azimuth>287.7</azimuth>
          <distance>0.5188</distance>
          <timeResidual>-0.16</timeResidual>
          <creationInfo>
            <agencyID>UW</agencyID>
            <creationTime>2012-03-08T17:55:40.000000Z</creationTime>
          </creationInfo>
        </arrival>
      </origin>
      <magnitude publicID="quakeml:uw.anss.org/Netmag/UW/2505163">
        <mag>
          <value>1.79</value>
          <uncertainty>0.137</uncertainty>
        </mag>
        <type>Ml</type>
        <originID>quakeml:uw.anss.org/Origin/UW/1110048</originID>
        <methodID>smi:uw.anss.org/magnitude/RichterMl2</methodID>
        <stationCount>20</stationCount>
        <azimuthalGap>89.4</azimuthalGap>
        <evaluationMode>automatic</evaluationMode>
        <evaluationStatus>preliminary</evaluationStatus>
        <stationMagnitudeContribution>
          <stationMagnitudeID>quakeml:uw.anss.org/AssocAmM/UW/9073448</stationMagnitudeID>
          <weight>1.0</weight>
          <residual>-0.19</residual>
        </stationMagnitudeContribution>
        <stationMagnitudeContribution>
          <stationMagnitudeID>quakeml:uw.anss.org/AssocAmM/UW/9073418</stationMagnitudeID>
          <weight>1.0</weight>
          <residual>-0.05</residual>
        </stationMagnitudeContribution>
        <stationMagnitudeContribution>
          <stationMagnitudeID>quakeml:uw.anss.org/AssocAmM/UW/9073503</stationMagnitudeID>
          <weight>1.0</weight>
          <residual>0.06</residual>
        </stationMagnitudeContribution>
        <stationMagnitudeContribution>
          <stationMagnitudeID>quakeml:uw.anss.org/AssocAmM/UW/9073563</stationMagnitudeID>
          <weight>1.0</weight>
          <residual>0.09</residual>
        </stationMagnitudeContribution>
        <stationMagnitudeContribution>
          <stationMagnitudeID>quakeml:uw.anss.org/AssocAmM/UW/9073573</stationMagnitudeID>
          <weight>1.0</weight>
          <residual>0.31</residual>
        </stationMagnitudeContribution>
        <stationMagnitudeContribution>
          <stationMagnitudeID>quakeml:uw.anss.org/AssocAmM/UW/9073543</stationMagnitudeID>
          <weight>0.0</weight>
          <residual>-0.95</residual>
        </stationMagnitudeContribution>
        <stationMagnitudeContribution>
          <stationMagnitudeID>quakeml:uw.anss.org/AssocAmM/UW/9073553</stationMagnitudeID>
          <weight>1.0</weight>
          <residual>0.13</residual>
