<?xml version='1.0' encoding='utf-8'?>
<q:quakeml xmlns="http://quakeml.org/xmlns/bed/1.2" xmlns:q="http://quakeml.org/xmlns/quakeml/1.2" xmlns:ns0="http://anss.org/xmlns/catalog/0.1">
  <eventParameters publicID="smi:local/9096d847-673b-4cd9-8314-bdb63c8b8dbd">
    <event publicID="quakeml:uw.anss.org/Event/UW/10828173" ns0:datasource="uw" ns0:dataid="uw10828173" ns0:eventsource="uw" ns0:eventid="10828173">
      <preferredOriginID>quakeml:uw.anss.org/Origin/UW/1113918</preferredOriginID>
      <preferredMagnitudeID>quakeml:uw.anss.org/Netmag/UW/2507158</preferredMagnitudeID>
      <type>earthquake</type>
      <creationInfo>
        <agencyID>UW</agencyID>
        <creationTime>2016-11-16T22:57:08.000000Z</creationTime>
        <version>4</version>
      </creationInfo>
      <origin publicID="quakeml:uw.anss.org/Origin/UW/1113918" ns0:datasource="uw" ns0:dataid="uw10828173" ns0:eventsource="uw" ns0:eventid="10828173">
        <time>
          <value>2011-07-27T11:38:02.370000Z</value>
          <uncertainty>0.07</uncertainty>
        </time>
        <latitude>
          <value>48.8403333</value>
          <uncertainty>0.19</uncertainty>
        </latitude>
        <longitude>
          <value>-122.1196667</value>
          <uncertainty>0.51</uncertainty>
        </longitude>
        <depth>
          <value>16220.0</value>
          <uncertainty>380.0</uncertainty>
        </depth>
        <depthType>from location</depthType>
        <timeFixed>false</timeFixed>
        <epicenterFixed>false</epicenterFixed>
        <methodID>smi:uw.anss.org/origin/spong</methodID>
        <quality>
          <associatedPhaseCount>43</associatedPhaseCount>
          <usedPhaseCount>36</usedPhaseCount>
          <associatedStationCount>28</associatedStationCount>
          <usedStationCount>0</usedStationCount>
          <standardError>0.32</standardError>
          <azimuthalGap>98.0</azimuthalGap>
        </quality>
        <type>hypocenter</type>
        <evaluationMode>manual</evaluationMode>
        <evaluationStatus>final</evaluationStatus>
        <creationInfo>
          <agencyID>UW</agencyID>
          <creationTime>2012-03-08T18:32:02.000000Z</creationTime>
        </creationInfo>
        <originUncertainty>
          <preferredDescription>horizontal uncertainty</preferredDescription>
          <horizontalUncertainty>544.0</horizontalUncertainty>
        </originUncertainty>
        <arrival publicID="quakeml:uw.anss.org/AssocArO/UW/10506248">
          <pickID>quakeml:uw.anss.org/Arrival/UW/10506248</pickID>
          <phase>P</phase>
          <azimuth>208.0</azimuth>
          <distance>1.347</distance>
          <timeResidual>0.1</timeResidual>
          <creationInfo>
            <agencyID>UW</agencyID>
            <creationTime>2012-03-08T18:32:02.000000Z</creationTime>
          </creationInfo>
        </arrival>
        <arrival publicID="quakeml:uw.anss.org/AssocArO/UW/10506253">
          <pickID>quakeml:uw.anss.org/Arrival/UW/10506253</pickID>
          <phase>P</phase>
          <azimuth>178.4</azimuth>
          <distance>0.5769</distance>
          <timeResidual>0.46</timeResidual>
          <creationInfo>
            <agencyID>UW</agencyID>
            <creationTime>2012-03-08T18:32:02.000000Z</creationTime>
          </creationInfo>
        </arrival>
        <arrival publicID="quakeml:uw.anss.org/AssocArO/UW/10506258">
          <pickID>quakeml:uw.anss.org/Arrival/UW/10506258</pickID>
          <phase>S</phase>
          <azimuth>178.4</azimuth>
          <distance>0.5769</distance>
          <timeResidual>0.29</timeResidual>
          <creationInfo>
            <agencyID>UW</agencyID>
            <creationTime>2012-03-08T18:32:02.000000Z</creationTime>
          </creationInfo>
        </arrival>
        <arrival publicID="quakeml:uw.anss.org/AssocArO/UW/10506263">
          <pickID>quakeml:uw.anss.org/Arrival/UW/10506263</pickID>
          <phase>P</phase>
          <azimuth>200.5</azimuth>
          <distance>1.361</distance>
          <timeResidual>0.22</timeResidual>
          <creationInfo>
            <agencyID>UW</agencyID>
            <creationTime>2012-03-08T18:32:02.000000Z</creationTime>
          </creationInfo>
        </arrival>
        <arrival publicID="quakeml:uw.anss.org/AssocArO/UW/10506268">
          <pickID>quakeml:uw.anss.org/Arrival/UW/10506268</pickID>
          <phase>P</phase>
          <azimuth>249.8</azimuth>
          <distance>0.209</distance>
          <timeResidual>-0.01</timeResidual>
          <creationInfo>
            <agencyID>UW</agencyID>
            <creationTime>2012-03-08T18:32:02.000000Z</creationTime>
          </creationInfo>
        </arrival>
        <arrival publicID="quakeml:uw.anss.org/AssocArO/UW/10506273">
          <pickID>quakeml:uw.anss.org/Arrival/UW/10506273</pickID>
          <phase>S</phase>
          <azimuth>249.8</azimuth>
          <distance>0.209</distance>
          <timeResidual>0.31</timeResidual>
          <creationInfo>
            <agencyID>UW</agencyID>
            <creationTime>2012-03-08T18:32:02.000000Z</creationTime>
          </creationInfo>
        </arrival>
        <arrival publicID="quakeml:uw.anss.org/AssocArO/UW/10506278">
          <pickID>quakeml:uw.anss.org/Arrival/UW/10506278</pickID>
          <phase>P</phase>
          <azimuth>258.2</azimuth>
          <distance>0.8998</distance>
          <timeResidual>-0.42</timeResidual>
          <creationInfo>
            <agencyID>UW</agencyID>
            <creationTime>2012-03-08T18:32:02.000000Z</creationTime>
          </creationInfo>
        </arrival>
        <arrival publicID="quakeml:uw.anss.org/AssocArO/UW/10506283">
          <pickID>quakeml:uw.anss.org/Arrival/UW/10506283</pickID>
          <phase>P</phase>
          <azimuth>207.4</azimuth>
          <distance>1.156</distance>
          <timeResidual>0.12</timeResidual>
          <creationInfo>
            <agencyID>UW</agencyID>
            <creationTime>2012-03-08T18:32:02.000000Z</creationTime>
          </creationInfo>
        </arrival>
        <arrival publicID="quakeml:uw.anss.org/AssocArO/UW/10506288">
          <pickID>quakeml:uw.anss.org/Arrival/UW/10506288</pickID>
          <phase>S</phase>
          <azimuth>207.4</azimuth>
          <distance>1.156</distance>
          <timeResidual>-0.51</timeResidual>
          <creationInfo>
            <agencyID>UW</agencyID>
            <creationTime>2012-03-08T18:32:02.000000Z</creationTime>
          </creationInfo>
        </arrival>
        <arrival publicID="quakeml:uw.anss.org/AssocArO/UW/10506293">
          <pickID>quakeml:uw.anss.org/Arrival/UW/10506293</pickID>
          <phase>S</phase>
          <azimuth>207.1</azimuth>
          <distance>1.26</distance>
          <timeResidual>-0.46</timeResidual>
          <creationInfo>
            <agencyID>UW</agencyID>
            <creationTime>2012-03-08T18:32:02.000000Z</creationTime>
          </creationInfo>
        </arrival>
        <arrival publicID="quakeml:uw.anss.org/AssocArO/UW/10506298">
          <pickID>quakeml:uw.anss.org/Arrival/UW/10506298</pickID>
          <phase>P</phase>
          <azimuth>220.5</azimuth>
          <distance>1.044</distance>
          <timeResidual>0.3</timeResidual>
          <creationInfo>
            <agencyID>UW</agencyID>
            <creationTime>2012-03-08T18:32:02.000000Z</creationTime>
          </creationInfo>
        </arrival>
        <arrival publicID="quakeml:uw.anss.org/AssocArO/UW/10506303">
          <pickID>quakeml:uw.anss.org/Arrival/UW/10506303</pickID>
          <phase>P</phase>
          <azimuth>180.1</azimuth>
          <distance>0.4172</distance>
          <timeResidual>-0.61</timeResidual>
          <creationInfo>
            <agencyID>UW</agencyID>
            <creationTime>2012-03-08T18:32:02.000000Z</creationTime>
          </creationInfo>
        </arrival>
        <arrival publicID="quakeml:uw.anss.org/AssocArO/UW/10506308">
          <pickID>quakeml:uw.anss.org/Arrival/UW/10506308</pickID>
          <phase>S</phase>
          <azimuth>180.1</azimuth>
          <distance>0.4172</distance>
          <timeResidual>-1.15</timeResidual>
          <creationInfo>
            <agencyID>UW</agencyID>
            <creationTime>2012-03-08T18:32:02.000000Z</creationTime>
          </creationInfo>
        </arrival>
        <arrival publicID="quakeml:uw.anss.org/AssocArO/UW/10506313">
          <pickID>quakeml:uw.anss.org/Arrival/UW/10506313</pickID>
          <phase>P</phase>
          <azimuth>87.4</azimuth>
          <distance>0.2927</distance>
          <timeResidual>0.5</timeResidual>
          <creationInfo>
            <agencyID>UW</agencyID>
            <creationTime>2012-03-08T18:32:02.000000Z</creationTime>
          </creationInfo>
        </arrival>
        <arrival publicID="quakeml:uw.anss.org/AssocArO/UW/10506318">
          <pickID>quakeml:uw.anss.org/Arrival/UW/10506318</pickID>
          <phase>P</phase>
          <azimuth>127.3</azimuth>
          <distance>0.5302</distance>
          <timeResidual>0.23</timeResidual>
          <creationInfo>
            <agencyID>UW</agencyID>
            <creationTime>2012-03-08T18:32:02.000000Z</creationTime>
          </creationInfo>
        </arrival>
        <arrival publicID="quakeml:uw.anss.org/AssocArO/UW/10506323">
          <pickID>quakeml:uw.anss.org/Arrival/UW/10506323</pickID>
          <phase>S</phase>
          <azimuth>127.3</azimuth>
          <distance>0.5302</distance>
          <timeResidual>-0.02</timeResidual>
          <creationInfo>
            <agencyID>UW</agencyID>
            <creationTime>2012-03-08T18:32:02.000000Z</creationTime>
          </creationInfo>
        </arrival>
        <arrival publicID="quakeml:uw.anss.org/AssocArO/UW/10506328">
          <pickID>quakeml:uw.anss.org/Arrival/UW/10506328</pickID>
          <phase>P</phase>
          <azimuth>258.3</azimuth>
          <distance>0.9023</distance>
          <timeResidual>0.21</timeResidual>
          <creationInfo>
            <agencyID>UW</agencyID>
            <creationTime>2012-03-08T18:32:02.000000Z</creationTime>
          </creationInfo>
        </arrival>
        <arrival publicID="quakeml:uw.anss.org/AssocArO/UW/10506333">
          <pickID>quakeml:uw.anss.org/Arrival/UW/10506333</pickID>
          <phase>S</phase>
          <azimuth>258.3</azimuth>
          <distance>0.9023</distance>
          <timeResidual>-0.47</timeResidual>
          <creationInfo>
            <agencyID>UW</agencyID>
            <creationTime>2012-03-08T18:32:02.000000Z</creationTime>
          </creationInfo>
        </arrival>
        <arrival publicID="quakeml:uw.anss.org/AssocArO/UW/10506338">
          <pickID>quakeml:uw.anss.org/Arrival/UW/10506338</pickID>
          <phase>P</phase>
          <azimuth>134.2</azimuth>
          <distance>0.5612</distance>
          <timeResidual>0.0</timeResidual>
          <creationInfo>
            <agencyID>UW</agencyID>
            <creationTime>2012-03-08T18:32:02.000000Z</creationTime>
          </creationInfo>
        </arrival>
        <arrival publicID="quakeml:uw.anss.org/AssocArO/UW/10506343">
          <pickID>quakeml:uw.anss.org/Arrival/UW/10506343</pickID>
          <phase>S</phase>
          <azimuth>134.2</azimuth>
          <distance>0.5612</distance>
          <timeResidual>-0.47</timeResidual>
          <creationInfo>
            <agencyID>UW</agencyID>
            <creationTime>2012-03-08T18:32:02.000000Z</creationTime>
          </creationInfo>
        </arrival>
        <arrival publicID="quakeml:uw.anss.org/AssocArO/UW/10506348">
          <pickID>quakeml:uw.anss.org/Arrival/UW/10506348</pickID>
          <phase>P</phase>
          <azimuth>230.1</azimuth>
          <distance>1.208</distance>
          <timeResidual>-0.18</timeResidual>
          <creationInfo>
            <agencyID>UW</agencyID>
            <creationTime>2012-03-08T18:32:02.000000Z</creationTime>
          </creationInfo>
        </arrival>
        <arrival publicID="quakeml:uw.anss.org/AssocArO/UW/10506353">
          <pickID>quakeml:uw.anss.org/Arrival/UW/10506353</pickID>
          <phase>S</phase>
          <azimuth>230.1</azimuth>
          <distance>1.208</distance>
          <timeResidual>-1.08</timeResidual>
          <creationInfo>
            <agencyID>UW</agencyID>
            <creationTime>2012-03-08T18:32:02.000000Z</creationTime>
          </creationInfo>
        </arrival>
        <arrival publicID="quakeml:uw.anss.org/AssocArO/UW/10506358">
          <pickID>quakeml:uw.anss.org/Arrival/UW/10506358</pickID>
          <phase>P</phase>
          <azimuth>349.5</azimuth>
          <distance>0.07749</distance>
          <timeResidual>-0.26</timeResidual>
          <creationInfo>
            <agencyID>UW</agencyID>
            <creationTime>2012-03-08T18:32:02.000000Z</creationTime>
          </creationInfo>
        </arrival>
        <arrival publicID="quakeml:uw.anss.org/AssocArO/UW/10506363">
          <pickID>quakeml:uw.anss.org/Arrival/UW/10506363</pickID>
          <phase>S</phase>
          <azimuth>349.5</azimuth>
          <distance>0.07749</distance>
          <timeResidual>-0.02</timeResidual>
          <creationInfo>
            <agencyID>UW</agencyID>
            <creationTime>2012-03-08T18:32:02.000000Z</creationTime>
          </creationInfo>
        </arrival>
        <arrival publicID="quakeml:uw.anss.org/AssocArO/UW/10506368">
          <pickID>quakeml:uw.anss.org/Arrival/UW/10506368</pickID>
          <phase>P</phase>
          <azimuth>168.8</azimuth>
          <timeResidual>0.07</timeResidual>
          <creationInfo>
            <agencyID>UW</agencyID>
            <creationTime>2012-03-08T18:32:02.000000Z</creationTime>
          </creationInfo>
        </arrival>
        <arrival publicID="quakeml:uw.anss.org/AssocArO/UW/10506373">
          <pickID>quakeml:uw.anss.org/Arrival/UW/10506373</pickID>
          <phase>P</phase>
          <azimuth>230.0</azimuth>
          <distance>1.207</distance>
          <timeResidual>-0.18</timeResidual>
          <creationInfo>
            <agencyID>UW</agencyID>
            <creationTime>2012-03-08T18:32:02.000000Z</creationTime>
          </creationInfo>
        </arrival>
        <arrival publicID="quakeml:uw.anss.org/AssocArO/UW/10506378">
          <pickID>quakeml:uw.anss.org/Arrival/UW/10506378</pickID>
          <phase>S</phase>
          <azimuth>230.0</azimuth>
          <distance>1.207</distance>
          <timeResidual>-1.12</timeResidual>
          <creationInfo>
            <agencyID>UW</agencyID>
            <creationTime>2012-03-08T18:32:02.000000Z</creationTime>
          </creationInfo>
        </arrival>
        <arrival publicID="quakeml:uw.anss.org/AssocArO/UW/10506383">
          <pickID>quakeml:uw.anss.org/Arrival/UW/10506383</pickID>
          <phase>S</phase>
          <azimuth>230.1</azimuth>
          <distance>1.21</distance>
          <timeResidual>-1.13</timeResidual>
          <creationInfo>
            <agencyID>UW</agencyID>
            <creationTime>2012-03-08T18:32:02.000000Z</creationTime>
          </creationInfo>
        </arrival>
        <arrival publicID="quakeml:uw.anss.org/AssocArO/UW/10506388">
          <pickID>quakeml:uw.anss.org/Arrival/UW/10506388</pickID>
          <phase>P</phase>
          <azimuth>230.1</azimuth>
          <distance>1.21</distance>
          <timeResidual>-0.22</timeResidual>
          <creationInfo>
            <agencyID>UW</agencyID>
            <creationTime>2012-03-08T18:32:02.000000Z</creationTime>
          </creationInfo>
        </arrival>
        <arrival publicID="quakeml:uw.anss.org/AssocArO/UW/10506393">
          <pickID>quakeml:uw.anss.org/Arrival/UW/10506393</pickID>
          <phase>P</phase>
          <azimuth>252.9</azimuth>
          <distance>0.4063</distance>
          <timeResidual>-0.1</timeResidual>
          <creationInfo>
            <agencyID>UW</agencyID>
            <creationTime>2012-03-08T18:32:02.000000Z</creationTime>
          </creationInfo>
        </arrival>
        <arrival publicID="quakeml:uw.anss.org/AssocArO/UW/10506398">
          <pickID>quakeml:uw.anss.org/Arrival/UW/10506398</pickID>
          <phase>P</phase>
          <azimuth>303.9</azimuth>
          <distance>1.38</distance>
          <timeResidual>0.48</timeResidual>
          <creationInfo>
            <agencyID>UW</agencyID>
            <creationTime>2012-03-08T18:32:02.000000Z</creationTime>
          </creationInfo>
        </arrival>
        <arrival publicID="quakeml:uw.anss.org/AssocArO/UW/10506403">
          <pickID>quakeml:uw.anss.org/Arrival/UW/10506403</pickID>
          <phase>P</phase>
          <azimuth>230.1</azimuth>
          <distance>1.21</distance>
          <timeResidual>-0.17</timeResidual>
          <creationInfo>
            <agencyID>UW</agencyID>
            <creationTime>2012-03-08T18:32:02.000000Z</creationTime>
          </creationInfo>
        </arrival>
        <arrival publicID="quakeml:uw.anss.org/AssocArO/UW/10506408">
          <pickID>quakeml:uw.anss.org/Arrival/UW/10506408</pickID>
          <phase>S</phase>
          <azimuth>230.1</azimuth>
          <distance>1.21</distance>
          <timeResidual>-0.97</timeResidual>
          <creationInfo>
            <agencyID>UW</agencyID>
            <creationTime>2012-03-08T18:32:02.000000Z</creationTime>
          </creationInfo>
        </arrival>
        <arrival publicID="quakeml:uw.anss.org/AssocArO/UW/10506413">
          <pickID>quakeml:uw.anss.org/Arrival/UW/10506413</pickID>
          <phase>P</phase>
          <azimuth>206.7</azimuth>
          <distance>1.459</distance>
          <timeResidual>-0.22</timeResidual>
          <creationInfo>
            <agencyID>UW</agencyID>
            <creationTime>2012-03-08T18:32:02.000000Z</creationTime>
          </creationInfo>
        </arrival>
        <arrival publicID="quakeml:uw.anss.org/AssocArO/UW/10506418">
          <pickID>quakeml:uw.anss.org/Arrival/UW/10506418</pickID>
          <phase>P</phase>
          <azimuth>242.3</azimuth>
          <distance>0.9069</distance>
          <timeResidual>0.47</timeResidual>
          <creationInfo>
            <agencyID>UW</agencyID>
            <creationTime>2012-03-08T18:32:02.000000Z</creationTime>
          </creationInfo>
        </arrival>
        <arrival publicID="quakeml:uw.anss.org/AssocArO/UW/10506423">
          <pickID>quakeml:uw.anss.org/Arrival/UW/10506423</pickID>
          <phase>P</phase>
          <azimuth>207.4</azimuth>
          <distance>1.156</distance>
          <timeResidual>0.12</timeResidual>
          <creationInfo>
            <agencyID>UW</agencyID>
            <creationTime>2012-03-08T18:32:02.000000Z</creationTime>
          </creationInfo>
        </arrival>
        <arrival publicID="quakeml:uw.anss.org/AssocArO/UW/10506428">
          <pickID>quakeml:uw.anss.org/Arrival/UW/10506428</pickID>
          <phase>S</phase>
          <azimuth>207.4</azimuth>
          <distance>1.156</distance>
          <timeResidual>-0.41</timeResidual>
          <creationInfo>
            <agencyID>UW</agencyID>
            <creationTime>2012-03-08T18:32:02.000000Z</creationTime>
          </creationInfo>
        </arrival>
        <arrival publicID="quakeml:uw.anss.org/AssocArO/UW/10506433">
          <pickID>quakeml:uw.anss.org/Arrival/UW/10506433</pickID>
          <phase>P</phase>
          <azimuth>167.2</azimuth>
          <distance>1.063</distance>
          <timeResidual>0.5</timeResidual>
          <creationInfo>
            <agencyID>UW</agencyID>
            <creationTime>2012-03-08T18:32:02.000000Z</creationTime>
          </creationInfo>
        </arrival>
        <arrival publicID="quakeml:uw.anss.org/AssocArO/UW/10506438">
          <pickID>quakeml:uw.anss.org/Arrival/UW/10506438</pickID>
          <phase>P</phase>
          <azimuth>214.5</azimuth>
          <distance>1.009</distance>
          <timeResidual>0.49</timeResidual>
          <creationInfo>
