<?xml version='1.0' encoding='utf-8'?>
<q:quakeml xmlns="http://quakeml.org/xmlns/bed/1.2" xmlns:q="http://quakeml.org/xmlns/quakeml/1.2" xmlns:ns0="http://anss.org/xmlns/catalog/0.1">
  <eventParameters publicID="smi:local/c5132d83-7efa-49dd-896d-57eee70ff7eb">
    <event publicID="quakeml:uw.anss.org/Event/UW/10828528" ns0:datasource="uw" ns0:dataid="uw10828528" ns0:eventsource="uw" ns0:eventid="10828528">
      <preferredOriginID>quakeml:uw.anss.org/Origin/UW/1114273</preferredOriginID>
      <preferredMagnitudeID>quakeml:uw.anss.org/Netmag/UW/2507333</preferredMagnitudeID>
      <type>earthquake</type>
      <creationInfo>
        <agencyID>UW</agencyID>
        <creationTime>2016-11-16T22:59:39.000000Z</creationTime>
        <version>4</version>
      </creationInfo>
      <origin publicID="quakeml:uw.anss.org/Origin/UW/1114273" ns0:datasource="uw" ns0:dataid="uw10828528" ns0:eventsource="uw" ns0:eventid="10828528">
        <time>
          <value>2011-07-29T02:45:52.790000Z</value>
        </time>
        <latitude>
          <value>48.5443333</value>
          <uncertainty>0.02</uncertainty>
        </latitude>
        <longitude>
          <value>-122.2976667</value>
          <uncertainty>0.01</uncertainty>
        </longitude>
        <depth>
          <value>7008.0</value>
          <uncertainty>100.0</uncertainty>
        </depth>
        <depthType>operator assigned</depthType>
        <timeFixed>false</timeFixed>
        <epicenterFixed>false</epicenterFixed>
        <methodID>smi:uw.anss.org/origin/spong</methodID>
        <quality>
          <associatedPhaseCount>9</associatedPhaseCount>
          <usedPhaseCount>8</usedPhaseCount>
          <associatedStationCount>7</associatedStationCount>
          <usedStationCount>0</usedStationCount>
          <standardError>0.09</standardError>
          <azimuthalGap>129.0</azimuthalGap>
        </quality>
        <type>hypocenter</type>
        <evaluationMode>manual</evaluationMode>
        <evaluationStatus>final</evaluationStatus>
        <creationInfo>
          <agencyID>UW</agencyID>
          <creationTime>2012-03-08T18:35:24.000000Z</creationTime>
        </creationInfo>
        <originUncertainty>
          <preferredDescription>horizontal uncertainty</preferredDescription>
          <horizontalUncertainty>22.0</horizontalUncertainty>
        </originUncertainty>
        <arrival publicID="quakeml:uw.anss.org/AssocArO/UW/10510368">
          <pickID>quakeml:uw.anss.org/Arrival/UW/10510368</pickID>
          <phase>P</phase>
          <azimuth>209.7</azimuth>
          <distance>1.031</distance>
          <timeResidual>0.08</timeResidual>
          <creationInfo>
            <agencyID>UW</agencyID>
            <creationTime>2012-03-08T18:35:24.000000Z</creationTime>
          </creationInfo>
        </arrival>
        <arrival publicID="quakeml:uw.anss.org/AssocArO/UW/10510373">
          <pickID>quakeml:uw.anss.org/Arrival/UW/10510373</pickID>
          <phase>P</phase>
          <azimuth>144.7</azimuth>
          <timeResidual>0.17</timeResidual>
          <creationInfo>
            <agencyID>UW</agencyID>
            <creationTime>2012-03-08T18:35:24.000000Z</creationTime>
          </creationInfo>
        </arrival>
        <arrival publicID="quakeml:uw.anss.org/AssocArO/UW/10510378">
          <pickID>quakeml:uw.anss.org/Arrival/UW/10510378</pickID>
          <phase>P</phase>
          <azimuth>154.4</azimuth>
          <distance>0.311</distance>
          <timeResidual>-0.05</timeResidual>
          <creationInfo>
            <agencyID>UW</agencyID>
            <creationTime>2012-03-08T18:35:24.000000Z</creationTime>
          </creationInfo>
        </arrival>
        <arrival publicID="quakeml:uw.anss.org/AssocArO/UW/10510383">
          <pickID>quakeml:uw.anss.org/Arrival/UW/10510383</pickID>
          <phase>S</phase>
          <azimuth>154.4</azimuth>
          <distance>0.311</distance>
          <timeResidual>0.06</timeResidual>
          <creationInfo>
            <agencyID>UW</agencyID>
            <creationTime>2012-03-08T18:35:24.000000Z</creationTime>
          </creationInfo>
        </arrival>
        <arrival publicID="quakeml:uw.anss.org/AssocArO/UW/10510388">
          <pickID>quakeml:uw.anss.org/Arrival/UW/10510388</pickID>
          <phase>P</phase>
          <azimuth>100.2</azimuth>
          <distance>0.5295</distance>
          <timeResidual>-0.17</timeResidual>
          <creationInfo>
            <agencyID>UW</agencyID>
            <creationTime>2012-03-08T18:35:24.000000Z</creationTime>
          </creationInfo>
        </arrival>
        <arrival publicID="quakeml:uw.anss.org/AssocArO/UW/10510393">
          <pickID>quakeml:uw.anss.org/Arrival/UW/10510393</pickID>
          <phase>S</phase>
          <azimuth>278.3</azimuth>
          <distance>0.771</distance>
          <timeResidual>-0.01</timeResidual>
          <creationInfo>
            <agencyID>UW</agencyID>
            <creationTime>2012-03-08T18:35:24.000000Z</creationTime>
          </creationInfo>
        </arrival>
        <arrival publicID="quakeml:uw.anss.org/AssocArO/UW/10510398">
          <pickID>quakeml:uw.anss.org/Arrival/UW/10510398</pickID>
          <phase>P</phase>
          <azimuth>278.3</azimuth>
          <distance>0.771</distance>
          <timeResidual>0.71</timeResidual>
          <creationInfo>
            <agencyID>UW</agencyID>
            <creationTime>2012-03-08T18:35:24.000000Z</creationTime>
          </creationInfo>
        </arrival>
        <arrival publicID="quakeml:uw.anss.org/AssocArO/UW/10510403">
          <pickID>quakeml:uw.anss.org/Arrival/UW/10510403</pickID>
          <phase>P</phase>
          <azimuth>135.7</azimuth>
          <distance>0.169</distance>
          <timeResidual>-0.06</timeResidual>
          <creationInfo>
            <agencyID>UW</agencyID>
            <creationTime>2012-03-08T18:35:24.000000Z</creationTime>
          </creationInfo>
        </arrival>
        <arrival publicID="quakeml:uw.anss.org/AssocArO/UW/10510408">
          <pickID>quakeml:uw.anss.org/Arrival/UW/10510408</pickID>
          <phase>P</phase>
          <azimuth>47.4</azimuth>
          <distance>0.3559</distance>
          <timeResidual>0.03</timeResidual>
          <creationInfo>
            <agencyID>UW</agencyID>
            <creationTime>2012-03-08T18:35:24.000000Z</creationTime>
          </creationInfo>
        </arrival>
      </origin>
      <magnitude publicID="quakeml:uw.anss.org/Netmag/UW/2507333">
        <mag>
          <value>1.08</value>
          <uncertainty>0.089</uncertainty>
        </mag>
        <type>Ml</type>
        <originID>quakeml:uw.anss.org/Origin/UW/1114273</originID>
        <methodID>smi:uw.anss.org/magnitude/RichterMl2</methodID>
        <stationCount>6</stationCount>
        <azimuthalGap>129.1</azimuthalGap>
        <evaluationMode>automatic</evaluationMode>
        <evaluationStatus>preliminary</evaluationStatus>
        <stationMagnitudeContribution>
          <stationMagnitudeID>quakeml:uw.anss.org/AssocAmM/UW/9105448</stationMagnitudeID>
          <weight>1.0</weight>
          <residual>0.11</residual>
        </stationMagnitudeContribution>
        <stationMagnitudeContribution>
          <stationMagnitudeID>quakeml:uw.anss.org/AssocAmM/UW/9105463</stationMagnitudeID>
          <weight>1.0</weight>
          <residual>-0.04</residual>
        </stationMagnitudeContribution>
        <stationMagnitudeContribution>
          <stationMagnitudeID>quakeml:uw.anss.org/AssocAmM/UW/9105458</stationMagnitudeID>
          <weight>1.0</weight>
          <residual>0.03</residual>
        </stationMagnitudeContribution>
        <stationMagnitudeContribution>
          <stationMagnitudeID>quakeml:uw.anss.org/AssocAmM/UW/9105428</stationMagnitudeID>
          <weight>1.0</weight>
          <residual>0.27</residual>
        </stationMagnitudeContribution>
        <stationMagnitudeContribution>
          <stationMagnitudeID>quakeml:uw.anss.org/AssocAmM/UW/9105433</stationMagnitudeID>
          <weight>1.0</weight>
          <residual>0.17</residual>
        </stationMagnitudeContribution>
        <stationMagnitudeContribution>
          <stationMagnitudeID>quakeml:uw.anss.org/AssocAmM/UW/9105453</stationMagnitudeID>
          <weight>1.0</weight>
          <residual>-0.07</residual>
        </stationMagnitudeContribution>
        <stationMagnitudeContribution>
          <stationMagnitudeID>quakeml:uw.anss.org/AssocAmM/UW/9105438</stationMagnitudeID>
          <weight>1.0</weight>
          <residual>-0.05</residual>
        </stationMagnitudeContribution>
        <stationMagnitudeContribution>
          <stationMagnitudeID>quakeml:uw.anss.org/AssocAmM/UW/9105443</stationMagnitudeID>
          <weight>1.0</weight>
          <residual>-0.25</residual>
        </stationMagnitudeContribution>
        <creationInfo>
          <agencyID>UW</agencyID>
          <creationTime>2016-11-16T22:59:39.000000Z</creationTime>
        </creationInfo>
      </magnitude>
      <stationMagnitude publicID="quakeml:uw.anss.org/AssocAmM/UW/9105428">
        <originID>quakeml:uw.anss.org/Origin/UW/1114273</originID>
        <mag>
          <value>1.35</value>
        </mag>
        <type>ML</type>
        <amplitudeID>quakeml:uw.anss.org/Amp/UW/9105428</amplitudeID>
        <waveformID networkCode="UW" stationCode="CMW" locationCode="" channelCode="EHZ"></waveformID>
      </stationMagnitude>
      <stationMagnitude publicID="quakeml:uw.anss.org/AssocAmM/UW/9105433">
        <originID>quakeml:uw.anss.org/Origin/UW/1114273</originID>
        <mag>
          <value>1.25</value>
        </mag>
        <type>ML</type>
        <amplitudeID>quakeml:uw.anss.org/Amp/UW/9105433</amplitudeID>
        <waveformID networkCode="TA" stationCode="B05D" locationCode="" channelCode="BHN"></waveformID>
      </stationMagnitude>
      <stationMagnitude publicID="quakeml:uw.anss.org/AssocAmM/UW/9105438">
        <originID>quakeml:uw.anss.org/Origin/UW/1114273</originID>
        <mag>
          <value>1.03</value>
        </mag>
        <type>ML</type>
        <amplitudeID>quakeml:uw.anss.org/Amp/UW/9105438</amplitudeID>
        <waveformID networkCode="TA" stationCode="B05D" locationCode="" channelCode="BHE"></waveformID>
      </stationMagnitude>
      <stationMagnitude publicID="quakeml:uw.anss.org/AssocAmM/UW/9105443">
        <originID>quakeml:uw.anss.org/Origin/UW/1114273</originID>
        <mag>
          <value>0.83</value>
        </mag>
        <type>ML</type>
        <amplitudeID>quakeml:uw.anss.org/Amp/UW/9105443</amplitudeID>
        <waveformID networkCode="UW" stationCode="MBW" locationCode="" channelCode="EHZ"></waveformID>
      </stationMagnitude>
      <stationMagnitude publicID="quakeml:uw.anss.org/AssocAmM/UW/9105448">
        <originID>quakeml:uw.anss.org/Origin/UW/1114273</originID>
        <mag>
          <value>1.19</value>
        </mag>
        <type>ML</type>
        <amplitudeID>quakeml:uw.anss.org/Amp/UW/9105448</amplitudeID>
        <waveformID networkCode="UW" stationCode="JCW" locationCode="" channelCode="EHZ"></waveformID>
      </stationMagnitude>
      <stationMagnitude publicID="quakeml:uw.anss.org/AssocAmM/UW/9105453">
        <originID>quakeml:uw.anss.org/Origin/UW/1114273</originID>
        <mag>
          <value>1.01</value>
        </mag>
        <type>ML</type>
        <amplitudeID>quakeml:uw.anss.org/Amp/UW/9105453</amplitudeID>
        <waveformID networkCode="UW" stationCode="RPW" locationCode="" channelCode="EHZ"></waveformID>
      </stationMagnitude>
      <stationMagnitude publicID="quakeml:uw.anss.org/AssocAmM/UW/9105458">
        <originID>quakeml:uw.anss.org/Origin/UW/1114273</originID>
        <mag>
          <value>1.11</value>
        </mag>
        <type>ML</type>
        <amplitudeID>quakeml:uw.anss.org/Amp/UW/9105458</amplitudeID>
        <waveformID networkCode="PB" stationCode="B011" locationCode="" channelCode="EH1"></waveformID>
      </stationMagnitude>
      <stationMagnitude publicID="quakeml:uw.anss.org/AssocAmM/UW/9105463">
        <originID>quakeml:uw.anss.org/Origin/UW/1114273</originID>
        <mag>
          <value>1.04</value>
        </mag>
        <type>ML</type>
        <amplitudeID>quakeml:uw.anss.org/Amp/UW/9105463</amplitudeID>
        <waveformID networkCode="PB" stationCode="B011" locationCode="" channelCode="EH2"></waveformID>
      </stationMagnitude>
      <pick publicID="quakeml:uw.anss.org/Arrival/UW/10510368">
        <time>
          <value>2011-07-29T02:46:10.800000Z</value>
          <uncertainty>0.08</uncertainty>
        </time>
        <waveformID networkCode="UW" stationCode="HDW" locationCode="" channelCode="EHZ"></waveformID>
        <polarity>undecidable</polarity>
        <evaluationMode>manual</evaluationMode>
        <evaluationStatus>final</evaluationStatus>
        <creationInfo>
          <agencyID>UW</agencyID>
          <creationTime>2012-03-08T18:35:24.000000Z</creationTime>
        </creationInfo>
      </pick>
      <pick publicID="quakeml:uw.anss.org/Arrival/UW/10510373">
        <time>
          <value>2011-07-29T02:46:00.770000Z</value>
          <uncertainty>0.04</uncertainty>
        </time>
        <waveformID networkCode="UW" stationCode="JCW" locationCode="" channelCode="EHZ"></waveformID>
        <polarity>undecidable</polarity>
        <evaluationMode>manual</evaluationMode>
        <evaluationStatus>final</evaluationStatus>
        <creationInfo>
          <agencyID>UW</agencyID>
          <creationTime>2012-03-08T18:35:24.000000Z</creationTime>
        </creationInfo>
      </pick>
      <pick publicID="quakeml:uw.anss.org/Arrival/UW/10510378">
        <time>
          <value>2011-07-29T02:45:58.600000Z</value>
          <uncertainty>0.03</uncertainty>
        </time>
        <waveformID networkCode="TA" stationCode="B05D" locationCode="" channelCode="BHZ"></waveformID>
        <polarity>undecidable</polarity>
        <evaluationMode>manual</evaluationMode>
        <evaluationStatus>final</evaluationStatus>
        <creationInfo>
          <agencyID>UW</agencyID>
          <creationTime>2012-03-08T18:35:24.000000Z</creationTime>
        </creationInfo>
      </pick>
      <pick publicID="quakeml:uw.anss.org/Arrival/UW/10510383">
        <time>
          <value>2011-07-29T02:46:03.280000Z</value>
          <uncertainty>0.05</uncertainty>
        </time>
        <waveformID networkCode="TA" stationCode="B05D" locationCode="" channelCode="BHE"></waveformID>
        <polarity>undecidable</polarity>
        <evaluationMode>manual</evaluationMode>
        <evaluationStatus>final</evaluationStatus>
        <creationInfo>
          <agencyID>UW</agencyID>
          <creationTime>2012-03-08T18:35:24.000000Z</creationTime>
        </creationInfo>
      </pick>
      <pick publicID="quakeml:uw.anss.org/Arrival/UW/10510388">
        <time>
          <value>2011-07-29T02:46:02.400000Z</value>
          <uncertainty>0.07</uncertainty>
        </time>
        <waveformID networkCode="UW" stationCode="RPW" locationCode="" channelCode="EHZ"></waveformID>
        <polarity>undecidable</polarity>
        <evaluationMode>manual</evaluationMode>
        <evaluationStatus>final</evaluationStatus>
        <creationInfo>
          <agencyID>UW</agencyID>
          <creationTime>2012-03-08T18:35:24.000000Z</creationTime>
        </creationInfo>
      </pick>
      <pick publicID="quakeml:uw.anss.org/Arrival/UW/10510393">
        <time>
          <value>2011-07-29T02:46:17.100000Z</value>
          <uncertainty>0.03</uncertainty>
        </time>
        <waveformID networkCode="PB" stationCode="B011" locationCode="" channelCode="EH2"></waveformID>
        <polarity>undecidable</polarity>
        <evaluationMode>manual</evaluationMode>
        <evaluationStatus>final</evaluationStatus>
        <creationInfo>
          <agencyID>UW</agencyID>
          <creationTime>2012-03-08T18:35:24.000000Z</creationTime>
        </creationInfo>
      </pick>
      <pick publicID="quakeml:uw.anss.org/Arrival/UW/10510398">
        <time>
          <value>2011-07-29T02:46:07.160000Z</value>
          <uncertainty>0.03</uncertainty>
        </time>
        <waveformID networkCode="PB" stationCode="B011" locationCode="" channelCode="EHZ"></waveformID>
        <polarity>undecidable</polarity>
        <evaluationMode>manual</evaluationMode>
        <evaluationStatus>final</evaluationStatus>
        <creationInfo>
          <agencyID>UW</agencyID>
          <creationTime>2012-03-08T18:35:24.000000Z</creationTime>
        </creationInfo>
      </pick>
      <pick publicID="quakeml:uw.anss.org/Arrival/UW/10510403">
        <time>
          <value>2011-07-29T02:45:56.450000Z</value>
          <uncertainty>0.01</uncertainty>
        </time>
        <waveformID networkCode="UW" stationCode="CMW" locationCode="" channelCode="EHZ"></waveformID>
        <polarity>positive</polarity>
        <evaluationMode>manual</evaluationMode>
        <evaluationStatus>final</evaluationStatus>
        <creationInfo>
          <agencyID>UW</agencyID>
          <creationTime>2012-03-08T18:35:24.000000Z</creationTime>
        </creationInfo>
      </pick>
      <pick publicID="quakeml:uw.anss.org/Arrival/UW/10510408">
        <time>
          <value>2011-07-29T02:45:59.770000Z</value>
          <uncertainty>0.02</uncertainty>
        </time>
        <waveformID networkCode="UW" stationCode="MBW" locationCode="" channelCode="EHZ"></waveformID>
        <polarity>undecidable</polarity>
        <evaluationMode>manual</evaluationMode>
        <evaluationStatus>final</evaluationStatus>
        <creationInfo>
          <agencyID>UW</agencyID>
          <creationTime>2012-03-08T18:35:24.000000Z</creationTime>
        </creationInfo>
      </pick>
      <amplitude publicID="quakeml:uw.anss.org/Amp/UW/9105458">
        <genericAmplitude>
          <value>4.6181e-06</value>
        </genericAmplitude>
        <type>AML</type>
        <category>point</category>
        <unit>m</unit>
        <waveformID networkCode="PB" stationCode="B011" locationCode="" channelCode="EH1"></waveformID>
        <magnitudeHint>ML</magnitudeHint>
        <evaluationMode>automatic</evaluationMode>
        <evaluationStatus>preliminary</evaluationStatus>
      </amplitude>
      <amplitude publicID="quakeml:uw.anss.org/Amp/UW/9105463">
        <genericAmplitude>
          <value>3.9416e-06</value>
        </genericAmplitude>
        <type>AML</type>
        <category>point</category>
        <unit>m</unit>
        <waveformID networkCode="PB" stationCode="B011" locationCode="" channelCode="EH2"></waveformID>
        <magnitudeHint>ML</magnitudeHint>
        <evaluationMode>automatic</evaluationMode>
        <evaluationStatus>preliminary</evaluationStatus>
      </amplitude>
      <amplitude publicID="quakeml:uw.anss.org/Amp/UW/9105438">
        <genericAmplitude>
          <value>4.8098e-05</value>
        </genericAmplitude>
        <type>AML</type>
        <category>point</category>
        <unit>m</unit>
        <waveformID networkCode="TA" stationCode="B05D" locationCode="" channelCode="BHE"></waveformID>
        <magnitudeHint>ML</magnitudeHint>
        <evaluationMode>automatic</evaluationMode>
        <evaluationStatus>preliminary</evaluationStatus>
      </amplitude>
      <amplitude publicID="quakeml:uw.anss.org/Amp/UW/9105433">
        <genericAmplitude>
          <value>8.0274e-05</value>
        </genericAmplitude>
        <type>AML</type>
        <category>point</category>
        <unit>m</unit>
        <waveformID networkCode="TA" stationCode="B05D" locationCode="" channelCode="BHN"></waveformID>
        <magnitudeHint>ML</magnitudeHint>
        <evaluationMode>automatic</evaluationMode>
        <evaluationStatus>preliminary</evaluationStatus>
      </amplitude>
      <amplitude publicID="quakeml:uw.anss.org/Amp/UW/9105428">
        <genericAmplitude>
          <value>7.8911e-05</value>
        </genericAmplitude>
