<?xml version='1.0' encoding='utf-8'?>
<q:quakeml xmlns="http://quakeml.org/xmlns/bed/1.2" xmlns:q="http://quakeml.org/xmlns/quakeml/1.2" xmlns:ns0="http://anss.org/xmlns/catalog/0.1">
  <eventParameters publicID="smi:local/3c8e1b93-bf25-44a3-a7c6-db603f480fbe">
    <event publicID="quakeml:uw.anss.org/Event/UW/10752558" ns0:datasource="uw" ns0:dataid="uw10752558" ns0:eventsource="uw" ns0:eventid="10752558">
      <preferredOriginID>quakeml:uw.anss.org/Origin/UW/1035488</preferredOriginID>
      <preferredMagnitudeID>quakeml:uw.anss.org/Netmag/UW/805178</preferredMagnitudeID>
      <type>earthquake</type>
      <creationInfo>
        <agencyID>UW</agencyID>
        <creationTime>2012-03-06T13:35:28.000000Z</creationTime>
        <version>3</version>
      </creationInfo>
      <origin publicID="quakeml:uw.anss.org/Origin/UW/1035488" ns0:datasource="uw" ns0:dataid="uw10752558" ns0:eventsource="uw" ns0:eventid="10752558">
        <time>
          <value>2008-04-29T10:27:57.640000Z</value>
          <uncertainty>0.16</uncertainty>
        </time>
        <latitude>
          <value>48.7678333</value>
          <uncertainty>0.64</uncertainty>
        </latitude>
        <longitude>
          <value>-122.1666667</value>
          <uncertainty>1.29</uncertainty>
        </longitude>
        <depth>
          <value>14523.0</value>
          <uncertainty>3970.0</uncertainty>
        </depth>
        <depthType>operator assigned</depthType>
        <timeFixed>false</timeFixed>
        <epicenterFixed>true</epicenterFixed>
        <methodID>smi:uw.anss.org/origin/spong</methodID>
        <quality>
          <associatedPhaseCount>30</associatedPhaseCount>
          <usedPhaseCount>30</usedPhaseCount>
          <associatedStationCount>25</associatedStationCount>
          <usedStationCount>0</usedStationCount>
          <standardError>0.42</standardError>
          <azimuthalGap>93.0</azimuthalGap>
        </quality>
        <type>hypocenter</type>
        <evaluationMode>manual</evaluationMode>
        <evaluationStatus>final</evaluationStatus>
        <creationInfo>
          <agencyID>UW</agencyID>
          <creationTime>2012-03-06T13:35:28.000000Z</creationTime>
        </creationInfo>
        <originUncertainty>
          <preferredDescription>horizontal uncertainty</preferredDescription>
          <horizontalUncertainty>1440.0</horizontalUncertainty>
        </originUncertainty>
        <arrival publicID="quakeml:uw.anss.org/AssocArO/UW/9683028">
          <pickID>quakeml:uw.anss.org/Arrival/UW/9683028</pickID>
          <phase>P</phase>
          <azimuth>208.2</azimuth>
          <distance>1.268</distance>
          <timeResidual>0.29</timeResidual>
          <creationInfo>
            <agencyID>UW</agencyID>
            <creationTime>2012-03-06T13:35:28.000000Z</creationTime>
          </creationInfo>
        </arrival>
        <arrival publicID="quakeml:uw.anss.org/AssocArO/UW/9683033">
          <pickID>quakeml:uw.anss.org/Arrival/UW/9683033</pickID>
          <phase>P</phase>
          <azimuth>13.1</azimuth>
          <distance>0.2369</distance>
          <timeResidual>-0.01</timeResidual>
          <creationInfo>
            <agencyID>UW</agencyID>
            <creationTime>2012-03-06T13:35:28.000000Z</creationTime>
          </creationInfo>
        </arrival>
        <arrival publicID="quakeml:uw.anss.org/AssocArO/UW/9683038">
          <pickID>quakeml:uw.anss.org/Arrival/UW/9683038</pickID>
          <phase>S</phase>
          <azimuth>13.1</azimuth>
          <distance>0.2369</distance>
          <timeResidual>0.41</timeResidual>
          <creationInfo>
            <agencyID>UW</agencyID>
            <creationTime>2012-03-06T13:35:28.000000Z</creationTime>
          </creationInfo>
        </arrival>
        <arrival publicID="quakeml:uw.anss.org/AssocArO/UW/9683043">
          <pickID>quakeml:uw.anss.org/Arrival/UW/9683043</pickID>
          <phase>P</phase>
          <azimuth>119.3</azimuth>
          <distance>1.402</distance>
          <timeResidual>0.94</timeResidual>
          <creationInfo>
            <agencyID>UW</agencyID>
            <creationTime>2012-03-06T13:35:28.000000Z</creationTime>
          </creationInfo>
        </arrival>
        <arrival publicID="quakeml:uw.anss.org/AssocArO/UW/9683048">
          <pickID>quakeml:uw.anss.org/Arrival/UW/9683048</pickID>
          <phase>P</phase>
          <azimuth>200.3</azimuth>
          <distance>1.283</distance>
          <timeResidual>0.14</timeResidual>
          <creationInfo>
            <agencyID>UW</agencyID>
            <creationTime>2012-03-06T13:35:28.000000Z</creationTime>
          </creationInfo>
        </arrival>
        <arrival publicID="quakeml:uw.anss.org/AssocArO/UW/9683053">
          <pickID>quakeml:uw.anss.org/Arrival/UW/9683053</pickID>
          <phase>P</phase>
          <azimuth>270.2</azimuth>
          <distance>0.1652</distance>
          <timeResidual>0.12</timeResidual>
          <creationInfo>
            <agencyID>UW</agencyID>
            <creationTime>2012-03-06T13:35:28.000000Z</creationTime>
          </creationInfo>
        </arrival>
        <arrival publicID="quakeml:uw.anss.org/AssocArO/UW/9683058">
          <pickID>quakeml:uw.anss.org/Arrival/UW/9683058</pickID>
          <phase>P</phase>
          <azimuth>262.5</azimuth>
          <distance>0.8571</distance>
          <timeResidual>-0.31</timeResidual>
          <creationInfo>
            <agencyID>UW</agencyID>
            <creationTime>2012-03-06T13:35:28.000000Z</creationTime>
          </creationInfo>
        </arrival>
        <arrival publicID="quakeml:uw.anss.org/AssocArO/UW/9683063">
          <pickID>quakeml:uw.anss.org/Arrival/UW/9683063</pickID>
          <phase>S</phase>
          <azimuth>262.5</azimuth>
          <distance>0.8571</distance>
          <timeResidual>-0.92</timeResidual>
          <creationInfo>
            <agencyID>UW</agencyID>
            <creationTime>2012-03-06T13:35:28.000000Z</creationTime>
          </creationInfo>
        </arrival>
        <arrival publicID="quakeml:uw.anss.org/AssocArO/UW/9683068">
          <pickID>quakeml:uw.anss.org/Arrival/UW/9683068</pickID>
          <phase>S</phase>
          <azimuth>207.7</azimuth>
          <distance>1.077</distance>
          <timeResidual>-0.19</timeResidual>
          <creationInfo>
            <agencyID>UW</agencyID>
            <creationTime>2012-03-06T13:35:28.000000Z</creationTime>
          </creationInfo>
        </arrival>
        <arrival publicID="quakeml:uw.anss.org/AssocArO/UW/9683073">
          <pickID>quakeml:uw.anss.org/Arrival/UW/9683073</pickID>
          <phase>P</phase>
          <azimuth>207.7</azimuth>
          <distance>1.077</distance>
          <timeResidual>0.05</timeResidual>
          <creationInfo>
            <agencyID>UW</agencyID>
            <creationTime>2012-03-06T13:35:28.000000Z</creationTime>
          </creationInfo>
        </arrival>
        <arrival publicID="quakeml:uw.anss.org/AssocArO/UW/9683078">
          <pickID>quakeml:uw.anss.org/Arrival/UW/9683078</pickID>
          <phase>P</phase>
          <azimuth>9.2</azimuth>
          <distance>0.2619</distance>
          <timeResidual>-0.1</timeResidual>
          <creationInfo>
            <agencyID>UW</agencyID>
            <creationTime>2012-03-06T13:35:28.000000Z</creationTime>
          </creationInfo>
        </arrival>
        <arrival publicID="quakeml:uw.anss.org/AssocArO/UW/9683083">
          <pickID>quakeml:uw.anss.org/Arrival/UW/9683083</pickID>
          <phase>P</phase>
          <azimuth>126.3</azimuth>
          <distance>0.5381</distance>
          <timeResidual>-0.45</timeResidual>
          <creationInfo>
            <agencyID>UW</agencyID>
            <creationTime>2012-03-06T13:35:28.000000Z</creationTime>
          </creationInfo>
        </arrival>
        <arrival publicID="quakeml:uw.anss.org/AssocArO/UW/9683088">
          <pickID>quakeml:uw.anss.org/Arrival/UW/9683088</pickID>
          <phase>P</phase>
          <azimuth>6.3</azimuth>
          <distance>0.1496</distance>
          <timeResidual>-0.17</timeResidual>
          <creationInfo>
            <agencyID>UW</agencyID>
            <creationTime>2012-03-06T13:35:28.000000Z</creationTime>
          </creationInfo>
        </arrival>
        <arrival publicID="quakeml:uw.anss.org/AssocArO/UW/9683093">
          <pickID>quakeml:uw.anss.org/Arrival/UW/9683093</pickID>
          <phase>P</phase>
          <azimuth>118.7</azimuth>
          <distance>0.5168</distance>
          <timeResidual>-0.19</timeResidual>
          <creationInfo>
            <agencyID>UW</agencyID>
            <creationTime>2012-03-06T13:35:28.000000Z</creationTime>
          </creationInfo>
        </arrival>
        <arrival publicID="quakeml:uw.anss.org/AssocArO/UW/9683098">
          <pickID>quakeml:uw.anss.org/Arrival/UW/9683098</pickID>
          <phase>S</phase>
          <azimuth>118.7</azimuth>
          <distance>0.5168</distance>
          <timeResidual>-0.38</timeResidual>
          <creationInfo>
            <agencyID>UW</agencyID>
            <creationTime>2012-03-06T13:35:28.000000Z</creationTime>
          </creationInfo>
        </arrival>
        <arrival publicID="quakeml:uw.anss.org/AssocArO/UW/9683103">
          <pickID>quakeml:uw.anss.org/Arrival/UW/9683103</pickID>
          <phase>P</phase>
          <azimuth>84.7</azimuth>
          <distance>0.1765</distance>
          <timeResidual>-0.45</timeResidual>
          <creationInfo>
            <agencyID>UW</agencyID>
            <creationTime>2012-03-06T13:35:28.000000Z</creationTime>
          </creationInfo>
        </arrival>
        <arrival publicID="quakeml:uw.anss.org/AssocArO/UW/9683108">
          <pickID>quakeml:uw.anss.org/Arrival/UW/9683108</pickID>
          <phase>P</phase>
          <azimuth>164.4</azimuth>
          <timeResidual>-0.08</timeResidual>
          <creationInfo>
            <agencyID>UW</agencyID>
            <creationTime>2012-03-06T13:35:28.000000Z</creationTime>
          </creationInfo>
        </arrival>
        <arrival publicID="quakeml:uw.anss.org/AssocArO/UW/9683113">
          <pickID>quakeml:uw.anss.org/Arrival/UW/9683113</pickID>
          <phase>P</phase>
          <azimuth>231.8</azimuth>
          <distance>1.137</distance>
          <timeResidual>-0.2</timeResidual>
          <creationInfo>
            <agencyID>UW</agencyID>
            <creationTime>2012-03-06T13:35:28.000000Z</creationTime>
          </creationInfo>
        </arrival>
        <arrival publicID="quakeml:uw.anss.org/AssocArO/UW/9683118">
          <pickID>quakeml:uw.anss.org/Arrival/UW/9683118</pickID>
          <phase>P</phase>
          <azimuth>231.8</azimuth>
          <distance>1.14</distance>
          <timeResidual>-0.03</timeResidual>
          <creationInfo>
            <agencyID>UW</agencyID>
            <creationTime>2012-03-06T13:35:28.000000Z</creationTime>
          </creationInfo>
        </arrival>
        <arrival publicID="quakeml:uw.anss.org/AssocArO/UW/9683123">
          <pickID>quakeml:uw.anss.org/Arrival/UW/9683123</pickID>
          <phase>P</phase>
          <azimuth>231.9</azimuth>
          <distance>1.138</distance>
          <timeResidual>-0.05</timeResidual>
          <creationInfo>
            <agencyID>UW</agencyID>
            <creationTime>2012-03-06T13:35:28.000000Z</creationTime>
          </creationInfo>
        </arrival>
        <arrival publicID="quakeml:uw.anss.org/AssocArO/UW/9683128">
          <pickID>quakeml:uw.anss.org/Arrival/UW/9683128</pickID>
          <phase>P</phase>
          <azimuth>53.5</azimuth>
          <distance>0.5605</distance>
          <timeResidual>0.29</timeResidual>
          <creationInfo>
            <agencyID>UW</agencyID>
            <creationTime>2012-03-06T13:35:28.000000Z</creationTime>
          </creationInfo>
        </arrival>
        <arrival publicID="quakeml:uw.anss.org/AssocArO/UW/9683133">
          <pickID>quakeml:uw.anss.org/Arrival/UW/9683133</pickID>
          <phase>P</phase>
          <azimuth>245.6</azimuth>
          <distance>0.8471</distance>
          <timeResidual>0.44</timeResidual>
          <creationInfo>
            <agencyID>UW</agencyID>
            <creationTime>2012-03-06T13:35:28.000000Z</creationTime>
          </creationInfo>
        </arrival>
        <arrival publicID="quakeml:uw.anss.org/AssocArO/UW/9683138">
          <pickID>quakeml:uw.anss.org/Arrival/UW/9683138</pickID>
          <phase>P</phase>
          <azimuth>172.4</azimuth>
          <distance>0.5368</distance>
          <timeResidual>0.27</timeResidual>
          <creationInfo>
            <agencyID>UW</agencyID>
            <creationTime>2012-03-06T13:35:28.000000Z</creationTime>
          </creationInfo>
        </arrival>
        <arrival publicID="quakeml:uw.anss.org/AssocArO/UW/9683143">
          <pickID>quakeml:uw.anss.org/Arrival/UW/9683143</pickID>
          <phase>P</phase>
          <azimuth>273.1</azimuth>
          <distance>1.3</distance>
          <timeResidual>-0.01</timeResidual>
          <creationInfo>
            <agencyID>UW</agencyID>
            <creationTime>2012-03-06T13:35:28.000000Z</creationTime>
          </creationInfo>
        </arrival>
        <arrival publicID="quakeml:uw.anss.org/AssocArO/UW/9683148">
          <pickID>quakeml:uw.anss.org/Arrival/UW/9683148</pickID>
          <phase>P</phase>
          <azimuth>271.0</azimuth>
          <distance>0.6653</distance>
          <timeResidual>0.2</timeResidual>
          <creationInfo>
            <agencyID>UW</agencyID>
            <creationTime>2012-03-06T13:35:28.000000Z</creationTime>
          </creationInfo>
        </arrival>
        <arrival publicID="quakeml:uw.anss.org/AssocArO/UW/9683153">
          <pickID>quakeml:uw.anss.org/Arrival/UW/9683153</pickID>
          <phase>P</phase>
          <azimuth>164.5</azimuth>
          <distance>1.001</distance>
          <timeResidual>0.7</timeResidual>
          <creationInfo>
            <agencyID>UW</agencyID>
            <creationTime>2012-03-06T13:35:28.000000Z</creationTime>
          </creationInfo>
        </arrival>
        <arrival publicID="quakeml:uw.anss.org/AssocArO/UW/9683158">
          <pickID>quakeml:uw.anss.org/Arrival/UW/9683158</pickID>
          <phase>P</phase>
          <azimuth>220.5</azimuth>
          <distance>0.9096</distance>
          <timeResidual>0.73</timeResidual>
          <creationInfo>
            <agencyID>UW</agencyID>
            <creationTime>2012-03-06T13:35:28.000000Z</creationTime>
          </creationInfo>
        </arrival>
        <arrival publicID="quakeml:uw.anss.org/AssocArO/UW/9683163">
          <pickID>quakeml:uw.anss.org/Arrival/UW/9683163</pickID>
          <phase>P</phase>
          <azimuth>258.8</azimuth>
          <distance>0.4498</distance>
          <timeResidual>0.1</timeResidual>
          <creationInfo>
            <agencyID>UW</agencyID>
            <creationTime>2012-03-06T13:35:28.000000Z</creationTime>
          </creationInfo>
        </arrival>
        <arrival publicID="quakeml:uw.anss.org/AssocArO/UW/9683168">
          <pickID>quakeml:uw.anss.org/Arrival/UW/9683168</pickID>
          <phase>S</phase>
          <azimuth>258.8</azimuth>
          <distance>0.4498</distance>
          <timeResidual>0.41</timeResidual>
          <creationInfo>
            <agencyID>UW</agencyID>
            <creationTime>2012-03-06T13:35:28.000000Z</creationTime>
          </creationInfo>
        </arrival>
        <arrival publicID="quakeml:uw.anss.org/AssocArO/UW/9683173">
          <pickID>quakeml:uw.anss.org/Arrival/UW/9683173</pickID>
          <phase>P</phase>
          <azimuth>102.0</azimuth>
          <distance>1.393</distance>
          <timeResidual>1.37</timeResidual>
          <creationInfo>
            <agencyID>UW</agencyID>
            <creationTime>2012-03-06T13:35:28.000000Z</creationTime>
          </creationInfo>
        </arrival>
      </origin>
      <magnitude publicID="quakeml:uw.anss.org/Netmag/UW/805178">
        <mag>
          <value>2.0</value>
          <uncertainty>0.06</uncertainty>
        </mag>
        <type>Md</type>
        <originID>quakeml:uw.anss.org/Origin/UW/1035488</originID>
        <methodID>smi:uw.anss.org/magnitude/Crosson</methodID>
        <stationCount>6</stationCount>
        <evaluationMode>manual</evaluationMode>
        <evaluationStatus>final</evaluationStatus>
        <stationMagnitudeContribution>
          <stationMagnitudeID>quakeml:uw.anss.org/AssocCoM/UW/2218068</stationMagnitudeID>
          <weight>1.0</weight>
          <residual>0.09</residual>
        </stationMagnitudeContribution>
        <stationMagnitudeContribution>
          <stationMagnitudeID>quakeml:uw.anss.org/AssocCoM/UW/2218063</stationMagnitudeID>
          <weight>1.0</weight>
          <residual>0.12</residual>
        </stationMagnitudeContribution>
        <stationMagnitudeContribution>
          <stationMagnitudeID>quakeml:uw.anss.org/AssocCoM/UW/2218083</stationMagnitudeID>
          <weight>1.0</weight>
          <residual>-0.11</residual>
        </stationMagnitudeContribution>
        <stationMagnitudeContribution>
          <stationMagnitudeID>quakeml:uw.anss.org/AssocCoM/UW/2218088</stationMagnitudeID>
          <weight>1.0</weight>
          <residual>-0.18</residual>
        </stationMagnitudeContribution>
        <stationMagnitudeContribution>
          <stationMagnitudeID>quakeml:uw.anss.org/AssocCoM/UW/2218073</stationMagnitudeID>
          <weight>1.0</weight>
          <residual>0.2</residual>
        </stationMagnitudeContribution>
        <stationMagnitudeContribution>
          <stationMagnitudeID>quakeml:uw.anss.org/AssocCoM/UW/2218078</stationMagnitudeID>
          <weight>1.0</weight>
          <residual>-0.25</residual>
        </stationMagnitudeContribution>
        <creationInfo>
          <agencyID>UW</agencyID>
          <creationTime>2012-03-06T13:35:28.000000Z</creationTime>
        </creationInfo>
      </magnitude>
      <stationMagnitude publicID="quakeml:uw.anss.org/AssocCoM/UW/2218063">
        <originID>quakeml:uw.anss.org/Origin/UW/1035488</originID>
        <mag>
          <value>2.12</value>
        </mag>
        <type>MD</type>
        <amplitudeID>quakeml:uw.anss.org/Coda/UW/2218063</amplitudeID>
        <waveformID networkCode="PB" stationCode="B011" locationCode="" channelCode="EHZ"></waveformID>
      </stationMagnitude>
      <stationMagnitude publicID="quakeml:uw.anss.org/AssocCoM/UW/2218068">
        <originID>quakeml:uw.anss.org/Origin/UW/1035488</originID>
        <mag>
          <value>2.09</value>
        </mag>
        <type>MD</type>
        <amplitudeID>quakeml:uw.anss.org/Coda/UW/2218068</amplitudeID>
        <waveformID networkCode="CN" stationCode="VDB" locationCode="" channelCode="EHZ"></waveformID>
      </stationMagnitude>
      <stationMagnitude publicID="quakeml:uw.anss.org/AssocCoM/UW/2218073">
        <originID>quakeml:uw.anss.org/Origin/UW/1035488</originID>
        <mag>
          <value>2.2</value>
        </mag>
        <type>MD</type>
        <amplitudeID>quakeml:uw.anss.org/Coda/UW/2218073</amplitudeID>
        <waveformID networkCode="UW" stationCode="RPW" locationCode="" channelCode="EHZ"></waveformID>
      </stationMagnitude>
      <stationMagnitude publicID="quakeml:uw.anss.org/AssocCoM/UW/2218078">
        <originID>quakeml:uw.anss.org/Origin/UW/1035488</originID>
        <mag>
          <value>1.75</value>
        </mag>
        <type>MD</type>
        <amplitudeID>quakeml:uw.anss.org/Coda/UW/2218078</amplitudeID>
        <waveformID networkCode="UW" stationCode="MBW" locationCode="" channelCode="EHZ"></waveformID>
      </stationMagnitude>
      <stationMagnitude publicID="quakeml:uw.anss.org/AssocCoM/UW/2218083">
        <originID>quakeml:uw.anss.org/Origin/UW/1035488</originID>
        <mag>
          <value>1.89</value>
        </mag>
        <type>MD</type>
