<?xml version='1.0' encoding='utf-8'?>
<q:quakeml xmlns="http://quakeml.org/xmlns/bed/1.2" xmlns:q="http://quakeml.org/xmlns/quakeml/1.2" xmlns:ns0="http://anss.org/xmlns/catalog/0.1">
  <eventParameters publicID="smi:local/1d203001-6a59-43ea-9b2b-df9e4dde8fd1">
    <event publicID="quakeml:uw.anss.org/Event/UW/10739088" ns0:datasource="uw" ns0:dataid="uw10739088" ns0:eventsource="uw" ns0:eventid="10739088">
      <preferredOriginID>quakeml:uw.anss.org/Origin/UW/1022003</preferredOriginID>
      <preferredMagnitudeID>quakeml:uw.anss.org/Netmag/UW/796558</preferredMagnitudeID>
      <type>earthquake</type>
      <creationInfo>
        <agencyID>UW</agencyID>
        <creationTime>2012-03-06T12:36:40.000000Z</creationTime>
        <version>3</version>
      </creationInfo>
      <origin publicID="quakeml:uw.anss.org/Origin/UW/1022003" ns0:datasource="uw" ns0:dataid="uw10739088" ns0:eventsource="uw" ns0:eventid="10739088">
        <time>
          <value>2008-02-21T09:22:40.230000Z</value>
          <uncertainty>1.14</uncertainty>
        </time>
        <latitude>
          <value>48.6058333</value>
          <uncertainty>0.93</uncertainty>
        </latitude>
        <longitude>
          <value>-121.993</value>
          <uncertainty>0.5</uncertainty>
        </longitude>
        <depth>
          <value>4023.0</value>
          <uncertainty>9610.0</uncertainty>
        </depth>
        <depthType>operator assigned</depthType>
        <timeFixed>false</timeFixed>
        <epicenterFixed>true</epicenterFixed>
        <methodID>smi:uw.anss.org/origin/spong</methodID>
        <quality>
          <associatedPhaseCount>30</associatedPhaseCount>
          <usedPhaseCount>25</usedPhaseCount>
          <associatedStationCount>26</associatedStationCount>
          <usedStationCount>0</usedStationCount>
          <standardError>0.37</standardError>
          <azimuthalGap>77.0</azimuthalGap>
        </quality>
        <type>hypocenter</type>
        <evaluationMode>manual</evaluationMode>
        <evaluationStatus>final</evaluationStatus>
        <creationInfo>
          <agencyID>UW</agencyID>
          <creationTime>2012-03-06T12:36:40.000000Z</creationTime>
        </creationInfo>
        <originUncertainty>
          <preferredDescription>horizontal uncertainty</preferredDescription>
          <horizontalUncertainty>1056.0</horizontalUncertainty>
        </originUncertainty>
        <arrival publicID="quakeml:uw.anss.org/AssocArO/UW/9555548">
          <pickID>quakeml:uw.anss.org/Arrival/UW/9555548</pickID>
          <phase>P</phase>
          <azimuth>216.9</azimuth>
          <distance>1.194</distance>
          <timeResidual>-0.08</timeResidual>
          <creationInfo>
            <agencyID>UW</agencyID>
            <creationTime>2012-03-06T12:36:40.000000Z</creationTime>
          </creationInfo>
        </arrival>
        <arrival publicID="quakeml:uw.anss.org/AssocArO/UW/9555573">
          <pickID>quakeml:uw.anss.org/Arrival/UW/9555573</pickID>
          <phase>P</phase>
          <azimuth>351.2</azimuth>
          <distance>0.3975</distance>
          <timeResidual>-0.07</timeResidual>
          <creationInfo>
            <agencyID>UW</agencyID>
            <creationTime>2012-03-06T12:36:40.000000Z</creationTime>
          </creationInfo>
        </arrival>
        <arrival publicID="quakeml:uw.anss.org/AssocArO/UW/9555578">
          <pickID>quakeml:uw.anss.org/Arrival/UW/9555578</pickID>
          <phase>S</phase>
          <azimuth>351.2</azimuth>
          <distance>0.3975</distance>
          <timeResidual>0.2</timeResidual>
          <creationInfo>
            <agencyID>UW</agencyID>
            <creationTime>2012-03-06T12:36:40.000000Z</creationTime>
          </creationInfo>
        </arrival>
        <arrival publicID="quakeml:uw.anss.org/AssocArO/UW/9555583">
          <pickID>quakeml:uw.anss.org/Arrival/UW/9555583</pickID>
          <phase>P</phase>
          <azimuth>115.4</azimuth>
          <distance>1.226</distance>
          <timeResidual>0.28</timeResidual>
          <creationInfo>
            <agencyID>UW</agencyID>
            <creationTime>2012-03-06T12:36:40.000000Z</creationTime>
          </creationInfo>
        </arrival>
        <arrival publicID="quakeml:uw.anss.org/AssocArO/UW/9555588">
          <pickID>quakeml:uw.anss.org/Arrival/UW/9555588</pickID>
          <phase>P</phase>
          <azimuth>273.1</azimuth>
          <distance>0.9664</distance>
          <timeResidual>-0.45</timeResidual>
          <creationInfo>
            <agencyID>UW</agencyID>
            <creationTime>2012-03-06T12:36:40.000000Z</creationTime>
          </creationInfo>
        </arrival>
        <arrival publicID="quakeml:uw.anss.org/AssocArO/UW/9555593">
          <pickID>quakeml:uw.anss.org/Arrival/UW/9555593</pickID>
          <phase>S</phase>
          <azimuth>273.1</azimuth>
          <distance>0.9664</distance>
          <timeResidual>-1.17</timeResidual>
          <creationInfo>
            <agencyID>UW</agencyID>
            <creationTime>2012-03-06T12:36:40.000000Z</creationTime>
          </creationInfo>
        </arrival>
        <arrival publicID="quakeml:uw.anss.org/AssocArO/UW/9555598">
          <pickID>quakeml:uw.anss.org/Arrival/UW/9555598</pickID>
          <phase>P</phase>
          <azimuth>66.7</azimuth>
          <distance>1.152</distance>
          <timeResidual>0.46</timeResidual>
          <creationInfo>
            <agencyID>UW</agencyID>
            <creationTime>2012-03-06T12:36:40.000000Z</creationTime>
          </creationInfo>
        </arrival>
        <arrival publicID="quakeml:uw.anss.org/AssocArO/UW/9555603">
          <pickID>quakeml:uw.anss.org/Arrival/UW/9555603</pickID>
          <phase>P</phase>
          <azimuth>350.3</azimuth>
          <distance>0.4268</distance>
          <timeResidual>-0.17</timeResidual>
          <creationInfo>
            <agencyID>UW</agencyID>
            <creationTime>2012-03-06T12:36:40.000000Z</creationTime>
          </creationInfo>
        </arrival>
        <arrival publicID="quakeml:uw.anss.org/AssocArO/UW/9555608">
          <pickID>quakeml:uw.anss.org/Arrival/UW/9555608</pickID>
          <phase>P</phase>
          <azimuth>233.8</azimuth>
          <distance>0.9457</distance>
          <timeResidual>0.38</timeResidual>
          <creationInfo>
            <agencyID>UW</agencyID>
            <creationTime>2012-03-06T12:36:40.000000Z</creationTime>
          </creationInfo>
        </arrival>
        <arrival publicID="quakeml:uw.anss.org/AssocArO/UW/9555613">
          <pickID>quakeml:uw.anss.org/Arrival/UW/9555613</pickID>
          <phase>P</phase>
          <azimuth>173.7</azimuth>
          <distance>1.154</distance>
          <timeResidual>0.1</timeResidual>
          <creationInfo>
            <agencyID>UW</agencyID>
            <creationTime>2012-03-06T12:36:40.000000Z</creationTime>
          </creationInfo>
        </arrival>
        <arrival publicID="quakeml:uw.anss.org/AssocArO/UW/9555618">
          <pickID>quakeml:uw.anss.org/Arrival/UW/9555618</pickID>
          <phase>S</phase>
          <azimuth>116.3</azimuth>
          <distance>0.3549</distance>
          <timeResidual>-0.64</timeResidual>
          <creationInfo>
            <agencyID>UW</agencyID>
            <creationTime>2012-03-06T12:36:40.000000Z</creationTime>
          </creationInfo>
        </arrival>
        <arrival publicID="quakeml:uw.anss.org/AssocArO/UW/9555623">
          <pickID>quakeml:uw.anss.org/Arrival/UW/9555623</pickID>
          <phase>P</phase>
          <azimuth>174.1</azimuth>
          <distance>1.745</distance>
          <timeResidual>0.21</timeResidual>
          <creationInfo>
            <agencyID>UW</agencyID>
            <creationTime>2012-03-06T12:36:40.000000Z</creationTime>
          </creationInfo>
        </arrival>
        <arrival publicID="quakeml:uw.anss.org/AssocArO/UW/9555628">
          <pickID>quakeml:uw.anss.org/Arrival/UW/9555628</pickID>
          <phase>P</phase>
          <azimuth>104.4</azimuth>
          <distance>0.349</distance>
          <timeResidual>-0.28</timeResidual>
          <creationInfo>
            <agencyID>UW</agencyID>
            <creationTime>2012-03-06T12:36:40.000000Z</creationTime>
          </creationInfo>
        </arrival>
        <arrival publicID="quakeml:uw.anss.org/AssocArO/UW/9555633">
          <pickID>quakeml:uw.anss.org/Arrival/UW/9555633</pickID>
          <phase>P</phase>
          <azimuth>18.8</azimuth>
          <distance>0.1883</distance>
          <timeResidual>-0.34</timeResidual>
          <creationInfo>
            <agencyID>UW</agencyID>
            <creationTime>2012-03-06T12:36:40.000000Z</creationTime>
          </creationInfo>
        </arrival>
        <arrival publicID="quakeml:uw.anss.org/AssocArO/UW/9555638">
          <pickID>quakeml:uw.anss.org/Arrival/UW/9555638</pickID>
          <phase>P</phase>
          <azimuth>173.9</azimuth>
          <timeResidual>-0.2</timeResidual>
          <creationInfo>
            <agencyID>UW</agencyID>
            <creationTime>2012-03-06T12:36:40.000000Z</creationTime>
          </creationInfo>
        </arrival>
        <arrival publicID="quakeml:uw.anss.org/AssocArO/UW/9555643">
          <pickID>quakeml:uw.anss.org/Arrival/UW/9555643</pickID>
          <phase>P</phase>
          <azimuth>241.9</azimuth>
          <distance>1.148</distance>
          <timeResidual>-0.28</timeResidual>
          <creationInfo>
            <agencyID>UW</agencyID>
            <creationTime>2012-03-06T12:36:40.000000Z</creationTime>
          </creationInfo>
        </arrival>
        <arrival publicID="quakeml:uw.anss.org/AssocArO/UW/9555648">
          <pickID>quakeml:uw.anss.org/Arrival/UW/9555648</pickID>
          <phase>S</phase>
          <azimuth>241.9</azimuth>
          <distance>1.148</distance>
          <timeResidual>-0.41</timeResidual>
          <creationInfo>
            <agencyID>UW</agencyID>
            <creationTime>2012-03-06T12:36:40.000000Z</creationTime>
          </creationInfo>
        </arrival>
        <arrival publicID="quakeml:uw.anss.org/AssocArO/UW/9555653">
          <pickID>quakeml:uw.anss.org/Arrival/UW/9555653</pickID>
          <phase>P</phase>
          <azimuth>112.0</azimuth>
          <distance>1.607</distance>
          <timeResidual>0.71</timeResidual>
          <creationInfo>
            <agencyID>UW</agencyID>
            <creationTime>2012-03-06T12:36:40.000000Z</creationTime>
          </creationInfo>
        </arrival>
        <arrival publicID="quakeml:uw.anss.org/AssocArO/UW/9555658">
          <pickID>quakeml:uw.anss.org/Arrival/UW/9555658</pickID>
          <phase>P</phase>
          <azimuth>124.7</azimuth>
          <distance>1.585</distance>
          <timeResidual>0.65</timeResidual>
          <creationInfo>
            <agencyID>UW</agencyID>
            <creationTime>2012-03-06T12:36:40.000000Z</creationTime>
          </creationInfo>
        </arrival>
        <arrival publicID="quakeml:uw.anss.org/AssocArO/UW/9555663">
          <pickID>quakeml:uw.anss.org/Arrival/UW/9555663</pickID>
          <phase>P</phase>
          <azimuth>258.2</azimuth>
          <distance>0.9066</distance>
          <timeResidual>0.34</timeResidual>
          <creationInfo>
            <agencyID>UW</agencyID>
            <creationTime>2012-03-06T12:36:40.000000Z</creationTime>
          </creationInfo>
        </arrival>
        <arrival publicID="quakeml:uw.anss.org/AssocArO/UW/9555668">
          <pickID>quakeml:uw.anss.org/Arrival/UW/9555668</pickID>
          <phase>S</phase>
          <azimuth>258.2</azimuth>
          <distance>0.9066</distance>
          <timeResidual>0.13</timeResidual>
          <creationInfo>
            <agencyID>UW</agencyID>
            <creationTime>2012-03-06T12:36:40.000000Z</creationTime>
          </creationInfo>
        </arrival>
        <arrival publicID="quakeml:uw.anss.org/AssocArO/UW/9555673">
          <pickID>quakeml:uw.anss.org/Arrival/UW/9555673</pickID>
          <phase>P</phase>
          <azimuth>186.9</azimuth>
          <distance>0.3727</distance>
          <timeResidual>-0.09</timeResidual>
          <creationInfo>
            <agencyID>UW</agencyID>
            <creationTime>2012-03-06T12:36:40.000000Z</creationTime>
          </creationInfo>
        </arrival>
        <arrival publicID="quakeml:uw.anss.org/AssocArO/UW/9555678">
          <pickID>quakeml:uw.anss.org/Arrival/UW/9555678</pickID>
          <phase>P</phase>
          <azimuth>130.3</azimuth>
          <distance>0.7508</distance>
          <timeResidual>-0.32</timeResidual>
          <creationInfo>
            <agencyID>UW</agencyID>
            <creationTime>2012-03-06T12:36:40.000000Z</creationTime>
          </creationInfo>
        </arrival>
        <arrival publicID="quakeml:uw.anss.org/AssocArO/UW/9555683">
          <pickID>quakeml:uw.anss.org/Arrival/UW/9555683</pickID>
          <phase>P</phase>
          <azimuth>167.4</azimuth>
          <distance>0.9342</distance>
          <timeResidual>0.17</timeResidual>
          <creationInfo>
            <agencyID>UW</agencyID>
            <creationTime>2012-03-06T12:36:41.000000Z</creationTime>
          </creationInfo>
        </arrival>
        <arrival publicID="quakeml:uw.anss.org/AssocArO/UW/9555688">
          <pickID>quakeml:uw.anss.org/Arrival/UW/9555688</pickID>
          <phase>P</phase>
          <azimuth>135.0</azimuth>
          <distance>1.055</distance>
          <timeResidual>-0.42</timeResidual>
          <creationInfo>
            <agencyID>UW</agencyID>
            <creationTime>2012-03-06T12:36:41.000000Z</creationTime>
          </creationInfo>
        </arrival>
        <arrival publicID="quakeml:uw.anss.org/AssocArO/UW/9555693">
          <pickID>quakeml:uw.anss.org/Arrival/UW/9555693</pickID>
          <phase>P</phase>
          <azimuth>186.1</azimuth>
          <distance>1.95</distance>
          <timeResidual>0.0</timeResidual>
          <creationInfo>
            <agencyID>UW</agencyID>
            <creationTime>2012-03-06T12:36:41.000000Z</creationTime>
          </creationInfo>
        </arrival>
        <arrival publicID="quakeml:uw.anss.org/AssocArO/UW/9555698">
          <pickID>quakeml:uw.anss.org/Arrival/UW/9555698</pickID>
          <phase>P</phase>
          <azimuth>169.4</azimuth>
          <distance>0.8165</distance>
          <timeResidual>-0.09</timeResidual>
          <creationInfo>
            <agencyID>UW</agencyID>
            <creationTime>2012-03-06T12:36:41.000000Z</creationTime>
          </creationInfo>
        </arrival>
        <arrival publicID="quakeml:uw.anss.org/AssocArO/UW/9555703">
          <pickID>quakeml:uw.anss.org/Arrival/UW/9555703</pickID>
          <phase>P</phase>
          <azimuth>146.4</azimuth>
          <distance>1.716</distance>
          <timeResidual>0.12</timeResidual>
          <creationInfo>
            <agencyID>UW</agencyID>
            <creationTime>2012-03-06T12:36:41.000000Z</creationTime>
          </creationInfo>
        </arrival>
        <arrival publicID="quakeml:uw.anss.org/AssocArO/UW/9555708">
          <pickID>quakeml:uw.anss.org/Arrival/UW/9555708</pickID>
          <phase>P</phase>
          <azimuth>233.2</azimuth>
          <distance>0.8827</distance>
          <timeResidual>0.89</timeResidual>
          <creationInfo>
            <agencyID>UW</agencyID>
            <creationTime>2012-03-06T12:36:41.000000Z</creationTime>
          </creationInfo>
        </arrival>
        <arrival publicID="quakeml:uw.anss.org/AssocArO/UW/9555713">
          <pickID>quakeml:uw.anss.org/Arrival/UW/9555713</pickID>
          <phase>P</phase>
          <azimuth>96.0</azimuth>
          <distance>1.254</distance>
          <timeResidual>0.81</timeResidual>
          <creationInfo>
            <agencyID>UW</agencyID>
            <creationTime>2012-03-06T12:36:41.000000Z</creationTime>
          </creationInfo>
        </arrival>
      </origin>
      <magnitude publicID="quakeml:uw.anss.org/Netmag/UW/796558">
        <mag>
          <value>2.0</value>
          <uncertainty>0.06</uncertainty>
        </mag>
        <type>Md</type>
        <originID>quakeml:uw.anss.org/Origin/UW/1022003</originID>
        <methodID>smi:uw.anss.org/magnitude/Crosson</methodID>
        <stationCount>6</stationCount>
        <evaluationMode>manual</evaluationMode>
        <evaluationStatus>final</evaluationStatus>
        <stationMagnitudeContribution>
          <stationMagnitudeID>quakeml:uw.anss.org/AssocCoM/UW/2198298</stationMagnitudeID>
          <weight>1.0</weight>
          <residual>0.33</residual>
        </stationMagnitudeContribution>
        <stationMagnitudeContribution>
          <stationMagnitudeID>quakeml:uw.anss.org/AssocCoM/UW/2198308</stationMagnitudeID>
          <weight>1.0</weight>
          <residual>-0.67</residual>
        </stationMagnitudeContribution>
        <stationMagnitudeContribution>
          <stationMagnitudeID>quakeml:uw.anss.org/AssocCoM/UW/2198323</stationMagnitudeID>
          <weight>1.0</weight>
          <residual>0.06</residual>
        </stationMagnitudeContribution>
        <stationMagnitudeContribution>
          <stationMagnitudeID>quakeml:uw.anss.org/AssocCoM/UW/2198303</stationMagnitudeID>
          <weight>1.0</weight>
          <residual>-0.01</residual>
        </stationMagnitudeContribution>
        <stationMagnitudeContribution>
          <stationMagnitudeID>quakeml:uw.anss.org/AssocCoM/UW/2198313</stationMagnitudeID>
          <weight>1.0</weight>
          <residual>-0.04</residual>
        </stationMagnitudeContribution>
        <stationMagnitudeContribution>
          <stationMagnitudeID>quakeml:uw.anss.org/AssocCoM/UW/2198318</stationMagnitudeID>
          <weight>1.0</weight>
          <residual>-0.04</residual>
        </stationMagnitudeContribution>
        <creationInfo>
          <agencyID>UW</agencyID>
          <creationTime>2012-03-06T12:36:40.000000Z</creationTime>
        </creationInfo>
      </magnitude>
      <stationMagnitude publicID="quakeml:uw.anss.org/AssocCoM/UW/2198298">
        <originID>quakeml:uw.anss.org/Origin/UW/1022003</originID>
        <mag>
          <value>2.33</value>
        </mag>
        <type>MD</type>
        <amplitudeID>quakeml:uw.anss.org/Coda/UW/2198298</amplitudeID>
        <waveformID networkCode="UW" stationCode="HDW" locationCode="" channelCode="EHZ"></waveformID>
      </stationMagnitude>
      <stationMagnitude publicID="quakeml:uw.anss.org/AssocCoM/UW/2198303">
        <originID>quakeml:uw.anss.org/Origin/UW/1022003</originID>
        <mag>
          <value>1.99</value>
        </mag>
        <type>MD</type>
        <amplitudeID>quakeml:uw.anss.org/Coda/UW/2198303</amplitudeID>
        <waveformID networkCode="CN" stationCode="VDB" locationCode="" channelCode="EHZ"></waveformID>
      </stationMagnitude>
      <stationMagnitude publicID="quakeml:uw.anss.org/AssocCoM/UW/2198308">
        <originID>quakeml:uw.anss.org/Origin/UW/1022003</originID>
        <mag>
          <value>1.33</value>
        </mag>
        <type>MD</type>
        <amplitudeID>quakeml:uw.anss.org/Coda/UW/2198308</amplitudeID>
        <waveformID networkCode="UW" stationCode="MBW" locationCode="" channelCode="EHZ"></waveformID>
      </stationMagnitude>
      <stationMagnitude publicID="quakeml:uw.anss.org/AssocCoM/UW/2198313">
        <originID>quakeml:uw.anss.org/Origin/UW/1022003</originID>
        <mag>
          <value>1.96</value>
        </mag>
        <type>MD</type>
        <amplitudeID>quakeml:uw.anss.org/Coda/UW/2198313</amplitudeID>
        <waveformID networkCode="UW" stationCode="JCW" locationCode="" channelCode="EHZ"></waveformID>
      </stationMagnitude>
      <stationMagnitude publicID="quakeml:uw.anss.org/AssocCoM/UW/2198318">
        <originID>quakeml:uw.anss.org/Origin/UW/1022003</originID>
        <mag>
          <value>1.96</value>
        </mag>
        <type>MD</type>
