<?xml version='1.0' encoding='utf-8'?>
<q:quakeml xmlns="http://quakeml.org/xmlns/bed/1.2" xmlns:q="http://quakeml.org/xmlns/quakeml/1.2" xmlns:ns0="http://anss.org/xmlns/catalog/0.1">
  <eventParameters publicID="smi:local/58232170-81e5-4bf3-a043-c72d167236cd">
    <event publicID="quakeml:uw.anss.org/Event/UW/10762408" ns0:datasource="uw" ns0:dataid="uw10762408" ns0:eventsource="uw" ns0:eventid="10762408">
      <preferredOriginID>quakeml:uw.anss.org/Origin/UW/1045338</preferredOriginID>
      <preferredMagnitudeID>quakeml:uw.anss.org/Netmag/UW/812313</preferredMagnitudeID>
      <type>earthquake</type>
      <creationInfo>
        <agencyID>UW</agencyID>
        <creationTime>2012-03-06T14:25:11.000000Z</creationTime>
        <version>3</version>
      </creationInfo>
      <origin publicID="quakeml:uw.anss.org/Origin/UW/1045338" ns0:datasource="uw" ns0:dataid="uw10762408" ns0:eventsource="uw" ns0:eventid="10762408">
        <time>
          <value>2008-10-27T02:01:27.580000Z</value>
          <uncertainty>0.06</uncertainty>
        </time>
        <latitude>
          <value>48.5485</value>
          <uncertainty>0.53</uncertainty>
        </latitude>
        <longitude>
          <value>-122.2998333</value>
          <uncertainty>0.55</uncertainty>
        </longitude>
        <depth>
          <value>5316.0</value>
          <uncertainty>2660.0</uncertainty>
        </depth>
        <depthType>operator assigned</depthType>
        <timeFixed>false</timeFixed>
        <epicenterFixed>true</epicenterFixed>
        <methodID>smi:uw.anss.org/origin/spong</methodID>
        <quality>
          <associatedPhaseCount>26</associatedPhaseCount>
          <usedPhaseCount>26</usedPhaseCount>
          <associatedStationCount>20</associatedStationCount>
          <usedStationCount>0</usedStationCount>
          <standardError>0.28</standardError>
          <azimuthalGap>54.0</azimuthalGap>
        </quality>
        <type>hypocenter</type>
        <evaluationMode>manual</evaluationMode>
        <evaluationStatus>final</evaluationStatus>
        <creationInfo>
          <agencyID>UW</agencyID>
          <creationTime>2012-03-06T14:25:11.000000Z</creationTime>
        </creationInfo>
        <originUncertainty>
          <preferredDescription>horizontal uncertainty</preferredDescription>
          <horizontalUncertainty>764.0</horizontalUncertainty>
        </originUncertainty>
        <arrival publicID="quakeml:uw.anss.org/AssocArO/UW/9791463">
          <pickID>quakeml:uw.anss.org/Arrival/UW/9791463</pickID>
          <phase>P</phase>
          <azimuth>209.6</azimuth>
          <distance>1.033</distance>
          <timeResidual>-0.16</timeResidual>
          <creationInfo>
            <agencyID>UW</agencyID>
            <creationTime>2012-03-06T14:25:11.000000Z</creationTime>
          </creationInfo>
        </arrival>
        <arrival publicID="quakeml:uw.anss.org/AssocArO/UW/9791468">
          <pickID>quakeml:uw.anss.org/Arrival/UW/9791468</pickID>
          <phase>P</phase>
          <azimuth>17.4</azimuth>
          <distance>0.472</distance>
          <timeResidual>0.05</timeResidual>
          <creationInfo>
            <agencyID>UW</agencyID>
            <creationTime>2012-03-06T14:25:11.000000Z</creationTime>
          </creationInfo>
        </arrival>
        <arrival publicID="quakeml:uw.anss.org/AssocArO/UW/9791473">
          <pickID>quakeml:uw.anss.org/Arrival/UW/9791473</pickID>
          <phase>S</phase>
          <azimuth>17.4</azimuth>
          <distance>0.472</distance>
          <timeResidual>0.09</timeResidual>
          <creationInfo>
            <agencyID>UW</agencyID>
            <creationTime>2012-03-06T14:25:11.000000Z</creationTime>
          </creationInfo>
        </arrival>
        <arrival publicID="quakeml:uw.anss.org/AssocArO/UW/9791478">
          <pickID>quakeml:uw.anss.org/Arrival/UW/9791478</pickID>
          <phase>P</phase>
          <azimuth>109.4</azimuth>
          <distance>1.392</distance>
          <timeResidual>0.6</timeResidual>
          <creationInfo>
            <agencyID>UW</agencyID>
            <creationTime>2012-03-06T14:25:11.000000Z</creationTime>
          </creationInfo>
        </arrival>
        <arrival publicID="quakeml:uw.anss.org/AssocArO/UW/9791483">
          <pickID>quakeml:uw.anss.org/Arrival/UW/9791483</pickID>
          <phase>P</phase>
          <azimuth>144.9</azimuth>
          <timeResidual>-0.01</timeResidual>
          <creationInfo>
            <agencyID>UW</agencyID>
            <creationTime>2012-03-06T14:25:11.000000Z</creationTime>
          </creationInfo>
        </arrival>
        <arrival publicID="quakeml:uw.anss.org/AssocArO/UW/9791488">
          <pickID>quakeml:uw.anss.org/Arrival/UW/9791488</pickID>
          <phase>P</phase>
          <azimuth>291.8</azimuth>
          <distance>0.6213</distance>
          <timeResidual>0.03</timeResidual>
          <creationInfo>
            <agencyID>UW</agencyID>
            <creationTime>2012-03-06T14:25:11.000000Z</creationTime>
          </creationInfo>
        </arrival>
        <arrival publicID="quakeml:uw.anss.org/AssocArO/UW/9791493">
          <pickID>quakeml:uw.anss.org/Arrival/UW/9791493</pickID>
          <phase>S</phase>
          <azimuth>291.8</azimuth>
          <distance>0.6213</distance>
          <timeResidual>0.37</timeResidual>
          <creationInfo>
            <agencyID>UW</agencyID>
            <creationTime>2012-03-06T14:25:11.000000Z</creationTime>
          </creationInfo>
        </arrival>
        <arrival publicID="quakeml:uw.anss.org/AssocArO/UW/9791498">
          <pickID>quakeml:uw.anss.org/Arrival/UW/9791498</pickID>
          <phase>P</phase>
          <azimuth>219.9</azimuth>
          <distance>0.7043</distance>
          <timeResidual>0.3</timeResidual>
          <creationInfo>
            <agencyID>UW</agencyID>
            <creationTime>2012-03-06T14:25:11.000000Z</creationTime>
          </creationInfo>
        </arrival>
        <arrival publicID="quakeml:uw.anss.org/AssocArO/UW/9791503">
          <pickID>quakeml:uw.anss.org/Arrival/UW/9791503</pickID>
          <phase>P</phase>
          <azimuth>125.7</azimuth>
          <distance>1.174</distance>
          <timeResidual>0.08</timeResidual>
          <creationInfo>
            <agencyID>UW</agencyID>
            <creationTime>2012-03-06T14:25:12.000000Z</creationTime>
          </creationInfo>
        </arrival>
        <arrival publicID="quakeml:uw.anss.org/AssocArO/UW/9791508">
          <pickID>quakeml:uw.anss.org/Arrival/UW/9791508</pickID>
          <phase>S</phase>
          <azimuth>209.2</azimuth>
          <distance>0.842</distance>
          <timeResidual>-0.37</timeResidual>
          <creationInfo>
            <agencyID>UW</agencyID>
            <creationTime>2012-03-06T14:25:12.000000Z</creationTime>
          </creationInfo>
        </arrival>
        <arrival publicID="quakeml:uw.anss.org/AssocArO/UW/9791513">
          <pickID>quakeml:uw.anss.org/Arrival/UW/9791513</pickID>
          <phase>P</phase>
          <azimuth>340.7</azimuth>
          <distance>0.233</distance>
          <timeResidual>0.83</timeResidual>
          <creationInfo>
            <agencyID>UW</agencyID>
            <creationTime>2012-03-06T14:25:12.000000Z</creationTime>
          </creationInfo>
        </arrival>
        <arrival publicID="quakeml:uw.anss.org/AssocArO/UW/9791518">
          <pickID>quakeml:uw.anss.org/Arrival/UW/9791518</pickID>
          <phase>P</phase>
          <azimuth>278.0</azimuth>
          <distance>0.769</distance>
          <timeResidual>-0.33</timeResidual>
          <creationInfo>
            <agencyID>UW</agencyID>
            <creationTime>2012-03-06T14:25:12.000000Z</creationTime>
          </creationInfo>
        </arrival>
        <arrival publicID="quakeml:uw.anss.org/AssocArO/UW/9791523">
          <pickID>quakeml:uw.anss.org/Arrival/UW/9791523</pickID>
          <phase>S</phase>
          <azimuth>278.0</azimuth>
          <distance>0.769</distance>
          <timeResidual>-0.79</timeResidual>
          <creationInfo>
            <agencyID>UW</agencyID>
            <creationTime>2012-03-06T14:25:12.000000Z</creationTime>
          </creationInfo>
        </arrival>
        <arrival publicID="quakeml:uw.anss.org/AssocArO/UW/9791528">
          <pickID>quakeml:uw.anss.org/Arrival/UW/9791528</pickID>
          <phase>P</phase>
          <azimuth>227.9</azimuth>
          <distance>0.7511</distance>
          <timeResidual>0.18</timeResidual>
          <creationInfo>
            <agencyID>UW</agencyID>
            <creationTime>2012-03-06T14:25:12.000000Z</creationTime>
          </creationInfo>
        </arrival>
        <arrival publicID="quakeml:uw.anss.org/AssocArO/UW/9791533">
          <pickID>quakeml:uw.anss.org/Arrival/UW/9791533</pickID>
          <phase>P</phase>
          <azimuth>154.4</azimuth>
          <distance>0.8257</distance>
          <timeResidual>0.12</timeResidual>
          <creationInfo>
            <agencyID>UW</agencyID>
            <creationTime>2012-03-06T14:25:12.000000Z</creationTime>
          </creationInfo>
        </arrival>
        <arrival publicID="quakeml:uw.anss.org/AssocArO/UW/9791538">
          <pickID>quakeml:uw.anss.org/Arrival/UW/9791538</pickID>
          <phase>P</phase>
          <azimuth>290.5</azimuth>
          <distance>0.3769</distance>
          <timeResidual>-0.17</timeResidual>
          <creationInfo>
            <agencyID>UW</agencyID>
            <creationTime>2012-03-06T14:25:12.000000Z</creationTime>
          </creationInfo>
        </arrival>
        <arrival publicID="quakeml:uw.anss.org/AssocArO/UW/9791543">
          <pickID>quakeml:uw.anss.org/Arrival/UW/9791543</pickID>
          <phase>P</phase>
          <azimuth>118.7</azimuth>
          <distance>0.887</distance>
          <timeResidual>0.19</timeResidual>
          <creationInfo>
            <agencyID>UW</agencyID>
            <creationTime>2012-03-06T14:25:12.000000Z</creationTime>
          </creationInfo>
        </arrival>
        <arrival publicID="quakeml:uw.anss.org/AssocArO/UW/9791548">
          <pickID>quakeml:uw.anss.org/Arrival/UW/9791548</pickID>
          <phase>P</phase>
          <azimuth>15.1</azimuth>
          <distance>0.4955</distance>
          <timeResidual>-0.22</timeResidual>
          <creationInfo>
            <agencyID>UW</agencyID>
            <creationTime>2012-03-06T14:25:12.000000Z</creationTime>
          </creationInfo>
        </arrival>
        <arrival publicID="quakeml:uw.anss.org/AssocArO/UW/9791553">
          <pickID>quakeml:uw.anss.org/Arrival/UW/9791553</pickID>
          <phase>P</phase>
          <azimuth>209.2</azimuth>
          <distance>0.842</distance>
          <timeResidual>-0.09</timeResidual>
          <creationInfo>
            <agencyID>UW</agencyID>
            <creationTime>2012-03-06T14:25:12.000000Z</creationTime>
          </creationInfo>
        </arrival>
        <arrival publicID="quakeml:uw.anss.org/AssocArO/UW/9791558">
          <pickID>quakeml:uw.anss.org/Arrival/UW/9791558</pickID>
          <phase>S</phase>
          <azimuth>209.2</azimuth>
          <distance>0.842</distance>
          <timeResidual>-0.27</timeResidual>
          <creationInfo>
            <agencyID>UW</agencyID>
            <creationTime>2012-03-06T14:25:12.000000Z</creationTime>
          </creationInfo>
        </arrival>
        <arrival publicID="quakeml:uw.anss.org/AssocArO/UW/9791563">
          <pickID>quakeml:uw.anss.org/Arrival/UW/9791563</pickID>
          <phase>P</phase>
          <azimuth>259.2</azimuth>
          <distance>0.6955</distance>
          <timeResidual>0.22</timeResidual>
          <creationInfo>
            <agencyID>UW</agencyID>
            <creationTime>2012-03-06T14:25:12.000000Z</creationTime>
          </creationInfo>
        </arrival>
        <arrival publicID="quakeml:uw.anss.org/AssocArO/UW/9791568">
          <pickID>quakeml:uw.anss.org/Arrival/UW/9791568</pickID>
          <phase>S</phase>
          <azimuth>259.2</azimuth>
          <distance>0.6955</distance>
          <timeResidual>0.18</timeResidual>
          <creationInfo>
            <agencyID>UW</agencyID>
            <creationTime>2012-03-06T14:25:12.000000Z</creationTime>
          </creationInfo>
        </arrival>
        <arrival publicID="quakeml:uw.anss.org/AssocArO/UW/9791573">
          <pickID>quakeml:uw.anss.org/Arrival/UW/9791573</pickID>
          <phase>P</phase>
          <azimuth>136.3</azimuth>
          <distance>0.173</distance>
          <timeResidual>-0.17</timeResidual>
          <creationInfo>
            <agencyID>UW</agencyID>
            <creationTime>2012-03-06T14:25:12.000000Z</creationTime>
          </creationInfo>
        </arrival>
        <arrival publicID="quakeml:uw.anss.org/AssocArO/UW/9791578">
          <pickID>quakeml:uw.anss.org/Arrival/UW/9791578</pickID>
          <phase>S</phase>
          <azimuth>136.3</azimuth>
          <distance>0.173</distance>
          <timeResidual>0.43</timeResidual>
          <creationInfo>
            <agencyID>UW</agencyID>
            <creationTime>2012-03-06T14:25:12.000000Z</creationTime>
          </creationInfo>
        </arrival>
        <arrival publicID="quakeml:uw.anss.org/AssocArO/UW/9791583">
          <pickID>quakeml:uw.anss.org/Arrival/UW/9791583</pickID>
          <phase>P</phase>
          <azimuth>92.9</azimuth>
          <distance>0.5428</distance>
          <timeResidual>0.01</timeResidual>
          <creationInfo>
            <agencyID>UW</agencyID>
            <creationTime>2012-03-06T14:25:12.000000Z</creationTime>
          </creationInfo>
        </arrival>
        <arrival publicID="quakeml:uw.anss.org/AssocArO/UW/9791588">
          <pickID>quakeml:uw.anss.org/Arrival/UW/9791588</pickID>
          <phase>P</phase>
          <azimuth>48.1</azimuth>
          <distance>0.3541</distance>
          <timeResidual>-0.27</timeResidual>
          <creationInfo>
            <agencyID>UW</agencyID>
            <creationTime>2012-03-06T14:25:12.000000Z</creationTime>
          </creationInfo>
        </arrival>
      </origin>
      <magnitude publicID="quakeml:uw.anss.org/Netmag/UW/812313">
        <mag>
          <value>1.7</value>
          <uncertainty>0.06</uncertainty>
        </mag>
        <type>Md</type>
        <originID>quakeml:uw.anss.org/Origin/UW/1045338</originID>
        <methodID>smi:uw.anss.org/magnitude/Crosson</methodID>
        <stationCount>7</stationCount>
        <evaluationMode>manual</evaluationMode>
        <evaluationStatus>final</evaluationStatus>
        <stationMagnitudeContribution>
          <stationMagnitudeID>quakeml:uw.anss.org/AssocCoM/UW/2239783</stationMagnitudeID>
          <weight>1.0</weight>
          <residual>0.19</residual>
        </stationMagnitudeContribution>
        <stationMagnitudeContribution>
          <stationMagnitudeID>quakeml:uw.anss.org/AssocCoM/UW/2239793</stationMagnitudeID>
          <weight>1.0</weight>
          <residual>0.01</residual>
        </stationMagnitudeContribution>
        <stationMagnitudeContribution>
          <stationMagnitudeID>quakeml:uw.anss.org/AssocCoM/UW/2239768</stationMagnitudeID>
          <weight>1.0</weight>
          <residual>0.42</residual>
        </stationMagnitudeContribution>
        <stationMagnitudeContribution>
          <stationMagnitudeID>quakeml:uw.anss.org/AssocCoM/UW/2239798</stationMagnitudeID>
          <weight>1.0</weight>
          <residual>0.01</residual>
        </stationMagnitudeContribution>
        <stationMagnitudeContribution>
          <stationMagnitudeID>quakeml:uw.anss.org/AssocCoM/UW/2239788</stationMagnitudeID>
          <weight>1.0</weight>
          <residual>-0.27</residual>
        </stationMagnitudeContribution>
        <stationMagnitudeContribution>
          <stationMagnitudeID>quakeml:uw.anss.org/AssocCoM/UW/2239773</stationMagnitudeID>
          <weight>1.0</weight>
          <residual>-0.08</residual>
        </stationMagnitudeContribution>
        <stationMagnitudeContribution>
          <stationMagnitudeID>quakeml:uw.anss.org/AssocCoM/UW/2239778</stationMagnitudeID>
          <weight>1.0</weight>
          <residual>-0.08</residual>
        </stationMagnitudeContribution>
        <creationInfo>
          <agencyID>UW</agencyID>
          <creationTime>2012-03-06T14:25:11.000000Z</creationTime>
        </creationInfo>
      </magnitude>
      <stationMagnitude publicID="quakeml:uw.anss.org/AssocCoM/UW/2239768">
        <originID>quakeml:uw.anss.org/Origin/UW/1045338</originID>
        <mag>
          <value>2.12</value>
        </mag>
        <type>MD</type>
        <amplitudeID>quakeml:uw.anss.org/Coda/UW/2239768</amplitudeID>
        <waveformID networkCode="UW" stationCode="HDW" locationCode="" channelCode="EHZ"></waveformID>
      </stationMagnitude>
      <stationMagnitude publicID="quakeml:uw.anss.org/AssocCoM/UW/2239773">
        <originID>quakeml:uw.anss.org/Origin/UW/1045338</originID>
        <mag>
          <value>1.62</value>
        </mag>
        <type>MD</type>
        <amplitudeID>quakeml:uw.anss.org/Coda/UW/2239773</amplitudeID>
        <waveformID networkCode="UW" stationCode="JCW" locationCode="" channelCode="EHZ"></waveformID>
      </stationMagnitude>
      <stationMagnitude publicID="quakeml:uw.anss.org/AssocCoM/UW/2239778">
        <originID>quakeml:uw.anss.org/Origin/UW/1045338</originID>
        <mag>
          <value>1.62</value>
        </mag>
        <type>MD</type>
        <amplitudeID>quakeml:uw.anss.org/Coda/UW/2239778</amplitudeID>
        <waveformID networkCode="PB" stationCode="B011" locationCode="" channelCode="EHZ"></waveformID>
      </stationMagnitude>
      <stationMagnitude publicID="quakeml:uw.anss.org/AssocCoM/UW/2239783">
        <originID>quakeml:uw.anss.org/Origin/UW/1045338</originID>
        <mag>
          <value>1.89</value>
        </mag>
        <type>MD</type>
        <amplitudeID>quakeml:uw.anss.org/Coda/UW/2239783</amplitudeID>
        <waveformID networkCode="UW" stationCode="HTW" locationCode="" channelCode="EHZ"></waveformID>
      </stationMagnitude>
      <stationMagnitude publicID="quakeml:uw.anss.org/AssocCoM/UW/2239788">
        <originID>quakeml:uw.anss.org/Origin/UW/1045338</originID>
        <mag>
          <value>1.43</value>
        </mag>
        <type>MD</type>
        <amplitudeID>quakeml:uw.anss.org/Coda/UW/2239788</amplitudeID>
        <waveformID networkCode="CN" stationCode="VDB" locationCode="" channelCode="EHZ"></waveformID>
      </stationMagnitude>
      <stationMagnitude publicID="quakeml:uw.anss.org/AssocCoM/UW/2239793">
        <originID>quakeml:uw.anss.org/Origin/UW/1045338</originID>
        <mag>
          <value>1.71</value>
        </mag>
        <type>MD</type>
        <amplitudeID>quakeml:uw.anss.org/Coda/UW/2239793</amplitudeID>
        <waveformID networkCode="UW" stationCode="CMW" locationCode="" channelCode="EHZ"></waveformID>
      </stationMagnitude>
      <stationMagnitude publicID="quakeml:uw.anss.org/AssocCoM/UW/2239798">
        <originID>quakeml:uw.anss.org/Origin/UW/1045338</originID>
        <mag>
          <value>1.71</value>
        </mag>
        <type>MD</type>
        <amplitudeID>quakeml:uw.anss.org/Coda/UW/2239798</amplitudeID>
        <waveformID networkCode="UW" stationCode="MBW" locationCode="" channelCode="EHZ"></waveformID>
      </stationMagnitude>
      <pick publicID="quakeml:uw.anss.org/Arrival/UW/9791463">
        <time>
          <value>2008-10-27T02:01:45.460000Z</value>
          <uncertainty>0.04</uncertainty>
        </time>
        <waveformID networkCode="UW" stationCode="HDW" locationCode="" channelCode="EHZ"></waveformID>
        <polarity>undecidable</polarity>
        <evaluationMode>manual</evaluationMode>
        <evaluationStatus>final</evaluationStatus>
        <creationInfo>
          <agencyID>UW</agencyID>
