<?xml version='1.0' encoding='utf-8'?>
<q:quakeml xmlns="http://quakeml.org/xmlns/bed/1.2" xmlns:q="http://quakeml.org/xmlns/quakeml/1.2" xmlns:ns0="http://anss.org/xmlns/catalog/0.1">
  <eventParameters publicID="smi:local/abdffa4e-5b95-4029-a40d-eb741068bc02">
    <event publicID="quakeml:uw.anss.org/Event/UW/10213323" ns0:datasource="uw" ns0:dataid="uw10213323" ns0:eventsource="uw" ns0:eventid="10213323">
      <preferredOriginID>quakeml:uw.anss.org/Origin/UW/490263</preferredOriginID>
      <preferredMagnitudeID>quakeml:uw.anss.org/Netmag/UW/405913</preferredMagnitudeID>
      <type>earthquake</type>
      <creationInfo>
        <agencyID>UW</agencyID>
        <creationTime>2012-02-27T15:08:27.000000Z</creationTime>
        <version>2</version>
      </creationInfo>
      <origin publicID="quakeml:uw.anss.org/Origin/UW/490263" ns0:datasource="uw" ns0:dataid="uw10213323" ns0:eventsource="uw" ns0:eventid="10213323">
        <time>
          <value>1986-10-03T09:53:58.400000Z</value>
          <uncertainty>0.03</uncertainty>
        </time>
        <latitude>
          <value>48.6881667</value>
          <uncertainty>0.11</uncertainty>
        </latitude>
        <longitude>
          <value>-121.9968333</value>
          <uncertainty>0.14</uncertainty>
        </longitude>
        <depth>
          <value>-882.0</value>
          <uncertainty>440.0</uncertainty>
        </depth>
        <depthType>operator assigned</depthType>
        <timeFixed>false</timeFixed>
        <epicenterFixed>false</epicenterFixed>
        <methodID>smi:uw.anss.org/origin/spong</methodID>
        <quality>
          <associatedPhaseCount>58</associatedPhaseCount>
          <usedPhaseCount>19</usedPhaseCount>
          <associatedStationCount>45</associatedStationCount>
          <usedStationCount>0</usedStationCount>
          <standardError>0.3</standardError>
          <azimuthalGap>124.0</azimuthalGap>
        </quality>
        <type>hypocenter</type>
        <evaluationMode>manual</evaluationMode>
        <evaluationStatus>final</evaluationStatus>
        <creationInfo>
          <agencyID>UW</agencyID>
          <creationTime>2012-02-27T15:08:27.000000Z</creationTime>
        </creationInfo>
        <originUncertainty>
          <preferredDescription>horizontal uncertainty</preferredDescription>
          <horizontalUncertainty>178.0</horizontalUncertainty>
        </originUncertainty>
        <arrival publicID="quakeml:uw.anss.org/AssocArO/UW/2883323">
          <pickID>quakeml:uw.anss.org/Arrival/UW/2883323</pickID>
          <phase>P</phase>
          <azimuth>214.6</azimuth>
          <distance>1.259</distance>
          <timeResidual>-0.13</timeResidual>
          <creationInfo>
            <agencyID>UW</agencyID>
            <creationTime>2012-02-27T15:08:27.000000Z</creationTime>
          </creationInfo>
        </arrival>
        <arrival publicID="quakeml:uw.anss.org/AssocArO/UW/2883328">
          <pickID>quakeml:uw.anss.org/Arrival/UW/2883328</pickID>
          <phase>S</phase>
          <azimuth>214.6</azimuth>
          <distance>1.259</distance>
          <timeResidual>-0.35</timeResidual>
          <creationInfo>
            <agencyID>UW</agencyID>
            <creationTime>2012-02-27T15:08:27.000000Z</creationTime>
          </creationInfo>
        </arrival>
        <arrival publicID="quakeml:uw.anss.org/AssocArO/UW/2883338">
          <pickID>quakeml:uw.anss.org/Arrival/UW/2883338</pickID>
          <phase>P</phase>
          <azimuth>108.4</azimuth>
          <distance>2.021</distance>
          <timeResidual>2.68</timeResidual>
          <creationInfo>
            <agencyID>UW</agencyID>
            <creationTime>2012-02-27T15:08:27.000000Z</creationTime>
          </creationInfo>
        </arrival>
        <arrival publicID="quakeml:uw.anss.org/AssocArO/UW/2883343">
          <pickID>quakeml:uw.anss.org/Arrival/UW/2883343</pickID>
          <phase>S</phase>
          <azimuth>108.4</azimuth>
          <distance>2.021</distance>
          <timeResidual>2.42</timeResidual>
          <creationInfo>
            <agencyID>UW</agencyID>
            <creationTime>2012-02-27T15:08:27.000000Z</creationTime>
          </creationInfo>
        </arrival>
        <arrival publicID="quakeml:uw.anss.org/AssocArO/UW/2883353">
          <pickID>quakeml:uw.anss.org/Arrival/UW/2883353</pickID>
          <phase>P</phase>
          <azimuth>188.9</azimuth>
          <distance>2.281</distance>
          <timeResidual>0.11</timeResidual>
          <creationInfo>
            <agencyID>UW</agencyID>
            <creationTime>2012-02-27T15:08:27.000000Z</creationTime>
          </creationInfo>
        </arrival>
        <arrival publicID="quakeml:uw.anss.org/AssocArO/UW/2883363">
          <pickID>quakeml:uw.anss.org/Arrival/UW/2883363</pickID>
          <phase>P</phase>
          <azimuth>186.5</azimuth>
          <distance>1.658</distance>
          <timeResidual>-0.08</timeResidual>
          <creationInfo>
            <agencyID>UW</agencyID>
            <creationTime>2012-02-27T15:08:27.000000Z</creationTime>
          </creationInfo>
        </arrival>
        <arrival publicID="quakeml:uw.anss.org/AssocArO/UW/2883368">
          <pickID>quakeml:uw.anss.org/Arrival/UW/2883368</pickID>
          <phase>S</phase>
          <azimuth>186.5</azimuth>
          <distance>1.658</distance>
          <timeResidual>-1.07</timeResidual>
          <creationInfo>
            <agencyID>UW</agencyID>
            <creationTime>2012-02-27T15:08:27.000000Z</creationTime>
          </creationInfo>
        </arrival>
        <arrival publicID="quakeml:uw.anss.org/AssocArO/UW/2883378">
          <pickID>quakeml:uw.anss.org/Arrival/UW/2883378</pickID>
          <phase>P</phase>
          <azimuth>133.7</azimuth>
          <distance>1.555</distance>
          <timeResidual>0.94</timeResidual>
          <creationInfo>
            <agencyID>UW</agencyID>
            <creationTime>2012-02-27T15:08:27.000000Z</creationTime>
          </creationInfo>
        </arrival>
        <arrival publicID="quakeml:uw.anss.org/AssocArO/UW/2883388">
          <pickID>quakeml:uw.anss.org/Arrival/UW/2883388</pickID>
          <phase>P</phase>
          <azimuth>180.3</azimuth>
          <distance>2.199</distance>
          <timeResidual>0.75</timeResidual>
          <creationInfo>
            <agencyID>UW</agencyID>
            <creationTime>2012-02-27T15:08:27.000000Z</creationTime>
          </creationInfo>
        </arrival>
        <arrival publicID="quakeml:uw.anss.org/AssocArO/UW/2883398">
          <pickID>quakeml:uw.anss.org/Arrival/UW/2883398</pickID>
          <phase>P</phase>
          <azimuth>157.6</azimuth>
          <distance>2.11</distance>
          <timeResidual>1.08</timeResidual>
          <creationInfo>
            <agencyID>UW</agencyID>
            <creationTime>2012-02-27T15:08:27.000000Z</creationTime>
          </creationInfo>
        </arrival>
        <arrival publicID="quakeml:uw.anss.org/AssocArO/UW/2883408">
          <pickID>quakeml:uw.anss.org/Arrival/UW/2883408</pickID>
          <phase>P</phase>
          <azimuth>213.9</azimuth>
          <distance>1.642</distance>
          <timeResidual>1.72</timeResidual>
          <creationInfo>
            <agencyID>UW</agencyID>
            <creationTime>2012-02-27T15:08:27.000000Z</creationTime>
          </creationInfo>
        </arrival>
        <arrival publicID="quakeml:uw.anss.org/AssocArO/UW/2883413">
          <pickID>quakeml:uw.anss.org/Arrival/UW/2883413</pickID>
          <phase>P</phase>
          <azimuth>159.7</azimuth>
          <distance>1.545</distance>
          <timeResidual>0.43</timeResidual>
          <creationInfo>
            <agencyID>UW</agencyID>
            <creationTime>2012-02-27T15:08:27.000000Z</creationTime>
          </creationInfo>
        </arrival>
        <arrival publicID="quakeml:uw.anss.org/AssocArO/UW/2883418">
          <pickID>quakeml:uw.anss.org/Arrival/UW/2883418</pickID>
          <phase>S</phase>
          <azimuth>159.7</azimuth>
          <distance>1.545</distance>
          <timeResidual>0.44</timeResidual>
          <creationInfo>
            <agencyID>UW</agencyID>
            <creationTime>2012-02-27T15:08:27.000000Z</creationTime>
          </creationInfo>
        </arrival>
        <arrival publicID="quakeml:uw.anss.org/AssocArO/UW/2883423">
          <pickID>quakeml:uw.anss.org/Arrival/UW/2883423</pickID>
          <phase>P</phase>
          <azimuth>197.2</azimuth>
          <distance>0.2773</distance>
          <timeResidual>-0.24</timeResidual>
          <creationInfo>
            <agencyID>UW</agencyID>
            <creationTime>2012-02-27T15:08:27.000000Z</creationTime>
          </creationInfo>
        </arrival>
        <arrival publicID="quakeml:uw.anss.org/AssocArO/UW/2883428">
          <pickID>quakeml:uw.anss.org/Arrival/UW/2883428</pickID>
          <phase>P</phase>
          <azimuth>183.5</azimuth>
          <distance>2.231</distance>
          <timeResidual>0.3</timeResidual>
          <creationInfo>
            <agencyID>UW</agencyID>
            <creationTime>2012-02-27T15:08:27.000000Z</creationTime>
          </creationInfo>
        </arrival>
        <arrival publicID="quakeml:uw.anss.org/AssocArO/UW/2883433">
          <pickID>quakeml:uw.anss.org/Arrival/UW/2883433</pickID>
          <phase>P</phase>
          <azimuth>174.7</azimuth>
          <timeResidual>0.17</timeResidual>
          <creationInfo>
            <agencyID>UW</agencyID>
            <creationTime>2012-02-27T15:08:27.000000Z</creationTime>
          </creationInfo>
        </arrival>
        <arrival publicID="quakeml:uw.anss.org/AssocArO/UW/2883438">
          <pickID>quakeml:uw.anss.org/Arrival/UW/2883438</pickID>
          <phase>P</phase>
          <azimuth>204.5</azimuth>
          <distance>1.88</distance>
          <timeResidual>-0.49</timeResidual>
          <creationInfo>
            <agencyID>UW</agencyID>
            <creationTime>2012-02-27T15:08:27.000000Z</creationTime>
          </creationInfo>
        </arrival>
        <arrival publicID="quakeml:uw.anss.org/AssocArO/UW/2883448">
          <pickID>quakeml:uw.anss.org/Arrival/UW/2883448</pickID>
          <phase>P</phase>
          <azimuth>179.5</azimuth>
          <distance>1.745</distance>
          <timeResidual>0.02</timeResidual>
          <creationInfo>
            <agencyID>UW</agencyID>
            <creationTime>2012-02-27T15:08:27.000000Z</creationTime>
          </creationInfo>
        </arrival>
        <arrival publicID="quakeml:uw.anss.org/AssocArO/UW/2883453">
          <pickID>quakeml:uw.anss.org/Arrival/UW/2883453</pickID>
          <phase>S</phase>
          <azimuth>179.5</azimuth>
          <distance>1.745</distance>
          <timeResidual>-0.91</timeResidual>
          <creationInfo>
            <agencyID>UW</agencyID>
            <creationTime>2012-02-27T15:08:27.000000Z</creationTime>
          </creationInfo>
        </arrival>
        <arrival publicID="quakeml:uw.anss.org/AssocArO/UW/2883463">
          <pickID>quakeml:uw.anss.org/Arrival/UW/2883463</pickID>
          <phase>P</phase>
          <azimuth>174.0</azimuth>
          <distance>1.236</distance>
          <timeResidual>0.08</timeResidual>
          <creationInfo>
            <agencyID>UW</agencyID>
            <creationTime>2012-02-27T15:08:27.000000Z</creationTime>
          </creationInfo>
        </arrival>
        <arrival publicID="quakeml:uw.anss.org/AssocArO/UW/2883473">
          <pickID>quakeml:uw.anss.org/Arrival/UW/2883473</pickID>
          <phase>P</phase>
          <azimuth>126.8</azimuth>
          <distance>0.4002</distance>
          <timeResidual>-0.24</timeResidual>
          <creationInfo>
            <agencyID>UW</agencyID>
            <creationTime>2012-02-27T15:08:27.000000Z</creationTime>
          </creationInfo>
        </arrival>
        <arrival publicID="quakeml:uw.anss.org/AssocArO/UW/2883488">
          <pickID>quakeml:uw.anss.org/Arrival/UW/2883488</pickID>
          <phase>P</phase>
          <azimuth>226.6</azimuth>
          <distance>1.689</distance>
          <timeResidual>1.19</timeResidual>
          <creationInfo>
            <agencyID>UW</agencyID>
            <creationTime>2012-02-27T15:08:27.000000Z</creationTime>
          </creationInfo>
        </arrival>
        <arrival publicID="quakeml:uw.anss.org/AssocArO/UW/2883498">
          <pickID>quakeml:uw.anss.org/Arrival/UW/2883498</pickID>
          <phase>P</phase>
          <azimuth>172.9</azimuth>
          <distance>2.148</distance>
          <timeResidual>0.49</timeResidual>
          <creationInfo>
            <agencyID>UW</agencyID>
            <creationTime>2012-02-27T15:08:27.000000Z</creationTime>
          </creationInfo>
        </arrival>
        <arrival publicID="quakeml:uw.anss.org/AssocArO/UW/2883503">
          <pickID>quakeml:uw.anss.org/Arrival/UW/2883503</pickID>
          <phase>P</phase>
          <azimuth>171.0</azimuth>
          <distance>2.015</distance>
          <timeResidual>0.34</timeResidual>
          <creationInfo>
            <agencyID>UW</agencyID>
            <creationTime>2012-02-27T15:08:27.000000Z</creationTime>
          </creationInfo>
        </arrival>
        <arrival publicID="quakeml:uw.anss.org/AssocArO/UW/2883513">
          <pickID>quakeml:uw.anss.org/Arrival/UW/2883513</pickID>
          <phase>S</phase>
          <azimuth>171.0</azimuth>
          <distance>2.015</distance>
          <timeResidual>-0.55</timeResidual>
          <creationInfo>
            <agencyID>UW</agencyID>
            <creationTime>2012-02-27T15:08:27.000000Z</creationTime>
          </creationInfo>
        </arrival>
        <arrival publicID="quakeml:uw.anss.org/AssocArO/UW/2883518">
          <pickID>quakeml:uw.anss.org/Arrival/UW/2883518</pickID>
          <phase>P</phase>
          <azimuth>188.5</azimuth>
          <distance>1.148</distance>
          <timeResidual>0.55</timeResidual>
          <creationInfo>
            <agencyID>UW</agencyID>
            <creationTime>2012-02-27T15:08:27.000000Z</creationTime>
          </creationInfo>
        </arrival>
        <arrival publicID="quakeml:uw.anss.org/AssocArO/UW/2883523">
          <pickID>quakeml:uw.anss.org/Arrival/UW/2883523</pickID>
          <phase>P</phase>
          <azimuth>205.1</azimuth>
          <distance>0.9564</distance>
          <timeResidual>0.31</timeResidual>
          <creationInfo>
            <agencyID>UW</agencyID>
            <creationTime>2012-02-27T15:08:27.000000Z</creationTime>
          </creationInfo>
        </arrival>
        <arrival publicID="quakeml:uw.anss.org/AssocArO/UW/2883528">
          <pickID>quakeml:uw.anss.org/Arrival/UW/2883528</pickID>
          <phase>P</phase>
          <azimuth>182.3</azimuth>
          <distance>2.448</distance>
          <timeResidual>1.01</timeResidual>
          <creationInfo>
            <agencyID>UW</agencyID>
            <creationTime>2012-02-27T15:08:27.000000Z</creationTime>
          </creationInfo>
        </arrival>
        <arrival publicID="quakeml:uw.anss.org/AssocArO/UW/2883533">
          <pickID>quakeml:uw.anss.org/Arrival/UW/2883533</pickID>
          <phase>P</phase>
          <azimuth>151.1</azimuth>
          <distance>2.024</distance>
          <timeResidual>0.76</timeResidual>
          <creationInfo>
            <agencyID>UW</agencyID>
            <creationTime>2012-02-27T15:08:27.000000Z</creationTime>
          </creationInfo>
        </arrival>
        <arrival publicID="quakeml:uw.anss.org/AssocArO/UW/2883538">
          <pickID>quakeml:uw.anss.org/Arrival/UW/2883538</pickID>
          <phase>P</phase>
          <azimuth>191.5</azimuth>
          <distance>2.59</distance>
          <timeResidual>0.84</timeResidual>
          <creationInfo>
            <agencyID>UW</agencyID>
            <creationTime>2012-02-27T15:08:27.000000Z</creationTime>
          </creationInfo>
        </arrival>
        <arrival publicID="quakeml:uw.anss.org/AssocArO/UW/2883543">
          <pickID>quakeml:uw.anss.org/Arrival/UW/2883543</pickID>
          <phase>P</phase>
          <azimuth>224.4</azimuth>
          <distance>0.5105</distance>
          <timeResidual>0.62</timeResidual>
          <creationInfo>
            <agencyID>UW</agencyID>
            <creationTime>2012-02-27T15:08:27.000000Z</creationTime>
          </creationInfo>
        </arrival>
        <arrival publicID="quakeml:uw.anss.org/AssocArO/UW/2883548">
          <pickID>quakeml:uw.anss.org/Arrival/UW/2883548</pickID>
          <phase>P</phase>
          <azimuth>118.7</azimuth>
          <distance>1.997</distance>
          <timeResidual>2.4</timeResidual>
          <creationInfo>
            <agencyID>UW</agencyID>
            <creationTime>2012-02-27T15:08:27.000000Z</creationTime>
          </creationInfo>
        </arrival>
        <arrival publicID="quakeml:uw.anss.org/AssocArO/UW/2883553">
          <pickID>quakeml:uw.anss.org/Arrival/UW/2883553</pickID>
          <phase>S</phase>
          <azimuth>118.7</azimuth>
          <distance>1.997</distance>
          <timeResidual>2.34</timeResidual>
          <creationInfo>
            <agencyID>UW</agencyID>
            <creationTime>2012-02-27T15:08:27.000000Z</creationTime>
          </creationInfo>
        </arrival>
        <arrival publicID="quakeml:uw.anss.org/AssocArO/UW/2883558">
          <pickID>quakeml:uw.anss.org/Arrival/UW/2883558</pickID>
          <phase>P</phase>
          <azimuth>183.7</azimuth>
          <distance>2.457</distance>
          <timeResidual>0.63</timeResidual>
          <creationInfo>
            <agencyID>UW</agencyID>
            <creationTime>2012-02-27T15:08:27.000000Z</creationTime>
          </creationInfo>
        </arrival>
        <arrival publicID="quakeml:uw.anss.org/AssocArO/UW/2883563">
          <pickID>quakeml:uw.anss.org/Arrival/UW/2883563</pickID>
          <phase>P</phase>
          <azimuth>174.6</azimuth>
          <timeResidual>0.06</timeResidual>
          <creationInfo>
            <agencyID>UW</agencyID>
            <creationTime>2012-02-27T15:08:27.000000Z</creationTime>
          </creationInfo>
        </arrival>
        <arrival publicID="quakeml:uw.anss.org/AssocArO/UW/2883568">
          <pickID>quakeml:uw.anss.org/Arrival/UW/2883568</pickID>
          <phase>P</phase>
          <azimuth>186.1</azimuth>
          <distance>2.638</distance>
          <timeResidual>0.61</timeResidual>
          <creationInfo>
            <agencyID>UW</agencyID>
            <creationTime>2012-02-27T15:08:27.000000Z</creationTime>
          </creationInfo>
        </arrival>
        <arrival publicID="quakeml:uw.anss.org/AssocArO/UW/2883573">
          <pickID>quakeml:uw.anss.org/Arrival/UW/2883573</pickID>
          <phase>P</phase>
          <azimuth>223.3</azimuth>
          <distance>1.853</distance>
          <timeResidual>0.83</timeResidual>
          <creationInfo>
            <agencyID>UW</agencyID>
            <creationTime>2012-02-27T15:08:27.000000Z</creationTime>
          </creationInfo>
        </arrival>
        <arrival publicID="quakeml:uw.anss.org/AssocArO/UW/2883578">
          <pickID>quakeml:uw.anss.org/Arrival/UW/2883578</pickID>
          <phase>P</phase>
          <azimuth>172.7</azimuth>
          <timeResidual>0.01</timeResidual>
          <creationInfo>
            <agencyID>UW</agencyID>
            <creationTime>2012-02-27T15:08:27.000000Z</creationTime>
          </creationInfo>
        </arrival>
        <arrival publicID="quakeml:uw.anss.org/AssocArO/UW/2883583">
          <pickID>quakeml:uw.anss.org/Arrival/UW/2883583</pickID>
          <phase>S</phase>
          <azimuth>172.7</azimuth>
          <timeResidual>-0.96</timeResidual>
          <creationInfo>
            <agencyID>UW</agencyID>
            <creationTime>2012-02-27T15:08:27.000000Z</creationTime>
          </creationInfo>
        </arrival>
