<?xml version='1.0' encoding='utf-8'?>
<q:quakeml xmlns="http://quakeml.org/xmlns/bed/1.2" xmlns:q="http://quakeml.org/xmlns/quakeml/1.2" xmlns:ns0="http://anss.org/xmlns/catalog/0.1">
  <eventParameters publicID="smi:local/39b99477-e059-41b0-88ac-ae71327ca240">
    <event publicID="quakeml:uw.anss.org/Event/UW/10204348" ns0:datasource="uw" ns0:dataid="uw10204348" ns0:eventsource="uw" ns0:eventid="10204348">
      <preferredOriginID>quakeml:uw.anss.org/Origin/UW/481273</preferredOriginID>
      <preferredMagnitudeID>quakeml:uw.anss.org/Netmag/UW/400468</preferredMagnitudeID>
      <type>earthquake</type>
      <creationInfo>
        <agencyID>UW</agencyID>
        <creationTime>2012-02-27T14:47:19.000000Z</creationTime>
        <version>2</version>
      </creationInfo>
      <origin publicID="quakeml:uw.anss.org/Origin/UW/481273" ns0:datasource="uw" ns0:dataid="uw10204348" ns0:eventsource="uw" ns0:eventid="10204348">
        <time>
          <value>1986-04-18T10:08:04.340000Z</value>
          <uncertainty>0.56</uncertainty>
        </time>
        <latitude>
          <value>48.839</value>
          <uncertainty>2.41</uncertainty>
        </latitude>
        <longitude>
          <value>-121.8678333</value>
          <uncertainty>3.17</uncertainty>
        </longitude>
        <depth>
          <value>297.0</value>
          <uncertainty>2770.0</uncertainty>
        </depth>
        <depthType>from location</depthType>
        <timeFixed>false</timeFixed>
        <epicenterFixed>false</epicenterFixed>
        <methodID>smi:uw.anss.org/origin/spong</methodID>
        <quality>
          <associatedPhaseCount>38</associatedPhaseCount>
          <usedPhaseCount>10</usedPhaseCount>
          <associatedStationCount>26</associatedStationCount>
          <usedStationCount>0</usedStationCount>
          <standardError>0.51</standardError>
          <azimuthalGap>230.0</azimuthalGap>
        </quality>
        <type>hypocenter</type>
        <evaluationMode>manual</evaluationMode>
        <evaluationStatus>final</evaluationStatus>
        <creationInfo>
          <agencyID>UW</agencyID>
          <creationTime>2012-02-27T14:47:19.000000Z</creationTime>
        </creationInfo>
        <originUncertainty>
          <preferredDescription>horizontal uncertainty</preferredDescription>
          <horizontalUncertainty>3982.0</horizontalUncertainty>
        </originUncertainty>
        <arrival publicID="quakeml:uw.anss.org/AssocArO/UW/2765263">
          <pickID>quakeml:uw.anss.org/Arrival/UW/2765263</pickID>
          <phase>P</phase>
          <azimuth>214.0</azimuth>
          <distance>1.432</distance>
          <timeResidual>-0.43</timeResidual>
          <creationInfo>
            <agencyID>UW</agencyID>
            <creationTime>2012-02-27T14:47:19.000000Z</creationTime>
          </creationInfo>
        </arrival>
        <arrival publicID="quakeml:uw.anss.org/AssocArO/UW/2765268">
          <pickID>quakeml:uw.anss.org/Arrival/UW/2765268</pickID>
          <phase>S</phase>
          <azimuth>214.0</azimuth>
          <distance>1.432</distance>
          <timeResidual>-0.51</timeResidual>
          <creationInfo>
            <agencyID>UW</agencyID>
            <creationTime>2012-02-27T14:47:19.000000Z</creationTime>
          </creationInfo>
        </arrival>
        <arrival publicID="quakeml:uw.anss.org/AssocArO/UW/2765273">
          <pickID>quakeml:uw.anss.org/Arrival/UW/2765273</pickID>
          <phase>P</phase>
          <azimuth>161.2</azimuth>
          <distance>2.222</distance>
          <timeResidual>1.59</timeResidual>
          <creationInfo>
            <agencyID>UW</agencyID>
            <creationTime>2012-02-27T14:47:19.000000Z</creationTime>
          </creationInfo>
        </arrival>
        <arrival publicID="quakeml:uw.anss.org/AssocArO/UW/2765278">
          <pickID>quakeml:uw.anss.org/Arrival/UW/2765278</pickID>
          <phase>P</phase>
          <azimuth>126.6</azimuth>
          <distance>1.275</distance>
          <timeResidual>1.38</timeResidual>
          <creationInfo>
            <agencyID>UW</agencyID>
            <creationTime>2012-02-27T14:47:19.000000Z</creationTime>
          </creationInfo>
        </arrival>
        <arrival publicID="quakeml:uw.anss.org/AssocArO/UW/2765283">
          <pickID>quakeml:uw.anss.org/Arrival/UW/2765283</pickID>
          <phase>P</phase>
          <azimuth>178.3</azimuth>
          <timeResidual>1.14</timeResidual>
          <creationInfo>
            <agencyID>UW</agencyID>
            <creationTime>2012-02-27T14:47:19.000000Z</creationTime>
          </creationInfo>
        </arrival>
        <arrival publicID="quakeml:uw.anss.org/AssocArO/UW/2765288">
          <pickID>quakeml:uw.anss.org/Arrival/UW/2765288</pickID>
          <phase>P</phase>
          <azimuth>182.2</azimuth>
          <distance>1.898</distance>
          <timeResidual>0.05</timeResidual>
          <creationInfo>
            <agencyID>UW</agencyID>
            <creationTime>2012-02-27T14:47:19.000000Z</creationTime>
          </creationInfo>
        </arrival>
        <arrival publicID="quakeml:uw.anss.org/AssocArO/UW/2765293">
          <pickID>quakeml:uw.anss.org/Arrival/UW/2765293</pickID>
          <phase>P</phase>
          <azimuth>178.3</azimuth>
          <distance>1.381</distance>
          <timeResidual>0.53</timeResidual>
          <creationInfo>
            <agencyID>UW</agencyID>
            <creationTime>2012-02-27T14:47:19.000000Z</creationTime>
          </creationInfo>
        </arrival>
        <arrival publicID="quakeml:uw.anss.org/AssocArO/UW/2765298">
          <pickID>quakeml:uw.anss.org/Arrival/UW/2765298</pickID>
          <phase>S</phase>
          <azimuth>178.3</azimuth>
          <distance>1.381</distance>
          <timeResidual>0.24</timeResidual>
          <creationInfo>
            <agencyID>UW</agencyID>
            <creationTime>2012-02-27T14:47:19.000000Z</creationTime>
          </creationInfo>
        </arrival>
        <arrival publicID="quakeml:uw.anss.org/AssocArO/UW/2765303">
          <pickID>quakeml:uw.anss.org/Arrival/UW/2765303</pickID>
          <phase>P</phase>
          <azimuth>149.0</azimuth>
          <distance>0.4559</distance>
          <timeResidual>-0.07</timeResidual>
          <creationInfo>
            <agencyID>UW</agencyID>
            <creationTime>2012-02-27T14:47:19.000000Z</creationTime>
          </creationInfo>
        </arrival>
        <arrival publicID="quakeml:uw.anss.org/AssocArO/UW/2765308">
          <pickID>quakeml:uw.anss.org/Arrival/UW/2765308</pickID>
          <phase>S</phase>
          <azimuth>149.0</azimuth>
          <distance>0.4559</distance>
          <timeResidual>-0.12</timeResidual>
          <creationInfo>
            <agencyID>UW</agencyID>
            <creationTime>2012-02-27T14:47:19.000000Z</creationTime>
          </creationInfo>
        </arrival>
        <arrival publicID="quakeml:uw.anss.org/AssocArO/UW/2765313">
          <pickID>quakeml:uw.anss.org/Arrival/UW/2765313</pickID>
          <phase>P</phase>
          <azimuth>174.0</azimuth>
          <distance>2.153</distance>
          <timeResidual>0.4</timeResidual>
          <creationInfo>
            <agencyID>UW</agencyID>
            <creationTime>2012-02-27T14:47:19.000000Z</creationTime>
          </creationInfo>
        </arrival>
        <arrival publicID="quakeml:uw.anss.org/AssocArO/UW/2765318">
          <pickID>quakeml:uw.anss.org/Arrival/UW/2765318</pickID>
          <phase>P</phase>
          <azimuth>191.3</azimuth>
          <distance>1.311</distance>
          <timeResidual>0.71</timeResidual>
          <creationInfo>
            <agencyID>UW</agencyID>
            <creationTime>2012-02-27T14:47:19.000000Z</creationTime>
          </creationInfo>
        </arrival>
        <arrival publicID="quakeml:uw.anss.org/AssocArO/UW/2765323">
          <pickID>quakeml:uw.anss.org/Arrival/UW/2765323</pickID>
          <phase>P</phase>
          <azimuth>157.3</azimuth>
          <distance>2.301</distance>
          <timeResidual>2.58</timeResidual>
          <creationInfo>
            <agencyID>UW</agencyID>
            <creationTime>2012-02-27T14:47:19.000000Z</creationTime>
          </creationInfo>
        </arrival>
        <arrival publicID="quakeml:uw.anss.org/AssocArO/UW/2765328">
          <pickID>quakeml:uw.anss.org/Arrival/UW/2765328</pickID>
          <phase>S</phase>
          <azimuth>157.3</azimuth>
          <distance>2.301</distance>
          <timeResidual>3.88</timeResidual>
          <creationInfo>
            <agencyID>UW</agencyID>
            <creationTime>2012-02-27T14:47:19.000000Z</creationTime>
          </creationInfo>
        </arrival>
        <arrival publicID="quakeml:uw.anss.org/AssocArO/UW/2765333">
          <pickID>quakeml:uw.anss.org/Arrival/UW/2765333</pickID>
          <phase>P</phase>
          <azimuth>220.7</azimuth>
          <distance>0.6795</distance>
          <timeResidual>0.65</timeResidual>
          <creationInfo>
            <agencyID>UW</agencyID>
            <creationTime>2012-02-27T14:47:19.000000Z</creationTime>
          </creationInfo>
        </arrival>
        <arrival publicID="quakeml:uw.anss.org/AssocArO/UW/2765338">
          <pickID>quakeml:uw.anss.org/Arrival/UW/2765338</pickID>
          <phase>P</phase>
          <azimuth>123.8</azimuth>
          <distance>2.002</distance>
          <timeResidual>3.01</timeResidual>
          <creationInfo>
            <agencyID>UW</agencyID>
            <creationTime>2012-02-27T14:47:19.000000Z</creationTime>
          </creationInfo>
        </arrival>
        <arrival publicID="quakeml:uw.anss.org/AssocArO/UW/2765343">
          <pickID>quakeml:uw.anss.org/Arrival/UW/2765343</pickID>
          <phase>P</phase>
          <azimuth>230.8</azimuth>
          <distance>1.597</distance>
          <timeResidual>0.84</timeResidual>
          <creationInfo>
            <agencyID>UW</agencyID>
            <creationTime>2012-02-27T14:47:19.000000Z</creationTime>
          </creationInfo>
        </arrival>
        <arrival publicID="quakeml:uw.anss.org/AssocArO/UW/2765348">
          <pickID>quakeml:uw.anss.org/Arrival/UW/2765348</pickID>
          <phase>P</phase>
          <azimuth>183.5</azimuth>
          <timeResidual>0.03</timeResidual>
          <creationInfo>
            <agencyID>UW</agencyID>
            <creationTime>2012-02-27T14:47:19.000000Z</creationTime>
          </creationInfo>
        </arrival>
        <arrival publicID="quakeml:uw.anss.org/AssocArO/UW/2765353">
          <pickID>quakeml:uw.anss.org/Arrival/UW/2765353</pickID>
          <phase>S</phase>
          <azimuth>183.5</azimuth>
          <timeResidual>0.08</timeResidual>
          <creationInfo>
            <agencyID>UW</agencyID>
            <creationTime>2012-02-27T14:47:19.000000Z</creationTime>
          </creationInfo>
        </arrival>
        <arrival publicID="quakeml:uw.anss.org/AssocArO/UW/2765358">
          <pickID>quakeml:uw.anss.org/Arrival/UW/2765358</pickID>
          <phase>P</phase>
          <azimuth>155.2</azimuth>
          <distance>2.12</distance>
          <timeResidual>0.99</timeResidual>
          <creationInfo>
            <agencyID>UW</agencyID>
            <creationTime>2012-02-27T14:47:19.000000Z</creationTime>
          </creationInfo>
        </arrival>
        <arrival publicID="quakeml:uw.anss.org/AssocArO/UW/2765363">
          <pickID>quakeml:uw.anss.org/Arrival/UW/2765363</pickID>
          <phase>P</phase>
          <azimuth>175.9</azimuth>
          <timeResidual>0.35</timeResidual>
          <creationInfo>
            <agencyID>UW</agencyID>
            <creationTime>2012-02-27T14:47:19.000000Z</creationTime>
          </creationInfo>
        </arrival>
        <arrival publicID="quakeml:uw.anss.org/AssocArO/UW/2765368">
          <pickID>quakeml:uw.anss.org/Arrival/UW/2765368</pickID>
          <phase>S</phase>
          <azimuth>175.9</azimuth>
          <timeResidual>-0.75</timeResidual>
          <creationInfo>
            <agencyID>UW</agencyID>
            <creationTime>2012-02-27T14:47:19.000000Z</creationTime>
          </creationInfo>
        </arrival>
        <arrival publicID="quakeml:uw.anss.org/AssocArO/UW/2765373">
          <pickID>quakeml:uw.anss.org/Arrival/UW/2765373</pickID>
          <phase>P</phase>
          <azimuth>120.8</azimuth>
          <distance>1.637</distance>
          <timeResidual>2.27</timeResidual>
          <creationInfo>
            <agencyID>UW</agencyID>
            <creationTime>2012-02-27T14:47:19.000000Z</creationTime>
          </creationInfo>
        </arrival>
        <arrival publicID="quakeml:uw.anss.org/AssocArO/UW/2765378">
          <pickID>quakeml:uw.anss.org/Arrival/UW/2765378</pickID>
          <phase>S</phase>
          <azimuth>120.8</azimuth>
          <distance>1.637</distance>
          <timeResidual>3.39</timeResidual>
          <creationInfo>
            <agencyID>UW</agencyID>
            <creationTime>2012-02-27T14:47:19.000000Z</creationTime>
          </creationInfo>
        </arrival>
        <arrival publicID="quakeml:uw.anss.org/AssocArO/UW/2765383">
          <pickID>quakeml:uw.anss.org/Arrival/UW/2765383</pickID>
          <phase>P</phase>
          <azimuth>240.7</azimuth>
          <timeResidual>-0.17</timeResidual>
          <creationInfo>
            <agencyID>UW</agencyID>
            <creationTime>2012-02-27T14:47:19.000000Z</creationTime>
          </creationInfo>
        </arrival>
        <arrival publicID="quakeml:uw.anss.org/AssocArO/UW/2765388">
          <pickID>quakeml:uw.anss.org/Arrival/UW/2765388</pickID>
          <phase>S</phase>
          <azimuth>240.7</azimuth>
          <timeResidual>-1.43</timeResidual>
          <creationInfo>
            <agencyID>UW</agencyID>
            <creationTime>2012-02-27T14:47:19.000000Z</creationTime>
          </creationInfo>
        </arrival>
        <arrival publicID="quakeml:uw.anss.org/AssocArO/UW/2765393">
          <pickID>quakeml:uw.anss.org/Arrival/UW/2765393</pickID>
          <phase>P</phase>
          <azimuth>131.1</azimuth>
          <distance>1.713</distance>
          <timeResidual>1.56</timeResidual>
          <creationInfo>
            <agencyID>UW</agencyID>
            <creationTime>2012-02-27T14:47:19.000000Z</creationTime>
          </creationInfo>
        </arrival>
        <arrival publicID="quakeml:uw.anss.org/AssocArO/UW/2765398">
          <pickID>quakeml:uw.anss.org/Arrival/UW/2765398</pickID>
          <phase>P</phase>
          <azimuth>205.7</azimuth>
          <distance>1.431</distance>
          <timeResidual>-0.27</timeResidual>
          <creationInfo>
            <agencyID>UW</agencyID>
            <creationTime>2012-02-27T14:47:19.000000Z</creationTime>
          </creationInfo>
        </arrival>
        <arrival publicID="quakeml:uw.anss.org/AssocArO/UW/2765403">
          <pickID>quakeml:uw.anss.org/Arrival/UW/2765403</pickID>
          <phase>S</phase>
          <azimuth>205.7</azimuth>
          <distance>1.431</distance>
          <timeResidual>0.47</timeResidual>
          <creationInfo>
            <agencyID>UW</agencyID>
            <creationTime>2012-02-27T14:47:19.000000Z</creationTime>
          </creationInfo>
        </arrival>
        <arrival publicID="quakeml:uw.anss.org/AssocArO/UW/2765408">
          <pickID>quakeml:uw.anss.org/Arrival/UW/2765408</pickID>
          <phase>P</phase>
          <azimuth>201.6</azimuth>
          <distance>0.05941</distance>
          <timeResidual>-0.01</timeResidual>
          <creationInfo>
            <agencyID>UW</agencyID>
            <creationTime>2012-02-27T14:47:19.000000Z</creationTime>
          </creationInfo>
        </arrival>
        <arrival publicID="quakeml:uw.anss.org/AssocArO/UW/2765413">
          <pickID>quakeml:uw.anss.org/Arrival/UW/2765413</pickID>
          <phase>P</phase>
          <azimuth>187.7</azimuth>
          <distance>2.191</distance>
          <timeResidual>0.2</timeResidual>
          <creationInfo>
            <agencyID>UW</agencyID>
            <creationTime>2012-02-27T14:47:19.000000Z</creationTime>
          </creationInfo>
        </arrival>
        <arrival publicID="quakeml:uw.anss.org/AssocArO/UW/2765418">
          <pickID>quakeml:uw.anss.org/Arrival/UW/2765418</pickID>
          <phase>S</phase>
          <azimuth>187.7</azimuth>
          <distance>2.191</distance>
          <timeResidual>0.15</timeResidual>
          <creationInfo>
            <agencyID>UW</agencyID>
            <creationTime>2012-02-27T14:47:19.000000Z</creationTime>
          </creationInfo>
        </arrival>
        <arrival publicID="quakeml:uw.anss.org/AssocArO/UW/2765423">
          <pickID>quakeml:uw.anss.org/Arrival/UW/2765423</pickID>
          <phase>P</phase>
          <azimuth>176.3</azimuth>
          <distance>1.038</distance>
          <timeResidual>0.19</timeResidual>
          <creationInfo>
            <agencyID>UW</agencyID>
            <creationTime>2012-02-27T14:47:19.000000Z</creationTime>
          </creationInfo>
        </arrival>
        <arrival publicID="quakeml:uw.anss.org/AssocArO/UW/2765428">
          <pickID>quakeml:uw.anss.org/Arrival/UW/2765428</pickID>
          <phase>S</phase>
          <azimuth>176.3</azimuth>
          <distance>1.038</distance>
          <timeResidual>0.59</timeResidual>
          <creationInfo>
            <agencyID>UW</agencyID>
            <creationTime>2012-02-27T14:47:19.000000Z</creationTime>
          </creationInfo>
        </arrival>
        <arrival publicID="quakeml:uw.anss.org/AssocArO/UW/2765433">
          <pickID>quakeml:uw.anss.org/Arrival/UW/2765433</pickID>
          <phase>P</phase>
          <azimuth>141.8</azimuth>
          <distance>2.491</distance>
          <timeResidual>3.53</timeResidual>
          <creationInfo>
            <agencyID>UW</agencyID>
            <creationTime>2012-02-27T14:47:19.000000Z</creationTime>
          </creationInfo>
        </arrival>
        <arrival publicID="quakeml:uw.anss.org/AssocArO/UW/2765438">
          <pickID>quakeml:uw.anss.org/Arrival/UW/2765438</pickID>
          <phase>P</phase>
          <azimuth>221.8</azimuth>
          <distance>1.112</distance>
          <timeResidual>0.4</timeResidual>
          <creationInfo>
            <agencyID>UW</agencyID>
            <creationTime>2012-02-27T14:47:19.000000Z</creationTime>
          </creationInfo>
        </arrival>
        <arrival publicID="quakeml:uw.anss.org/AssocArO/UW/2765443">
          <pickID>quakeml:uw.anss.org/Arrival/UW/2765443</pickID>
          <phase>S</phase>
          <azimuth>221.8</azimuth>
          <distance>1.112</distance>
          <timeResidual>0.84</timeResidual>
          <creationInfo>
            <agencyID>UW</agencyID>
            <creationTime>2012-02-27T14:47:19.000000Z</creationTime>
          </creationInfo>
        </arrival>
        <arrival publicID="quakeml:uw.anss.org/AssocArO/UW/2765448">
          <pickID>quakeml:uw.anss.org/Arrival/UW/2765448</pickID>
          <phase>P</phase>
          <azimuth>256.2</azimuth>
          <distance>0.6582</distance>
          <timeResidual>-0.28</timeResidual>
          <creationInfo>
            <agencyID>UW</agencyID>
            <creationTime>2012-02-27T14:47:19.000000Z</creationTime>
          </creationInfo>
        </arrival>
      </origin>
      <magnitude publicID="quakeml:uw.anss.org/Netmag/UW/400468">
        <mag>
          <value>2.4</value>
          <uncertainty>0.05</uncertainty>
        </mag>
        <type>Md</type>
        <originID>quakeml:uw.anss.org/Origin/UW/481273</originID>
        <methodID>smi:uw.anss.org/magnitude/Crosson</methodID>
        <stationCount>15</stationCount>
        <evaluationMode>manual</evaluationMode>
        <evaluationStatus>final</evaluationStatus>
        <stationMagnitudeContribution>
          <stationMagnitudeID>quakeml:uw.anss.org/AssocCoM/UW/887583</stationMagnitudeID>
