<?xml version='1.0' encoding='utf-8'?>
<q:quakeml xmlns="http://quakeml.org/xmlns/bed/1.2" xmlns:q="http://quakeml.org/xmlns/quakeml/1.2" xmlns:ns0="http://anss.org/xmlns/catalog/0.1">
  <eventParameters publicID="smi:local/5927af58-e81a-40ad-9cef-0efad3e98b5b">
    <event publicID="quakeml:uw.anss.org/Event/UW/10201958" ns0:datasource="uw" ns0:dataid="uw10201958" ns0:eventsource="uw" ns0:eventid="10201958">
      <preferredOriginID>quakeml:uw.anss.org/Origin/UW/478883</preferredOriginID>
      <preferredMagnitudeID>quakeml:uw.anss.org/Netmag/UW/398973</preferredMagnitudeID>
      <type>earthquake</type>
      <creationInfo>
        <agencyID>UW</agencyID>
        <creationTime>2012-02-27T14:42:00.000000Z</creationTime>
        <version>2</version>
      </creationInfo>
      <origin publicID="quakeml:uw.anss.org/Origin/UW/478883" ns0:datasource="uw" ns0:dataid="uw10201958" ns0:eventsource="uw" ns0:eventid="10201958">
        <time>
          <value>1986-02-10T17:12:07.430000Z</value>
          <uncertainty>1.43</uncertainty>
        </time>
        <latitude>
          <value>48.395</value>
          <uncertainty>0.5</uncertainty>
        </latitude>
        <longitude>
          <value>-121.9453333</value>
          <uncertainty>1.26</uncertainty>
        </longitude>
        <depth>
          <value>3366.0</value>
          <uncertainty>13940.0</uncertainty>
        </depth>
        <depthType>operator assigned</depthType>
        <timeFixed>false</timeFixed>
        <epicenterFixed>true</epicenterFixed>
        <methodID>smi:uw.anss.org/origin/spong</methodID>
        <quality>
          <associatedPhaseCount>83</associatedPhaseCount>
          <usedPhaseCount>30</usedPhaseCount>
          <associatedStationCount>58</associatedStationCount>
          <usedStationCount>0</usedStationCount>
          <standardError>0.25</standardError>
          <azimuthalGap>75.0</azimuthalGap>
        </quality>
        <type>hypocenter</type>
        <evaluationMode>manual</evaluationMode>
        <evaluationStatus>final</evaluationStatus>
        <creationInfo>
          <agencyID>UW</agencyID>
          <creationTime>2012-02-27T14:42:00.000000Z</creationTime>
        </creationInfo>
        <originUncertainty>
          <preferredDescription>horizontal uncertainty</preferredDescription>
          <horizontalUncertainty>1356.0</horizontalUncertainty>
        </originUncertainty>
        <arrival publicID="quakeml:uw.anss.org/AssocArO/UW/2736523">
          <pickID>quakeml:uw.anss.org/Arrival/UW/2736523</pickID>
          <phase>P</phase>
          <azimuth>225.3</azimuth>
          <distance>1.055</distance>
          <timeResidual>-0.37</timeResidual>
          <creationInfo>
            <agencyID>UW</agencyID>
            <creationTime>2012-02-27T14:42:00.000000Z</creationTime>
          </creationInfo>
        </arrival>
        <arrival publicID="quakeml:uw.anss.org/AssocArO/UW/2736528">
          <pickID>quakeml:uw.anss.org/Arrival/UW/2736528</pickID>
          <phase>S</phase>
          <azimuth>225.3</azimuth>
          <distance>1.055</distance>
          <timeResidual>-0.25</timeResidual>
          <creationInfo>
            <agencyID>UW</agencyID>
            <creationTime>2012-02-27T14:42:00.000000Z</creationTime>
          </creationInfo>
        </arrival>
        <arrival publicID="quakeml:uw.anss.org/AssocArO/UW/2736533">
          <pickID>quakeml:uw.anss.org/Arrival/UW/2736533</pickID>
          <phase>P</phase>
          <azimuth>302.2</azimuth>
          <timeResidual>-0.25</timeResidual>
          <creationInfo>
            <agencyID>UW</agencyID>
            <creationTime>2012-02-27T14:42:00.000000Z</creationTime>
          </creationInfo>
        </arrival>
        <arrival publicID="quakeml:uw.anss.org/AssocArO/UW/2736538">
          <pickID>quakeml:uw.anss.org/Arrival/UW/2736538</pickID>
          <phase>S</phase>
          <azimuth>302.2</azimuth>
          <timeResidual>-0.79</timeResidual>
          <creationInfo>
            <agencyID>UW</agencyID>
            <creationTime>2012-02-27T14:42:00.000000Z</creationTime>
          </creationInfo>
        </arrival>
        <arrival publicID="quakeml:uw.anss.org/AssocArO/UW/2736543">
          <pickID>quakeml:uw.anss.org/Arrival/UW/2736543</pickID>
          <phase>P</phase>
          <azimuth>106.3</azimuth>
          <distance>1.121</distance>
          <timeResidual>0.74</timeResidual>
          <creationInfo>
            <agencyID>UW</agencyID>
            <creationTime>2012-02-27T14:42:00.000000Z</creationTime>
          </creationInfo>
        </arrival>
        <arrival publicID="quakeml:uw.anss.org/AssocArO/UW/2736548">
          <pickID>quakeml:uw.anss.org/Arrival/UW/2736548</pickID>
          <phase>S</phase>
          <azimuth>106.3</azimuth>
          <distance>1.121</distance>
          <timeResidual>0.05</timeResidual>
          <creationInfo>
            <agencyID>UW</agencyID>
            <creationTime>2012-02-27T14:42:00.000000Z</creationTime>
          </creationInfo>
        </arrival>
        <arrival publicID="quakeml:uw.anss.org/AssocArO/UW/2736553">
          <pickID>quakeml:uw.anss.org/Arrival/UW/2736553</pickID>
          <phase>P</phase>
          <azimuth>334.9</azimuth>
          <timeResidual>-0.27</timeResidual>
          <creationInfo>
            <agencyID>UW</agencyID>
            <creationTime>2012-02-27T14:42:00.000000Z</creationTime>
          </creationInfo>
        </arrival>
        <arrival publicID="quakeml:uw.anss.org/AssocArO/UW/2736558">
          <pickID>quakeml:uw.anss.org/Arrival/UW/2736558</pickID>
          <phase>S</phase>
          <azimuth>334.9</azimuth>
          <timeResidual>-0.76</timeResidual>
          <creationInfo>
            <agencyID>UW</agencyID>
            <creationTime>2012-02-27T14:42:00.000000Z</creationTime>
          </creationInfo>
        </arrival>
        <arrival publicID="quakeml:uw.anss.org/AssocArO/UW/2736563">
          <pickID>quakeml:uw.anss.org/Arrival/UW/2736563</pickID>
          <phase>P</phase>
          <azimuth>123.2</azimuth>
          <distance>1.333</distance>
          <timeResidual>-0.21</timeResidual>
          <creationInfo>
            <agencyID>UW</agencyID>
            <creationTime>2012-02-27T14:42:00.000000Z</creationTime>
          </creationInfo>
        </arrival>
        <arrival publicID="quakeml:uw.anss.org/AssocArO/UW/2736568">
          <pickID>quakeml:uw.anss.org/Arrival/UW/2736568</pickID>
          <phase>S</phase>
          <azimuth>123.2</azimuth>
          <distance>1.333</distance>
          <timeResidual>-1.07</timeResidual>
          <creationInfo>
            <agencyID>UW</agencyID>
            <creationTime>2012-02-27T14:42:00.000000Z</creationTime>
          </creationInfo>
        </arrival>
        <arrival publicID="quakeml:uw.anss.org/AssocArO/UW/2736573">
          <pickID>quakeml:uw.anss.org/Arrival/UW/2736573</pickID>
          <phase>P</phase>
          <azimuth>155.1</azimuth>
          <distance>1.828</distance>
          <timeResidual>0.17</timeResidual>
          <creationInfo>
            <agencyID>UW</agencyID>
            <creationTime>2012-02-27T14:42:00.000000Z</creationTime>
          </creationInfo>
        </arrival>
        <arrival publicID="quakeml:uw.anss.org/AssocArO/UW/2736578">
          <pickID>quakeml:uw.anss.org/Arrival/UW/2736578</pickID>
          <phase>S</phase>
          <azimuth>155.1</azimuth>
          <distance>1.828</distance>
          <timeResidual>-0.11</timeResidual>
          <creationInfo>
            <agencyID>UW</agencyID>
            <creationTime>2012-02-27T14:42:00.000000Z</creationTime>
          </creationInfo>
        </arrival>
        <arrival publicID="quakeml:uw.anss.org/AssocArO/UW/2736583">
          <pickID>quakeml:uw.anss.org/Arrival/UW/2736583</pickID>
          <phase>P</phase>
          <azimuth>221.6</azimuth>
          <distance>1.43</distance>
          <timeResidual>-0.4</timeResidual>
          <creationInfo>
            <agencyID>UW</agencyID>
            <creationTime>2012-02-27T14:42:00.000000Z</creationTime>
          </creationInfo>
        </arrival>
        <arrival publicID="quakeml:uw.anss.org/AssocArO/UW/2736588">
          <pickID>quakeml:uw.anss.org/Arrival/UW/2736588</pickID>
          <phase>S</phase>
          <azimuth>176.8</azimuth>
          <timeResidual>-0.41</timeResidual>
          <creationInfo>
            <agencyID>UW</agencyID>
            <creationTime>2012-02-27T14:42:00.000000Z</creationTime>
          </creationInfo>
        </arrival>
        <arrival publicID="quakeml:uw.anss.org/AssocArO/UW/2736593">
          <pickID>quakeml:uw.anss.org/Arrival/UW/2736593</pickID>
          <phase>P</phase>
          <azimuth>191.2</azimuth>
          <distance>1.998</distance>
          <timeResidual>-0.41</timeResidual>
          <creationInfo>
            <agencyID>UW</agencyID>
            <creationTime>2012-02-27T14:42:00.000000Z</creationTime>
          </creationInfo>
        </arrival>
        <arrival publicID="quakeml:uw.anss.org/AssocArO/UW/2736598">
          <pickID>quakeml:uw.anss.org/Arrival/UW/2736598</pickID>
          <phase>P</phase>
          <timeResidual>0.15</timeResidual>
          <creationInfo>
            <agencyID>UW</agencyID>
            <creationTime>2012-02-27T14:42:00.000000Z</creationTime>
          </creationInfo>
        </arrival>
        <arrival publicID="quakeml:uw.anss.org/AssocArO/UW/2736603">
          <pickID>quakeml:uw.anss.org/Arrival/UW/2736603</pickID>
          <phase>S</phase>
          <timeResidual>0.26</timeResidual>
          <creationInfo>
            <agencyID>UW</agencyID>
            <creationTime>2012-02-27T14:42:00.000000Z</creationTime>
          </creationInfo>
        </arrival>
        <arrival publicID="quakeml:uw.anss.org/AssocArO/UW/2736608">
          <pickID>quakeml:uw.anss.org/Arrival/UW/2736608</pickID>
          <phase>P</phase>
          <azimuth>122.5</azimuth>
          <distance>1.892</distance>
          <timeResidual>0.98</timeResidual>
          <creationInfo>
            <agencyID>UW</agencyID>
            <creationTime>2012-02-27T14:42:00.000000Z</creationTime>
          </creationInfo>
        </arrival>
        <arrival publicID="quakeml:uw.anss.org/AssocArO/UW/2736613">
          <pickID>quakeml:uw.anss.org/Arrival/UW/2736613</pickID>
          <phase>S</phase>
          <azimuth>122.5</azimuth>
          <distance>1.892</distance>
          <timeResidual>1.4</timeResidual>
          <creationInfo>
            <agencyID>UW</agencyID>
            <creationTime>2012-02-27T14:42:00.000000Z</creationTime>
          </creationInfo>
        </arrival>
        <arrival publicID="quakeml:uw.anss.org/AssocArO/UW/2736618">
          <pickID>quakeml:uw.anss.org/Arrival/UW/2736618</pickID>
          <phase>P</phase>
          <azimuth>175.1</azimuth>
          <timeResidual>0.11</timeResidual>
          <creationInfo>
            <agencyID>UW</agencyID>
            <creationTime>2012-02-27T14:42:00.000000Z</creationTime>
          </creationInfo>
        </arrival>
        <arrival publicID="quakeml:uw.anss.org/AssocArO/UW/2736623">
          <pickID>quakeml:uw.anss.org/Arrival/UW/2736623</pickID>
          <phase>S</phase>
          <azimuth>175.1</azimuth>
          <timeResidual>-0.54</timeResidual>
          <creationInfo>
            <agencyID>UW</agencyID>
            <creationTime>2012-02-27T14:42:00.000000Z</creationTime>
          </creationInfo>
        </arrival>
        <arrival publicID="quakeml:uw.anss.org/AssocArO/UW/2736628">
          <pickID>quakeml:uw.anss.org/Arrival/UW/2736628</pickID>
          <phase>P</phase>
          <azimuth>209.9</azimuth>
          <distance>1.634</distance>
          <timeResidual>-0.48</timeResidual>
          <creationInfo>
            <agencyID>UW</agencyID>
            <creationTime>2012-02-27T14:42:00.000000Z</creationTime>
          </creationInfo>
        </arrival>
        <arrival publicID="quakeml:uw.anss.org/AssocArO/UW/2736633">
          <pickID>quakeml:uw.anss.org/Arrival/UW/2736633</pickID>
          <phase>P</phase>
          <azimuth>174.3</azimuth>
          <distance>0.9407</distance>
          <timeResidual>-0.01</timeResidual>
          <creationInfo>
            <agencyID>UW</agencyID>
            <creationTime>2012-02-27T14:42:00.000000Z</creationTime>
          </creationInfo>
        </arrival>
        <arrival publicID="quakeml:uw.anss.org/AssocArO/UW/2736638">
          <pickID>quakeml:uw.anss.org/Arrival/UW/2736638</pickID>
          <phase>P</phase>
          <azimuth>79.3</azimuth>
          <distance>0.2917</distance>
          <timeResidual>-0.07</timeResidual>
          <creationInfo>
            <agencyID>UW</agencyID>
            <creationTime>2012-02-27T14:42:00.000000Z</creationTime>
          </creationInfo>
        </arrival>
        <arrival publicID="quakeml:uw.anss.org/AssocArO/UW/2736643">
          <pickID>quakeml:uw.anss.org/Arrival/UW/2736643</pickID>
          <phase>P</phase>
          <azimuth>235.6</azimuth>
          <distance>1.531</distance>
          <timeResidual>1.11</timeResidual>
          <creationInfo>
            <agencyID>UW</agencyID>
            <creationTime>2012-02-27T14:42:00.000000Z</creationTime>
          </creationInfo>
        </arrival>
        <arrival publicID="quakeml:uw.anss.org/AssocArO/UW/2736653">
          <pickID>quakeml:uw.anss.org/Arrival/UW/2736653</pickID>
          <phase>P</phase>
          <azimuth>170.6</azimuth>
          <distance>1.72</distance>
          <timeResidual>-0.27</timeResidual>
          <creationInfo>
            <agencyID>UW</agencyID>
            <creationTime>2012-02-27T14:42:00.000000Z</creationTime>
          </creationInfo>
        </arrival>
        <arrival publicID="quakeml:uw.anss.org/AssocArO/UW/2736658">
          <pickID>quakeml:uw.anss.org/Arrival/UW/2736658</pickID>
          <phase>S</phase>
          <azimuth>170.6</azimuth>
          <distance>1.72</distance>
          <timeResidual>-1.31</timeResidual>
          <creationInfo>
            <agencyID>UW</agencyID>
            <creationTime>2012-02-27T14:42:00.000000Z</creationTime>
          </creationInfo>
        </arrival>
        <arrival publicID="quakeml:uw.anss.org/AssocArO/UW/2736663">
          <pickID>quakeml:uw.anss.org/Arrival/UW/2736663</pickID>
          <phase>P</phase>
          <azimuth>319.1</azimuth>
          <timeResidual>-0.24</timeResidual>
          <creationInfo>
            <agencyID>UW</agencyID>
            <creationTime>2012-02-27T14:42:00.000000Z</creationTime>
          </creationInfo>
        </arrival>
        <arrival publicID="quakeml:uw.anss.org/AssocArO/UW/2736673">
          <pickID>quakeml:uw.anss.org/Arrival/UW/2736673</pickID>
          <phase>S</phase>
          <azimuth>319.1</azimuth>
          <timeResidual>-0.62</timeResidual>
          <creationInfo>
            <agencyID>UW</agencyID>
            <creationTime>2012-02-27T14:42:00.000000Z</creationTime>
          </creationInfo>
        </arrival>
        <arrival publicID="quakeml:uw.anss.org/AssocArO/UW/2736678">
          <pickID>quakeml:uw.anss.org/Arrival/UW/2736678</pickID>
          <phase>P</phase>
          <azimuth>309.5</azimuth>
          <timeResidual>-1.38</timeResidual>
          <creationInfo>
            <agencyID>UW</agencyID>
            <creationTime>2012-02-27T14:42:00.000000Z</creationTime>
          </creationInfo>
        </arrival>
        <arrival publicID="quakeml:uw.anss.org/AssocArO/UW/2736688">
          <pickID>quakeml:uw.anss.org/Arrival/UW/2736688</pickID>
          <phase>P</phase>
          <azimuth>193.6</azimuth>
          <distance>0.8661</distance>
          <timeResidual>0.28</timeResidual>
          <creationInfo>
            <agencyID>UW</agencyID>
            <creationTime>2012-02-27T14:42:00.000000Z</creationTime>
          </creationInfo>
        </arrival>
        <arrival publicID="quakeml:uw.anss.org/AssocArO/UW/2736698">
          <pickID>quakeml:uw.anss.org/Arrival/UW/2736698</pickID>
          <phase>P</phase>
          <azimuth>217.6</azimuth>
          <distance>0.7225</distance>
          <timeResidual>-0.05</timeResidual>
          <creationInfo>
            <agencyID>UW</agencyID>
            <creationTime>2012-02-27T14:42:00.000000Z</creationTime>
          </creationInfo>
        </arrival>
        <arrival publicID="quakeml:uw.anss.org/AssocArO/UW/2736703">
          <pickID>quakeml:uw.anss.org/Arrival/UW/2736703</pickID>
          <phase>P</phase>
          <azimuth>147.5</azimuth>
          <distance>1.754</distance>
          <timeResidual>-0.18</timeResidual>
          <creationInfo>
            <agencyID>UW</agencyID>
            <creationTime>2012-02-27T14:42:00.000000Z</creationTime>
          </creationInfo>
        </arrival>
        <arrival publicID="quakeml:uw.anss.org/AssocArO/UW/2736743">
          <pickID>quakeml:uw.anss.org/Arrival/UW/2736743</pickID>
          <phase>P</phase>
          <timeResidual>-0.96</timeResidual>
          <creationInfo>
            <agencyID>UW</agencyID>
            <creationTime>2012-02-27T14:42:00.000000Z</creationTime>
          </creationInfo>
        </arrival>
        <arrival publicID="quakeml:uw.anss.org/AssocArO/UW/2736748">
          <pickID>quakeml:uw.anss.org/Arrival/UW/2736748</pickID>
          <phase>P</phase>
          <azimuth>259.8</azimuth>
          <distance>0.3986</distance>
          <timeResidual>-0.06</timeResidual>
          <creationInfo>
            <agencyID>UW</agencyID>
            <creationTime>2012-02-27T14:42:00.000000Z</creationTime>
          </creationInfo>
        </arrival>
        <arrival publicID="quakeml:uw.anss.org/AssocArO/UW/2736753">
          <pickID>quakeml:uw.anss.org/Arrival/UW/2736753</pickID>
          <phase>P</phase>
          <azimuth>111.2</azimuth>
          <distance>1.842</distance>
          <timeResidual>1.7</timeResidual>
          <creationInfo>
            <agencyID>UW</agencyID>
            <creationTime>2012-02-27T14:42:00.000000Z</creationTime>
          </creationInfo>
        </arrival>
        <arrival publicID="quakeml:uw.anss.org/AssocArO/UW/2736758">
          <pickID>quakeml:uw.anss.org/Arrival/UW/2736758</pickID>
          <phase>P</phase>
          <azimuth>244.4</azimuth>
          <distance>1.314</distance>
          <timeResidual>-0.05</timeResidual>
          <creationInfo>
            <agencyID>UW</agencyID>
            <creationTime>2012-02-27T14:42:00.000000Z</creationTime>
          </creationInfo>
        </arrival>
        <arrival publicID="quakeml:uw.anss.org/AssocArO/UW/2736763">
          <pickID>quakeml:uw.anss.org/Arrival/UW/2736763</pickID>
          <phase>P</phase>
          <azimuth>327.0</azimuth>
          <timeResidual>-0.39</timeResidual>
          <creationInfo>
            <agencyID>UW</agencyID>
            <creationTime>2012-02-27T14:42:00.000000Z</creationTime>
          </creationInfo>
        </arrival>
        <arrival publicID="quakeml:uw.anss.org/AssocArO/UW/2736768">
          <pickID>quakeml:uw.anss.org/Arrival/UW/2736768</pickID>
          <phase>P</phase>
          <azimuth>185.1</azimuth>
          <distance>2.167</distance>
          <timeResidual>0.78</timeResidual>
          <creationInfo>
            <agencyID>UW</agencyID>
            <creationTime>2012-02-27T14:42:00.000000Z</creationTime>
          </creationInfo>
        </arrival>
        <arrival publicID="quakeml:uw.anss.org/AssocArO/UW/2736778">
          <pickID>quakeml:uw.anss.org/Arrival/UW/2736778</pickID>
          <phase>S</phase>
          <azimuth>185.1</azimuth>
          <distance>2.167</distance>
          <timeResidual>-0.18</timeResidual>
          <creationInfo>
            <agencyID>UW</agencyID>
            <creationTime>2012-02-27T14:42:00.000000Z</creationTime>
          </creationInfo>
        </arrival>
