<?xml version='1.0' encoding='utf-8'?>
<q:quakeml xmlns="http://quakeml.org/xmlns/bed/1.2" xmlns:q="http://quakeml.org/xmlns/quakeml/1.2" xmlns:ns0="http://anss.org/xmlns/catalog/0.1">
  <eventParameters publicID="smi:local/da3e7508-3d2f-4e02-a166-ebc1b7959586">
    <event publicID="quakeml:uw.anss.org/Event/UW/10699733" ns0:datasource="uw" ns0:dataid="uw10699733" ns0:eventsource="uw" ns0:eventid="10699733">
      <preferredOriginID>quakeml:uw.anss.org/Origin/UW/981988</preferredOriginID>
      <preferredMagnitudeID>quakeml:uw.anss.org/Netmag/UW/767733</preferredMagnitudeID>
      <type>earthquake</type>
      <creationInfo>
        <agencyID>UW</agencyID>
        <creationTime>2012-03-05T19:17:34.000000Z</creationTime>
        <version>3</version>
      </creationInfo>
      <origin publicID="quakeml:uw.anss.org/Origin/UW/981988" ns0:datasource="uw" ns0:dataid="uw10699733" ns0:eventsource="uw" ns0:eventid="10699733">
        <time>
          <value>2006-10-02T09:32:56.530000Z</value>
          <uncertainty>0.1</uncertainty>
        </time>
        <latitude>
          <value>48.7423333</value>
          <uncertainty>0.46</uncertainty>
        </latitude>
        <longitude>
          <value>-122.3176667</value>
          <uncertainty>0.53</uncertainty>
        </longitude>
        <depth>
          <value>14428.0</value>
          <uncertainty>1460.0</uncertainty>
        </depth>
        <depthType>from location</depthType>
        <timeFixed>false</timeFixed>
        <epicenterFixed>false</epicenterFixed>
        <methodID>smi:uw.anss.org/origin/spong</methodID>
        <quality>
          <associatedPhaseCount>15</associatedPhaseCount>
          <usedPhaseCount>13</usedPhaseCount>
          <associatedStationCount>12</associatedStationCount>
          <usedStationCount>0</usedStationCount>
          <standardError>0.18</standardError>
          <azimuthalGap>96.0</azimuthalGap>
        </quality>
        <type>hypocenter</type>
        <evaluationMode>manual</evaluationMode>
        <evaluationStatus>final</evaluationStatus>
        <creationInfo>
          <agencyID>UW</agencyID>
          <creationTime>2012-03-05T19:17:34.000000Z</creationTime>
        </creationInfo>
        <originUncertainty>
          <preferredDescription>horizontal uncertainty</preferredDescription>
          <horizontalUncertainty>702.0</horizontalUncertainty>
        </originUncertainty>
        <arrival publicID="quakeml:uw.anss.org/AssocArO/UW/9107008">
          <pickID>quakeml:uw.anss.org/Arrival/UW/9107008</pickID>
          <phase>P</phase>
          <azimuth>162.8</azimuth>
          <distance>0.5008</distance>
          <timeResidual>0.19</timeResidual>
          <creationInfo>
            <agencyID>UW</agencyID>
            <creationTime>2012-03-05T19:17:34.000000Z</creationTime>
          </creationInfo>
        </arrival>
        <arrival publicID="quakeml:uw.anss.org/AssocArO/UW/9107013">
          <pickID>quakeml:uw.anss.org/Arrival/UW/9107013</pickID>
          <phase>P</phase>
          <azimuth>265.1</azimuth>
          <distance>0.2588</distance>
          <timeResidual>-0.31</timeResidual>
          <creationInfo>
            <agencyID>UW</agencyID>
            <creationTime>2012-03-05T19:17:34.000000Z</creationTime>
          </creationInfo>
        </arrival>
        <arrival publicID="quakeml:uw.anss.org/AssocArO/UW/9107018">
          <pickID>quakeml:uw.anss.org/Arrival/UW/9107018</pickID>
          <phase>S</phase>
          <azimuth>265.1</azimuth>
          <distance>0.2588</distance>
          <timeResidual>-0.25</timeResidual>
          <creationInfo>
            <agencyID>UW</agencyID>
            <creationTime>2012-03-05T19:17:34.000000Z</creationTime>
          </creationInfo>
        </arrival>
        <arrival publicID="quakeml:uw.anss.org/AssocArO/UW/9107023">
          <pickID>quakeml:uw.anss.org/Arrival/UW/9107023</pickID>
          <phase>P</phase>
          <azimuth>154.5</azimuth>
          <timeResidual>0.35</timeResidual>
          <creationInfo>
            <agencyID>UW</agencyID>
            <creationTime>2012-03-05T19:17:34.000000Z</creationTime>
          </creationInfo>
        </arrival>
        <arrival publicID="quakeml:uw.anss.org/AssocArO/UW/9107028">
          <pickID>quakeml:uw.anss.org/Arrival/UW/9107028</pickID>
          <phase>P</phase>
          <azimuth>273.6</azimuth>
          <distance>0.5665</distance>
          <timeResidual>0.17</timeResidual>
          <creationInfo>
            <agencyID>UW</agencyID>
            <creationTime>2012-03-05T19:17:34.000000Z</creationTime>
          </creationInfo>
        </arrival>
        <arrival publicID="quakeml:uw.anss.org/AssocArO/UW/9107033">
          <pickID>quakeml:uw.anss.org/Arrival/UW/9107033</pickID>
          <phase>P</phase>
          <azimuth>118.7</azimuth>
          <distance>0.6089</distance>
          <timeResidual>0.01</timeResidual>
          <creationInfo>
            <agencyID>UW</agencyID>
            <creationTime>2012-03-05T19:17:34.000000Z</creationTime>
          </creationInfo>
        </arrival>
        <arrival publicID="quakeml:uw.anss.org/AssocArO/UW/9107038">
          <pickID>quakeml:uw.anss.org/Arrival/UW/9107038</pickID>
          <phase>S</phase>
          <azimuth>118.7</azimuth>
          <distance>0.6089</distance>
          <timeResidual>-0.3</timeResidual>
          <creationInfo>
            <agencyID>UW</agencyID>
            <creationTime>2012-03-05T19:17:34.000000Z</creationTime>
          </creationInfo>
        </arrival>
        <arrival publicID="quakeml:uw.anss.org/AssocArO/UW/9107043">
          <pickID>quakeml:uw.anss.org/Arrival/UW/9107043</pickID>
          <phase>P</phase>
          <azimuth>166.2</azimuth>
          <timeResidual>0.45</timeResidual>
          <creationInfo>
            <agencyID>UW</agencyID>
            <creationTime>2012-03-05T19:17:34.000000Z</creationTime>
          </creationInfo>
        </arrival>
        <arrival publicID="quakeml:uw.anss.org/AssocArO/UW/9107048">
          <pickID>quakeml:uw.anss.org/Arrival/UW/9107048</pickID>
          <phase>P</phase>
          <azimuth>291.7</azimuth>
          <distance>0.07022</distance>
          <timeResidual>0.07</timeResidual>
          <creationInfo>
            <agencyID>UW</agencyID>
            <creationTime>2012-03-05T19:17:34.000000Z</creationTime>
          </creationInfo>
        </arrival>
        <arrival publicID="quakeml:uw.anss.org/AssocArO/UW/9107053">
          <pickID>quakeml:uw.anss.org/Arrival/UW/9107053</pickID>
          <phase>P</phase>
          <azimuth>158.5</azimuth>
          <distance>1.008</distance>
          <timeResidual>0.74</timeResidual>
          <creationInfo>
            <agencyID>UW</agencyID>
            <creationTime>2012-03-05T19:17:34.000000Z</creationTime>
          </creationInfo>
        </arrival>
        <arrival publicID="quakeml:uw.anss.org/AssocArO/UW/9107058">
          <pickID>quakeml:uw.anss.org/Arrival/UW/9107058</pickID>
          <phase>P</phase>
          <azimuth>259.6</azimuth>
          <distance>0.3469</distance>
          <timeResidual>-0.03</timeResidual>
          <creationInfo>
            <agencyID>UW</agencyID>
            <creationTime>2012-03-05T19:17:34.000000Z</creationTime>
          </creationInfo>
        </arrival>
        <arrival publicID="quakeml:uw.anss.org/AssocArO/UW/9107063">
          <pickID>quakeml:uw.anss.org/Arrival/UW/9107063</pickID>
          <phase>P</phase>
          <azimuth>26.4</azimuth>
          <distance>0.3175</distance>
          <timeResidual>-0.01</timeResidual>
          <creationInfo>
            <agencyID>UW</agencyID>
            <creationTime>2012-03-05T19:17:34.000000Z</creationTime>
          </creationInfo>
        </arrival>
        <arrival publicID="quakeml:uw.anss.org/AssocArO/UW/9107068">
          <pickID>quakeml:uw.anss.org/Arrival/UW/9107068</pickID>
          <phase>P</phase>
          <azimuth>157.7</azimuth>
          <distance>0.345</distance>
          <timeResidual>-0.18</timeResidual>
          <creationInfo>
            <agencyID>UW</agencyID>
            <creationTime>2012-03-05T19:17:34.000000Z</creationTime>
          </creationInfo>
        </arrival>
        <arrival publicID="quakeml:uw.anss.org/AssocArO/UW/9107073">
          <pickID>quakeml:uw.anss.org/Arrival/UW/9107073</pickID>
          <phase>S</phase>
          <azimuth>157.7</azimuth>
          <distance>0.345</distance>
          <timeResidual>0.32</timeResidual>
          <creationInfo>
            <agencyID>UW</agencyID>
            <creationTime>2012-03-05T19:17:34.000000Z</creationTime>
          </creationInfo>
        </arrival>
        <arrival publicID="quakeml:uw.anss.org/AssocArO/UW/9107078">
          <pickID>quakeml:uw.anss.org/Arrival/UW/9107078</pickID>
          <phase>P</phase>
          <azimuth>81.3</azimuth>
          <distance>0.2789</distance>
          <timeResidual>0.01</timeResidual>
          <creationInfo>
            <agencyID>UW</agencyID>
            <creationTime>2012-03-05T19:17:34.000000Z</creationTime>
          </creationInfo>
        </arrival>
      </origin>
      <magnitude publicID="quakeml:uw.anss.org/Netmag/UW/767733">
        <mag>
          <value>1.6</value>
          <uncertainty>0.05</uncertainty>
        </mag>
        <type>Md</type>
        <originID>quakeml:uw.anss.org/Origin/UW/981988</originID>
        <methodID>smi:uw.anss.org/magnitude/Crosson</methodID>
        <stationCount>4</stationCount>
        <evaluationMode>manual</evaluationMode>
        <evaluationStatus>final</evaluationStatus>
        <stationMagnitudeContribution>
          <stationMagnitudeID>quakeml:uw.anss.org/AssocCoM/UW/2120773</stationMagnitudeID>
          <weight>1.0</weight>
          <residual>0.22</residual>
        </stationMagnitudeContribution>
        <stationMagnitudeContribution>
          <stationMagnitudeID>quakeml:uw.anss.org/AssocCoM/UW/2120758</stationMagnitudeID>
          <weight>1.0</weight>
          <residual>-0.12</residual>
        </stationMagnitudeContribution>
        <stationMagnitudeContribution>
          <stationMagnitudeID>quakeml:uw.anss.org/AssocCoM/UW/2120768</stationMagnitudeID>
          <weight>1.0</weight>
          <residual>-0.07</residual>
        </stationMagnitudeContribution>
        <stationMagnitudeContribution>
          <stationMagnitudeID>quakeml:uw.anss.org/AssocCoM/UW/2120763</stationMagnitudeID>
          <weight>1.0</weight>
          <residual>-0.02</residual>
        </stationMagnitudeContribution>
        <creationInfo>
          <agencyID>UW</agencyID>
          <creationTime>2012-03-05T19:17:34.000000Z</creationTime>
        </creationInfo>
      </magnitude>
      <stationMagnitude publicID="quakeml:uw.anss.org/AssocCoM/UW/2120758">
        <originID>quakeml:uw.anss.org/Origin/UW/981988</originID>
        <mag>
          <value>1.48</value>
        </mag>
        <type>MD</type>
        <amplitudeID>quakeml:uw.anss.org/Coda/UW/2120758</amplitudeID>
        <waveformID networkCode="UW" stationCode="JCW" locationCode="" channelCode="EHZ"></waveformID>
      </stationMagnitude>
      <stationMagnitude publicID="quakeml:uw.anss.org/AssocCoM/UW/2120763">
        <originID>quakeml:uw.anss.org/Origin/UW/981988</originID>
        <mag>
          <value>1.58</value>
        </mag>
        <type>MD</type>
        <amplitudeID>quakeml:uw.anss.org/Coda/UW/2120763</amplitudeID>
        <waveformID networkCode="UW" stationCode="RPW" locationCode="" channelCode="EHZ"></waveformID>
      </stationMagnitude>
      <stationMagnitude publicID="quakeml:uw.anss.org/AssocCoM/UW/2120768">
        <originID>quakeml:uw.anss.org/Origin/UW/981988</originID>
        <mag>
          <value>1.53</value>
        </mag>
        <type>MD</type>
        <amplitudeID>quakeml:uw.anss.org/Coda/UW/2120768</amplitudeID>
        <waveformID networkCode="CN" stationCode="VDB" locationCode="" channelCode="EHZ"></waveformID>
      </stationMagnitude>
      <stationMagnitude publicID="quakeml:uw.anss.org/AssocCoM/UW/2120773">
        <originID>quakeml:uw.anss.org/Origin/UW/981988</originID>
        <mag>
          <value>1.82</value>
        </mag>
        <type>MD</type>
        <amplitudeID>quakeml:uw.anss.org/Coda/UW/2120773</amplitudeID>
        <waveformID networkCode="UW" stationCode="CMW" locationCode="" channelCode="EHZ"></waveformID>
      </stationMagnitude>
      <pick publicID="quakeml:uw.anss.org/Arrival/UW/9107008">
        <time>
          <value>2006-10-02T09:33:05.880000Z</value>
          <uncertainty>0.08</uncertainty>
        </time>
        <waveformID networkCode="TA" stationCode="B05A" locationCode="" channelCode="BHZ"></waveformID>
        <polarity>undecidable</polarity>
        <evaluationMode>manual</evaluationMode>
        <evaluationStatus>final</evaluationStatus>
        <creationInfo>
          <agencyID>UW</agencyID>
          <creationTime>2012-03-05T19:17:34.000000Z</creationTime>
        </creationInfo>
      </pick>
      <pick publicID="quakeml:uw.anss.org/Arrival/UW/9107013">
        <time>
          <value>2006-10-02T09:33:01.430000Z</value>
          <uncertainty>0.08</uncertainty>
        </time>
        <waveformID networkCode="TA" stationCode="A04A" locationCode="" channelCode="BHZ"></waveformID>
        <polarity>negative</polarity>
        <evaluationMode>manual</evaluationMode>
        <evaluationStatus>final</evaluationStatus>
        <creationInfo>
          <agencyID>UW</agencyID>
          <creationTime>2012-03-05T19:17:34.000000Z</creationTime>
        </creationInfo>
      </pick>
      <pick publicID="quakeml:uw.anss.org/Arrival/UW/9107018">
        <time>
          <value>2006-10-02T09:33:05.550000Z</value>
          <uncertainty>0.13</uncertainty>
        </time>
        <waveformID networkCode="TA" stationCode="A04A" locationCode="" channelCode="BHN"></waveformID>
        <polarity>undecidable</polarity>
        <evaluationMode>manual</evaluationMode>
        <evaluationStatus>final</evaluationStatus>
        <creationInfo>
          <agencyID>UW</agencyID>
          <creationTime>2012-03-05T19:17:34.000000Z</creationTime>
        </creationInfo>
      </pick>
      <pick publicID="quakeml:uw.anss.org/Arrival/UW/9107023">
        <time>
          <value>2006-10-02T09:33:07.720000Z</value>
          <uncertainty>0.04</uncertainty>
        </time>
        <waveformID networkCode="UW" stationCode="JCW" locationCode="" channelCode="EHZ"></waveformID>
        <polarity>undecidable</polarity>
        <evaluationMode>manual</evaluationMode>
        <evaluationStatus>final</evaluationStatus>
        <creationInfo>
          <agencyID>UW</agencyID>
          <creationTime>2012-03-05T19:17:34.000000Z</creationTime>
        </creationInfo>
      </pick>
      <pick publicID="quakeml:uw.anss.org/Arrival/UW/9107028">
        <time>
          <value>2006-10-02T09:33:06.980000Z</value>
          <uncertainty>0.05</uncertainty>
        </time>
        <waveformID networkCode="CN" stationCode="SNB" locationCode="" channelCode="BHZ"></waveformID>
        <polarity>undecidable</polarity>
        <evaluationMode>manual</evaluationMode>
        <evaluationStatus>final</evaluationStatus>
        <creationInfo>
          <agencyID>UW</agencyID>
          <creationTime>2012-03-05T19:17:34.000000Z</creationTime>
        </creationInfo>
      </pick>
      <pick publicID="quakeml:uw.anss.org/Arrival/UW/9107033">
        <time>
          <value>2006-10-02T09:33:07.680000Z</value>
          <uncertainty>0.02</uncertainty>
        </time>
        <waveformID networkCode="UW" stationCode="RPW" locationCode="" channelCode="EHZ"></waveformID>
        <polarity>negative</polarity>
        <evaluationMode>manual</evaluationMode>
        <evaluationStatus>final</evaluationStatus>
        <creationInfo>
          <agencyID>UW</agencyID>
          <creationTime>2012-03-05T19:17:34.000000Z</creationTime>
        </creationInfo>
      </pick>
      <pick publicID="quakeml:uw.anss.org/Arrival/UW/9107038">
        <time>
          <value>2006-10-02T09:33:16.070000Z</value>
          <uncertainty>0.07</uncertainty>
        </time>
        <waveformID networkCode="UW" stationCode="RPW" locationCode="" channelCode="EHZ"></waveformID>
        <polarity>undecidable</polarity>
        <evaluationMode>manual</evaluationMode>
        <evaluationStatus>final</evaluationStatus>
        <creationInfo>
          <agencyID>UW</agencyID>
          <creationTime>2012-03-05T19:17:34.000000Z</creationTime>
        </creationInfo>
      </pick>
      <pick publicID="quakeml:uw.anss.org/Arrival/UW/9107043">
        <time>
          <value>2006-10-02T09:33:28.340000Z</value>
          <uncertainty>0.06</uncertainty>
        </time>
        <waveformID networkCode="UW" stationCode="FMW" locationCode="" channelCode="EHZ"></waveformID>
        <polarity>undecidable</polarity>
        <evaluationMode>manual</evaluationMode>
        <evaluationStatus>final</evaluationStatus>
        <creationInfo>
          <agencyID>UW</agencyID>
          <creationTime>2012-03-05T19:17:34.000000Z</creationTime>
        </creationInfo>
      </pick>
      <pick publicID="quakeml:uw.anss.org/Arrival/UW/9107048">
        <time>
          <value>2006-10-02T09:32:58.800000Z</value>
          <uncertainty>0.02</uncertainty>
        </time>
        <waveformID networkCode="UW" stationCode="SBES" locationCode="" channelCode="ENZ"></waveformID>
        <polarity>positive</polarity>
        <evaluationMode>manual</evaluationMode>
        <evaluationStatus>final</evaluationStatus>
        <creationInfo>
          <agencyID>UW</agencyID>
          <creationTime>2012-03-05T19:17:34.000000Z</creationTime>
        </creationInfo>
      </pick>
      <pick publicID="quakeml:uw.anss.org/Arrival/UW/9107053">
        <time>
          <value>2006-10-02T09:33:14.850000Z</value>
          <uncertainty>0.04</uncertainty>
        </time>
        <waveformID networkCode="UW" stationCode="HTW" locationCode="" channelCode="EHZ"></waveformID>
        <polarity>undecidable</polarity>
        <evaluationMode>manual</evaluationMode>
        <evaluationStatus>final</evaluationStatus>
        <creationInfo>
          <agencyID>UW</agencyID>
          <creationTime>2012-03-05T19:17:34.000000Z</creationTime>
        </creationInfo>
      </pick>
      <pick publicID="quakeml:uw.anss.org/Arrival/UW/9107058">
        <time>
          <value>2006-10-02T09:33:03.040000Z</value>
          <uncertainty>0.03</uncertainty>
        </time>
        <waveformID networkCode="UW" stationCode="MCW" locationCode="" channelCode="EHZ"></waveformID>
        <polarity>negative</polarity>
        <evaluationMode>manual</evaluationMode>
        <evaluationStatus>final</evaluationStatus>
        <creationInfo>
          <agencyID>UW</agencyID>
          <creationTime>2012-03-05T19:17:34.000000Z</creationTime>
        </creationInfo>
      </pick>
      <pick publicID="quakeml:uw.anss.org/Arrival/UW/9107063">
        <time>
          <value>2006-10-02T09:33:02.670000Z</value>
          <uncertainty>0.02</uncertainty>
        </time>
        <waveformID networkCode="CN" stationCode="VDB" locationCode="" channelCode="EHZ"></waveformID>
        <polarity>negative</polarity>
        <evaluationMode>manual</evaluationMode>
        <evaluationStatus>final</evaluationStatus>
        <creationInfo>
          <agencyID>UW</agencyID>
          <creationTime>2012-03-05T19:17:34.000000Z</creationTime>
        </creationInfo>
      </pick>
      <pick publicID="quakeml:uw.anss.org/Arrival/UW/9107068">
        <time>
          <value>2006-10-02T09:33:03.230000Z</value>
          <uncertainty>0.02</uncertainty>
        </time>
        <waveformID networkCode="UW" stationCode="CMW" locationCode="" channelCode="EHZ"></waveformID>
        <polarity>negative</polarity>
        <evaluationMode>manual</evaluationMode>
        <evaluationStatus>final</evaluationStatus>
