<?xml version='1.0' encoding='utf-8'?>
<q:quakeml xmlns="http://quakeml.org/xmlns/bed/1.2" xmlns:q="http://quakeml.org/xmlns/quakeml/1.2" xmlns:ns0="http://anss.org/xmlns/catalog/0.1">
  <eventParameters publicID="smi:local/6199a820-0f3d-41bd-9f84-f8e97a2e4964">
    <event publicID="quakeml:uw.anss.org/Event/UW/10697308" ns0:datasource="uw" ns0:dataid="uw10697308" ns0:eventsource="uw" ns0:eventid="10697308">
      <preferredOriginID>quakeml:uw.anss.org/Origin/UW/979563</preferredOriginID>
      <preferredMagnitudeID>quakeml:uw.anss.org/Netmag/UW/765903</preferredMagnitudeID>
      <type>earthquake</type>
      <creationInfo>
        <agencyID>UW</agencyID>
        <creationTime>2012-03-05T19:09:19.000000Z</creationTime>
        <version>3</version>
      </creationInfo>
      <origin publicID="quakeml:uw.anss.org/Origin/UW/979563" ns0:datasource="uw" ns0:dataid="uw10697308" ns0:eventsource="uw" ns0:eventid="10697308">
        <time>
          <value>2006-04-22T00:13:11.480000Z</value>
        </time>
        <latitude>
          <value>48.4778333</value>
          <uncertainty>0.02</uncertainty>
        </latitude>
        <longitude>
          <value>-121.8306667</value>
          <uncertainty>0.01</uncertainty>
        </longitude>
        <depth>
          <value>5657.0</value>
          <uncertainty>60.0</uncertainty>
        </depth>
        <depthType>operator assigned</depthType>
        <timeFixed>false</timeFixed>
        <epicenterFixed>true</epicenterFixed>
        <methodID>smi:uw.anss.org/origin/spong</methodID>
        <quality>
          <associatedPhaseCount>29</associatedPhaseCount>
          <usedPhaseCount>25</usedPhaseCount>
          <associatedStationCount>20</associatedStationCount>
          <usedStationCount>0</usedStationCount>
          <standardError>0.19</standardError>
          <azimuthalGap>106.0</azimuthalGap>
        </quality>
        <type>hypocenter</type>
        <evaluationMode>manual</evaluationMode>
        <evaluationStatus>final</evaluationStatus>
        <creationInfo>
          <agencyID>UW</agencyID>
          <creationTime>2012-03-05T19:09:19.000000Z</creationTime>
        </creationInfo>
        <originUncertainty>
          <preferredDescription>horizontal uncertainty</preferredDescription>
          <horizontalUncertainty>22.0</horizontalUncertainty>
        </originUncertainty>
        <arrival publicID="quakeml:uw.anss.org/AssocArO/UW/9080698">
          <pickID>quakeml:uw.anss.org/Arrival/UW/9080698</pickID>
          <phase>P</phase>
          <azimuth>219.6</azimuth>
          <distance>0.2776</distance>
          <timeResidual>0.09</timeResidual>
          <creationInfo>
            <agencyID>UW</agencyID>
            <creationTime>2012-03-05T19:09:19.000000Z</creationTime>
          </creationInfo>
        </arrival>
        <arrival publicID="quakeml:uw.anss.org/AssocArO/UW/9080703">
          <pickID>quakeml:uw.anss.org/Arrival/UW/9080703</pickID>
          <phase>S</phase>
          <azimuth>219.6</azimuth>
          <distance>0.2776</distance>
          <timeResidual>0.1</timeResidual>
          <creationInfo>
            <agencyID>UW</agencyID>
            <creationTime>2012-03-05T19:09:19.000000Z</creationTime>
          </creationInfo>
        </arrival>
        <arrival publicID="quakeml:uw.anss.org/AssocArO/UW/9080708">
          <pickID>quakeml:uw.anss.org/Arrival/UW/9080708</pickID>
          <phase>P</phase>
          <azimuth>342.2</azimuth>
          <distance>0.5475</distance>
          <timeResidual>0.18</timeResidual>
          <creationInfo>
            <agencyID>UW</agencyID>
            <creationTime>2012-03-05T19:09:19.000000Z</creationTime>
          </creationInfo>
        </arrival>
        <arrival publicID="quakeml:uw.anss.org/AssocArO/UW/9080713">
          <pickID>quakeml:uw.anss.org/Arrival/UW/9080713</pickID>
          <phase>S</phase>
          <azimuth>342.2</azimuth>
          <distance>0.5475</distance>
          <timeResidual>0.2</timeResidual>
          <creationInfo>
            <agencyID>UW</agencyID>
            <creationTime>2012-03-05T19:09:19.000000Z</creationTime>
          </creationInfo>
        </arrival>
        <arrival publicID="quakeml:uw.anss.org/AssocArO/UW/9080718">
          <pickID>quakeml:uw.anss.org/Arrival/UW/9080718</pickID>
          <phase>S</phase>
          <azimuth>111.8</azimuth>
          <distance>1.075</distance>
          <timeResidual>-0.43</timeResidual>
          <creationInfo>
            <agencyID>UW</agencyID>
            <creationTime>2012-03-05T19:09:19.000000Z</creationTime>
          </creationInfo>
        </arrival>
        <arrival publicID="quakeml:uw.anss.org/AssocArO/UW/9080723">
          <pickID>quakeml:uw.anss.org/Arrival/UW/9080723</pickID>
          <phase>P</phase>
          <azimuth>192.9</azimuth>
          <timeResidual>0.12</timeResidual>
          <creationInfo>
            <agencyID>UW</agencyID>
            <creationTime>2012-03-05T19:09:19.000000Z</creationTime>
          </creationInfo>
        </arrival>
        <arrival publicID="quakeml:uw.anss.org/AssocArO/UW/9080728">
          <pickID>quakeml:uw.anss.org/Arrival/UW/9080728</pickID>
          <phase>P</phase>
          <azimuth>289.0</azimuth>
          <distance>0.9385</distance>
          <timeResidual>0.45</timeResidual>
          <creationInfo>
            <agencyID>UW</agencyID>
            <creationTime>2012-03-05T19:09:19.000000Z</creationTime>
          </creationInfo>
        </arrival>
        <arrival publicID="quakeml:uw.anss.org/AssocArO/UW/9080733">
          <pickID>quakeml:uw.anss.org/Arrival/UW/9080733</pickID>
          <phase>P</phase>
          <azimuth>179.1</azimuth>
          <distance>1.019</distance>
          <timeResidual>0.13</timeResidual>
          <creationInfo>
            <agencyID>UW</agencyID>
            <creationTime>2012-03-05T19:09:19.000000Z</creationTime>
          </creationInfo>
        </arrival>
        <arrival publicID="quakeml:uw.anss.org/AssocArO/UW/9080738">
          <pickID>quakeml:uw.anss.org/Arrival/UW/9080738</pickID>
          <phase>P</phase>
          <azimuth>97.9</azimuth>
          <distance>0.2123</distance>
          <timeResidual>0.05</timeResidual>
          <creationInfo>
            <agencyID>UW</agencyID>
            <creationTime>2012-03-05T19:09:19.000000Z</creationTime>
          </creationInfo>
        </arrival>
        <arrival publicID="quakeml:uw.anss.org/AssocArO/UW/9080743">
          <pickID>quakeml:uw.anss.org/Arrival/UW/9080743</pickID>
          <phase>S</phase>
          <azimuth>97.9</azimuth>
          <distance>0.2123</distance>
          <timeResidual>0.1</timeResidual>
          <creationInfo>
            <agencyID>UW</agencyID>
            <creationTime>2012-03-05T19:09:19.000000Z</creationTime>
          </creationInfo>
        </arrival>
        <arrival publicID="quakeml:uw.anss.org/AssocArO/UW/9080748">
          <pickID>quakeml:uw.anss.org/Arrival/UW/9080748</pickID>
          <phase>P</phase>
          <azimuth>134.2</azimuth>
          <distance>0.8883</distance>
          <timeResidual>-0.02</timeResidual>
          <creationInfo>
            <agencyID>UW</agencyID>
            <creationTime>2012-03-05T19:09:19.000000Z</creationTime>
          </creationInfo>
        </arrival>
        <arrival publicID="quakeml:uw.anss.org/AssocArO/UW/9080753">
          <pickID>quakeml:uw.anss.org/Arrival/UW/9080753</pickID>
          <phase>P</phase>
          <azimuth>175.9</azimuth>
          <timeResidual>-0.05</timeResidual>
          <creationInfo>
            <agencyID>UW</agencyID>
            <creationTime>2012-03-05T19:09:19.000000Z</creationTime>
          </creationInfo>
        </arrival>
        <arrival publicID="quakeml:uw.anss.org/AssocArO/UW/9080758">
          <pickID>quakeml:uw.anss.org/Arrival/UW/9080758</pickID>
          <phase>S</phase>
          <azimuth>175.9</azimuth>
          <timeResidual>-1.18</timeResidual>
          <creationInfo>
            <agencyID>UW</agencyID>
            <creationTime>2012-03-05T19:09:19.000000Z</creationTime>
          </creationInfo>
        </arrival>
        <arrival publicID="quakeml:uw.anss.org/AssocArO/UW/9080763">
          <pickID>quakeml:uw.anss.org/Arrival/UW/9080763</pickID>
          <phase>P</phase>
          <azimuth>147.0</azimuth>
          <distance>1.454</distance>
          <timeResidual>0.44</timeResidual>
          <creationInfo>
            <agencyID>UW</agencyID>
            <creationTime>2012-03-05T19:09:19.000000Z</creationTime>
          </creationInfo>
        </arrival>
        <arrival publicID="quakeml:uw.anss.org/AssocArO/UW/9080768">
          <pickID>quakeml:uw.anss.org/Arrival/UW/9080768</pickID>
          <phase>S</phase>
          <azimuth>147.0</azimuth>
          <distance>1.454</distance>
          <timeResidual>-0.5</timeResidual>
          <creationInfo>
            <agencyID>UW</agencyID>
            <creationTime>2012-03-05T19:09:19.000000Z</creationTime>
          </creationInfo>
        </arrival>
        <arrival publicID="quakeml:uw.anss.org/AssocArO/UW/9080773">
          <pickID>quakeml:uw.anss.org/Arrival/UW/9080773</pickID>
          <phase>P</phase>
          <azimuth>176.5</azimuth>
          <distance>0.6758</distance>
          <timeResidual>0.08</timeResidual>
          <creationInfo>
            <agencyID>UW</agencyID>
            <creationTime>2012-03-05T19:09:19.000000Z</creationTime>
          </creationInfo>
        </arrival>
        <arrival publicID="quakeml:uw.anss.org/AssocArO/UW/9080778">
          <pickID>quakeml:uw.anss.org/Arrival/UW/9080778</pickID>
          <phase>S</phase>
          <azimuth>176.5</azimuth>
          <distance>0.6758</distance>
          <timeResidual>-0.22</timeResidual>
          <creationInfo>
            <agencyID>UW</agencyID>
            <creationTime>2012-03-05T19:09:19.000000Z</creationTime>
          </creationInfo>
        </arrival>
        <arrival publicID="quakeml:uw.anss.org/AssocArO/UW/9080783">
          <pickID>quakeml:uw.anss.org/Arrival/UW/9080783</pickID>
          <phase>P</phase>
          <azimuth>287.3</azimuth>
          <distance>0.6952</distance>
          <timeResidual>0.29</timeResidual>
          <creationInfo>
            <agencyID>UW</agencyID>
            <creationTime>2012-03-05T19:09:19.000000Z</creationTime>
          </creationInfo>
        </arrival>
        <arrival publicID="quakeml:uw.anss.org/AssocArO/UW/9080788">
          <pickID>quakeml:uw.anss.org/Arrival/UW/9080788</pickID>
          <phase>P</phase>
          <azimuth>127.7</azimuth>
          <distance>0.5863</distance>
          <timeResidual>0.19</timeResidual>
          <creationInfo>
            <agencyID>UW</agencyID>
            <creationTime>2012-03-05T19:09:19.000000Z</creationTime>
          </creationInfo>
        </arrival>
        <arrival publicID="quakeml:uw.anss.org/AssocArO/UW/9080793">
          <pickID>quakeml:uw.anss.org/Arrival/UW/9080793</pickID>
          <phase>P</phase>
          <distance>0.5775</distance>
          <timeResidual>-0.06</timeResidual>
          <creationInfo>
            <agencyID>UW</agencyID>
            <creationTime>2012-03-05T19:09:19.000000Z</creationTime>
          </creationInfo>
        </arrival>
        <arrival publicID="quakeml:uw.anss.org/AssocArO/UW/9080798">
          <pickID>quakeml:uw.anss.org/Arrival/UW/9080798</pickID>
          <phase>S</phase>
          <distance>0.5775</distance>
          <timeResidual>-0.41</timeResidual>
          <creationInfo>
            <agencyID>UW</agencyID>
            <creationTime>2012-03-05T19:09:19.000000Z</creationTime>
          </creationInfo>
        </arrival>
        <arrival publicID="quakeml:uw.anss.org/AssocArO/UW/9080803">
          <pickID>quakeml:uw.anss.org/Arrival/UW/9080803</pickID>
          <phase>P</phase>
          <azimuth>183.7</azimuth>
          <distance>1.538</distance>
          <timeResidual>-0.09</timeResidual>
          <creationInfo>
            <agencyID>UW</agencyID>
            <creationTime>2012-03-05T19:09:19.000000Z</creationTime>
          </creationInfo>
        </arrival>
        <arrival publicID="quakeml:uw.anss.org/AssocArO/UW/9080808">
          <pickID>quakeml:uw.anss.org/Arrival/UW/9080808</pickID>
          <phase>P</phase>
          <azimuth>254.3</azimuth>
          <distance>0.2003</distance>
          <timeResidual>-0.12</timeResidual>
          <creationInfo>
            <agencyID>UW</agencyID>
            <creationTime>2012-03-05T19:09:19.000000Z</creationTime>
          </creationInfo>
        </arrival>
        <arrival publicID="quakeml:uw.anss.org/AssocArO/UW/9080813">
          <pickID>quakeml:uw.anss.org/Arrival/UW/9080813</pickID>
          <phase>P</phase>
          <azimuth>225.1</azimuth>
          <distance>1.168</distance>
          <timeResidual>-0.08</timeResidual>
          <creationInfo>
            <agencyID>UW</agencyID>
            <creationTime>2012-03-05T19:09:19.000000Z</creationTime>
          </creationInfo>
        </arrival>
        <arrival publicID="quakeml:uw.anss.org/AssocArO/UW/9080818">
          <pickID>quakeml:uw.anss.org/Arrival/UW/9080818</pickID>
          <phase>P</phase>
          <azimuth>351.4</azimuth>
          <distance>0.3097</distance>
          <timeResidual>-0.22</timeResidual>
          <creationInfo>
            <agencyID>UW</agencyID>
            <creationTime>2012-03-05T19:09:19.000000Z</creationTime>
          </creationInfo>
        </arrival>
        <arrival publicID="quakeml:uw.anss.org/AssocArO/UW/9080823">
          <pickID>quakeml:uw.anss.org/Arrival/UW/9080823</pickID>
          <phase>S</phase>
          <azimuth>351.4</azimuth>
          <distance>0.3097</distance>
          <timeResidual>-0.22</timeResidual>
          <creationInfo>
            <agencyID>UW</agencyID>
            <creationTime>2012-03-05T19:09:19.000000Z</creationTime>
          </creationInfo>
        </arrival>
        <arrival publicID="quakeml:uw.anss.org/AssocArO/UW/9080828">
          <pickID>quakeml:uw.anss.org/Arrival/UW/9080828</pickID>
          <phase>P</phase>
          <azimuth>178.9</azimuth>
          <timeResidual>0.06</timeResidual>
          <creationInfo>
            <agencyID>UW</agencyID>
            <creationTime>2012-03-05T19:09:19.000000Z</creationTime>
          </creationInfo>
        </arrival>
        <arrival publicID="quakeml:uw.anss.org/AssocArO/UW/9080833">
          <pickID>quakeml:uw.anss.org/Arrival/UW/9080833</pickID>
          <phase>P</phase>
          <azimuth>173.1</azimuth>
          <distance>0.7894</distance>
          <timeResidual>0.01</timeResidual>
          <creationInfo>
            <agencyID>UW</agencyID>
            <creationTime>2012-03-05T19:09:19.000000Z</creationTime>
          </creationInfo>
        </arrival>
        <arrival publicID="quakeml:uw.anss.org/AssocArO/UW/9080838">
          <pickID>quakeml:uw.anss.org/Arrival/UW/9080838</pickID>
          <phase>S</phase>
          <azimuth>173.1</azimuth>
          <distance>0.7894</distance>
          <timeResidual>-0.68</timeResidual>
          <creationInfo>
            <agencyID>UW</agencyID>
            <creationTime>2012-03-05T19:09:19.000000Z</creationTime>
          </creationInfo>
        </arrival>
      </origin>
      <magnitude publicID="quakeml:uw.anss.org/Netmag/UW/765903">
        <mag>
          <value>1.9</value>
          <uncertainty>0.04</uncertainty>
        </mag>
        <type>Md</type>
        <originID>quakeml:uw.anss.org/Origin/UW/979563</originID>
        <methodID>smi:uw.anss.org/magnitude/Crosson</methodID>
        <stationCount>12</stationCount>
        <evaluationMode>manual</evaluationMode>
        <evaluationStatus>final</evaluationStatus>
        <stationMagnitudeContribution>
          <stationMagnitudeID>quakeml:uw.anss.org/AssocCoM/UW/2116228</stationMagnitudeID>
          <weight>1.0</weight>
          <residual>-0.15</residual>
        </stationMagnitudeContribution>
        <stationMagnitudeContribution>
          <stationMagnitudeID>quakeml:uw.anss.org/AssocCoM/UW/2116203</stationMagnitudeID>
          <weight>1.0</weight>
          <residual>0.33</residual>
        </stationMagnitudeContribution>
        <stationMagnitudeContribution>
          <stationMagnitudeID>quakeml:uw.anss.org/AssocCoM/UW/2116213</stationMagnitudeID>
          <weight>1.0</weight>
          <residual>0.55</residual>
        </stationMagnitudeContribution>
        <stationMagnitudeContribution>
          <stationMagnitudeID>quakeml:uw.anss.org/AssocCoM/UW/2116223</stationMagnitudeID>
          <weight>1.0</weight>
          <residual>-0.32</residual>
        </stationMagnitudeContribution>
        <stationMagnitudeContribution>
          <stationMagnitudeID>quakeml:uw.anss.org/AssocCoM/UW/2116248</stationMagnitudeID>
          <weight>1.0</weight>
          <residual>0.3</residual>
        </stationMagnitudeContribution>
        <stationMagnitudeContribution>
          <stationMagnitudeID>quakeml:uw.anss.org/AssocCoM/UW/2116208</stationMagnitudeID>
          <weight>1.0</weight>
          <residual>-0.19</residual>
        </stationMagnitudeContribution>
        <stationMagnitudeContribution>
          <stationMagnitudeID>quakeml:uw.anss.org/AssocCoM/UW/2116233</stationMagnitudeID>
          <weight>1.0</weight>
          <residual>0.33</residual>
        </stationMagnitudeContribution>
        <stationMagnitudeContribution>
          <stationMagnitudeID>quakeml:uw.anss.org/AssocCoM/UW/2116238</stationMagnitudeID>
          <weight>1.0</weight>
          <residual>-0.37</residual>
        </stationMagnitudeContribution>
        <stationMagnitudeContribution>
          <stationMagnitudeID>quakeml:uw.anss.org/AssocCoM/UW/2116218</stationMagnitudeID>
          <weight>1.0</weight>
          <residual>-0.57</residual>
        </stationMagnitudeContribution>
        <stationMagnitudeContribution>
          <stationMagnitudeID>quakeml:uw.anss.org/AssocCoM/UW/2116258</stationMagnitudeID>
          <weight>1.0</weight>
          <residual>-0.57</residual>
        </stationMagnitudeContribution>
        <stationMagnitudeContribution>
          <stationMagnitudeID>quakeml:uw.anss.org/AssocCoM/UW/2116243</stationMagnitudeID>
          <weight>1.0</weight>
          <residual>0.27</residual>
        </stationMagnitudeContribution>
        <stationMagnitudeContribution>
          <stationMagnitudeID>quakeml:uw.anss.org/AssocCoM/UW/2116253</stationMagnitudeID>
          <weight>1.0</weight>
          <residual>0.13</residual>
        </stationMagnitudeContribution>
        <creationInfo>
          <agencyID>UW</agencyID>
          <creationTime>2012-03-05T19:09:19.000000Z</creationTime>
        </creationInfo>
      </magnitude>
      <stationMagnitude publicID="quakeml:uw.anss.org/AssocCoM/UW/2116203">
        <originID>quakeml:uw.anss.org/Origin/UW/979563</originID>
        <mag>
          <value>2.23</value>
        </mag>
        <type>MD</type>
        <amplitudeID>quakeml:uw.anss.org/Coda/UW/2116203</amplitudeID>
        <waveformID networkCode="UW" stationCode="JCW" locationCode="" channelCode="EHZ"></waveformID>
      </stationMagnitude>
      <stationMagnitude publicID="quakeml:uw.anss.org/AssocCoM/UW/2116208">
        <originID>quakeml:uw.anss.org/Origin/UW/979563</originID>
        <mag>
          <value>1.71</value>
        </mag>
        <type>MD</type>
        <amplitudeID>quakeml:uw.anss.org/Coda/UW/2116208</amplitudeID>
        <waveformID networkCode="UW" stationCode="RMW" locationCode="" channelCode="EHZ"></waveformID>
      </stationMagnitude>
      <stationMagnitude publicID="quakeml:uw.anss.org/AssocCoM/UW/2116213">
        <originID>quakeml:uw.anss.org/Origin/UW/979563</originID>
        <mag>
          <value>2.45</value>
        </mag>
        <type>MD</type>
        <amplitudeID>quakeml:uw.anss.org/Coda/UW/2116213</amplitudeID>
