<?xml version='1.0' encoding='utf-8'?>
<q:quakeml xmlns="http://quakeml.org/xmlns/bed/1.2" xmlns:q="http://quakeml.org/xmlns/quakeml/1.2" xmlns:ns0="http://anss.org/xmlns/catalog/0.1">
  <eventParameters publicID="smi:local/6c6be610-6c54-419f-9814-fc69ecf1f32c">
    <event publicID="quakeml:uw.anss.org/Event/UW/10697698" ns0:datasource="uw" ns0:dataid="uw10697698" ns0:eventsource="uw" ns0:eventid="10697698">
      <preferredOriginID>quakeml:uw.anss.org/Origin/UW/979953</preferredOriginID>
      <preferredMagnitudeID>quakeml:uw.anss.org/Netmag/UW/766198</preferredMagnitudeID>
      <type>earthquake</type>
      <creationInfo>
        <agencyID>UW</agencyID>
        <creationTime>2012-03-05T19:10:32.000000Z</creationTime>
        <version>3</version>
      </creationInfo>
      <origin publicID="quakeml:uw.anss.org/Origin/UW/979953" ns0:datasource="uw" ns0:dataid="uw10697698" ns0:eventsource="uw" ns0:eventid="10697698">
        <time>
          <value>2006-06-30T07:27:16.650000Z</value>
        </time>
        <latitude>
          <value>48.605</value>
        </latitude>
        <longitude>
          <value>-122.305</value>
        </longitude>
        <depth>
          <value>6646.0</value>
        </depth>
        <depthType>operator assigned</depthType>
        <timeFixed>false</timeFixed>
        <epicenterFixed>true</epicenterFixed>
        <methodID>smi:uw.anss.org/origin/spong</methodID>
        <quality>
          <associatedPhaseCount>34</associatedPhaseCount>
          <usedPhaseCount>26</usedPhaseCount>
          <associatedStationCount>32</associatedStationCount>
          <usedStationCount>0</usedStationCount>
          <standardError>0.24</standardError>
          <azimuthalGap>84.0</azimuthalGap>
        </quality>
        <type>hypocenter</type>
        <evaluationMode>manual</evaluationMode>
        <evaluationStatus>final</evaluationStatus>
        <creationInfo>
          <agencyID>UW</agencyID>
          <creationTime>2012-03-05T19:10:32.000000Z</creationTime>
        </creationInfo>
        <arrival publicID="quakeml:uw.anss.org/AssocArO/UW/9085373">
          <pickID>quakeml:uw.anss.org/Arrival/UW/9085373</pickID>
          <phase>P</phase>
          <azimuth>157.8</azimuth>
          <distance>0.3685</distance>
          <timeResidual>-0.04</timeResidual>
          <creationInfo>
            <agencyID>UW</agencyID>
            <creationTime>2012-03-05T19:10:32.000000Z</creationTime>
          </creationInfo>
        </arrival>
        <arrival publicID="quakeml:uw.anss.org/AssocArO/UW/9085378">
          <pickID>quakeml:uw.anss.org/Arrival/UW/9085378</pickID>
          <phase>P</phase>
          <azimuth>20.1</azimuth>
          <distance>0.4196</distance>
          <timeResidual>0.08</timeResidual>
          <creationInfo>
            <agencyID>UW</agencyID>
            <creationTime>2012-03-05T19:10:32.000000Z</creationTime>
          </creationInfo>
        </arrival>
        <arrival publicID="quakeml:uw.anss.org/AssocArO/UW/9085383">
          <pickID>quakeml:uw.anss.org/Arrival/UW/9085383</pickID>
          <phase>S</phase>
          <azimuth>20.1</azimuth>
          <distance>0.4196</distance>
          <timeResidual>0.23</timeResidual>
          <creationInfo>
            <agencyID>UW</agencyID>
            <creationTime>2012-03-05T19:10:32.000000Z</creationTime>
          </creationInfo>
        </arrival>
        <arrival publicID="quakeml:uw.anss.org/AssocArO/UW/9085388">
          <pickID>quakeml:uw.anss.org/Arrival/UW/9085388</pickID>
          <phase>P</phase>
          <azimuth>111.6</azimuth>
          <distance>1.415</distance>
          <timeResidual>0.75</timeResidual>
          <creationInfo>
            <agencyID>UW</agencyID>
            <creationTime>2012-03-05T19:10:32.000000Z</creationTime>
          </creationInfo>
        </arrival>
        <arrival publicID="quakeml:uw.anss.org/AssocArO/UW/9085393">
          <pickID>quakeml:uw.anss.org/Arrival/UW/9085393</pickID>
          <phase>P</phase>
          <azimuth>214.7</azimuth>
          <timeResidual>0.34</timeResidual>
          <creationInfo>
            <agencyID>UW</agencyID>
            <creationTime>2012-03-05T19:10:32.000000Z</creationTime>
          </creationInfo>
        </arrival>
        <arrival publicID="quakeml:uw.anss.org/AssocArO/UW/9085398">
          <pickID>quakeml:uw.anss.org/Arrival/UW/9085398</pickID>
          <phase>P</phase>
          <azimuth>335.8</azimuth>
          <distance>0.1792</distance>
          <timeResidual>1.08</timeResidual>
          <creationInfo>
            <agencyID>UW</agencyID>
            <creationTime>2012-03-05T19:10:32.000000Z</creationTime>
          </creationInfo>
        </arrival>
        <arrival publicID="quakeml:uw.anss.org/AssocArO/UW/9085403">
          <pickID>quakeml:uw.anss.org/Arrival/UW/9085403</pickID>
          <phase>P</phase>
          <azimuth>169.6</azimuth>
          <timeResidual>-0.59</timeResidual>
          <creationInfo>
            <agencyID>UW</agencyID>
            <creationTime>2012-03-05T19:10:32.000000Z</creationTime>
          </creationInfo>
        </arrival>
        <arrival publicID="quakeml:uw.anss.org/AssocArO/UW/9085408">
          <pickID>quakeml:uw.anss.org/Arrival/UW/9085408</pickID>
          <phase>P</phase>
          <azimuth>167.5</azimuth>
          <timeResidual>0.08</timeResidual>
          <creationInfo>
            <agencyID>UW</agencyID>
            <creationTime>2012-03-05T19:10:32.000000Z</creationTime>
          </creationInfo>
        </arrival>
        <arrival publicID="quakeml:uw.anss.org/AssocArO/UW/9085413">
          <pickID>quakeml:uw.anss.org/Arrival/UW/9085413</pickID>
          <phase>P</phase>
          <azimuth>17.5</azimuth>
          <distance>0.4421</distance>
          <timeResidual>-0.16</timeResidual>
          <creationInfo>
            <agencyID>UW</agencyID>
            <creationTime>2012-03-05T19:10:32.000000Z</creationTime>
          </creationInfo>
        </arrival>
        <arrival publicID="quakeml:uw.anss.org/AssocArO/UW/9085418">
          <pickID>quakeml:uw.anss.org/Arrival/UW/9085418</pickID>
          <phase>P</phase>
          <azimuth>146.2</azimuth>
          <distance>1.757</distance>
          <timeResidual>1.06</timeResidual>
          <creationInfo>
            <agencyID>UW</agencyID>
            <creationTime>2012-03-05T19:10:32.000000Z</creationTime>
          </creationInfo>
        </arrival>
        <arrival publicID="quakeml:uw.anss.org/AssocArO/UW/9085423">
          <pickID>quakeml:uw.anss.org/Arrival/UW/9085423</pickID>
          <phase>P</phase>
          <azimuth>145.9</azimuth>
          <distance>0.2193</distance>
          <timeResidual>0.01</timeResidual>
          <creationInfo>
            <agencyID>UW</agencyID>
            <creationTime>2012-03-05T19:10:32.000000Z</creationTime>
          </creationInfo>
        </arrival>
        <arrival publicID="quakeml:uw.anss.org/AssocArO/UW/9085428">
          <pickID>quakeml:uw.anss.org/Arrival/UW/9085428</pickID>
          <phase>P</phase>
          <azimuth>207.9</azimuth>
          <distance>1.081</distance>
          <timeResidual>-0.24</timeResidual>
          <creationInfo>
            <agencyID>UW</agencyID>
            <creationTime>2012-03-05T19:10:32.000000Z</creationTime>
          </creationInfo>
        </arrival>
        <arrival publicID="quakeml:uw.anss.org/AssocArO/UW/9085433">
          <pickID>quakeml:uw.anss.org/Arrival/UW/9085433</pickID>
          <phase>P</phase>
          <azimuth>166.1</azimuth>
          <timeResidual>-0.53</timeResidual>
          <creationInfo>
            <agencyID>UW</agencyID>
            <creationTime>2012-03-05T19:10:32.000000Z</creationTime>
          </creationInfo>
        </arrival>
        <arrival publicID="quakeml:uw.anss.org/AssocArO/UW/9085438">
          <pickID>quakeml:uw.anss.org/Arrival/UW/9085438</pickID>
          <phase>P</phase>
          <azimuth>163.6</azimuth>
          <distance>1.194</distance>
          <timeResidual>-0.06</timeResidual>
          <creationInfo>
            <agencyID>UW</agencyID>
            <creationTime>2012-03-05T19:10:32.000000Z</creationTime>
          </creationInfo>
        </arrival>
        <arrival publicID="quakeml:uw.anss.org/AssocArO/UW/9085443">
          <pickID>quakeml:uw.anss.org/Arrival/UW/9085443</pickID>
          <phase>P</phase>
          <azimuth>106.4</azimuth>
          <distance>0.5482</distance>
          <timeResidual>-0.32</timeResidual>
          <creationInfo>
            <agencyID>UW</agencyID>
            <creationTime>2012-03-05T19:10:32.000000Z</creationTime>
          </creationInfo>
        </arrival>
        <arrival publicID="quakeml:uw.anss.org/AssocArO/UW/9085448">
          <pickID>quakeml:uw.anss.org/Arrival/UW/9085448</pickID>
          <phase>S</phase>
          <azimuth>106.4</azimuth>
          <distance>0.5482</distance>
          <timeResidual>0.31</timeResidual>
          <creationInfo>
            <agencyID>UW</agencyID>
            <creationTime>2012-03-05T19:10:32.000000Z</creationTime>
          </creationInfo>
        </arrival>
        <arrival publicID="quakeml:uw.anss.org/AssocArO/UW/9085453">
          <pickID>quakeml:uw.anss.org/Arrival/UW/9085453</pickID>
          <phase>P</phase>
          <azimuth>19.0</azimuth>
          <distance>0.3298</distance>
          <timeResidual>0.45</timeResidual>
          <creationInfo>
            <agencyID>UW</agencyID>
            <creationTime>2012-03-05T19:10:32.000000Z</creationTime>
          </creationInfo>
        </arrival>
        <arrival publicID="quakeml:uw.anss.org/AssocArO/UW/9085458">
          <pickID>quakeml:uw.anss.org/Arrival/UW/9085458</pickID>
          <phase>P</phase>
          <azimuth>56.0</azimuth>
          <distance>0.322</distance>
          <timeResidual>-0.14</timeResidual>
          <creationInfo>
            <agencyID>UW</agencyID>
            <creationTime>2012-03-05T19:10:32.000000Z</creationTime>
          </creationInfo>
        </arrival>
        <arrival publicID="quakeml:uw.anss.org/AssocArO/UW/9085463">
          <pickID>quakeml:uw.anss.org/Arrival/UW/9085463</pickID>
          <phase>P</phase>
          <azimuth>293.5</azimuth>
          <distance>0.2902</distance>
          <timeResidual>-0.02</timeResidual>
          <creationInfo>
            <agencyID>UW</agencyID>
            <creationTime>2012-03-05T19:10:32.000000Z</creationTime>
          </creationInfo>
        </arrival>
        <arrival publicID="quakeml:uw.anss.org/AssocArO/UW/9085468">
          <pickID>quakeml:uw.anss.org/Arrival/UW/9085468</pickID>
          <phase>P</phase>
          <azimuth>148.4</azimuth>
          <timeResidual>-0.03</timeResidual>
          <creationInfo>
            <agencyID>UW</agencyID>
            <creationTime>2012-03-05T19:10:32.000000Z</creationTime>
          </creationInfo>
        </arrival>
        <arrival publicID="quakeml:uw.anss.org/AssocArO/UW/9085473">
          <pickID>quakeml:uw.anss.org/Arrival/UW/9085473</pickID>
          <phase>P</phase>
          <azimuth>171.4</azimuth>
          <distance>1.434</distance>
          <timeResidual>0.25</timeResidual>
          <creationInfo>
            <agencyID>UW</agencyID>
            <creationTime>2012-03-05T19:10:32.000000Z</creationTime>
          </creationInfo>
        </arrival>
        <arrival publicID="quakeml:uw.anss.org/AssocArO/UW/9085478">
          <pickID>quakeml:uw.anss.org/Arrival/UW/9085478</pickID>
          <phase>P</phase>
          <azimuth>236.0</azimuth>
          <distance>0.9697</distance>
          <timeResidual>-0.36</timeResidual>
          <creationInfo>
            <agencyID>UW</agencyID>
            <creationTime>2012-03-05T19:10:32.000000Z</creationTime>
          </creationInfo>
        </arrival>
        <arrival publicID="quakeml:uw.anss.org/AssocArO/UW/9085483">
          <pickID>quakeml:uw.anss.org/Arrival/UW/9085483</pickID>
          <phase>P</phase>
          <azimuth>165.4</azimuth>
          <timeResidual>-0.31</timeResidual>
          <creationInfo>
            <agencyID>UW</agencyID>
            <creationTime>2012-03-05T19:10:32.000000Z</creationTime>
          </creationInfo>
        </arrival>
        <arrival publicID="quakeml:uw.anss.org/AssocArO/UW/9085488">
          <pickID>quakeml:uw.anss.org/Arrival/UW/9085488</pickID>
          <phase>P</phase>
          <azimuth>140.3</azimuth>
          <distance>1.744</distance>
          <timeResidual>0.42</timeResidual>
          <creationInfo>
            <agencyID>UW</agencyID>
            <creationTime>2012-03-05T19:10:32.000000Z</creationTime>
          </creationInfo>
        </arrival>
        <arrival publicID="quakeml:uw.anss.org/AssocArO/UW/9085493">
          <pickID>quakeml:uw.anss.org/Arrival/UW/9085493</pickID>
          <phase>P</phase>
          <azimuth>127.8</azimuth>
          <distance>1.21</distance>
          <timeResidual>0.24</timeResidual>
          <creationInfo>
            <agencyID>UW</agencyID>
            <creationTime>2012-03-05T19:10:32.000000Z</creationTime>
          </creationInfo>
        </arrival>
        <arrival publicID="quakeml:uw.anss.org/AssocArO/UW/9085498">
          <pickID>quakeml:uw.anss.org/Arrival/UW/9085498</pickID>
          <phase>P</phase>
          <azimuth>254.6</azimuth>
          <distance>0.705</distance>
          <timeResidual>0.28</timeResidual>
          <creationInfo>
            <agencyID>UW</agencyID>
            <creationTime>2012-03-05T19:10:32.000000Z</creationTime>
          </creationInfo>
        </arrival>
        <arrival publicID="quakeml:uw.anss.org/AssocArO/UW/9085503">
          <pickID>quakeml:uw.anss.org/Arrival/UW/9085503</pickID>
          <phase>P</phase>
          <azimuth>156.2</azimuth>
          <distance>0.4035</distance>
          <timeResidual>0.09</timeResidual>
          <creationInfo>
            <agencyID>UW</agencyID>
            <creationTime>2012-03-05T19:10:33.000000Z</creationTime>
          </creationInfo>
        </arrival>
        <arrival publicID="quakeml:uw.anss.org/AssocArO/UW/9085508">
          <pickID>quakeml:uw.anss.org/Arrival/UW/9085508</pickID>
          <phase>P</phase>
          <azimuth>121.7</azimuth>
          <distance>0.9184</distance>
          <timeResidual>0.23</timeResidual>
          <creationInfo>
            <agencyID>UW</agencyID>
            <creationTime>2012-03-05T19:10:33.000000Z</creationTime>
          </creationInfo>
        </arrival>
        <arrival publicID="quakeml:uw.anss.org/AssocArO/UW/9085513">
          <pickID>quakeml:uw.anss.org/Arrival/UW/9085513</pickID>
          <phase>P</phase>
          <azimuth>155.5</azimuth>
          <distance>0.9999</distance>
          <timeResidual>0.13</timeResidual>
          <creationInfo>
            <agencyID>UW</agencyID>
            <creationTime>2012-03-05T19:10:33.000000Z</creationTime>
          </creationInfo>
        </arrival>
        <arrival publicID="quakeml:uw.anss.org/AssocArO/UW/9085518">
          <pickID>quakeml:uw.anss.org/Arrival/UW/9085518</pickID>
          <phase>P</phase>
          <azimuth>286.9</azimuth>
          <distance>0.5994</distance>
          <timeResidual>0.08</timeResidual>
          <creationInfo>
            <agencyID>UW</agencyID>
            <creationTime>2012-03-05T19:10:33.000000Z</creationTime>
          </creationInfo>
        </arrival>
        <arrival publicID="quakeml:uw.anss.org/AssocArO/UW/9085523">
          <pickID>quakeml:uw.anss.org/Arrival/UW/9085523</pickID>
          <phase>P</phase>
          <azimuth>155.8</azimuth>
          <distance>0.8784</distance>
          <timeResidual>0.21</timeResidual>
          <creationInfo>
            <agencyID>UW</agencyID>
            <creationTime>2012-03-05T19:10:33.000000Z</creationTime>
          </creationInfo>
        </arrival>
        <arrival publicID="quakeml:uw.anss.org/AssocArO/UW/9085528">
          <pickID>quakeml:uw.anss.org/Arrival/UW/9085528</pickID>
          <phase>P</phase>
          <azimuth>140.8</azimuth>
          <distance>1.839</distance>
          <timeResidual>-0.16</timeResidual>
          <creationInfo>
            <agencyID>UW</agencyID>
            <creationTime>2012-03-05T19:10:33.000000Z</creationTime>
          </creationInfo>
        </arrival>
        <arrival publicID="quakeml:uw.anss.org/AssocArO/UW/9085533">
          <pickID>quakeml:uw.anss.org/Arrival/UW/9085533</pickID>
          <phase>P</phase>
          <azimuth>282.2</azimuth>
          <distance>0.3577</distance>
          <timeResidual>-0.13</timeResidual>
          <creationInfo>
            <agencyID>UW</agencyID>
            <creationTime>2012-03-05T19:10:33.000000Z</creationTime>
          </creationInfo>
        </arrival>
        <arrival publicID="quakeml:uw.anss.org/AssocArO/UW/9085538">
          <pickID>quakeml:uw.anss.org/Arrival/UW/9085538</pickID>
          <phase>P</phase>
          <azimuth>166.6</azimuth>
          <distance>0.7907</distance>
          <timeResidual>0.31</timeResidual>
          <creationInfo>
            <agencyID>UW</agencyID>
            <creationTime>2012-03-05T19:10:33.000000Z</creationTime>
          </creationInfo>
        </arrival>
      </origin>
      <magnitude publicID="quakeml:uw.anss.org/Netmag/UW/766198">
        <mag>
          <value>2.3</value>
          <uncertainty>0.04</uncertainty>
        </mag>
        <type>Md</type>
        <originID>quakeml:uw.anss.org/Origin/UW/979953</originID>
        <methodID>smi:uw.anss.org/magnitude/Crosson</methodID>
        <stationCount>7</stationCount>
        <evaluationMode>manual</evaluationMode>
        <evaluationStatus>final</evaluationStatus>
        <stationMagnitudeContribution>
          <stationMagnitudeID>quakeml:uw.anss.org/AssocCoM/UW/2117093</stationMagnitudeID>
          <weight>1.0</weight>
          <residual>-0.52</residual>
        </stationMagnitudeContribution>
        <stationMagnitudeContribution>
          <stationMagnitudeID>quakeml:uw.anss.org/AssocCoM/UW/2117088</stationMagnitudeID>
          <weight>1.0</weight>
          <residual>0.19</residual>
        </stationMagnitudeContribution>
        <stationMagnitudeContribution>
          <stationMagnitudeID>quakeml:uw.anss.org/AssocCoM/UW/2117063</stationMagnitudeID>
          <weight>1.0</weight>
          <residual>-0.07</residual>
        </stationMagnitudeContribution>
        <stationMagnitudeContribution>
          <stationMagnitudeID>quakeml:uw.anss.org/AssocCoM/UW/2117078</stationMagnitudeID>
          <weight>1.0</weight>
          <residual>0.1</residual>
        </stationMagnitudeContribution>
        <stationMagnitudeContribution>
          <stationMagnitudeID>quakeml:uw.anss.org/AssocCoM/UW/2117073</stationMagnitudeID>
          <weight>1.0</weight>
          <residual>0.13</residual>
        </stationMagnitudeContribution>
        <stationMagnitudeContribution>
          <stationMagnitudeID>quakeml:uw.anss.org/AssocCoM/UW/2117083</stationMagnitudeID>
          <weight>1.0</weight>
          <residual>-0.15</residual>
        </stationMagnitudeContribution>
        <stationMagnitudeContribution>
          <stationMagnitudeID>quakeml:uw.anss.org/AssocCoM/UW/2117068</stationMagnitudeID>
          <weight>1.0</weight>
          <residual>0.37</residual>
        </stationMagnitudeContribution>
        <creationInfo>
          <agencyID>UW</agencyID>
          <creationTime>2012-03-05T19:10:32.000000Z</creationTime>
        </creationInfo>
      </magnitude>
      <stationMagnitude publicID="quakeml:uw.anss.org/AssocCoM/UW/2117063">
        <originID>quakeml:uw.anss.org/Origin/UW/979953</originID>
        <mag>
          <value>2.23</value>
        </mag>
        <type>MD</type>
        <amplitudeID>quakeml:uw.anss.org/Coda/UW/2117063</amplitudeID>
        <waveformID networkCode="CN" stationCode="VDB" locationCode="" channelCode="EHZ"></waveformID>
      </stationMagnitude>
