<?xml version='1.0' encoding='utf-8'?>
<q:quakeml xmlns="http://quakeml.org/xmlns/bed/1.2" xmlns:q="http://quakeml.org/xmlns/quakeml/1.2" xmlns:ns0="http://anss.org/xmlns/catalog/0.1">
  <eventParameters publicID="smi:local/d1531c01-5db2-4ff1-bf6e-993fd474a85e">
    <event publicID="quakeml:uw.anss.org/Event/UW/10707953" ns0:datasource="uw" ns0:dataid="uw10707953" ns0:eventsource="uw" ns0:eventid="10707953">
      <preferredOriginID>quakeml:uw.anss.org/Origin/UW/990208</preferredOriginID>
      <preferredMagnitudeID>quakeml:uw.anss.org/Netmag/UW/774033</preferredMagnitudeID>
      <type>earthquake</type>
      <creationInfo>
        <agencyID>UW</agencyID>
        <creationTime>2012-03-05T19:45:22.000000Z</creationTime>
        <version>3</version>
      </creationInfo>
      <origin publicID="quakeml:uw.anss.org/Origin/UW/990208" ns0:datasource="uw" ns0:dataid="uw10707953" ns0:eventsource="uw" ns0:eventid="10707953">
        <time>
          <value>2006-10-17T04:12:08.220000Z</value>
          <uncertainty>0.16</uncertainty>
        </time>
        <latitude>
          <value>48.7365</value>
          <uncertainty>0.72</uncertainty>
        </latitude>
        <longitude>
          <value>-122.32</value>
          <uncertainty>0.6</uncertainty>
        </longitude>
        <depth>
          <value>14241.0</value>
          <uncertainty>2580.0</uncertainty>
        </depth>
        <depthType>from location</depthType>
        <timeFixed>false</timeFixed>
        <epicenterFixed>false</epicenterFixed>
        <methodID>smi:uw.anss.org/origin/spong</methodID>
        <quality>
          <associatedPhaseCount>10</associatedPhaseCount>
          <usedPhaseCount>10</usedPhaseCount>
          <associatedStationCount>8</associatedStationCount>
          <usedStationCount>0</usedStationCount>
          <standardError>0.2</standardError>
          <azimuthalGap>103.0</azimuthalGap>
        </quality>
        <type>hypocenter</type>
        <evaluationMode>manual</evaluationMode>
        <evaluationStatus>final</evaluationStatus>
        <creationInfo>
          <agencyID>UW</agencyID>
          <creationTime>2012-03-05T19:45:22.000000Z</creationTime>
        </creationInfo>
        <originUncertainty>
          <preferredDescription>horizontal uncertainty</preferredDescription>
          <horizontalUncertainty>937.0</horizontalUncertainty>
        </originUncertainty>
        <arrival publicID="quakeml:uw.anss.org/AssocArO/UW/9199983">
          <pickID>quakeml:uw.anss.org/Arrival/UW/9199983</pickID>
          <phase>P</phase>
          <azimuth>30.5</azimuth>
          <distance>0.3045</distance>
          <timeResidual>0.06</timeResidual>
          <creationInfo>
            <agencyID>UW</agencyID>
            <creationTime>2012-03-05T19:45:22.000000Z</creationTime>
          </creationInfo>
        </arrival>
        <arrival publicID="quakeml:uw.anss.org/AssocArO/UW/9199988">
          <pickID>quakeml:uw.anss.org/Arrival/UW/9199988</pickID>
          <phase>S</phase>
          <azimuth>30.5</azimuth>
          <distance>0.3045</distance>
          <timeResidual>0.22</timeResidual>
          <creationInfo>
            <agencyID>UW</agencyID>
            <creationTime>2012-03-05T19:45:22.000000Z</creationTime>
          </creationInfo>
        </arrival>
        <arrival publicID="quakeml:uw.anss.org/AssocArO/UW/9199993">
          <pickID>quakeml:uw.anss.org/Arrival/UW/9199993</pickID>
          <phase>P</phase>
          <azimuth>266.4</azimuth>
          <distance>0.2568</distance>
          <timeResidual>-0.25</timeResidual>
          <creationInfo>
            <agencyID>UW</agencyID>
            <creationTime>2012-03-05T19:45:22.000000Z</creationTime>
          </creationInfo>
        </arrival>
        <arrival publicID="quakeml:uw.anss.org/AssocArO/UW/9199998">
          <pickID>quakeml:uw.anss.org/Arrival/UW/9199998</pickID>
          <phase>S</phase>
          <azimuth>266.4</azimuth>
          <distance>0.2568</distance>
          <timeResidual>-0.07</timeResidual>
          <creationInfo>
            <agencyID>UW</agencyID>
            <creationTime>2012-03-05T19:45:22.000000Z</creationTime>
          </creationInfo>
        </arrival>
        <arrival publicID="quakeml:uw.anss.org/AssocArO/UW/9200003">
          <pickID>quakeml:uw.anss.org/Arrival/UW/9200003</pickID>
          <phase>P</phase>
          <azimuth>154.2</azimuth>
          <timeResidual>0.46</timeResidual>
          <creationInfo>
            <agencyID>UW</agencyID>
            <creationTime>2012-03-05T19:45:22.000000Z</creationTime>
          </creationInfo>
        </arrival>
        <arrival publicID="quakeml:uw.anss.org/AssocArO/UW/9200008">
          <pickID>quakeml:uw.anss.org/Arrival/UW/9200008</pickID>
          <phase>P</phase>
          <azimuth>296.5</azimuth>
          <distance>0.07118</distance>
          <timeResidual>0.05</timeResidual>
          <creationInfo>
            <agencyID>UW</agencyID>
            <creationTime>2012-03-05T19:45:22.000000Z</creationTime>
          </creationInfo>
        </arrival>
        <arrival publicID="quakeml:uw.anss.org/AssocArO/UW/9200013">
          <pickID>quakeml:uw.anss.org/Arrival/UW/9200013</pickID>
          <phase>P</phase>
          <azimuth>260.6</azimuth>
          <distance>0.3444</distance>
          <timeResidual>0.23</timeResidual>
          <creationInfo>
            <agencyID>UW</agencyID>
            <creationTime>2012-03-05T19:45:22.000000Z</creationTime>
          </creationInfo>
        </arrival>
        <arrival publicID="quakeml:uw.anss.org/AssocArO/UW/9200018">
          <pickID>quakeml:uw.anss.org/Arrival/UW/9200018</pickID>
          <phase>P</phase>
          <azimuth>26.2</azimuth>
          <distance>0.3234</distance>
          <timeResidual>-0.15</timeResidual>
          <creationInfo>
            <agencyID>UW</agencyID>
            <creationTime>2012-03-05T19:45:22.000000Z</creationTime>
          </creationInfo>
        </arrival>
        <arrival publicID="quakeml:uw.anss.org/AssocArO/UW/9200023">
          <pickID>quakeml:uw.anss.org/Arrival/UW/9200023</pickID>
          <phase>P</phase>
          <azimuth>157.0</azimuth>
          <distance>0.3402</distance>
          <timeResidual>-0.15</timeResidual>
          <creationInfo>
            <agencyID>UW</agencyID>
            <creationTime>2012-03-05T19:45:22.000000Z</creationTime>
          </creationInfo>
        </arrival>
        <arrival publicID="quakeml:uw.anss.org/AssocArO/UW/9200028">
          <pickID>quakeml:uw.anss.org/Arrival/UW/9200028</pickID>
          <phase>P</phase>
          <azimuth>80.1</azimuth>
          <distance>0.2813</distance>
          <timeResidual>0.02</timeResidual>
          <creationInfo>
            <agencyID>UW</agencyID>
            <creationTime>2012-03-05T19:45:22.000000Z</creationTime>
          </creationInfo>
        </arrival>
      </origin>
      <magnitude publicID="quakeml:uw.anss.org/Netmag/UW/774033">
        <mag>
          <value>1.4</value>
          <uncertainty>0.1</uncertainty>
        </mag>
        <type>Md</type>
        <originID>quakeml:uw.anss.org/Origin/UW/990208</originID>
        <methodID>smi:uw.anss.org/magnitude/Crosson</methodID>
        <stationCount>4</stationCount>
        <evaluationMode>manual</evaluationMode>
        <evaluationStatus>final</evaluationStatus>
        <stationMagnitudeContribution>
          <stationMagnitudeID>quakeml:uw.anss.org/AssocCoM/UW/2138628</stationMagnitudeID>
          <weight>1.0</weight>
          <residual>0.18</residual>
        </stationMagnitudeContribution>
        <stationMagnitudeContribution>
          <stationMagnitudeID>quakeml:uw.anss.org/AssocCoM/UW/2138618</stationMagnitudeID>
          <weight>1.0</weight>
          <residual>0.08</residual>
        </stationMagnitudeContribution>
        <stationMagnitudeContribution>
          <stationMagnitudeID>quakeml:uw.anss.org/AssocCoM/UW/2138623</stationMagnitudeID>
          <weight>1.0</weight>
          <residual>-0.13</residual>
        </stationMagnitudeContribution>
        <stationMagnitudeContribution>
          <stationMagnitudeID>quakeml:uw.anss.org/AssocCoM/UW/2138633</stationMagnitudeID>
          <weight>1.0</weight>
          <residual>-0.02</residual>
        </stationMagnitudeContribution>
        <creationInfo>
          <agencyID>UW</agencyID>
          <creationTime>2012-03-05T19:45:22.000000Z</creationTime>
        </creationInfo>
      </magnitude>
      <stationMagnitude publicID="quakeml:uw.anss.org/AssocCoM/UW/2138618">
        <originID>quakeml:uw.anss.org/Origin/UW/990208</originID>
        <mag>
          <value>1.48</value>
        </mag>
        <type>MD</type>
        <amplitudeID>quakeml:uw.anss.org/Coda/UW/2138618</amplitudeID>
        <waveformID networkCode="UW" stationCode="JCW" locationCode="" channelCode="EHZ"></waveformID>
      </stationMagnitude>
      <stationMagnitude publicID="quakeml:uw.anss.org/AssocCoM/UW/2138623">
        <originID>quakeml:uw.anss.org/Origin/UW/990208</originID>
        <mag>
          <value>1.27</value>
        </mag>
        <type>MD</type>
        <amplitudeID>quakeml:uw.anss.org/Coda/UW/2138623</amplitudeID>
        <waveformID networkCode="CN" stationCode="VDB" locationCode="" channelCode="EHZ"></waveformID>
      </stationMagnitude>
      <stationMagnitude publicID="quakeml:uw.anss.org/AssocCoM/UW/2138628">
        <originID>quakeml:uw.anss.org/Origin/UW/990208</originID>
        <mag>
          <value>1.58</value>
        </mag>
        <type>MD</type>
        <amplitudeID>quakeml:uw.anss.org/Coda/UW/2138628</amplitudeID>
        <waveformID networkCode="UW" stationCode="CMW" locationCode="" channelCode="EHZ"></waveformID>
      </stationMagnitude>
      <stationMagnitude publicID="quakeml:uw.anss.org/AssocCoM/UW/2138633">
        <originID>quakeml:uw.anss.org/Origin/UW/990208</originID>
        <mag>
          <value>1.38</value>
        </mag>
        <type>MD</type>
        <amplitudeID>quakeml:uw.anss.org/Coda/UW/2138633</amplitudeID>
        <waveformID networkCode="UW" stationCode="MBW" locationCode="" channelCode="EHZ"></waveformID>
      </stationMagnitude>
      <pick publicID="quakeml:uw.anss.org/Arrival/UW/9199983">
        <time>
          <value>2006-10-17T04:12:14.200000Z</value>
          <uncertainty>0.1</uncertainty>
        </time>
        <waveformID networkCode="TA" stationCode="A05A" locationCode="" channelCode="BHZ"></waveformID>
        <polarity>undecidable</polarity>
        <evaluationMode>manual</evaluationMode>
        <evaluationStatus>final</evaluationStatus>
        <creationInfo>
          <agencyID>UW</agencyID>
          <creationTime>2012-03-05T19:45:22.000000Z</creationTime>
        </creationInfo>
      </pick>
      <pick publicID="quakeml:uw.anss.org/Arrival/UW/9199988">
        <time>
          <value>2006-10-17T04:12:18.980000Z</value>
          <uncertainty>0.13</uncertainty>
        </time>
        <waveformID networkCode="TA" stationCode="A05A" locationCode="" channelCode="BHE"></waveformID>
        <polarity>undecidable</polarity>
        <evaluationMode>manual</evaluationMode>
        <evaluationStatus>final</evaluationStatus>
        <creationInfo>
          <agencyID>UW</agencyID>
          <creationTime>2012-03-05T19:45:22.000000Z</creationTime>
        </creationInfo>
      </pick>
      <pick publicID="quakeml:uw.anss.org/Arrival/UW/9199993">
        <time>
          <value>2006-10-17T04:12:13.130000Z</value>
          <uncertainty>0.23</uncertainty>
        </time>
        <waveformID networkCode="TA" stationCode="A04A" locationCode="" channelCode="BHZ"></waveformID>
        <polarity>undecidable</polarity>
        <evaluationMode>manual</evaluationMode>
        <evaluationStatus>final</evaluationStatus>
        <creationInfo>
          <agencyID>UW</agencyID>
          <creationTime>2012-03-05T19:45:22.000000Z</creationTime>
        </creationInfo>
      </pick>
      <pick publicID="quakeml:uw.anss.org/Arrival/UW/9199998">
        <time>
          <value>2006-10-17T04:12:17.330000Z</value>
          <uncertainty>0.15</uncertainty>
        </time>
        <waveformID networkCode="TA" stationCode="A04A" locationCode="" channelCode="BHN"></waveformID>
        <polarity>undecidable</polarity>
        <evaluationMode>manual</evaluationMode>
        <evaluationStatus>final</evaluationStatus>
        <creationInfo>
          <agencyID>UW</agencyID>
          <creationTime>2012-03-05T19:45:22.000000Z</creationTime>
        </creationInfo>
      </pick>
      <pick publicID="quakeml:uw.anss.org/Arrival/UW/9200003">
        <time>
          <value>2006-10-17T04:12:19.440000Z</value>
          <uncertainty>0.14</uncertainty>
        </time>
        <waveformID networkCode="UW" stationCode="JCW" locationCode="" channelCode="EHZ"></waveformID>
        <polarity>undecidable</polarity>
        <evaluationMode>manual</evaluationMode>
        <evaluationStatus>final</evaluationStatus>
        <creationInfo>
          <agencyID>UW</agencyID>
          <creationTime>2012-03-05T19:45:22.000000Z</creationTime>
        </creationInfo>
      </pick>
      <pick publicID="quakeml:uw.anss.org/Arrival/UW/9200008">
        <time>
          <value>2006-10-17T04:12:10.430000Z</value>
          <uncertainty>0.06</uncertainty>
        </time>
        <waveformID networkCode="UW" stationCode="SBES" locationCode="" channelCode="ENZ"></waveformID>
        <polarity>undecidable</polarity>
        <evaluationMode>manual</evaluationMode>
        <evaluationStatus>final</evaluationStatus>
        <creationInfo>
          <agencyID>UW</agencyID>
          <creationTime>2012-03-05T19:45:22.000000Z</creationTime>
        </creationInfo>
      </pick>
      <pick publicID="quakeml:uw.anss.org/Arrival/UW/9200013">
        <time>
          <value>2006-10-17T04:12:14.940000Z</value>
          <uncertainty>0.08</uncertainty>
        </time>
        <waveformID networkCode="UW" stationCode="MCW" locationCode="" channelCode="EHZ"></waveformID>
        <polarity>undecidable</polarity>
        <evaluationMode>manual</evaluationMode>
        <evaluationStatus>final</evaluationStatus>
        <creationInfo>
          <agencyID>UW</agencyID>
          <creationTime>2012-03-05T19:45:22.000000Z</creationTime>
        </creationInfo>
      </pick>
      <pick publicID="quakeml:uw.anss.org/Arrival/UW/9200018">
        <time>
          <value>2006-10-17T04:12:14.290000Z</value>
          <uncertainty>0.04</uncertainty>
        </time>
        <waveformID networkCode="CN" stationCode="VDB" locationCode="" channelCode="EHZ"></waveformID>
        <polarity>negative</polarity>
        <evaluationMode>manual</evaluationMode>
        <evaluationStatus>final</evaluationStatus>
        <creationInfo>
          <agencyID>UW</agencyID>
          <creationTime>2012-03-05T19:45:22.000000Z</creationTime>
        </creationInfo>
      </pick>
      <pick publicID="quakeml:uw.anss.org/Arrival/UW/9200023">
        <time>
          <value>2006-10-17T04:12:14.860000Z</value>
          <uncertainty>0.05</uncertainty>
        </time>
        <waveformID networkCode="UW" stationCode="CMW" locationCode="" channelCode="EHZ"></waveformID>
        <polarity>negative</polarity>
        <evaluationMode>manual</evaluationMode>
        <evaluationStatus>final</evaluationStatus>
        <creationInfo>
          <agencyID>UW</agencyID>
          <creationTime>2012-03-05T19:45:22.000000Z</creationTime>
        </creationInfo>
      </pick>
      <pick publicID="quakeml:uw.anss.org/Arrival/UW/9200028">
        <time>
          <value>2006-10-17T04:12:14.110000Z</value>
          <uncertainty>0.07</uncertainty>
        </time>
        <waveformID networkCode="UW" stationCode="MBW" locationCode="" channelCode="EHZ"></waveformID>
        <polarity>undecidable</polarity>
        <evaluationMode>manual</evaluationMode>
        <evaluationStatus>final</evaluationStatus>
        <creationInfo>
          <agencyID>UW</agencyID>
          <creationTime>2012-03-05T19:45:22.000000Z</creationTime>
        </creationInfo>
      </pick>
      <amplitude publicID="quakeml:uw.anss.org/Coda/UW/2138623">
        <genericAmplitude>
          <value>21.0</value>
        </genericAmplitude>
        <type>END</type>
        <category>duration</category>
        <unit>s</unit>
        <waveformID networkCode="CN" stationCode="VDB" locationCode="" channelCode="EHZ"></waveformID>
        <magnitudeHint>MD</magnitudeHint>
        <evaluationMode>manual</evaluationMode>
        <evaluationStatus>final</evaluationStatus>
      </amplitude>
      <amplitude publicID="quakeml:uw.anss.org/Coda/UW/2138628">
        <genericAmplitude>
          <value>27.0</value>
        </genericAmplitude>
        <type>END</type>
        <category>duration</category>
        <unit>s</unit>
        <waveformID networkCode="UW" stationCode="CMW" locationCode="" channelCode="EHZ"></waveformID>
        <magnitudeHint>MD</magnitudeHint>
        <evaluationMode>manual</evaluationMode>
        <evaluationStatus>final</evaluationStatus>
      </amplitude>
      <amplitude publicID="quakeml:uw.anss.org/Coda/UW/2138618">
        <genericAmplitude>
          <value>25.0</value>
        </genericAmplitude>
        <type>END</type>
        <category>duration</category>
        <unit>s</unit>
        <waveformID networkCode="UW" stationCode="JCW" locationCode="" channelCode="EHZ"></waveformID>
        <magnitudeHint>MD</magnitudeHint>
        <evaluationMode>manual</evaluationMode>
        <evaluationStatus>final</evaluationStatus>
      </amplitude>
      <amplitude publicID="quakeml:uw.anss.org/Coda/UW/2138633">
        <genericAmplitude>
          <value>23.0</value>
        </genericAmplitude>
        <type>END</type>
        <category>duration</category>
        <unit>s</unit>
        <waveformID networkCode="UW" stationCode="MBW" locationCode="" channelCode="EHZ"></waveformID>
        <magnitudeHint>MD</magnitudeHint>
        <evaluationMode>manual</evaluationMode>
        <evaluationStatus>final</evaluationStatus>
      </amplitude>
    </event>
  </eventParameters>
</q:quakeml>
