<?xml version='1.0' encoding='utf-8'?>
<q:quakeml xmlns="http://quakeml.org/xmlns/bed/1.2" xmlns:q="http://quakeml.org/xmlns/quakeml/1.2" xmlns:ns0="http://anss.org/xmlns/catalog/0.1">
  <eventParameters publicID="smi:local/4b0791b9-f543-4628-a0e0-d83ff2f83799">
    <event publicID="quakeml:uw.anss.org/Event/UW/10690463" ns0:datasource="uw" ns0:dataid="uw10690463" ns0:eventsource="uw" ns0:eventid="10690463">
      <preferredOriginID>quakeml:uw.anss.org/Origin/UW/972718</preferredOriginID>
      <preferredMagnitudeID>quakeml:uw.anss.org/Netmag/UW/760763</preferredMagnitudeID>
      <type>earthquake</type>
      <creationInfo>
        <agencyID>UW</agencyID>
        <creationTime>2012-03-05T18:40:07.000000Z</creationTime>
        <version>3</version>
      </creationInfo>
      <origin publicID="quakeml:uw.anss.org/Origin/UW/972718" ns0:datasource="uw" ns0:dataid="uw10690463" ns0:eventsource="uw" ns0:eventid="10690463">
        <time>
          <value>2006-01-26T03:53:18.080000Z</value>
          <uncertainty>0.18</uncertainty>
        </time>
        <latitude>
          <value>48.8213333</value>
          <uncertainty>0.91</uncertainty>
        </latitude>
        <longitude>
          <value>-122.1625</value>
          <uncertainty>0.95</uncertainty>
        </longitude>
        <depth>
          <value>-310.0</value>
          <uncertainty>2790.0</uncertainty>
        </depth>
        <depthType>from location</depthType>
        <timeFixed>false</timeFixed>
        <epicenterFixed>false</epicenterFixed>
        <methodID>smi:uw.anss.org/origin/spong</methodID>
        <quality>
          <associatedPhaseCount>35</associatedPhaseCount>
          <usedPhaseCount>23</usedPhaseCount>
          <associatedStationCount>34</associatedStationCount>
          <usedStationCount>0</usedStationCount>
          <standardError>0.49</standardError>
          <azimuthalGap>104.0</azimuthalGap>
        </quality>
        <type>hypocenter</type>
        <evaluationMode>manual</evaluationMode>
        <evaluationStatus>final</evaluationStatus>
        <creationInfo>
          <agencyID>UW</agencyID>
          <creationTime>2012-03-05T18:40:07.000000Z</creationTime>
        </creationInfo>
        <originUncertainty>
          <preferredDescription>horizontal uncertainty</preferredDescription>
          <horizontalUncertainty>1316.0</horizontalUncertainty>
        </originUncertainty>
        <arrival publicID="quakeml:uw.anss.org/AssocArO/UW/9001603">
          <pickID>quakeml:uw.anss.org/Arrival/UW/9001603</pickID>
          <phase>P</phase>
          <azimuth>121.2</azimuth>
          <distance>1.427</distance>
          <timeResidual>0.91</timeResidual>
          <creationInfo>
            <agencyID>UW</agencyID>
            <creationTime>2012-03-05T18:40:07.000000Z</creationTime>
          </creationInfo>
        </arrival>
        <arrival publicID="quakeml:uw.anss.org/AssocArO/UW/9001608">
          <pickID>quakeml:uw.anss.org/Arrival/UW/9001608</pickID>
          <phase>P</phase>
          <azimuth>182.4</azimuth>
          <distance>1.783</distance>
          <timeResidual>0.6</timeResidual>
          <creationInfo>
            <agencyID>UW</agencyID>
            <creationTime>2012-03-05T18:40:07.000000Z</creationTime>
          </creationInfo>
        </arrival>
        <arrival publicID="quakeml:uw.anss.org/AssocArO/UW/9001613">
          <pickID>quakeml:uw.anss.org/Arrival/UW/9001613</pickID>
          <phase>P</phase>
          <azimuth>134.3</azimuth>
          <distance>1.726</distance>
          <timeResidual>1.2</timeResidual>
          <creationInfo>
            <agencyID>UW</agencyID>
            <creationTime>2012-03-05T18:40:07.000000Z</creationTime>
          </creationInfo>
        </arrival>
        <arrival publicID="quakeml:uw.anss.org/AssocArO/UW/9001618">
          <pickID>quakeml:uw.anss.org/Arrival/UW/9001618</pickID>
          <phase>P</phase>
          <azimuth>210.5</azimuth>
          <timeResidual>0.62</timeResidual>
          <creationInfo>
            <agencyID>UW</agencyID>
            <creationTime>2012-03-05T18:40:07.000000Z</creationTime>
          </creationInfo>
        </arrival>
        <arrival publicID="quakeml:uw.anss.org/AssocArO/UW/9001623">
          <pickID>quakeml:uw.anss.org/Arrival/UW/9001623</pickID>
          <phase>P</phase>
          <azimuth>252.4</azimuth>
          <distance>0.1761</distance>
          <timeResidual>0.18</timeResidual>
          <creationInfo>
            <agencyID>UW</agencyID>
            <creationTime>2012-03-05T18:40:07.000000Z</creationTime>
          </creationInfo>
        </arrival>
        <arrival publicID="quakeml:uw.anss.org/AssocArO/UW/9001628">
          <pickID>quakeml:uw.anss.org/Arrival/UW/9001628</pickID>
          <phase>P</phase>
          <distance>0.2087</distance>
          <timeResidual>-0.28</timeResidual>
          <creationInfo>
            <agencyID>UW</agencyID>
            <creationTime>2012-03-05T18:40:07.000000Z</creationTime>
          </creationInfo>
        </arrival>
        <arrival publicID="quakeml:uw.anss.org/AssocArO/UW/9001633">
          <pickID>quakeml:uw.anss.org/Arrival/UW/9001633</pickID>
          <phase>S</phase>
          <distance>0.2087</distance>
          <timeResidual>0.25</timeResidual>
          <creationInfo>
            <agencyID>UW</agencyID>
            <creationTime>2012-03-05T18:40:07.000000Z</creationTime>
          </creationInfo>
        </arrival>
        <arrival publicID="quakeml:uw.anss.org/AssocArO/UW/9001638">
          <pickID>quakeml:uw.anss.org/Arrival/UW/9001638</pickID>
          <phase>P</phase>
          <azimuth>129.6</azimuth>
          <distance>2.26</distance>
          <timeResidual>2.34</timeResidual>
          <creationInfo>
            <agencyID>UW</agencyID>
            <creationTime>2012-03-05T18:40:07.000000Z</creationTime>
          </creationInfo>
        </arrival>
        <arrival publicID="quakeml:uw.anss.org/AssocArO/UW/9001643">
          <pickID>quakeml:uw.anss.org/Arrival/UW/9001643</pickID>
          <phase>P</phase>
          <azimuth>176.0</azimuth>
          <distance>0.3991</distance>
          <timeResidual>-0.4</timeResidual>
          <creationInfo>
            <agencyID>UW</agencyID>
            <creationTime>2012-03-05T18:40:07.000000Z</creationTime>
          </creationInfo>
        </arrival>
        <arrival publicID="quakeml:uw.anss.org/AssocArO/UW/9001648">
          <pickID>quakeml:uw.anss.org/Arrival/UW/9001648</pickID>
          <phase>P</phase>
          <azimuth>126.6</azimuth>
          <distance>1.854</distance>
          <timeResidual>1.37</timeResidual>
          <creationInfo>
            <agencyID>UW</agencyID>
            <creationTime>2012-03-05T18:40:07.000000Z</creationTime>
          </creationInfo>
        </arrival>
        <arrival publicID="quakeml:uw.anss.org/AssocArO/UW/9001653">
          <pickID>quakeml:uw.anss.org/Arrival/UW/9001653</pickID>
          <phase>P</phase>
          <azimuth>170.0</azimuth>
          <distance>1.383</distance>
          <timeResidual>0.59</timeResidual>
          <creationInfo>
            <agencyID>UW</agencyID>
            <creationTime>2012-03-05T18:40:07.000000Z</creationTime>
          </creationInfo>
        </arrival>
        <arrival publicID="quakeml:uw.anss.org/AssocArO/UW/9001658">
          <pickID>quakeml:uw.anss.org/Arrival/UW/9001658</pickID>
          <phase>P</phase>
          <azimuth>130.8</azimuth>
          <distance>0.5693</distance>
          <timeResidual>-0.15</timeResidual>
          <creationInfo>
            <agencyID>UW</agencyID>
            <creationTime>2012-03-05T18:40:07.000000Z</creationTime>
          </creationInfo>
        </arrival>
        <arrival publicID="quakeml:uw.anss.org/AssocArO/UW/9001663">
          <pickID>quakeml:uw.anss.org/Arrival/UW/9001663</pickID>
          <phase>P</phase>
          <azimuth>102.2</azimuth>
          <distance>0.177</distance>
          <timeResidual>-0.11</timeResidual>
          <creationInfo>
            <agencyID>UW</agencyID>
            <creationTime>2012-03-05T18:40:07.000000Z</creationTime>
          </creationInfo>
        </arrival>
        <arrival publicID="quakeml:uw.anss.org/AssocArO/UW/9001668">
          <pickID>quakeml:uw.anss.org/Arrival/UW/9001668</pickID>
          <phase>P</phase>
          <azimuth>120.3</azimuth>
          <distance>2.158</distance>
          <timeResidual>2.72</timeResidual>
          <creationInfo>
            <agencyID>UW</agencyID>
            <creationTime>2012-03-05T18:40:07.000000Z</creationTime>
          </creationInfo>
        </arrival>
        <arrival publicID="quakeml:uw.anss.org/AssocArO/UW/9001673">
          <pickID>quakeml:uw.anss.org/Arrival/UW/9001673</pickID>
          <phase>P</phase>
          <azimuth>254.4</azimuth>
          <distance>0.3743</distance>
          <timeResidual>-0.25</timeResidual>
          <creationInfo>
            <agencyID>UW</agencyID>
            <creationTime>2012-03-05T18:40:07.000000Z</creationTime>
          </creationInfo>
        </arrival>
        <arrival publicID="quakeml:uw.anss.org/AssocArO/UW/9001678">
          <pickID>quakeml:uw.anss.org/Arrival/UW/9001678</pickID>
          <phase>P</phase>
          <azimuth>165.9</azimuth>
          <timeResidual>0.21</timeResidual>
          <creationInfo>
            <agencyID>UW</agencyID>
            <creationTime>2012-03-05T18:40:07.000000Z</creationTime>
          </creationInfo>
        </arrival>
        <arrival publicID="quakeml:uw.anss.org/AssocArO/UW/9001683">
          <pickID>quakeml:uw.anss.org/Arrival/UW/9001683</pickID>
          <phase>P</phase>
          <azimuth>150.2</azimuth>
          <distance>2.194</distance>
          <timeResidual>1.18</timeResidual>
          <creationInfo>
            <agencyID>UW</agencyID>
            <creationTime>2012-03-05T18:40:07.000000Z</creationTime>
          </creationInfo>
        </arrival>
        <arrival publicID="quakeml:uw.anss.org/AssocArO/UW/9001688">
          <pickID>quakeml:uw.anss.org/Arrival/UW/9001688</pickID>
          <phase>P</phase>
          <azimuth>229.9</azimuth>
          <distance>1.176</distance>
          <timeResidual>-0.28</timeResidual>
          <creationInfo>
            <agencyID>UW</agencyID>
            <creationTime>2012-03-05T18:40:07.000000Z</creationTime>
          </creationInfo>
        </arrival>
        <arrival publicID="quakeml:uw.anss.org/AssocArO/UW/9001693">
          <pickID>quakeml:uw.anss.org/Arrival/UW/9001693</pickID>
          <phase>P</phase>
          <azimuth>169.9</azimuth>
          <timeResidual>0.37</timeResidual>
          <creationInfo>
            <agencyID>UW</agencyID>
            <creationTime>2012-03-05T18:40:07.000000Z</creationTime>
          </creationInfo>
        </arrival>
        <arrival publicID="quakeml:uw.anss.org/AssocArO/UW/9001698">
          <pickID>quakeml:uw.anss.org/Arrival/UW/9001698</pickID>
          <phase>P</phase>
          <azimuth>146.9</azimuth>
          <distance>1.862</distance>
          <timeResidual>1.13</timeResidual>
          <creationInfo>
            <agencyID>UW</agencyID>
            <creationTime>2012-03-05T18:40:07.000000Z</creationTime>
          </creationInfo>
        </arrival>
        <arrival publicID="quakeml:uw.anss.org/AssocArO/UW/9001703">
          <pickID>quakeml:uw.anss.org/Arrival/UW/9001703</pickID>
          <phase>P</phase>
          <azimuth>138.1</azimuth>
          <distance>1.289</distance>
          <timeResidual>0.15</timeResidual>
          <creationInfo>
            <agencyID>UW</agencyID>
            <creationTime>2012-03-05T18:40:07.000000Z</creationTime>
          </creationInfo>
        </arrival>
        <arrival publicID="quakeml:uw.anss.org/AssocArO/UW/9001708">
          <pickID>quakeml:uw.anss.org/Arrival/UW/9001708</pickID>
          <phase>P</phase>
          <azimuth>236.7</azimuth>
          <timeResidual>-0.19</timeResidual>
          <creationInfo>
            <agencyID>UW</agencyID>
            <creationTime>2012-03-05T18:40:07.000000Z</creationTime>
          </creationInfo>
        </arrival>
        <arrival publicID="quakeml:uw.anss.org/AssocArO/UW/9001713">
          <pickID>quakeml:uw.anss.org/Arrival/UW/9001713</pickID>
          <phase>P</phase>
          <azimuth>135.6</azimuth>
          <distance>0.9801</distance>
          <timeResidual>0.21</timeResidual>
          <creationInfo>
            <agencyID>UW</agencyID>
            <creationTime>2012-03-05T18:40:07.000000Z</creationTime>
          </creationInfo>
        </arrival>
        <arrival publicID="quakeml:uw.anss.org/AssocArO/UW/9001718">
          <pickID>quakeml:uw.anss.org/Arrival/UW/9001718</pickID>
          <phase>P</phase>
          <azimuth>171.6</azimuth>
          <timeResidual>1.01</timeResidual>
          <creationInfo>
            <agencyID>UW</agencyID>
            <creationTime>2012-03-05T18:40:07.000000Z</creationTime>
          </creationInfo>
        </arrival>
        <arrival publicID="quakeml:uw.anss.org/AssocArO/UW/9001723">
          <pickID>quakeml:uw.anss.org/Arrival/UW/9001723</pickID>
          <phase>P</phase>
          <azimuth>266.4</azimuth>
          <distance>0.6693</distance>
          <timeResidual>-0.02</timeResidual>
          <creationInfo>
            <agencyID>UW</agencyID>
            <creationTime>2012-03-05T18:40:07.000000Z</creationTime>
          </creationInfo>
        </arrival>
        <arrival publicID="quakeml:uw.anss.org/AssocArO/UW/9001728">
          <pickID>quakeml:uw.anss.org/Arrival/UW/9001728</pickID>
          <phase>P</phase>
          <azimuth>72.5</azimuth>
          <distance>1.742</distance>
          <timeResidual>1.8</timeResidual>
          <creationInfo>
            <agencyID>UW</agencyID>
            <creationTime>2012-03-05T18:40:07.000000Z</creationTime>
          </creationInfo>
        </arrival>
        <arrival publicID="quakeml:uw.anss.org/AssocArO/UW/9001733">
          <pickID>quakeml:uw.anss.org/Arrival/UW/9001733</pickID>
          <phase>P</phase>
          <azimuth>182.4</azimuth>
          <distance>2.157</distance>
          <timeResidual>0.54</timeResidual>
          <creationInfo>
            <agencyID>UW</agencyID>
            <creationTime>2012-03-05T18:40:07.000000Z</creationTime>
          </creationInfo>
        </arrival>
        <arrival publicID="quakeml:uw.anss.org/AssocArO/UW/9001738">
          <pickID>quakeml:uw.anss.org/Arrival/UW/9001738</pickID>
          <phase>P</phase>
          <azimuth>165.4</azimuth>
          <distance>1.052</distance>
          <timeResidual>0.72</timeResidual>
          <creationInfo>
            <agencyID>UW</agencyID>
            <creationTime>2012-03-05T18:40:07.000000Z</creationTime>
          </creationInfo>
        </arrival>
        <arrival publicID="quakeml:uw.anss.org/AssocArO/UW/9001743">
          <pickID>quakeml:uw.anss.org/Arrival/UW/9001743</pickID>
          <phase>P</phase>
          <azimuth>125.0</azimuth>
          <distance>1.743</distance>
          <timeResidual>1.16</timeResidual>
          <creationInfo>
            <agencyID>UW</agencyID>
            <creationTime>2012-03-05T18:40:07.000000Z</creationTime>
          </creationInfo>
        </arrival>
        <arrival publicID="quakeml:uw.anss.org/AssocArO/UW/9001748">
          <pickID>quakeml:uw.anss.org/Arrival/UW/9001748</pickID>
          <phase>P</phase>
          <azimuth>213.8</azimuth>
          <distance>0.9778</distance>
          <timeResidual>0.67</timeResidual>
          <creationInfo>
            <agencyID>UW</agencyID>
            <creationTime>2012-03-05T18:40:07.000000Z</creationTime>
          </creationInfo>
        </arrival>
        <arrival publicID="quakeml:uw.anss.org/AssocArO/UW/9001753">
          <pickID>quakeml:uw.anss.org/Arrival/UW/9001753</pickID>
          <phase>P</phase>
          <azimuth>147.1</azimuth>
          <distance>1.958</distance>
          <timeResidual>0.75</timeResidual>
          <creationInfo>
            <agencyID>UW</agencyID>
            <creationTime>2012-03-05T18:40:07.000000Z</creationTime>
          </creationInfo>
        </arrival>
        <arrival publicID="quakeml:uw.anss.org/AssocArO/UW/9001758">
          <pickID>quakeml:uw.anss.org/Arrival/UW/9001758</pickID>
          <phase>P</phase>
          <azimuth>218.5</azimuth>
          <distance>0.9526</distance>
          <timeResidual>0.74</timeResidual>
          <creationInfo>
            <agencyID>UW</agencyID>
            <creationTime>2012-03-05T18:40:07.000000Z</creationTime>
          </creationInfo>
        </arrival>
        <arrival publicID="quakeml:uw.anss.org/AssocArO/UW/9001763">
          <pickID>quakeml:uw.anss.org/Arrival/UW/9001763</pickID>
          <phase>P</phase>
          <azimuth>229.5</azimuth>
          <distance>1.102</distance>
          <timeResidual>0.32</timeResidual>
          <creationInfo>
            <agencyID>UW</agencyID>
            <creationTime>2012-03-05T18:40:07.000000Z</creationTime>
          </creationInfo>
        </arrival>
        <arrival publicID="quakeml:uw.anss.org/AssocArO/UW/9001768">
          <pickID>quakeml:uw.anss.org/Arrival/UW/9001768</pickID>
          <phase>P</phase>
          <azimuth>252.4</azimuth>
          <distance>0.4658</distance>
          <timeResidual>-0.08</timeResidual>
          <creationInfo>
            <agencyID>UW</agencyID>
            <creationTime>2012-03-05T18:40:07.000000Z</creationTime>
          </creationInfo>
        </arrival>
        <arrival publicID="quakeml:uw.anss.org/AssocArO/UW/9001773">
          <pickID>quakeml:uw.anss.org/Arrival/UW/9001773</pickID>
          <phase>P</phase>
          <azimuth>175.0</azimuth>
          <distance>0.9898</distance>
          <timeResidual>0.81</timeResidual>
          <creationInfo>
            <agencyID>UW</agencyID>
            <creationTime>2012-03-05T18:40:07.000000Z</creationTime>
          </creationInfo>
        </arrival>
      </origin>
      <magnitude publicID="quakeml:uw.anss.org/Netmag/UW/760763">
        <mag>
          <value>2.4</value>
          <uncertainty>0.04</uncertainty>
        </mag>
        <type>Md</type>
        <originID>quakeml:uw.anss.org/Origin/UW/972718</originID>
        <methodID>smi:uw.anss.org/magnitude/Crosson</methodID>
        <stationCount>6</stationCount>
        <evaluationMode>manual</evaluationMode>
        <evaluationStatus>final</evaluationStatus>
        <stationMagnitudeContribution>
          <stationMagnitudeID>quakeml:uw.anss.org/AssocCoM/UW/2101913</stationMagnitudeID>
          <weight>1.0</weight>
          <residual>0.19</residual>
        </stationMagnitudeContribution>
        <stationMagnitudeContribution>
          <stationMagnitudeID>quakeml:uw.anss.org/AssocCoM/UW/2101918</stationMagnitudeID>
          <weight>1.0</weight>
          <residual>0.05</residual>
        </stationMagnitudeContribution>
        <stationMagnitudeContribution>
          <stationMagnitudeID>quakeml:uw.anss.org/AssocCoM/UW/2101898</stationMagnitudeID>
          <weight>1.0</weight>
          <residual>-0.69</residual>
        </stationMagnitudeContribution>
        <stationMagnitudeContribution>
          <stationMagnitudeID>quakeml:uw.anss.org/AssocCoM/UW/2101903</stationMagnitudeID>
          <weight>1.0</weight>
          <residual>0.33</residual>
        </stationMagnitudeContribution>
        <stationMagnitudeContribution>
          <stationMagnitudeID>quakeml:uw.anss.org/AssocCoM/UW/2101923</stationMagnitudeID>
          <weight>1.0</weight>
          <residual>0.0</residual>
        </stationMagnitudeContribution>
        <stationMagnitudeContribution>
          <stationMagnitudeID>quakeml:uw.anss.org/AssocCoM/UW/2101908</stationMagnitudeID>
          <weight>1.0</weight>
          <residual>-0.23</residual>
        </stationMagnitudeContribution>
        <creationInfo>
          <agencyID>UW</agencyID>
