<?xml version='1.0' encoding='utf-8'?>
<q:quakeml xmlns="http://quakeml.org/xmlns/bed/1.2" xmlns:q="http://quakeml.org/xmlns/quakeml/1.2" xmlns:ns0="http://anss.org/xmlns/catalog/0.1">
  <eventParameters publicID="smi:local/e053d60a-4bd3-463c-88fb-b9aebfc1724c">
    <event publicID="quakeml:uw.anss.org/Event/UW/10691983" ns0:datasource="uw" ns0:dataid="uw10691983" ns0:eventsource="uw" ns0:eventid="10691983">
      <preferredOriginID>quakeml:uw.anss.org/Origin/UW/974238</preferredOriginID>
      <preferredMagnitudeID>quakeml:uw.anss.org/Netmag/UW/761853</preferredMagnitudeID>
      <type>earthquake</type>
      <creationInfo>
        <agencyID>UW</agencyID>
        <creationTime>2012-03-05T18:46:06.000000Z</creationTime>
        <version>3</version>
      </creationInfo>
      <origin publicID="quakeml:uw.anss.org/Origin/UW/974238" ns0:datasource="uw" ns0:dataid="uw10691983" ns0:eventsource="uw" ns0:eventid="10691983">
        <time>
          <value>2006-06-07T11:45:03.980000Z</value>
          <uncertainty>0.01</uncertainty>
        </time>
        <latitude>
          <value>48.522</value>
          <uncertainty>0.01</uncertainty>
        </latitude>
        <longitude>
          <value>-122.0738333</value>
          <uncertainty>0.01</uncertainty>
        </longitude>
        <depth>
          <value>-610.0</value>
          <uncertainty>60.0</uncertainty>
        </depth>
        <depthType>operator assigned</depthType>
        <timeFixed>false</timeFixed>
        <epicenterFixed>false</epicenterFixed>
        <methodID>smi:uw.anss.org/origin/spong</methodID>
        <quality>
          <associatedPhaseCount>44</associatedPhaseCount>
          <usedPhaseCount>31</usedPhaseCount>
          <associatedStationCount>35</associatedStationCount>
          <usedStationCount>0</usedStationCount>
          <standardError>0.23</standardError>
          <azimuthalGap>77.0</azimuthalGap>
        </quality>
        <type>hypocenter</type>
        <evaluationMode>manual</evaluationMode>
        <evaluationStatus>final</evaluationStatus>
        <creationInfo>
          <agencyID>UW</agencyID>
          <creationTime>2012-03-05T18:46:06.000000Z</creationTime>
        </creationInfo>
        <originUncertainty>
          <preferredDescription>horizontal uncertainty</preferredDescription>
          <horizontalUncertainty>14.0</horizontalUncertainty>
        </originUncertainty>
        <arrival publicID="quakeml:uw.anss.org/AssocArO/UW/9016598">
          <pickID>quakeml:uw.anss.org/Arrival/UW/9016598</pickID>
          <phase>P</phase>
          <azimuth>183.3</azimuth>
          <distance>0.2585</distance>
          <timeResidual>-0.32</timeResidual>
          <creationInfo>
            <agencyID>UW</agencyID>
            <creationTime>2012-03-05T18:46:06.000000Z</creationTime>
          </creationInfo>
        </arrival>
        <arrival publicID="quakeml:uw.anss.org/AssocArO/UW/9016603">
          <pickID>quakeml:uw.anss.org/Arrival/UW/9016603</pickID>
          <phase>S</phase>
          <azimuth>183.3</azimuth>
          <distance>0.2585</distance>
          <timeResidual>0.41</timeResidual>
          <creationInfo>
            <agencyID>UW</agencyID>
            <creationTime>2012-03-05T18:46:06.000000Z</creationTime>
          </creationInfo>
        </arrival>
        <arrival publicID="quakeml:uw.anss.org/AssocArO/UW/9016608">
          <pickID>quakeml:uw.anss.org/Arrival/UW/9016608</pickID>
          <phase>P</phase>
          <azimuth>359.1</azimuth>
          <distance>0.4768</distance>
          <timeResidual>0.16</timeResidual>
          <creationInfo>
            <agencyID>UW</agencyID>
            <creationTime>2012-03-05T18:46:06.000000Z</creationTime>
          </creationInfo>
        </arrival>
        <arrival publicID="quakeml:uw.anss.org/AssocArO/UW/9016613">
          <pickID>quakeml:uw.anss.org/Arrival/UW/9016613</pickID>
          <phase>P</phase>
          <azimuth>110.8</azimuth>
          <distance>1.242</distance>
          <timeResidual>0.32</timeResidual>
          <creationInfo>
            <agencyID>UW</agencyID>
            <creationTime>2012-03-05T18:46:06.000000Z</creationTime>
          </creationInfo>
        </arrival>
        <arrival publicID="quakeml:uw.anss.org/AssocArO/UW/9016618">
          <pickID>quakeml:uw.anss.org/Arrival/UW/9016618</pickID>
          <phase>P</phase>
          <azimuth>154.3</azimuth>
          <distance>1.979</distance>
          <timeResidual>0.52</timeResidual>
          <creationInfo>
            <agencyID>UW</agencyID>
            <creationTime>2012-03-05T18:46:06.000000Z</creationTime>
          </creationInfo>
        </arrival>
        <arrival publicID="quakeml:uw.anss.org/AssocArO/UW/9016623">
          <pickID>quakeml:uw.anss.org/Arrival/UW/9016623</pickID>
          <phase>P</phase>
          <azimuth>317.5</azimuth>
          <distance>0.3351</distance>
          <timeResidual>0.96</timeResidual>
          <creationInfo>
            <agencyID>UW</agencyID>
            <creationTime>2012-03-05T18:46:06.000000Z</creationTime>
          </creationInfo>
        </arrival>
        <arrival publicID="quakeml:uw.anss.org/AssocArO/UW/9016628">
          <pickID>quakeml:uw.anss.org/Arrival/UW/9016628</pickID>
          <phase>S</phase>
          <azimuth>317.5</azimuth>
          <distance>0.3351</distance>
          <timeResidual>1.93</timeResidual>
          <creationInfo>
            <agencyID>UW</agencyID>
            <creationTime>2012-03-05T18:46:06.000000Z</creationTime>
          </creationInfo>
        </arrival>
        <arrival publicID="quakeml:uw.anss.org/AssocArO/UW/9016633">
          <pickID>quakeml:uw.anss.org/Arrival/UW/9016633</pickID>
          <phase>P</phase>
          <azimuth>197.4</azimuth>
          <distance>0.1033</distance>
          <timeResidual>0.15</timeResidual>
          <creationInfo>
            <agencyID>UW</agencyID>
            <creationTime>2012-03-05T18:46:06.000000Z</creationTime>
          </creationInfo>
        </arrival>
        <arrival publicID="quakeml:uw.anss.org/AssocArO/UW/9016638">
          <pickID>quakeml:uw.anss.org/Arrival/UW/9016638</pickID>
          <phase>P</phase>
          <azimuth>357.8</azimuth>
          <distance>0.5049</distance>
          <timeResidual>-0.03</timeResidual>
          <creationInfo>
            <agencyID>UW</agencyID>
            <creationTime>2012-03-05T18:46:06.000000Z</creationTime>
          </creationInfo>
        </arrival>
        <arrival publicID="quakeml:uw.anss.org/AssocArO/UW/9016643">
          <pickID>quakeml:uw.anss.org/Arrival/UW/9016643</pickID>
          <phase>P</phase>
          <azimuth>217.0</azimuth>
          <distance>1.005</distance>
          <timeResidual>-0.3</timeResidual>
          <creationInfo>
            <agencyID>UW</agencyID>
            <creationTime>2012-03-05T18:46:06.000000Z</creationTime>
          </creationInfo>
        </arrival>
        <arrival publicID="quakeml:uw.anss.org/AssocArO/UW/9016648">
          <pickID>quakeml:uw.anss.org/Arrival/UW/9016648</pickID>
          <phase>S</phase>
          <azimuth>217.0</azimuth>
          <distance>1.005</distance>
          <timeResidual>-0.93</timeResidual>
          <creationInfo>
            <agencyID>UW</agencyID>
            <creationTime>2012-03-05T18:46:06.000000Z</creationTime>
          </creationInfo>
        </arrival>
        <arrival publicID="quakeml:uw.anss.org/AssocArO/UW/9016653">
          <pickID>quakeml:uw.anss.org/Arrival/UW/9016653</pickID>
          <phase>P</phase>
          <azimuth>217.3</azimuth>
          <distance>1.094</distance>
          <timeResidual>-0.3</timeResidual>
          <creationInfo>
            <agencyID>UW</agencyID>
            <creationTime>2012-03-05T18:46:06.000000Z</creationTime>
          </creationInfo>
        </arrival>
        <arrival publicID="quakeml:uw.anss.org/AssocArO/UW/9016658">
          <pickID>quakeml:uw.anss.org/Arrival/UW/9016658</pickID>
          <phase>S</phase>
          <azimuth>217.3</azimuth>
          <distance>1.094</distance>
          <timeResidual>-0.73</timeResidual>
          <creationInfo>
            <agencyID>UW</agencyID>
            <creationTime>2012-03-05T18:46:06.000000Z</creationTime>
          </creationInfo>
        </arrival>
        <arrival publicID="quakeml:uw.anss.org/AssocArO/UW/9016663">
          <pickID>quakeml:uw.anss.org/Arrival/UW/9016663</pickID>
          <phase>P</phase>
          <azimuth>171.8</azimuth>
          <timeResidual>-0.11</timeResidual>
          <creationInfo>
            <agencyID>UW</agencyID>
            <creationTime>2012-03-05T18:46:06.000000Z</creationTime>
          </creationInfo>
        </arrival>
        <arrival publicID="quakeml:uw.anss.org/AssocArO/UW/9016668">
          <pickID>quakeml:uw.anss.org/Arrival/UW/9016668</pickID>
          <phase>P</phase>
          <azimuth>170.3</azimuth>
          <distance>1.078</distance>
          <timeResidual>0.02</timeResidual>
          <creationInfo>
            <agencyID>UW</agencyID>
            <creationTime>2012-03-05T18:46:06.000000Z</creationTime>
          </creationInfo>
        </arrival>
        <arrival publicID="quakeml:uw.anss.org/AssocArO/UW/9016673">
          <pickID>quakeml:uw.anss.org/Arrival/UW/9016673</pickID>
          <phase>P</phase>
          <azimuth>101.1</azimuth>
          <distance>0.3792</distance>
          <timeResidual>-0.07</timeResidual>
          <creationInfo>
            <agencyID>UW</agencyID>
            <creationTime>2012-03-05T18:46:06.000000Z</creationTime>
          </creationInfo>
        </arrival>
        <arrival publicID="quakeml:uw.anss.org/AssocArO/UW/9016678">
          <pickID>quakeml:uw.anss.org/Arrival/UW/9016678</pickID>
          <phase>S</phase>
          <azimuth>101.1</azimuth>
          <distance>0.3792</distance>
          <timeResidual>-0.08</timeResidual>
          <creationInfo>
            <agencyID>UW</agencyID>
            <creationTime>2012-03-05T18:46:06.000000Z</creationTime>
          </creationInfo>
        </arrival>
        <arrival publicID="quakeml:uw.anss.org/AssocArO/UW/9016683">
          <pickID>quakeml:uw.anss.org/Arrival/UW/9016683</pickID>
          <phase>P</phase>
          <azimuth>353.6</azimuth>
          <distance>0.3973</distance>
          <timeResidual>0.56</timeResidual>
          <creationInfo>
            <agencyID>UW</agencyID>
            <creationTime>2012-03-05T18:46:06.000000Z</creationTime>
          </creationInfo>
        </arrival>
        <arrival publicID="quakeml:uw.anss.org/AssocArO/UW/9016688">
          <pickID>quakeml:uw.anss.org/Arrival/UW/9016688</pickID>
          <phase>P</phase>
          <azimuth>147.3</azimuth>
          <distance>1.907</distance>
          <timeResidual>0.39</timeResidual>
          <creationInfo>
            <agencyID>UW</agencyID>
            <creationTime>2012-03-05T18:46:06.000000Z</creationTime>
          </creationInfo>
        </arrival>
        <arrival publicID="quakeml:uw.anss.org/AssocArO/UW/9016693">
          <pickID>quakeml:uw.anss.org/Arrival/UW/9016693</pickID>
          <phase>P</phase>
          <azimuth>23.5</azimuth>
          <distance>0.286</distance>
          <timeResidual>-0.13</timeResidual>
          <creationInfo>
            <agencyID>UW</agencyID>
            <creationTime>2012-03-05T18:46:06.000000Z</creationTime>
          </creationInfo>
        </arrival>
        <arrival publicID="quakeml:uw.anss.org/AssocArO/UW/9016698">
          <pickID>quakeml:uw.anss.org/Arrival/UW/9016698</pickID>
          <phase>P</phase>
          <azimuth>295.5</azimuth>
          <distance>0.4644</distance>
          <timeResidual>-0.27</timeResidual>
          <creationInfo>
            <agencyID>UW</agencyID>
            <creationTime>2012-03-05T18:46:06.000000Z</creationTime>
          </creationInfo>
        </arrival>
        <arrival publicID="quakeml:uw.anss.org/AssocArO/UW/9016703">
          <pickID>quakeml:uw.anss.org/Arrival/UW/9016703</pickID>
          <phase>P</phase>
          <azimuth>163.4</azimuth>
          <timeResidual>-0.09</timeResidual>
          <creationInfo>
            <agencyID>UW</agencyID>
            <creationTime>2012-03-05T18:46:06.000000Z</creationTime>
          </creationInfo>
        </arrival>
        <arrival publicID="quakeml:uw.anss.org/AssocArO/UW/9016708">
          <pickID>quakeml:uw.anss.org/Arrival/UW/9016708</pickID>
          <phase>S</phase>
          <azimuth>163.4</azimuth>
          <timeResidual>0.4</timeResidual>
          <creationInfo>
            <agencyID>UW</agencyID>
            <creationTime>2012-03-05T18:46:06.000000Z</creationTime>
          </creationInfo>
        </arrival>
        <arrival publicID="quakeml:uw.anss.org/AssocArO/UW/9016713">
          <pickID>quakeml:uw.anss.org/Arrival/UW/9016713</pickID>
          <phase>P</phase>
          <azimuth>177.5</azimuth>
          <distance>1.336</distance>
          <timeResidual>0.55</timeResidual>
          <creationInfo>
            <agencyID>UW</agencyID>
            <creationTime>2012-03-05T18:46:06.000000Z</creationTime>
          </creationInfo>
        </arrival>
        <arrival publicID="quakeml:uw.anss.org/AssocArO/UW/9016718">
          <pickID>quakeml:uw.anss.org/Arrival/UW/9016718</pickID>
          <phase>S</phase>
          <azimuth>177.5</azimuth>
          <distance>1.336</distance>
          <timeResidual>0.12</timeResidual>
          <creationInfo>
            <agencyID>UW</agencyID>
            <creationTime>2012-03-05T18:46:06.000000Z</creationTime>
          </creationInfo>
        </arrival>
        <arrival publicID="quakeml:uw.anss.org/AssocArO/UW/9016723">
          <pickID>quakeml:uw.anss.org/Arrival/UW/9016723</pickID>
          <phase>P</phase>
          <azimuth>244.5</azimuth>
          <distance>1.062</distance>
          <timeResidual>-0.26</timeResidual>
          <creationInfo>
            <agencyID>UW</agencyID>
            <creationTime>2012-03-05T18:46:06.000000Z</creationTime>
          </creationInfo>
        </arrival>
        <arrival publicID="quakeml:uw.anss.org/AssocArO/UW/9016728">
          <pickID>quakeml:uw.anss.org/Arrival/UW/9016728</pickID>
          <phase>P</phase>
          <azimuth>170.1</azimuth>
          <timeResidual>-0.09</timeResidual>
          <creationInfo>
            <agencyID>UW</agencyID>
            <creationTime>2012-03-05T18:46:06.000000Z</creationTime>
          </creationInfo>
        </arrival>
        <arrival publicID="quakeml:uw.anss.org/AssocArO/UW/9016733">
          <pickID>quakeml:uw.anss.org/Arrival/UW/9016733</pickID>
          <phase>P</phase>
          <azimuth>108.5</azimuth>
          <distance>1.629</distance>
          <timeResidual>1.75</timeResidual>
          <creationInfo>
            <agencyID>UW</agencyID>
            <creationTime>2012-03-05T18:46:06.000000Z</creationTime>
          </creationInfo>
        </arrival>
        <arrival publicID="quakeml:uw.anss.org/AssocArO/UW/9016738">
          <pickID>quakeml:uw.anss.org/Arrival/UW/9016738</pickID>
          <phase>P</phase>
          <azimuth>129.5</azimuth>
          <distance>1.039</distance>
          <timeResidual>0.14</timeResidual>
          <creationInfo>
            <agencyID>UW</agencyID>
            <creationTime>2012-03-05T18:46:06.000000Z</creationTime>
          </creationInfo>
        </arrival>
        <arrival publicID="quakeml:uw.anss.org/AssocArO/UW/9016743">
          <pickID>quakeml:uw.anss.org/Arrival/UW/9016743</pickID>
          <phase>P</phase>
          <azimuth>263.0</azimuth>
          <distance>0.8399</distance>
          <timeResidual>0.17</timeResidual>
          <creationInfo>
            <agencyID>UW</agencyID>
            <creationTime>2012-03-05T18:46:06.000000Z</creationTime>
          </creationInfo>
        </arrival>
        <arrival publicID="quakeml:uw.anss.org/AssocArO/UW/9016748">
          <pickID>quakeml:uw.anss.org/Arrival/UW/9016748</pickID>
          <phase>S</phase>
          <azimuth>263.0</azimuth>
          <distance>0.8399</distance>
          <timeResidual>-0.11</timeResidual>
          <creationInfo>
            <agencyID>UW</agencyID>
            <creationTime>2012-03-05T18:46:06.000000Z</creationTime>
          </creationInfo>
        </arrival>
        <arrival publicID="quakeml:uw.anss.org/AssocArO/UW/9016753">
          <pickID>quakeml:uw.anss.org/Arrival/UW/9016753</pickID>
          <phase>P</phase>
          <azimuth>178.2</azimuth>
          <distance>0.2862</distance>
          <timeResidual>-0.18</timeResidual>
          <creationInfo>
            <agencyID>UW</agencyID>
            <creationTime>2012-03-05T18:46:06.000000Z</creationTime>
          </creationInfo>
        </arrival>
        <arrival publicID="quakeml:uw.anss.org/AssocArO/UW/9016758">
          <pickID>quakeml:uw.anss.org/Arrival/UW/9016758</pickID>
          <phase>P</phase>
          <azimuth>125.9</azimuth>
          <distance>1.285</distance>
          <timeResidual>0.19</timeResidual>
          <creationInfo>
            <agencyID>UW</agencyID>
            <creationTime>2012-03-05T18:46:06.000000Z</creationTime>
          </creationInfo>
        </arrival>
        <arrival publicID="quakeml:uw.anss.org/AssocArO/UW/9016763">
          <pickID>quakeml:uw.anss.org/Arrival/UW/9016763</pickID>
          <phase>P</phase>
          <azimuth>122.6</azimuth>
          <distance>0.7442</distance>
          <timeResidual>-0.14</timeResidual>
          <creationInfo>
            <agencyID>UW</agencyID>
            <creationTime>2012-03-05T18:46:06.000000Z</creationTime>
          </creationInfo>
        </arrival>
        <arrival publicID="quakeml:uw.anss.org/AssocArO/UW/9016768">
          <pickID>quakeml:uw.anss.org/Arrival/UW/9016768</pickID>
          <phase>P</phase>
          <azimuth>172.5</azimuth>
          <timeResidual>0.65</timeResidual>
          <creationInfo>
            <agencyID>UW</agencyID>
            <creationTime>2012-03-05T18:46:06.000000Z</creationTime>
          </creationInfo>
        </arrival>
        <arrival publicID="quakeml:uw.anss.org/AssocArO/UW/9016773">
          <pickID>quakeml:uw.anss.org/Arrival/UW/9016773</pickID>
          <phase>P</phase>
          <azimuth>162.6</azimuth>
          <distance>0.867</distance>
          <timeResidual>0.06</timeResidual>
          <creationInfo>
            <agencyID>UW</agencyID>
            <creationTime>2012-03-05T18:46:06.000000Z</creationTime>
          </creationInfo>
        </arrival>
        <arrival publicID="quakeml:uw.anss.org/AssocArO/UW/9016778">
          <pickID>quakeml:uw.anss.org/Arrival/UW/9016778</pickID>
          <phase>S</phase>
          <azimuth>162.6</azimuth>
          <distance>0.867</distance>
          <timeResidual>-0.97</timeResidual>
          <creationInfo>
            <agencyID>UW</agencyID>
            <creationTime>2012-03-05T18:46:06.000000Z</creationTime>
          </creationInfo>
        </arrival>
        <arrival publicID="quakeml:uw.anss.org/AssocArO/UW/9016783">
          <pickID>quakeml:uw.anss.org/Arrival/UW/9016783</pickID>
          <phase>P</phase>
          <azimuth>289.6</azimuth>
          <distance>0.7713</distance>
          <timeResidual>-0.03</timeResidual>
          <creationInfo>
            <agencyID>UW</agencyID>
            <creationTime>2012-03-05T18:46:06.000000Z</creationTime>
          </creationInfo>
        </arrival>
        <arrival publicID="quakeml:uw.anss.org/AssocArO/UW/9016788">
          <pickID>quakeml:uw.anss.org/Arrival/UW/9016788</pickID>
          <phase>P</phase>
          <azimuth>172.1</azimuth>
          <timeResidual>0.1</timeResidual>
          <creationInfo>
            <agencyID>UW</agencyID>
            <creationTime>2012-03-05T18:46:06.000000Z</creationTime>
          </creationInfo>
        </arrival>
        <arrival publicID="quakeml:uw.anss.org/AssocArO/UW/9016793">
