<?xml version='1.0' encoding='utf-8'?>
<q:quakeml xmlns="http://quakeml.org/xmlns/bed/1.2" xmlns:q="http://quakeml.org/xmlns/quakeml/1.2" xmlns:ns0="http://anss.org/xmlns/catalog/0.1">
  <eventParameters publicID="smi:local/17fe76d4-f02b-4c77-8f61-0ea4daef1a94">
    <event publicID="quakeml:uw.anss.org/Event/UW/10694648" ns0:datasource="uw" ns0:dataid="uw10694648" ns0:eventsource="uw" ns0:eventid="10694648">
      <preferredOriginID>quakeml:uw.anss.org/Origin/UW/976903</preferredOriginID>
      <preferredMagnitudeID>quakeml:uw.anss.org/Netmag/UW/763883</preferredMagnitudeID>
      <type>earthquake</type>
      <creationInfo>
        <agencyID>UW</agencyID>
        <creationTime>2012-03-05T18:57:48.000000Z</creationTime>
        <version>3</version>
      </creationInfo>
      <origin publicID="quakeml:uw.anss.org/Origin/UW/976903" ns0:datasource="uw" ns0:dataid="uw10694648" ns0:eventsource="uw" ns0:eventid="10694648">
        <time>
          <value>2006-07-06T23:16:27.080000Z</value>
          <uncertainty>0.5</uncertainty>
        </time>
        <latitude>
          <value>49.1466667</value>
          <uncertainty>0.66</uncertainty>
        </latitude>
        <longitude>
          <value>-122.115</value>
          <uncertainty>2.75</uncertainty>
        </longitude>
        <depth>
          <value>-564.0</value>
          <uncertainty>1240.0</uncertainty>
        </depth>
        <depthType>operator assigned</depthType>
        <timeFixed>false</timeFixed>
        <epicenterFixed>false</epicenterFixed>
        <methodID>smi:uw.anss.org/origin/spong</methodID>
        <quality>
          <associatedPhaseCount>7</associatedPhaseCount>
          <usedPhaseCount>7</usedPhaseCount>
          <associatedStationCount>7</associatedStationCount>
          <usedStationCount>0</usedStationCount>
          <standardError>0.49</standardError>
          <azimuthalGap>293.0</azimuthalGap>
        </quality>
        <type>hypocenter</type>
        <evaluationMode>manual</evaluationMode>
        <evaluationStatus>final</evaluationStatus>
        <creationInfo>
          <agencyID>UW</agencyID>
          <creationTime>2012-03-05T18:57:48.000000Z</creationTime>
        </creationInfo>
        <originUncertainty>
          <preferredDescription>horizontal uncertainty</preferredDescription>
          <horizontalUncertainty>2828.0</horizontalUncertainty>
        </originUncertainty>
        <arrival publicID="quakeml:uw.anss.org/AssocArO/UW/9045263">
          <pickID>quakeml:uw.anss.org/Arrival/UW/9045263</pickID>
          <phase>P</phase>
          <azimuth>179.2</azimuth>
          <distance>0.8834</distance>
          <timeResidual>0.91</timeResidual>
          <creationInfo>
            <agencyID>UW</agencyID>
            <creationTime>2012-03-05T18:57:48.000000Z</creationTime>
          </creationInfo>
        </arrival>
        <arrival publicID="quakeml:uw.anss.org/AssocArO/UW/9045268">
          <pickID>quakeml:uw.anss.org/Arrival/UW/9045268</pickID>
          <phase>P</phase>
          <azimuth>172.5</azimuth>
          <distance>0.1498</distance>
          <timeResidual>-0.19</timeResidual>
          <creationInfo>
            <agencyID>UW</agencyID>
            <creationTime>2012-03-05T18:57:48.000000Z</creationTime>
          </creationInfo>
        </arrival>
        <arrival publicID="quakeml:uw.anss.org/AssocArO/UW/9045273">
          <pickID>quakeml:uw.anss.org/Arrival/UW/9045273</pickID>
          <phase>P</phase>
          <azimuth>222.6</azimuth>
          <distance>0.5788</distance>
          <timeResidual>-0.13</timeResidual>
          <creationInfo>
            <agencyID>UW</agencyID>
            <creationTime>2012-03-05T18:57:48.000000Z</creationTime>
          </creationInfo>
        </arrival>
        <arrival publicID="quakeml:uw.anss.org/AssocArO/UW/9045278">
          <pickID>quakeml:uw.anss.org/Arrival/UW/9045278</pickID>
          <phase>P</phase>
          <azimuth>172.5</azimuth>
          <timeResidual>0.86</timeResidual>
          <creationInfo>
            <agencyID>UW</agencyID>
            <creationTime>2012-03-05T18:57:48.000000Z</creationTime>
          </creationInfo>
        </arrival>
        <arrival publicID="quakeml:uw.anss.org/AssocArO/UW/9045283">
          <pickID>quakeml:uw.anss.org/Arrival/UW/9045283</pickID>
          <phase>P</phase>
          <azimuth>176.2</azimuth>
          <distance>0.1209</distance>
          <timeResidual>-0.02</timeResidual>
          <creationInfo>
            <agencyID>UW</agencyID>
            <creationTime>2012-03-05T18:57:48.000000Z</creationTime>
          </creationInfo>
        </arrival>
        <arrival publicID="quakeml:uw.anss.org/AssocArO/UW/9045288">
          <pickID>quakeml:uw.anss.org/Arrival/UW/9045288</pickID>
          <phase>P</phase>
          <azimuth>225.5</azimuth>
          <distance>0.6657</distance>
          <timeResidual>0.02</timeResidual>
          <creationInfo>
            <agencyID>UW</agencyID>
            <creationTime>2012-03-05T18:57:48.000000Z</creationTime>
          </creationInfo>
        </arrival>
        <arrival publicID="quakeml:uw.anss.org/AssocArO/UW/9045293">
          <pickID>quakeml:uw.anss.org/Arrival/UW/9045293</pickID>
          <phase>P</phase>
          <azimuth>158.7</azimuth>
          <distance>0.3896</distance>
          <timeResidual>-0.18</timeResidual>
          <creationInfo>
            <agencyID>UW</agencyID>
            <creationTime>2012-03-05T18:57:48.000000Z</creationTime>
          </creationInfo>
        </arrival>
      </origin>
      <magnitude publicID="quakeml:uw.anss.org/Netmag/UW/763883">
        <mag>
          <value>1.3</value>
          <uncertainty>0.05</uncertainty>
        </mag>
        <type>Md</type>
        <originID>quakeml:uw.anss.org/Origin/UW/976903</originID>
        <methodID>smi:uw.anss.org/magnitude/Crosson</methodID>
        <stationCount>3</stationCount>
        <evaluationMode>manual</evaluationMode>
        <evaluationStatus>final</evaluationStatus>
        <stationMagnitudeContribution>
          <stationMagnitudeID>quakeml:uw.anss.org/AssocCoM/UW/2109863</stationMagnitudeID>
          <weight>1.0</weight>
          <residual>0.08</residual>
        </stationMagnitudeContribution>
        <stationMagnitudeContribution>
          <stationMagnitudeID>quakeml:uw.anss.org/AssocCoM/UW/2109868</stationMagnitudeID>
          <weight>1.0</weight>
          <residual>0.08</residual>
        </stationMagnitudeContribution>
        <stationMagnitudeContribution>
          <stationMagnitudeID>quakeml:uw.anss.org/AssocCoM/UW/2109873</stationMagnitudeID>
          <weight>1.0</weight>
          <residual>-0.29</residual>
        </stationMagnitudeContribution>
        <creationInfo>
          <agencyID>UW</agencyID>
          <creationTime>2012-03-05T18:57:48.000000Z</creationTime>
        </creationInfo>
      </magnitude>
      <stationMagnitude publicID="quakeml:uw.anss.org/AssocCoM/UW/2109863">
        <originID>quakeml:uw.anss.org/Origin/UW/976903</originID>
        <mag>
          <value>1.38</value>
        </mag>
        <type>MD</type>
        <amplitudeID>quakeml:uw.anss.org/Coda/UW/2109863</amplitudeID>
        <waveformID networkCode="UW" stationCode="JCW" locationCode="" channelCode="EHZ"></waveformID>
      </stationMagnitude>
      <stationMagnitude publicID="quakeml:uw.anss.org/AssocCoM/UW/2109868">
        <originID>quakeml:uw.anss.org/Origin/UW/976903</originID>
        <mag>
          <value>1.38</value>
        </mag>
        <type>MD</type>
        <amplitudeID>quakeml:uw.anss.org/Coda/UW/2109868</amplitudeID>
        <waveformID networkCode="CN" stationCode="VDB" locationCode="" channelCode="EHZ"></waveformID>
      </stationMagnitude>
      <stationMagnitude publicID="quakeml:uw.anss.org/AssocCoM/UW/2109873">
        <originID>quakeml:uw.anss.org/Origin/UW/976903</originID>
        <mag>
          <value>1.01</value>
        </mag>
        <type>MD</type>
        <amplitudeID>quakeml:uw.anss.org/Coda/UW/2109873</amplitudeID>
        <waveformID networkCode="UW" stationCode="MBW" locationCode="" channelCode="EHZ"></waveformID>
      </stationMagnitude>
      <pick publicID="quakeml:uw.anss.org/Arrival/UW/9045263">
        <time>
          <value>2006-07-06T23:16:44.130000Z</value>
          <uncertainty>0.08</uncertainty>
        </time>
        <waveformID networkCode="TA" stationCode="B05A" locationCode="" channelCode="BHZ"></waveformID>
        <polarity>undecidable</polarity>
        <evaluationMode>manual</evaluationMode>
        <evaluationStatus>final</evaluationStatus>
        <creationInfo>
          <agencyID>UW</agencyID>
          <creationTime>2012-03-05T18:57:48.000000Z</creationTime>
        </creationInfo>
      </pick>
      <pick publicID="quakeml:uw.anss.org/Arrival/UW/9045268">
        <time>
          <value>2006-07-06T23:16:29.980000Z</value>
          <uncertainty>0.1</uncertainty>
        </time>
        <waveformID networkCode="TA" stationCode="A05A" locationCode="" channelCode="BHZ"></waveformID>
        <polarity>undecidable</polarity>
        <evaluationMode>manual</evaluationMode>
        <evaluationStatus>final</evaluationStatus>
        <creationInfo>
          <agencyID>UW</agencyID>
          <creationTime>2012-03-05T18:57:48.000000Z</creationTime>
        </creationInfo>
      </pick>
      <pick publicID="quakeml:uw.anss.org/Arrival/UW/9045273">
        <time>
          <value>2006-07-06T23:16:37.800000Z</value>
          <uncertainty>0.05</uncertainty>
        </time>
        <waveformID networkCode="TA" stationCode="A04A" locationCode="" channelCode="BHZ"></waveformID>
        <polarity>undecidable</polarity>
        <evaluationMode>manual</evaluationMode>
        <evaluationStatus>final</evaluationStatus>
        <creationInfo>
          <agencyID>UW</agencyID>
          <creationTime>2012-03-05T18:57:48.000000Z</creationTime>
        </creationInfo>
      </pick>
      <pick publicID="quakeml:uw.anss.org/Arrival/UW/9045278">
        <time>
          <value>2006-07-06T23:16:45.310000Z</value>
          <uncertainty>0.06</uncertainty>
        </time>
        <waveformID networkCode="UW" stationCode="JCW" locationCode="" channelCode="EHZ"></waveformID>
        <polarity>undecidable</polarity>
        <evaluationMode>manual</evaluationMode>
        <evaluationStatus>final</evaluationStatus>
        <creationInfo>
          <agencyID>UW</agencyID>
          <creationTime>2012-03-05T18:57:48.000000Z</creationTime>
        </creationInfo>
      </pick>
      <pick publicID="quakeml:uw.anss.org/Arrival/UW/9045283">
        <time>
          <value>2006-07-06T23:16:29.550000Z</value>
          <uncertainty>0.01</uncertainty>
        </time>
        <waveformID networkCode="CN" stationCode="VDB" locationCode="" channelCode="EHZ"></waveformID>
        <polarity>positive</polarity>
        <evaluationMode>manual</evaluationMode>
        <evaluationStatus>final</evaluationStatus>
        <creationInfo>
          <agencyID>UW</agencyID>
          <creationTime>2012-03-05T18:57:48.000000Z</creationTime>
        </creationInfo>
      </pick>
      <pick publicID="quakeml:uw.anss.org/Arrival/UW/9045288">
        <time>
          <value>2006-07-06T23:16:39.400000Z</value>
          <uncertainty>0.02</uncertainty>
        </time>
        <waveformID networkCode="UW" stationCode="MCW" locationCode="" channelCode="EHZ"></waveformID>
        <polarity>undecidable</polarity>
        <evaluationMode>manual</evaluationMode>
        <evaluationStatus>final</evaluationStatus>
        <creationInfo>
          <agencyID>UW</agencyID>
          <creationTime>2012-03-05T18:57:48.000000Z</creationTime>
        </creationInfo>
      </pick>
      <pick publicID="quakeml:uw.anss.org/Arrival/UW/9045293">
        <time>
          <value>2006-07-06T23:16:34.790000Z</value>
          <uncertainty>0.04</uncertainty>
        </time>
        <waveformID networkCode="UW" stationCode="MBW" locationCode="" channelCode="EHZ"></waveformID>
        <polarity>undecidable</polarity>
        <evaluationMode>manual</evaluationMode>
        <evaluationStatus>final</evaluationStatus>
        <creationInfo>
          <agencyID>UW</agencyID>
          <creationTime>2012-03-05T18:57:48.000000Z</creationTime>
        </creationInfo>
      </pick>
      <amplitude publicID="quakeml:uw.anss.org/Coda/UW/2109868">
        <genericAmplitude>
          <value>23.0</value>
        </genericAmplitude>
        <type>END</type>
        <category>duration</category>
        <unit>s</unit>
        <waveformID networkCode="CN" stationCode="VDB" locationCode="" channelCode="EHZ"></waveformID>
        <magnitudeHint>MD</magnitudeHint>
        <evaluationMode>manual</evaluationMode>
        <evaluationStatus>final</evaluationStatus>
      </amplitude>
      <amplitude publicID="quakeml:uw.anss.org/Coda/UW/2109863">
        <genericAmplitude>
          <value>23.0</value>
        </genericAmplitude>
        <type>END</type>
        <category>duration</category>
        <unit>s</unit>
        <waveformID networkCode="UW" stationCode="JCW" locationCode="" channelCode="EHZ"></waveformID>
        <magnitudeHint>MD</magnitudeHint>
        <evaluationMode>manual</evaluationMode>
        <evaluationStatus>final</evaluationStatus>
      </amplitude>
      <amplitude publicID="quakeml:uw.anss.org/Coda/UW/2109873">
        <genericAmplitude>
          <value>17.0</value>
        </genericAmplitude>
        <type>END</type>
        <category>duration</category>
        <unit>s</unit>
        <waveformID networkCode="UW" stationCode="MBW" locationCode="" channelCode="EHZ"></waveformID>
        <magnitudeHint>MD</magnitudeHint>
        <evaluationMode>manual</evaluationMode>
        <evaluationStatus>final</evaluationStatus>
      </amplitude>
    </event>
  </eventParameters>
</q:quakeml>
