<?xml version='1.0' encoding='utf-8'?>
<q:quakeml xmlns="http://quakeml.org/xmlns/bed/1.2" xmlns:q="http://quakeml.org/xmlns/quakeml/1.2" xmlns:ns0="http://anss.org/xmlns/catalog/0.1">
  <eventParameters publicID="smi:local/ac1503ff-3746-418d-99e6-6d536441e7e2">
    <event publicID="quakeml:uw.anss.org/Event/UW/10698913" ns0:datasource="uw" ns0:dataid="uw10698913" ns0:eventsource="uw" ns0:eventid="10698913">
      <preferredOriginID>quakeml:uw.anss.org/Origin/UW/981168</preferredOriginID>
      <preferredMagnitudeID>quakeml:uw.anss.org/Netmag/UW/767133</preferredMagnitudeID>
      <type>earthquake</type>
      <creationInfo>
        <agencyID>UW</agencyID>
        <creationTime>2012-03-05T19:14:25.000000Z</creationTime>
        <version>3</version>
      </creationInfo>
      <origin publicID="quakeml:uw.anss.org/Origin/UW/981168" ns0:datasource="uw" ns0:dataid="uw10698913" ns0:eventsource="uw" ns0:eventid="10698913">
        <time>
          <value>2006-07-16T10:19:53.870000Z</value>
          <uncertainty>0.08</uncertainty>
        </time>
        <latitude>
          <value>48.7065</value>
          <uncertainty>0.48</uncertainty>
        </latitude>
        <longitude>
          <value>-122.1885</value>
          <uncertainty>0.72</uncertainty>
        </longitude>
        <depth>
          <value>18687.0</value>
          <uncertainty>760.0</uncertainty>
        </depth>
        <depthType>from location</depthType>
        <timeFixed>false</timeFixed>
        <epicenterFixed>false</epicenterFixed>
        <methodID>smi:uw.anss.org/origin/spong</methodID>
        <quality>
          <associatedPhaseCount>26</associatedPhaseCount>
          <usedPhaseCount>19</usedPhaseCount>
          <associatedStationCount>22</associatedStationCount>
          <usedStationCount>0</usedStationCount>
          <standardError>0.27</standardError>
          <azimuthalGap>77.0</azimuthalGap>
        </quality>
        <type>hypocenter</type>
        <evaluationMode>manual</evaluationMode>
        <evaluationStatus>final</evaluationStatus>
        <creationInfo>
          <agencyID>UW</agencyID>
          <creationTime>2012-03-05T19:14:25.000000Z</creationTime>
        </creationInfo>
        <originUncertainty>
          <preferredDescription>horizontal uncertainty</preferredDescription>
          <horizontalUncertainty>865.0</horizontalUncertainty>
        </originUncertainty>
        <arrival publicID="quakeml:uw.anss.org/AssocArO/UW/9098503">
          <pickID>quakeml:uw.anss.org/Arrival/UW/9098503</pickID>
          <phase>P</phase>
          <azimuth>172.1</azimuth>
          <distance>0.447</distance>
          <timeResidual>0.21</timeResidual>
          <creationInfo>
            <agencyID>UW</agencyID>
            <creationTime>2012-03-05T19:14:25.000000Z</creationTime>
          </creationInfo>
        </arrival>
        <arrival publicID="quakeml:uw.anss.org/AssocArO/UW/9098508">
          <pickID>quakeml:uw.anss.org/Arrival/UW/9098508</pickID>
          <phase>P</phase>
          <azimuth>13.1</azimuth>
          <distance>0.2999</distance>
          <timeResidual>0.15</timeResidual>
          <creationInfo>
            <agencyID>UW</agencyID>
            <creationTime>2012-03-05T19:14:25.000000Z</creationTime>
          </creationInfo>
        </arrival>
        <arrival publicID="quakeml:uw.anss.org/AssocArO/UW/9098513">
          <pickID>quakeml:uw.anss.org/Arrival/UW/9098513</pickID>
          <phase>P</phase>
          <azimuth>116.7</azimuth>
          <distance>1.386</distance>
          <timeResidual>1.65</timeResidual>
          <creationInfo>
            <agencyID>UW</agencyID>
            <creationTime>2012-03-05T19:14:25.000000Z</creationTime>
          </creationInfo>
        </arrival>
        <arrival publicID="quakeml:uw.anss.org/AssocArO/UW/9098518">
          <pickID>quakeml:uw.anss.org/Arrival/UW/9098518</pickID>
          <phase>P</phase>
          <azimuth>292.4</azimuth>
          <distance>0.163</distance>
          <timeResidual>0.04</timeResidual>
          <creationInfo>
            <agencyID>UW</agencyID>
            <creationTime>2012-03-05T19:14:25.000000Z</creationTime>
          </creationInfo>
        </arrival>
        <arrival publicID="quakeml:uw.anss.org/AssocArO/UW/9098523">
          <pickID>quakeml:uw.anss.org/Arrival/UW/9098523</pickID>
          <phase>S</phase>
          <azimuth>292.4</azimuth>
          <distance>0.163</distance>
          <timeResidual>0.27</timeResidual>
          <creationInfo>
            <agencyID>UW</agencyID>
            <creationTime>2012-03-05T19:14:25.000000Z</creationTime>
          </creationInfo>
        </arrival>
        <arrival publicID="quakeml:uw.anss.org/AssocArO/UW/9098528">
          <pickID>quakeml:uw.anss.org/Arrival/UW/9098528</pickID>
          <phase>S</phase>
          <azimuth>208.1</azimuth>
          <distance>1.12</distance>
          <timeResidual>0.32</timeResidual>
          <creationInfo>
            <agencyID>UW</agencyID>
            <creationTime>2012-03-05T19:14:25.000000Z</creationTime>
          </creationInfo>
        </arrival>
        <arrival publicID="quakeml:uw.anss.org/AssocArO/UW/9098533">
          <pickID>quakeml:uw.anss.org/Arrival/UW/9098533</pickID>
          <phase>P</phase>
          <azimuth>10.0</azimuth>
          <distance>0.3248</distance>
          <timeResidual>-0.03</timeResidual>
          <creationInfo>
            <agencyID>UW</agencyID>
            <creationTime>2012-03-05T19:14:25.000000Z</creationTime>
          </creationInfo>
        </arrival>
        <arrival publicID="quakeml:uw.anss.org/AssocArO/UW/9098538">
          <pickID>quakeml:uw.anss.org/Arrival/UW/9098538</pickID>
          <phase>P</phase>
          <azimuth>170.9</azimuth>
          <distance>0.2868</distance>
          <timeResidual>-0.41</timeResidual>
          <creationInfo>
            <agencyID>UW</agencyID>
            <creationTime>2012-03-05T19:14:25.000000Z</creationTime>
          </creationInfo>
        </arrival>
        <arrival publicID="quakeml:uw.anss.org/AssocArO/UW/9098543">
          <pickID>quakeml:uw.anss.org/Arrival/UW/9098543</pickID>
          <phase>P</phase>
          <azimuth>209.0</azimuth>
          <distance>1.208</distance>
          <timeResidual>0.5</timeResidual>
          <creationInfo>
            <agencyID>UW</agencyID>
            <creationTime>2012-03-05T19:14:25.000000Z</creationTime>
          </creationInfo>
        </arrival>
        <arrival publicID="quakeml:uw.anss.org/AssocArO/UW/9098548">
          <pickID>quakeml:uw.anss.org/Arrival/UW/9098548</pickID>
          <phase>P</phase>
          <azimuth>168.3</azimuth>
          <distance>1.274</distance>
          <timeResidual>1.16</timeResidual>
          <creationInfo>
            <agencyID>UW</agencyID>
            <creationTime>2012-03-05T19:14:25.000000Z</creationTime>
          </creationInfo>
        </arrival>
        <arrival publicID="quakeml:uw.anss.org/AssocArO/UW/9098553">
          <pickID>quakeml:uw.anss.org/Arrival/UW/9098553</pickID>
          <phase>P</phase>
          <azimuth>119.8</azimuth>
          <distance>0.5167</distance>
          <timeResidual>0.16</timeResidual>
          <creationInfo>
            <agencyID>UW</agencyID>
            <creationTime>2012-03-05T19:14:25.000000Z</creationTime>
          </creationInfo>
        </arrival>
        <arrival publicID="quakeml:uw.anss.org/AssocArO/UW/9098558">
          <pickID>quakeml:uw.anss.org/Arrival/UW/9098558</pickID>
          <phase>P</phase>
          <azimuth>67.7</azimuth>
          <distance>0.2055</distance>
          <timeResidual>-0.12</timeResidual>
          <creationInfo>
            <agencyID>UW</agencyID>
            <creationTime>2012-03-05T19:14:25.000000Z</creationTime>
          </creationInfo>
        </arrival>
        <arrival publicID="quakeml:uw.anss.org/AssocArO/UW/9098563">
          <pickID>quakeml:uw.anss.org/Arrival/UW/9098563</pickID>
          <phase>P</phase>
          <azimuth>272.4</azimuth>
          <distance>0.3437</distance>
          <timeResidual>-0.48</timeResidual>
          <creationInfo>
            <agencyID>UW</agencyID>
            <creationTime>2012-03-05T19:14:25.000000Z</creationTime>
          </creationInfo>
        </arrival>
        <arrival publicID="quakeml:uw.anss.org/AssocArO/UW/9098568">
          <pickID>quakeml:uw.anss.org/Arrival/UW/9098568</pickID>
          <phase>P</phase>
          <azimuth>161.2</azimuth>
          <timeResidual>0.39</timeResidual>
          <creationInfo>
            <agencyID>UW</agencyID>
            <creationTime>2012-03-05T19:14:25.000000Z</creationTime>
          </creationInfo>
        </arrival>
        <arrival publicID="quakeml:uw.anss.org/AssocArO/UW/9098573">
          <pickID>quakeml:uw.anss.org/Arrival/UW/9098573</pickID>
          <phase>S</phase>
          <azimuth>161.2</azimuth>
          <timeResidual>1.4</timeResidual>
          <creationInfo>
            <agencyID>UW</agencyID>
            <creationTime>2012-03-05T19:14:25.000000Z</creationTime>
          </creationInfo>
        </arrival>
        <arrival publicID="quakeml:uw.anss.org/AssocArO/UW/9098578">
          <pickID>quakeml:uw.anss.org/Arrival/UW/9098578</pickID>
          <phase>P</phase>
          <azimuth>233.9</azimuth>
          <distance>1.091</distance>
          <timeResidual>0.13</timeResidual>
          <creationInfo>
            <agencyID>UW</agencyID>
            <creationTime>2012-03-05T19:14:25.000000Z</creationTime>
          </creationInfo>
        </arrival>
        <arrival publicID="quakeml:uw.anss.org/AssocArO/UW/9098583">
          <pickID>quakeml:uw.anss.org/Arrival/UW/9098583</pickID>
          <phase>S</phase>
          <azimuth>233.9</azimuth>
          <distance>1.091</distance>
          <timeResidual>-0.33</timeResidual>
          <creationInfo>
            <agencyID>UW</agencyID>
            <creationTime>2012-03-05T19:14:25.000000Z</creationTime>
          </creationInfo>
        </arrival>
        <arrival publicID="quakeml:uw.anss.org/AssocArO/UW/9098588">
          <pickID>quakeml:uw.anss.org/Arrival/UW/9098588</pickID>
          <phase>P</phase>
          <azimuth>217.0</azimuth>
          <distance>0.8741</distance>
          <timeResidual>0.83</timeResidual>
          <creationInfo>
            <agencyID>UW</agencyID>
            <creationTime>2012-03-05T19:14:25.000000Z</creationTime>
          </creationInfo>
        </arrival>
        <arrival publicID="quakeml:uw.anss.org/AssocArO/UW/9098593">
          <pickID>quakeml:uw.anss.org/Arrival/UW/9098593</pickID>
          <phase>P</phase>
          <azimuth>249.2</azimuth>
          <distance>0.8102</distance>
          <timeResidual>0.48</timeResidual>
          <creationInfo>
            <agencyID>UW</agencyID>
            <creationTime>2012-03-05T19:14:25.000000Z</creationTime>
          </creationInfo>
        </arrival>
        <arrival publicID="quakeml:uw.anss.org/AssocArO/UW/9098598">
          <pickID>quakeml:uw.anss.org/Arrival/UW/9098598</pickID>
          <phase>S</phase>
          <azimuth>249.2</azimuth>
          <distance>0.8102</distance>
          <timeResidual>0.22</timeResidual>
          <creationInfo>
            <agencyID>UW</agencyID>
            <creationTime>2012-03-05T19:14:25.000000Z</creationTime>
          </creationInfo>
        </arrival>
        <arrival publicID="quakeml:uw.anss.org/AssocArO/UW/9098603">
          <pickID>quakeml:uw.anss.org/Arrival/UW/9098603</pickID>
          <phase>P</phase>
          <azimuth>169.7</azimuth>
          <distance>0.4784</distance>
          <timeResidual>0.23</timeResidual>
          <creationInfo>
            <agencyID>UW</agencyID>
            <creationTime>2012-03-05T19:14:25.000000Z</creationTime>
          </creationInfo>
        </arrival>
        <arrival publicID="quakeml:uw.anss.org/AssocArO/UW/9098608">
          <pickID>quakeml:uw.anss.org/Arrival/UW/9098608</pickID>
          <phase>P</phase>
          <azimuth>129.8</azimuth>
          <distance>0.9148</distance>
          <timeResidual>1.33</timeResidual>
          <creationInfo>
            <agencyID>UW</agencyID>
            <creationTime>2012-03-05T19:14:25.000000Z</creationTime>
          </creationInfo>
        </arrival>
        <arrival publicID="quakeml:uw.anss.org/AssocArO/UW/9098613">
          <pickID>quakeml:uw.anss.org/Arrival/UW/9098613</pickID>
          <phase>S</phase>
          <azimuth>161.6</azimuth>
          <distance>1.066</distance>
          <timeResidual>0.87</timeResidual>
          <creationInfo>
            <agencyID>UW</agencyID>
            <creationTime>2012-03-05T19:14:25.000000Z</creationTime>
          </creationInfo>
        </arrival>
        <arrival publicID="quakeml:uw.anss.org/AssocArO/UW/9098618">
          <pickID>quakeml:uw.anss.org/Arrival/UW/9098618</pickID>
          <phase>P</phase>
          <azimuth>276.4</azimuth>
          <distance>0.6548</distance>
          <timeResidual>0.21</timeResidual>
          <creationInfo>
            <agencyID>UW</agencyID>
            <creationTime>2012-03-05T19:14:25.000000Z</creationTime>
          </creationInfo>
        </arrival>
        <arrival publicID="quakeml:uw.anss.org/AssocArO/UW/9098623">
          <pickID>quakeml:uw.anss.org/Arrival/UW/9098623</pickID>
          <phase>P</phase>
          <azimuth>162.6</azimuth>
          <distance>0.9459</distance>
          <timeResidual>1.14</timeResidual>
          <creationInfo>
            <agencyID>UW</agencyID>
            <creationTime>2012-03-05T19:14:25.000000Z</creationTime>
          </creationInfo>
        </arrival>
        <arrival publicID="quakeml:uw.anss.org/AssocArO/UW/9098628">
          <pickID>quakeml:uw.anss.org/Arrival/UW/9098628</pickID>
          <phase>P</phase>
          <azimuth>266.5</azimuth>
          <distance>0.4277</distance>
          <timeResidual>-0.09</timeResidual>
          <creationInfo>
            <agencyID>UW</agencyID>
            <creationTime>2012-03-05T19:14:25.000000Z</creationTime>
          </creationInfo>
        </arrival>
      </origin>
      <magnitude publicID="quakeml:uw.anss.org/Netmag/UW/767133">
        <mag>
          <value>2.1</value>
          <uncertainty>0.04</uncertainty>
        </mag>
        <type>Md</type>
        <originID>quakeml:uw.anss.org/Origin/UW/981168</originID>
        <methodID>smi:uw.anss.org/magnitude/Crosson</methodID>
        <stationCount>6</stationCount>
        <evaluationMode>manual</evaluationMode>
        <evaluationStatus>final</evaluationStatus>
        <stationMagnitudeContribution>
          <stationMagnitudeID>quakeml:uw.anss.org/AssocCoM/UW/2119333</stationMagnitudeID>
          <weight>1.0</weight>
          <residual>0.05</residual>
        </stationMagnitudeContribution>
        <stationMagnitudeContribution>
          <stationMagnitudeID>quakeml:uw.anss.org/AssocCoM/UW/2119338</stationMagnitudeID>
          <weight>1.0</weight>
          <residual>0.02</residual>
        </stationMagnitudeContribution>
        <stationMagnitudeContribution>
          <stationMagnitudeID>quakeml:uw.anss.org/AssocCoM/UW/2119348</stationMagnitudeID>
          <weight>1.0</weight>
          <residual>-0.24</residual>
        </stationMagnitudeContribution>
        <stationMagnitudeContribution>
          <stationMagnitudeID>quakeml:uw.anss.org/AssocCoM/UW/2119343</stationMagnitudeID>
          <weight>1.0</weight>
          <residual>-0.14</residual>
        </stationMagnitudeContribution>
        <stationMagnitudeContribution>
          <stationMagnitudeID>quakeml:uw.anss.org/AssocCoM/UW/2119353</stationMagnitudeID>
          <weight>1.0</weight>
          <residual>0.02</residual>
        </stationMagnitudeContribution>
        <stationMagnitudeContribution>
          <stationMagnitudeID>quakeml:uw.anss.org/AssocCoM/UW/2119328</stationMagnitudeID>
          <weight>1.0</weight>
          <residual>0.07</residual>
        </stationMagnitudeContribution>
        <creationInfo>
          <agencyID>UW</agencyID>
          <creationTime>2012-03-05T19:14:25.000000Z</creationTime>
        </creationInfo>
      </magnitude>
      <stationMagnitude publicID="quakeml:uw.anss.org/AssocCoM/UW/2119328">
        <originID>quakeml:uw.anss.org/Origin/UW/981168</originID>
        <mag>
          <value>2.17</value>
        </mag>
        <type>MD</type>
        <amplitudeID>quakeml:uw.anss.org/Coda/UW/2119328</amplitudeID>
        <waveformID networkCode="CN" stationCode="VDB" locationCode="" channelCode="EHZ"></waveformID>
      </stationMagnitude>
      <stationMagnitude publicID="quakeml:uw.anss.org/AssocCoM/UW/2119333">
        <originID>quakeml:uw.anss.org/Origin/UW/981168</originID>
        <mag>
          <value>2.15</value>
        </mag>
        <type>MD</type>
        <amplitudeID>quakeml:uw.anss.org/Coda/UW/2119333</amplitudeID>
        <waveformID networkCode="UW" stationCode="CMW" locationCode="" channelCode="EHZ"></waveformID>
      </stationMagnitude>
      <stationMagnitude publicID="quakeml:uw.anss.org/AssocCoM/UW/2119338">
        <originID>quakeml:uw.anss.org/Origin/UW/981168</originID>
        <mag>
          <value>2.12</value>
        </mag>
        <type>MD</type>
        <amplitudeID>quakeml:uw.anss.org/Coda/UW/2119338</amplitudeID>
        <waveformID networkCode="UW" stationCode="HDW" locationCode="" channelCode="EHZ"></waveformID>
      </stationMagnitude>
      <stationMagnitude publicID="quakeml:uw.anss.org/AssocCoM/UW/2119343">
        <originID>quakeml:uw.anss.org/Origin/UW/981168</originID>
        <mag>
          <value>1.96</value>
        </mag>
        <type>MD</type>
        <amplitudeID>quakeml:uw.anss.org/Coda/UW/2119343</amplitudeID>
        <waveformID networkCode="UW" stationCode="RPW" locationCode="" channelCode="EHZ"></waveformID>
      </stationMagnitude>
      <stationMagnitude publicID="quakeml:uw.anss.org/AssocCoM/UW/2119348">
        <originID>quakeml:uw.anss.org/Origin/UW/981168</originID>
        <mag>
          <value>1.86</value>
        </mag>
        <type>MD</type>
        <amplitudeID>quakeml:uw.anss.org/Coda/UW/2119348</amplitudeID>
        <waveformID networkCode="UW" stationCode="MBW" locationCode="" channelCode="EHZ"></waveformID>
      </stationMagnitude>
      <stationMagnitude publicID="quakeml:uw.anss.org/AssocCoM/UW/2119353">
        <originID>quakeml:uw.anss.org/Origin/UW/981168</originID>
        <mag>
          <value>2.12</value>
        </mag>
        <type>MD</type>
        <amplitudeID>quakeml:uw.anss.org/Coda/UW/2119353</amplitudeID>
        <waveformID networkCode="UW" stationCode="JCW" locationCode="" channelCode="EHZ"></waveformID>
      </stationMagnitude>
      <pick publicID="quakeml:uw.anss.org/Arrival/UW/9098503">
        <time>
          <value>2006-07-16T10:20:02.480000Z</value>
          <uncertainty>0.1</uncertainty>
        </time>
        <waveformID networkCode="TA" stationCode="B05A" locationCode="" channelCode="BHE"></waveformID>
        <polarity>undecidable</polarity>
        <evaluationMode>manual</evaluationMode>
        <evaluationStatus>final</evaluationStatus>
        <creationInfo>
          <agencyID>UW</agencyID>
          <creationTime>2012-03-05T19:14:25.000000Z</creationTime>
        </creationInfo>
      </pick>
      <pick publicID="quakeml:uw.anss.org/Arrival/UW/9098508">
        <time>
          <value>2006-07-16T10:20:00.130000Z</value>
          <uncertainty>0.05</uncertainty>
        </time>
        <waveformID networkCode="TA" stationCode="A05A" locationCode="" channelCode="BHZ"></waveformID>
        <polarity>undecidable</polarity>
        <evaluationMode>manual</evaluationMode>
        <evaluationStatus>final</evaluationStatus>
        <creationInfo>
          <agencyID>UW</agencyID>
          <creationTime>2012-03-05T19:14:25.000000Z</creationTime>
        </creationInfo>
      </pick>
      <pick publicID="quakeml:uw.anss.org/Arrival/UW/9098513">
