<?xml version='1.0' encoding='utf-8'?>
<q:quakeml xmlns="http://quakeml.org/xmlns/bed/1.2" xmlns:q="http://quakeml.org/xmlns/quakeml/1.2" xmlns:ns0="http://anss.org/xmlns/catalog/0.1">
  <eventParameters publicID="smi:local/2ded5f3b-e421-4eee-908e-dea4715ac3c4">
    <event publicID="quakeml:uw.anss.org/Event/UW/10144053" ns0:datasource="uw" ns0:dataid="uw10144053" ns0:eventsource="uw" ns0:eventid="10144053">
      <preferredOriginID>quakeml:uw.anss.org/Origin/UW/420978</preferredOriginID>
      <preferredMagnitudeID>quakeml:uw.anss.org/Netmag/UW/369438</preferredMagnitudeID>
      <type>earthquake</type>
      <creationInfo>
        <agencyID>UW</agencyID>
        <creationTime>2012-02-27T13:11:15.000000Z</creationTime>
        <version>3</version>
      </creationInfo>
      <origin publicID="quakeml:uw.anss.org/Origin/UW/420978" ns0:datasource="uw" ns0:dataid="uw10144053" ns0:eventsource="uw" ns0:eventid="10144053">
        <time>
          <value>1982-08-20T07:33:57.930000Z</value>
          <uncertainty>0.26</uncertainty>
        </time>
        <latitude>
          <value>48.5085</value>
          <uncertainty>2.3</uncertainty>
        </latitude>
        <longitude>
          <value>-121.6108333</value>
          <uncertainty>0.45</uncertainty>
        </longitude>
        <depth>
          <value>570.0</value>
          <uncertainty>3010.0</uncertainty>
        </depth>
        <depthType>from location</depthType>
        <timeFixed>false</timeFixed>
        <epicenterFixed>false</epicenterFixed>
        <methodID>smi:uw.anss.org/origin/spong</methodID>
        <quality>
          <associatedPhaseCount>7</associatedPhaseCount>
          <usedPhaseCount>7</usedPhaseCount>
          <associatedStationCount>5</associatedStationCount>
          <usedStationCount>0</usedStationCount>
          <standardError>0.15</standardError>
          <azimuthalGap>221.0</azimuthalGap>
        </quality>
        <type>hypocenter</type>
        <evaluationMode>manual</evaluationMode>
        <evaluationStatus>final</evaluationStatus>
        <creationInfo>
          <agencyID>UW</agencyID>
          <creationTime>2012-02-27T13:11:15.000000Z</creationTime>
        </creationInfo>
        <originUncertainty>
          <preferredDescription>horizontal uncertainty</preferredDescription>
          <horizontalUncertainty>2344.0</horizontalUncertainty>
        </originUncertainty>
        <arrival publicID="quakeml:uw.anss.org/AssocArO/UW/2177303">
          <pickID>quakeml:uw.anss.org/Arrival/UW/2177303</pickID>
          <phase>P</phase>
          <azimuth>188.6</azimuth>
          <distance>0.7131</distance>
          <timeResidual>-0.09</timeResidual>
          <creationInfo>
            <agencyID>UW</agencyID>
            <creationTime>2012-02-27T13:11:15.000000Z</creationTime>
          </creationInfo>
        </arrival>
        <arrival publicID="quakeml:uw.anss.org/AssocArO/UW/2177333">
          <pickID>quakeml:uw.anss.org/Arrival/UW/2177333</pickID>
          <phase>P</phase>
          <azimuth>325.3</azimuth>
          <distance>0.336</distance>
          <timeResidual>-0.11</timeResidual>
          <creationInfo>
            <agencyID>UW</agencyID>
            <creationTime>2012-02-27T13:11:15.000000Z</creationTime>
          </creationInfo>
        </arrival>
        <arrival publicID="quakeml:uw.anss.org/AssocArO/UW/2177338">
          <pickID>quakeml:uw.anss.org/Arrival/UW/2177338</pickID>
          <phase>S</phase>
          <azimuth>325.3</azimuth>
          <distance>0.336</distance>
          <timeResidual>0.06</timeResidual>
          <creationInfo>
            <agencyID>UW</agencyID>
            <creationTime>2012-02-27T13:11:15.000000Z</creationTime>
          </creationInfo>
        </arrival>
        <arrival publicID="quakeml:uw.anss.org/AssocArO/UW/2177343">
          <pickID>quakeml:uw.anss.org/Arrival/UW/2177343</pickID>
          <phase>P</phase>
          <azimuth>204.0</azimuth>
          <distance>0.7249</distance>
          <timeResidual>0.34</timeResidual>
          <creationInfo>
            <agencyID>UW</agencyID>
            <creationTime>2012-02-27T13:11:15.000000Z</creationTime>
          </creationInfo>
        </arrival>
        <arrival publicID="quakeml:uw.anss.org/AssocArO/UW/2177348">
          <pickID>quakeml:uw.anss.org/Arrival/UW/2177348</pickID>
          <phase>P</phase>
          <azimuth>187.2</azimuth>
          <distance>1.058</distance>
          <timeResidual>0.14</timeResidual>
          <creationInfo>
            <agencyID>UW</agencyID>
            <creationTime>2012-02-27T13:11:15.000000Z</creationTime>
          </creationInfo>
        </arrival>
        <arrival publicID="quakeml:uw.anss.org/AssocArO/UW/2177353">
          <pickID>quakeml:uw.anss.org/Arrival/UW/2177353</pickID>
          <phase>P</phase>
          <azimuth>214.0</azimuth>
          <timeResidual>0.02</timeResidual>
          <creationInfo>
            <agencyID>UW</agencyID>
            <creationTime>2012-02-27T13:11:15.000000Z</creationTime>
          </creationInfo>
        </arrival>
        <arrival publicID="quakeml:uw.anss.org/AssocArO/UW/2177358">
          <pickID>quakeml:uw.anss.org/Arrival/UW/2177358</pickID>
          <phase>S</phase>
          <azimuth>214.0</azimuth>
          <timeResidual>-0.17</timeResidual>
          <creationInfo>
            <agencyID>UW</agencyID>
            <creationTime>2012-02-27T13:11:15.000000Z</creationTime>
          </creationInfo>
        </arrival>
      </origin>
      <magnitude publicID="quakeml:uw.anss.org/Netmag/UW/369438">
        <mag>
          <value>1.0</value>
          <uncertainty>0.05</uncertainty>
        </mag>
        <type>Md</type>
        <originID>quakeml:uw.anss.org/Origin/UW/420978</originID>
        <methodID>smi:uw.anss.org/magnitude/Crosson</methodID>
        <stationCount>1</stationCount>
        <evaluationMode>manual</evaluationMode>
        <evaluationStatus>final</evaluationStatus>
        <stationMagnitudeContribution>
          <stationMagnitudeID>quakeml:uw.anss.org/AssocCoM/UW/738508</stationMagnitudeID>
          <weight>1.0</weight>
          <residual>0.01</residual>
        </stationMagnitudeContribution>
        <creationInfo>
          <agencyID>UW</agencyID>
          <creationTime>2012-02-27T13:11:15.000000Z</creationTime>
        </creationInfo>
      </magnitude>
      <stationMagnitude publicID="quakeml:uw.anss.org/AssocCoM/UW/738508">
        <originID>quakeml:uw.anss.org/Origin/UW/420978</originID>
        <mag>
          <value>1.01</value>
        </mag>
        <type>MD</type>
        <amplitudeID>quakeml:uw.anss.org/Coda/UW/738508</amplitudeID>
        <waveformID networkCode="UW" stationCode="MBW" locationCode="" channelCode="EHZ"></waveformID>
      </stationMagnitude>
      <pick publicID="quakeml:uw.anss.org/Arrival/UW/2177303">
        <time>
          <value>1982-08-20T07:34:10.920000Z</value>
          <uncertainty>0.04</uncertainty>
        </time>
        <waveformID networkCode="UW" stationCode="HTW" locationCode="" channelCode="EHZ"></waveformID>
        <polarity>undecidable</polarity>
        <evaluationMode>manual</evaluationMode>
        <evaluationStatus>final</evaluationStatus>
        <creationInfo>
          <agencyID>UW</agencyID>
          <creationTime>2012-02-27T13:11:15.000000Z</creationTime>
        </creationInfo>
      </pick>
      <pick publicID="quakeml:uw.anss.org/Arrival/UW/2177333">
        <time>
          <value>1982-08-20T07:34:04.640000Z</value>
          <uncertainty>0.04</uncertainty>
        </time>
        <waveformID networkCode="UW" stationCode="MBW" locationCode="" channelCode="EHZ"></waveformID>
        <polarity>undecidable</polarity>
        <evaluationMode>manual</evaluationMode>
        <evaluationStatus>final</evaluationStatus>
        <creationInfo>
          <agencyID>UW</agencyID>
          <creationTime>2012-02-27T13:11:15.000000Z</creationTime>
        </creationInfo>
      </pick>
      <pick publicID="quakeml:uw.anss.org/Arrival/UW/2177338">
        <time>
          <value>1982-08-20T07:34:10.120000Z</value>
          <uncertainty>0.03</uncertainty>
        </time>
        <waveformID networkCode="UW" stationCode="MBW" locationCode="" channelCode="EHZ"></waveformID>
        <polarity>undecidable</polarity>
        <evaluationMode>manual</evaluationMode>
        <evaluationStatus>final</evaluationStatus>
        <creationInfo>
          <agencyID>UW</agencyID>
          <creationTime>2012-02-27T13:11:15.000000Z</creationTime>
        </creationInfo>
      </pick>
      <pick publicID="quakeml:uw.anss.org/Arrival/UW/2177343">
        <time>
          <value>1982-08-20T07:34:11.660000Z</value>
          <uncertainty>0.11</uncertainty>
        </time>
        <waveformID networkCode="UW" stationCode="MOW" locationCode="" channelCode="EHZ"></waveformID>
        <polarity>undecidable</polarity>
        <evaluationMode>manual</evaluationMode>
        <evaluationStatus>final</evaluationStatus>
        <creationInfo>
          <agencyID>UW</agencyID>
          <creationTime>2012-02-27T13:11:15.000000Z</creationTime>
        </creationInfo>
      </pick>
      <pick publicID="quakeml:uw.anss.org/Arrival/UW/2177348">
        <time>
          <value>1982-08-20T07:34:17.270000Z</value>
          <uncertainty>0.07</uncertainty>
        </time>
        <waveformID networkCode="UW" stationCode="RMW" locationCode="" channelCode="EHZ"></waveformID>
        <polarity>undecidable</polarity>
        <evaluationMode>manual</evaluationMode>
        <evaluationStatus>final</evaluationStatus>
        <creationInfo>
          <agencyID>UW</agencyID>
          <creationTime>2012-02-27T13:11:15.000000Z</creationTime>
        </creationInfo>
      </pick>
      <pick publicID="quakeml:uw.anss.org/Arrival/UW/2177353">
        <time>
          <value>1982-08-20T07:34:05.160000Z</value>
          <uncertainty>0.01</uncertainty>
        </time>
        <waveformID networkCode="UW" stationCode="JCW" locationCode="" channelCode="EHZ"></waveformID>
        <polarity>undecidable</polarity>
        <evaluationMode>manual</evaluationMode>
        <evaluationStatus>final</evaluationStatus>
        <creationInfo>
          <agencyID>UW</agencyID>
          <creationTime>2012-02-27T13:11:15.000000Z</creationTime>
        </creationInfo>
      </pick>
      <pick publicID="quakeml:uw.anss.org/Arrival/UW/2177358">
        <time>
          <value>1982-08-20T07:34:10.600000Z</value>
          <uncertainty>0.09</uncertainty>
        </time>
        <waveformID networkCode="UW" stationCode="JCW" locationCode="" channelCode="EHZ"></waveformID>
        <polarity>undecidable</polarity>
        <evaluationMode>manual</evaluationMode>
        <evaluationStatus>final</evaluationStatus>
        <creationInfo>
          <agencyID>UW</agencyID>
          <creationTime>2012-02-27T13:11:15.000000Z</creationTime>
        </creationInfo>
      </pick>
      <amplitude publicID="quakeml:uw.anss.org/Coda/UW/738508">
        <genericAmplitude>
          <value>17.0</value>
        </genericAmplitude>
        <type>END</type>
        <category>duration</category>
        <unit>s</unit>
        <waveformID networkCode="UW" stationCode="MBW" locationCode="" channelCode="EHZ"></waveformID>
        <magnitudeHint>MD</magnitudeHint>
        <evaluationMode>manual</evaluationMode>
        <evaluationStatus>final</evaluationStatus>
      </amplitude>
    </event>
  </eventParameters>
</q:quakeml>
