<?xml version='1.0' encoding='utf-8'?>
<q:quakeml xmlns="http://quakeml.org/xmlns/bed/1.2" xmlns:q="http://quakeml.org/xmlns/quakeml/1.2" xmlns:ns0="http://anss.org/xmlns/catalog/0.1">
  <eventParameters publicID="smi:local/eec22759-ab97-4e2c-8daa-6f36112ea17f">
    <event publicID="quakeml:uw.anss.org/Event/UW/10128578" ns0:datasource="uw" ns0:dataid="uw10128578" ns0:eventsource="uw" ns0:eventid="10128578">
      <preferredOriginID>quakeml:uw.anss.org/Origin/UW/405483</preferredOriginID>
      <preferredMagnitudeID>quakeml:uw.anss.org/Netmag/UW/360993</preferredMagnitudeID>
      <type>earthquake</type>
      <creationInfo>
        <agencyID>UW</agencyID>
        <creationTime>2012-02-27T12:46:42.000000Z</creationTime>
        <version>3</version>
      </creationInfo>
      <origin publicID="quakeml:uw.anss.org/Origin/UW/405483" ns0:datasource="uw" ns0:dataid="uw10128578" ns0:eventsource="uw" ns0:eventid="10128578">
        <time>
          <value>1982-01-21T16:05:46.390000Z</value>
          <uncertainty>0.62</uncertainty>
        </time>
        <latitude>
          <value>48.487</value>
          <uncertainty>6.75</uncertainty>
        </latitude>
        <longitude>
          <value>-121.6805</value>
          <uncertainty>0.86</uncertainty>
        </longitude>
        <depth>
          <value>1171.0</value>
          <uncertainty>50080.0</uncertainty>
        </depth>
        <depthType>operator assigned</depthType>
        <timeFixed>false</timeFixed>
        <epicenterFixed>true</epicenterFixed>
        <methodID>smi:uw.anss.org/origin/spong</methodID>
        <quality>
          <associatedPhaseCount>30</associatedPhaseCount>
          <usedPhaseCount>17</usedPhaseCount>
          <associatedStationCount>26</associatedStationCount>
          <usedStationCount>0</usedStationCount>
          <standardError>0.5</standardError>
          <azimuthalGap>116.0</azimuthalGap>
        </quality>
        <type>hypocenter</type>
        <evaluationMode>manual</evaluationMode>
        <evaluationStatus>final</evaluationStatus>
        <creationInfo>
          <agencyID>UW</agencyID>
          <creationTime>2012-02-27T12:46:42.000000Z</creationTime>
        </creationInfo>
        <originUncertainty>
          <preferredDescription>horizontal uncertainty</preferredDescription>
          <horizontalUncertainty>6805.0</horizontalUncertainty>
        </originUncertainty>
        <arrival publicID="quakeml:uw.anss.org/AssocArO/UW/2054933">
          <pickID>quakeml:uw.anss.org/Arrival/UW/2054933</pickID>
          <phase>P</phase>
          <azimuth>228.1</azimuth>
          <distance>1.247</distance>
          <timeResidual>-0.15</timeResidual>
          <creationInfo>
            <agencyID>UW</agencyID>
            <creationTime>2012-02-27T12:46:42.000000Z</creationTime>
          </creationInfo>
        </arrival>
        <arrival publicID="quakeml:uw.anss.org/AssocArO/UW/2054938">
          <pickID>quakeml:uw.anss.org/Arrival/UW/2054938</pickID>
          <phase>P</phase>
          <azimuth>104.5</azimuth>
          <distance>1.763</distance>
          <timeResidual>0.9</timeResidual>
          <creationInfo>
            <agencyID>UW</agencyID>
            <creationTime>2012-02-27T12:46:42.000000Z</creationTime>
          </creationInfo>
        </arrival>
        <arrival publicID="quakeml:uw.anss.org/AssocArO/UW/2054943">
          <pickID>quakeml:uw.anss.org/Arrival/UW/2054943</pickID>
          <phase>P</phase>
          <azimuth>195.5</azimuth>
          <distance>2.128</distance>
          <timeResidual>0.07</timeResidual>
          <creationInfo>
            <agencyID>UW</agencyID>
            <creationTime>2012-02-27T12:46:42.000000Z</creationTime>
          </creationInfo>
        </arrival>
        <arrival publicID="quakeml:uw.anss.org/AssocArO/UW/2054948">
          <pickID>quakeml:uw.anss.org/Arrival/UW/2054948</pickID>
          <phase>P</phase>
          <azimuth>161.5</azimuth>
          <distance>1.848</distance>
          <timeResidual>-0.29</timeResidual>
          <creationInfo>
            <agencyID>UW</agencyID>
            <creationTime>2012-02-27T12:46:42.000000Z</creationTime>
          </creationInfo>
        </arrival>
        <arrival publicID="quakeml:uw.anss.org/AssocArO/UW/2054953">
          <pickID>quakeml:uw.anss.org/Arrival/UW/2054953</pickID>
          <phase>P</phase>
          <azimuth>182.9</azimuth>
          <timeResidual>0.08</timeResidual>
          <creationInfo>
            <agencyID>UW</agencyID>
            <creationTime>2012-02-27T12:46:42.000000Z</creationTime>
          </creationInfo>
        </arrival>
        <arrival publicID="quakeml:uw.anss.org/AssocArO/UW/2054958">
          <pickID>quakeml:uw.anss.org/Arrival/UW/2054958</pickID>
          <phase>P</phase>
          <azimuth>165.6</azimuth>
          <distance>1.29</distance>
          <timeResidual>-0.46</timeResidual>
          <creationInfo>
            <agencyID>UW</agencyID>
            <creationTime>2012-02-27T12:46:42.000000Z</creationTime>
          </creationInfo>
        </arrival>
        <arrival publicID="quakeml:uw.anss.org/AssocArO/UW/2054963">
          <pickID>quakeml:uw.anss.org/Arrival/UW/2054963</pickID>
          <phase>S</phase>
          <azimuth>165.6</azimuth>
          <distance>1.29</distance>
          <timeResidual>-1.91</timeResidual>
          <creationInfo>
            <agencyID>UW</agencyID>
            <creationTime>2012-02-27T12:46:42.000000Z</creationTime>
          </creationInfo>
        </arrival>
        <arrival publicID="quakeml:uw.anss.org/AssocArO/UW/2054968">
          <pickID>quakeml:uw.anss.org/Arrival/UW/2054968</pickID>
          <phase>P</phase>
          <azimuth>183.5</azimuth>
          <timeResidual>-0.1</timeResidual>
          <creationInfo>
            <agencyID>UW</agencyID>
            <creationTime>2012-02-27T12:46:42.000000Z</creationTime>
          </creationInfo>
        </arrival>
        <arrival publicID="quakeml:uw.anss.org/AssocArO/UW/2054973">
          <pickID>quakeml:uw.anss.org/Arrival/UW/2054973</pickID>
          <phase>P</phase>
          <azimuth>213.5</azimuth>
          <distance>1.806</distance>
          <timeResidual>0.91</timeResidual>
          <creationInfo>
            <agencyID>UW</agencyID>
            <creationTime>2012-02-27T12:46:42.000000Z</creationTime>
          </creationInfo>
        </arrival>
        <arrival publicID="quakeml:uw.anss.org/AssocArO/UW/2054978">
          <pickID>quakeml:uw.anss.org/Arrival/UW/2054978</pickID>
          <phase>P</phase>
          <azimuth>90.4</azimuth>
          <distance>0.9526</distance>
          <timeResidual>0.23</timeResidual>
          <creationInfo>
            <agencyID>UW</agencyID>
            <creationTime>2012-02-27T12:46:42.000000Z</creationTime>
          </creationInfo>
        </arrival>
        <arrival publicID="quakeml:uw.anss.org/AssocArO/UW/2054983">
          <pickID>quakeml:uw.anss.org/Arrival/UW/2054983</pickID>
          <phase>P</phase>
          <azimuth>142.7</azimuth>
          <distance>1.909</distance>
          <timeResidual>1.04</timeResidual>
          <creationInfo>
            <agencyID>UW</agencyID>
            <creationTime>2012-02-27T12:46:42.000000Z</creationTime>
          </creationInfo>
        </arrival>
        <arrival publicID="quakeml:uw.anss.org/AssocArO/UW/2054988">
          <pickID>quakeml:uw.anss.org/Arrival/UW/2054988</pickID>
          <phase>P</phase>
          <azimuth>176.9</azimuth>
          <distance>1.792</distance>
          <timeResidual>0.31</timeResidual>
          <creationInfo>
            <agencyID>UW</agencyID>
            <creationTime>2012-02-27T12:46:42.000000Z</creationTime>
          </creationInfo>
        </arrival>
        <arrival publicID="quakeml:uw.anss.org/AssocArO/UW/2054993">
          <pickID>quakeml:uw.anss.org/Arrival/UW/2054993</pickID>
          <phase>P</phase>
          <azimuth>202.3</azimuth>
          <distance>1.009</distance>
          <timeResidual>0.32</timeResidual>
          <creationInfo>
            <agencyID>UW</agencyID>
            <creationTime>2012-02-27T12:46:42.000000Z</creationTime>
          </creationInfo>
        </arrival>
        <arrival publicID="quakeml:uw.anss.org/AssocArO/UW/2054998">
          <pickID>quakeml:uw.anss.org/Arrival/UW/2054998</pickID>
          <phase>P</phase>
          <azimuth>333.9</azimuth>
          <distance>0.3311</distance>
          <timeResidual>-0.72</timeResidual>
          <creationInfo>
            <agencyID>UW</agencyID>
            <creationTime>2012-02-27T12:46:42.000000Z</creationTime>
          </creationInfo>
        </arrival>
        <arrival publicID="quakeml:uw.anss.org/AssocArO/UW/2055003">
          <pickID>quakeml:uw.anss.org/Arrival/UW/2055003</pickID>
          <phase>S</phase>
          <azimuth>333.9</azimuth>
          <distance>0.3311</distance>
          <timeResidual>-0.4</timeResidual>
          <creationInfo>
            <agencyID>UW</agencyID>
            <creationTime>2012-02-27T12:46:42.000000Z</creationTime>
          </creationInfo>
        </arrival>
        <arrival publicID="quakeml:uw.anss.org/AssocArO/UW/2055008">
          <pickID>quakeml:uw.anss.org/Arrival/UW/2055008</pickID>
          <phase>P</phase>
          <azimuth>116.4</azimuth>
          <distance>1.718</distance>
          <timeResidual>1.37</timeResidual>
          <creationInfo>
            <agencyID>UW</agencyID>
            <creationTime>2012-02-27T12:46:42.000000Z</creationTime>
          </creationInfo>
        </arrival>
        <arrival publicID="quakeml:uw.anss.org/AssocArO/UW/2055013">
          <pickID>quakeml:uw.anss.org/Arrival/UW/2055013</pickID>
          <phase>P</phase>
          <azimuth>209.5</azimuth>
          <timeResidual>-0.67</timeResidual>
          <creationInfo>
            <agencyID>UW</agencyID>
            <creationTime>2012-02-27T12:46:42.000000Z</creationTime>
          </creationInfo>
        </arrival>
        <arrival publicID="quakeml:uw.anss.org/AssocArO/UW/2055018">
          <pickID>quakeml:uw.anss.org/Arrival/UW/2055018</pickID>
          <phase>S</phase>
          <azimuth>209.5</azimuth>
          <timeResidual>-0.87</timeResidual>
          <creationInfo>
            <agencyID>UW</agencyID>
            <creationTime>2012-02-27T12:46:42.000000Z</creationTime>
          </creationInfo>
        </arrival>
        <arrival publicID="quakeml:uw.anss.org/AssocArO/UW/2055033">
          <pickID>quakeml:uw.anss.org/Arrival/UW/2055033</pickID>
          <phase>P</phase>
          <azimuth>154.2</azimuth>
          <distance>1.748</distance>
          <timeResidual>-0.35</timeResidual>
          <creationInfo>
            <agencyID>UW</agencyID>
            <creationTime>2012-02-27T12:46:42.000000Z</creationTime>
          </creationInfo>
        </arrival>
        <arrival publicID="quakeml:uw.anss.org/AssocArO/UW/2055043">
          <pickID>quakeml:uw.anss.org/Arrival/UW/2055043</pickID>
          <phase>P</phase>
          <azimuth>117.4</azimuth>
          <distance>1.109</distance>
          <timeResidual>-0.43</timeResidual>
          <creationInfo>
            <agencyID>UW</agencyID>
            <creationTime>2012-02-27T12:46:42.000000Z</creationTime>
          </creationInfo>
        </arrival>
        <arrival publicID="quakeml:uw.anss.org/AssocArO/UW/2055053">
          <pickID>quakeml:uw.anss.org/Arrival/UW/2055053</pickID>
          <phase>P</phase>
          <azimuth>241.3</azimuth>
          <distance>0.9884</distance>
          <timeResidual>0.58</timeResidual>
          <creationInfo>
            <agencyID>UW</agencyID>
            <creationTime>2012-02-27T12:46:42.000000Z</creationTime>
          </creationInfo>
        </arrival>
        <arrival publicID="quakeml:uw.anss.org/AssocArO/UW/2055058">
          <pickID>quakeml:uw.anss.org/Arrival/UW/2055058</pickID>
          <phase>P</phase>
          <azimuth>157.8</azimuth>
          <distance>2.111</distance>
          <timeResidual>0.69</timeResidual>
          <creationInfo>
            <agencyID>UW</agencyID>
            <creationTime>2012-02-27T12:46:42.000000Z</creationTime>
          </creationInfo>
        </arrival>
        <arrival publicID="quakeml:uw.anss.org/AssocArO/UW/2055068">
          <pickID>quakeml:uw.anss.org/Arrival/UW/2055068</pickID>
          <phase>P</phase>
          <azimuth>123.7</azimuth>
          <distance>1.4</distance>
          <timeResidual>0.19</timeResidual>
          <creationInfo>
            <agencyID>UW</agencyID>
            <creationTime>2012-02-27T12:46:42.000000Z</creationTime>
          </creationInfo>
        </arrival>
        <arrival publicID="quakeml:uw.anss.org/AssocArO/UW/2055078">
          <pickID>quakeml:uw.anss.org/Arrival/UW/2055078</pickID>
          <phase>P</phase>
          <azimuth>218.7</azimuth>
          <distance>1.198</distance>
          <timeResidual>-0.1</timeResidual>
          <creationInfo>
            <agencyID>UW</agencyID>
            <creationTime>2012-02-27T12:46:42.000000Z</creationTime>
          </creationInfo>
        </arrival>
        <arrival publicID="quakeml:uw.anss.org/AssocArO/UW/2055088">
          <pickID>quakeml:uw.anss.org/Arrival/UW/2055088</pickID>
          <phase>P</phase>
          <azimuth>254.2</azimuth>
          <distance>0.5913</distance>
          <timeResidual>0.84</timeResidual>
          <creationInfo>
            <agencyID>UW</agencyID>
            <creationTime>2012-02-27T12:46:42.000000Z</creationTime>
          </creationInfo>
        </arrival>
        <arrival publicID="quakeml:uw.anss.org/AssocArO/UW/2055093">
          <pickID>quakeml:uw.anss.org/Arrival/UW/2055093</pickID>
          <phase>P</phase>
          <azimuth>89.5</azimuth>
          <distance>1.409</distance>
          <timeResidual>1.12</timeResidual>
          <creationInfo>
            <agencyID>UW</agencyID>
            <creationTime>2012-02-27T12:46:42.000000Z</creationTime>
          </creationInfo>
        </arrival>
        <arrival publicID="quakeml:uw.anss.org/AssocArO/UW/2055098">
          <pickID>quakeml:uw.anss.org/Arrival/UW/2055098</pickID>
          <phase>P</phase>
          <azimuth>201.1</azimuth>
          <distance>0.6872</distance>
          <timeResidual>-0.07</timeResidual>
          <creationInfo>
            <agencyID>UW</agencyID>
            <creationTime>2012-02-27T12:46:42.000000Z</creationTime>
          </creationInfo>
        </arrival>
        <arrival publicID="quakeml:uw.anss.org/AssocArO/UW/2055103">
          <pickID>quakeml:uw.anss.org/Arrival/UW/2055103</pickID>
          <phase>S</phase>
          <azimuth>201.1</azimuth>
          <distance>0.6872</distance>
          <timeResidual>-0.73</timeResidual>
          <creationInfo>
            <agencyID>UW</agencyID>
            <creationTime>2012-02-27T12:46:42.000000Z</creationTime>
          </creationInfo>
        </arrival>
        <arrival publicID="quakeml:uw.anss.org/AssocArO/UW/2055113">
          <pickID>quakeml:uw.anss.org/Arrival/UW/2055113</pickID>
          <phase>P</phase>
          <azimuth>256.5</azimuth>
          <timeResidual>-0.2</timeResidual>
          <creationInfo>
            <agencyID>UW</agencyID>
            <creationTime>2012-02-27T12:46:42.000000Z</creationTime>
          </creationInfo>
        </arrival>
        <arrival publicID="quakeml:uw.anss.org/AssocArO/UW/2055118">
          <pickID>quakeml:uw.anss.org/Arrival/UW/2055118</pickID>
          <phase>P</phase>
          <azimuth>284.6</azimuth>
          <distance>0.7888</distance>
          <timeResidual>0.07</timeResidual>
          <creationInfo>
            <agencyID>UW</agencyID>
            <creationTime>2012-02-27T12:46:42.000000Z</creationTime>
          </creationInfo>
        </arrival>
      </origin>
      <magnitude publicID="quakeml:uw.anss.org/Netmag/UW/360993">
        <mag>
          <value>2.2</value>
          <uncertainty>0.13</uncertainty>
        </mag>
        <type>Md</type>
        <originID>quakeml:uw.anss.org/Origin/UW/405483</originID>
        <methodID>smi:uw.anss.org/magnitude/Crosson</methodID>
        <stationCount>1</stationCount>
        <evaluationMode>manual</evaluationMode>
        <evaluationStatus>final</evaluationStatus>
        <stationMagnitudeContribution>
          <stationMagnitudeID>quakeml:uw.anss.org/AssocCoM/UW/714908</stationMagnitudeID>
          <weight>1.0</weight>
          <residual>0.03</residual>
        </stationMagnitudeContribution>
        <creationInfo>
          <agencyID>UW</agencyID>
          <creationTime>2012-02-27T12:46:42.000000Z</creationTime>
        </creationInfo>
      </magnitude>
      <stationMagnitude publicID="quakeml:uw.anss.org/AssocCoM/UW/714908">
        <originID>quakeml:uw.anss.org/Origin/UW/405483</originID>
        <mag>
          <value>2.23</value>
        </mag>
        <type>MD</type>
        <amplitudeID>quakeml:uw.anss.org/Coda/UW/714908</amplitudeID>
        <waveformID networkCode="UW" stationCode="JCW" locationCode="" channelCode="EHZ"></waveformID>
      </stationMagnitude>
      <pick publicID="quakeml:uw.anss.org/Arrival/UW/2054933">
        <time>
          <value>1982-01-21T16:06:08.190000Z</value>
          <uncertainty>0.06</uncertainty>
        </time>
        <waveformID networkCode="UW" stationCode="HDW" locationCode="" channelCode="EHZ"></waveformID>
        <polarity>undecidable</polarity>
        <evaluationMode>manual</evaluationMode>
        <evaluationStatus>final</evaluationStatus>
        <creationInfo>
          <agencyID>UW</agencyID>
          <creationTime>2012-02-27T12:46:42.000000Z</creationTime>
        </creationInfo>
      </pick>
      <pick publicID="quakeml:uw.anss.org/Arrival/UW/2054938">
        <time>
          <value>1982-01-21T16:06:17.430000Z</value>
          <uncertainty>0.09</uncertainty>
        </time>
        <waveformID networkCode="UW" stationCode="WBW" locationCode="" channelCode="EHZ"></waveformID>
        <polarity>undecidable</polarity>
        <evaluationMode>manual</evaluationMode>
        <evaluationStatus>final</evaluationStatus>
        <creationInfo>
          <agencyID>UW</agencyID>
          <creationTime>2012-02-27T12:46:42.000000Z</creationTime>
        </creationInfo>
      </pick>
      <pick publicID="quakeml:uw.anss.org/Arrival/UW/2054943">
        <time>
          <value>1982-01-21T16:06:23.060000Z</value>
          <uncertainty>0.12</uncertainty>
        </time>
        <waveformID networkCode="UW" stationCode="CMM" locationCode="" channelCode="EHZ"></waveformID>
        <polarity>undecidable</polarity>
        <evaluationMode>manual</evaluationMode>
        <evaluationStatus>final</evaluationStatus>
        <creationInfo>
          <agencyID>UW</agencyID>
          <creationTime>2012-02-27T12:46:42.000000Z</creationTime>
        </creationInfo>
      </pick>
      <pick publicID="quakeml:uw.anss.org/Arrival/UW/2054948">
        <time>
          <value>1982-01-21T16:06:18.880000Z</value>
          <uncertainty>0.15</uncertainty>
        </time>
        <waveformID networkCode="UW" stationCode="NAC" locationCode="" channelCode="EHZ"></waveformID>
        <polarity>undecidable</polarity>
        <evaluationMode>manual</evaluationMode>
        <evaluationStatus>final</evaluationStatus>
        <creationInfo>
          <agencyID>UW</agencyID>
          <creationTime>2012-02-27T12:46:42.000000Z</creationTime>
        </creationInfo>
      </pick>
      <pick publicID="quakeml:uw.anss.org/Arrival/UW/2054953">
        <time>
          <value>1982-01-21T16:06:16.700000Z</value>
          <uncertainty>0.08</uncertainty>
        </time>
        <waveformID networkCode="UW" stationCode="LON" locationCode="" channelCode="LHZ"></waveformID>
        <polarity>undecidable</polarity>
        <evaluationMode>manual</evaluationMode>
        <evaluationStatus>final</evaluationStatus>
        <creationInfo>
          <agencyID>UW</agencyID>
