<?xml version='1.0' encoding='utf-8'?>
<q:quakeml xmlns="http://quakeml.org/xmlns/bed/1.2" xmlns:q="http://quakeml.org/xmlns/quakeml/1.2" xmlns:ns0="http://anss.org/xmlns/catalog/0.1">
  <eventParameters publicID="smi:local/2afc9b74-b9c6-4753-9c3f-2f62135d60f2">
    <event publicID="quakeml:uw.anss.org/Event/UW/10113158" ns0:datasource="uw" ns0:dataid="uw10113158" ns0:eventsource="uw" ns0:eventid="10113158">
      <preferredOriginID>quakeml:uw.anss.org/Origin/UW/389963</preferredOriginID>
      <preferredMagnitudeID>quakeml:uw.anss.org/Netmag/UW/351878</preferredMagnitudeID>
      <type>earthquake</type>
      <creationInfo>
        <agencyID>UW</agencyID>
        <creationTime>2012-02-27T10:53:10.000000Z</creationTime>
        <version>3</version>
      </creationInfo>
      <origin publicID="quakeml:uw.anss.org/Origin/UW/389963" ns0:datasource="uw" ns0:dataid="uw10113158" ns0:eventsource="uw" ns0:eventid="10113158">
        <time>
          <value>1981-09-03T01:05:43.100000Z</value>
          <uncertainty>0.02</uncertainty>
        </time>
        <latitude>
          <value>48.66</value>
          <uncertainty>0.54</uncertainty>
        </latitude>
        <longitude>
          <value>-121.964</value>
          <uncertainty>0.28</uncertainty>
        </longitude>
        <depth>
          <value>-698.0</value>
          <uncertainty>640.0</uncertainty>
        </depth>
        <depthType>operator assigned</depthType>
        <timeFixed>false</timeFixed>
        <epicenterFixed>false</epicenterFixed>
        <methodID>smi:uw.anss.org/origin/spong</methodID>
        <quality>
          <associatedPhaseCount>9</associatedPhaseCount>
          <usedPhaseCount>9</usedPhaseCount>
          <associatedStationCount>6</associatedStationCount>
          <usedStationCount>0</usedStationCount>
          <standardError>0.22</standardError>
          <azimuthalGap>162.0</azimuthalGap>
        </quality>
        <type>hypocenter</type>
        <evaluationMode>manual</evaluationMode>
        <evaluationStatus>final</evaluationStatus>
        <creationInfo>
          <agencyID>UW</agencyID>
          <creationTime>2012-02-27T10:53:10.000000Z</creationTime>
        </creationInfo>
        <originUncertainty>
          <preferredDescription>horizontal uncertainty</preferredDescription>
          <horizontalUncertainty>608.0</horizontalUncertainty>
        </originUncertainty>
        <arrival publicID="quakeml:uw.anss.org/AssocArO/UW/1895393">
          <pickID>quakeml:uw.anss.org/Arrival/UW/1895393</pickID>
          <phase>P</phase>
          <azimuth>216.4</azimuth>
          <distance>0.1553</distance>
          <timeResidual>-0.01</timeResidual>
          <creationInfo>
            <agencyID>UW</agencyID>
            <creationTime>2012-02-27T10:53:10.000000Z</creationTime>
          </creationInfo>
        </arrival>
        <arrival publicID="quakeml:uw.anss.org/AssocArO/UW/1895398">
          <pickID>quakeml:uw.anss.org/Arrival/UW/1895398</pickID>
          <phase>S</phase>
          <azimuth>216.4</azimuth>
          <distance>0.1553</distance>
          <timeResidual>-0.06</timeResidual>
          <creationInfo>
            <agencyID>UW</agencyID>
            <creationTime>2012-02-27T10:53:10.000000Z</creationTime>
          </creationInfo>
        </arrival>
        <arrival publicID="quakeml:uw.anss.org/AssocArO/UW/1895403">
          <pickID>quakeml:uw.anss.org/Arrival/UW/1895403</pickID>
          <phase>P</phase>
          <azimuth>174.9</azimuth>
          <distance>1.206</distance>
          <timeResidual>-0.24</timeResidual>
          <creationInfo>
            <agencyID>UW</agencyID>
            <creationTime>2012-02-27T10:53:10.000000Z</creationTime>
          </creationInfo>
        </arrival>
        <arrival publicID="quakeml:uw.anss.org/AssocArO/UW/1895408">
          <pickID>quakeml:uw.anss.org/Arrival/UW/1895408</pickID>
          <phase>P</phase>
          <azimuth>184.0</azimuth>
          <distance>0.8164</distance>
          <timeResidual>0.41</timeResidual>
          <creationInfo>
            <agencyID>UW</agencyID>
            <creationTime>2012-02-27T10:53:10.000000Z</creationTime>
          </creationInfo>
        </arrival>
        <arrival publicID="quakeml:uw.anss.org/AssocArO/UW/1895413">
          <pickID>quakeml:uw.anss.org/Arrival/UW/1895413</pickID>
          <phase>P</phase>
          <azimuth>171.3</azimuth>
          <distance>0.8667</distance>
          <timeResidual>0.37</timeResidual>
          <creationInfo>
            <agencyID>UW</agencyID>
            <creationTime>2012-02-27T10:53:10.000000Z</creationTime>
          </creationInfo>
        </arrival>
        <arrival publicID="quakeml:uw.anss.org/AssocArO/UW/1895418">
          <pickID>quakeml:uw.anss.org/Arrival/UW/1895418</pickID>
          <phase>P</phase>
          <azimuth>177.0</azimuth>
          <timeResidual>-0.02</timeResidual>
          <creationInfo>
            <agencyID>UW</agencyID>
            <creationTime>2012-02-27T10:53:10.000000Z</creationTime>
          </creationInfo>
        </arrival>
        <arrival publicID="quakeml:uw.anss.org/AssocArO/UW/1895423">
          <pickID>quakeml:uw.anss.org/Arrival/UW/1895423</pickID>
          <phase>S</phase>
          <azimuth>177.0</azimuth>
          <timeResidual>-0.37</timeResidual>
          <creationInfo>
            <agencyID>UW</agencyID>
            <creationTime>2012-02-27T10:53:10.000000Z</creationTime>
          </creationInfo>
        </arrival>
        <arrival publicID="quakeml:uw.anss.org/AssocArO/UW/1895428">
          <pickID>quakeml:uw.anss.org/Arrival/UW/1895428</pickID>
          <phase>P</phase>
          <azimuth>18.5</azimuth>
          <distance>0.1308</distance>
          <timeResidual>-0.07</timeResidual>
          <creationInfo>
            <agencyID>UW</agencyID>
            <creationTime>2012-02-27T10:53:10.000000Z</creationTime>
          </creationInfo>
        </arrival>
        <arrival publicID="quakeml:uw.anss.org/AssocArO/UW/1895433">
          <pickID>quakeml:uw.anss.org/Arrival/UW/1895433</pickID>
          <phase>S</phase>
          <azimuth>18.5</azimuth>
          <distance>0.1308</distance>
          <timeResidual>0.2</timeResidual>
          <creationInfo>
            <agencyID>UW</agencyID>
            <creationTime>2012-02-27T10:53:10.000000Z</creationTime>
          </creationInfo>
        </arrival>
      </origin>
      <magnitude publicID="quakeml:uw.anss.org/Netmag/UW/351878">
        <mag>
          <value>1.3</value>
          <uncertainty>0.06</uncertainty>
        </mag>
        <type>Md</type>
        <originID>quakeml:uw.anss.org/Origin/UW/389963</originID>
        <methodID>smi:uw.anss.org/magnitude/Crosson</methodID>
        <stationCount>1</stationCount>
        <evaluationMode>manual</evaluationMode>
        <evaluationStatus>final</evaluationStatus>
        <stationMagnitudeContribution>
          <stationMagnitudeID>quakeml:uw.anss.org/AssocCoM/UW/689288</stationMagnitudeID>
          <weight>1.0</weight>
          <residual>-0.03</residual>
        </stationMagnitudeContribution>
        <creationInfo>
          <agencyID>UW</agencyID>
          <creationTime>2012-02-27T10:53:10.000000Z</creationTime>
        </creationInfo>
      </magnitude>
      <stationMagnitude publicID="quakeml:uw.anss.org/AssocCoM/UW/689288">
        <originID>quakeml:uw.anss.org/Origin/UW/389963</originID>
        <mag>
          <value>1.27</value>
        </mag>
        <type>MD</type>
        <amplitudeID>quakeml:uw.anss.org/Coda/UW/689288</amplitudeID>
        <waveformID networkCode="UW" stationCode="MBW" locationCode="" channelCode="EHZ"></waveformID>
      </stationMagnitude>
      <pick publicID="quakeml:uw.anss.org/Arrival/UW/1895393">
        <time>
          <value>1981-09-03T01:05:46.380000Z</value>
          <uncertainty>0.01</uncertainty>
        </time>
        <waveformID networkCode="UW" stationCode="LYW" locationCode="" channelCode="EHZ"></waveformID>
        <polarity>positive</polarity>
        <evaluationMode>manual</evaluationMode>
        <evaluationStatus>final</evaluationStatus>
        <creationInfo>
          <agencyID>UW</agencyID>
          <creationTime>2012-02-27T10:53:10.000000Z</creationTime>
        </creationInfo>
      </pick>
      <pick publicID="quakeml:uw.anss.org/Arrival/UW/1895398">
        <time>
          <value>1981-09-03T01:05:48.890000Z</value>
          <uncertainty>0.15</uncertainty>
        </time>
        <waveformID networkCode="UW" stationCode="LYW" locationCode="" channelCode="EHZ"></waveformID>
        <polarity>undecidable</polarity>
        <evaluationMode>manual</evaluationMode>
        <evaluationStatus>final</evaluationStatus>
        <creationInfo>
          <agencyID>UW</agencyID>
          <creationTime>2012-02-27T10:53:10.000000Z</creationTime>
        </creationInfo>
      </pick>
      <pick publicID="quakeml:uw.anss.org/Arrival/UW/1895403">
        <time>
          <value>1981-09-03T01:06:04.710000Z</value>
          <uncertainty>0.15</uncertainty>
        </time>
        <waveformID networkCode="UW" stationCode="RMW" locationCode="" channelCode="EHZ"></waveformID>
        <polarity>undecidable</polarity>
        <evaluationMode>manual</evaluationMode>
        <evaluationStatus>final</evaluationStatus>
        <creationInfo>
          <agencyID>UW</agencyID>
          <creationTime>2012-02-27T10:53:10.000000Z</creationTime>
        </creationInfo>
      </pick>
      <pick publicID="quakeml:uw.anss.org/Arrival/UW/1895408">
        <time>
          <value>1981-09-03T01:05:58.640000Z</value>
          <uncertainty>0.05</uncertainty>
        </time>
        <waveformID networkCode="UW" stationCode="MOW" locationCode="" channelCode="EHZ"></waveformID>
        <polarity>undecidable</polarity>
        <evaluationMode>manual</evaluationMode>
        <evaluationStatus>final</evaluationStatus>
        <creationInfo>
          <agencyID>UW</agencyID>
          <creationTime>2012-02-27T10:53:10.000000Z</creationTime>
        </creationInfo>
      </pick>
      <pick publicID="quakeml:uw.anss.org/Arrival/UW/1895413">
        <time>
          <value>1981-09-03T01:05:59.330000Z</value>
          <uncertainty>0.04</uncertainty>
        </time>
        <waveformID networkCode="UW" stationCode="HTW" locationCode="" channelCode="EHZ"></waveformID>
        <polarity>undecidable</polarity>
        <evaluationMode>manual</evaluationMode>
        <evaluationStatus>final</evaluationStatus>
        <creationInfo>
          <agencyID>UW</agencyID>
          <creationTime>2012-02-27T10:53:10.000000Z</creationTime>
        </creationInfo>
      </pick>
      <pick publicID="quakeml:uw.anss.org/Arrival/UW/1895418">
        <time>
          <value>1981-09-03T01:05:51.950000Z</value>
          <uncertainty>0.02</uncertainty>
        </time>
        <waveformID networkCode="UW" stationCode="JCW" locationCode="" channelCode="EHZ"></waveformID>
        <polarity>negative</polarity>
        <evaluationMode>manual</evaluationMode>
        <evaluationStatus>final</evaluationStatus>
        <creationInfo>
          <agencyID>UW</agencyID>
          <creationTime>2012-02-27T10:53:10.000000Z</creationTime>
        </creationInfo>
      </pick>
      <pick publicID="quakeml:uw.anss.org/Arrival/UW/1895423">
        <time>
          <value>1981-09-03T01:05:58.520000Z</value>
          <uncertainty>0.1</uncertainty>
        </time>
        <waveformID networkCode="UW" stationCode="JCW" locationCode="" channelCode="EHZ"></waveformID>
        <polarity>undecidable</polarity>
        <evaluationMode>manual</evaluationMode>
        <evaluationStatus>final</evaluationStatus>
        <creationInfo>
          <agencyID>UW</agencyID>
          <creationTime>2012-02-27T10:53:10.000000Z</creationTime>
        </creationInfo>
      </pick>
      <pick publicID="quakeml:uw.anss.org/Arrival/UW/1895428">
        <time>
          <value>1981-09-03T01:05:46.050000Z</value>
          <uncertainty>0.01</uncertainty>
        </time>
        <waveformID networkCode="UW" stationCode="MBW" locationCode="" channelCode="EHZ"></waveformID>
        <polarity>negative</polarity>
        <evaluationMode>manual</evaluationMode>
        <evaluationStatus>final</evaluationStatus>
        <creationInfo>
          <agencyID>UW</agencyID>
          <creationTime>2012-02-27T10:53:10.000000Z</creationTime>
        </creationInfo>
      </pick>
      <pick publicID="quakeml:uw.anss.org/Arrival/UW/1895433">
        <time>
          <value>1981-09-03T01:05:48.680000Z</value>
          <uncertainty>0.12</uncertainty>
        </time>
        <waveformID networkCode="UW" stationCode="MBW" locationCode="" channelCode="EHZ"></waveformID>
        <polarity>undecidable</polarity>
        <evaluationMode>manual</evaluationMode>
        <evaluationStatus>final</evaluationStatus>
        <creationInfo>
          <agencyID>UW</agencyID>
          <creationTime>2012-02-27T10:53:10.000000Z</creationTime>
        </creationInfo>
      </pick>
      <amplitude publicID="quakeml:uw.anss.org/Coda/UW/689288">
        <genericAmplitude>
          <value>21.0</value>
        </genericAmplitude>
        <type>END</type>
        <category>duration</category>
        <unit>s</unit>
        <waveformID networkCode="UW" stationCode="MBW" locationCode="" channelCode="EHZ"></waveformID>
        <magnitudeHint>MD</magnitudeHint>
        <evaluationMode>manual</evaluationMode>
        <evaluationStatus>final</evaluationStatus>
      </amplitude>
    </event>
  </eventParameters>
</q:quakeml>
