<?xml version='1.0' encoding='utf-8'?>
<q:quakeml xmlns="http://quakeml.org/xmlns/bed/1.2" xmlns:q="http://quakeml.org/xmlns/quakeml/1.2" xmlns:ns0="http://anss.org/xmlns/catalog/0.1">
  <eventParameters publicID="smi:local/6a2475ba-2569-42f8-9281-6f4dd992e132">
    <event publicID="quakeml:uw.anss.org/Event/UW/10128793" ns0:datasource="uw" ns0:dataid="uw10128793" ns0:eventsource="uw" ns0:eventid="10128793">
      <preferredOriginID>quakeml:uw.anss.org/Origin/UW/405698</preferredOriginID>
      <preferredMagnitudeID>quakeml:uw.anss.org/Netmag/UW/361143</preferredMagnitudeID>
      <type>earthquake</type>
      <creationInfo>
        <agencyID>UW</agencyID>
        <creationTime>2012-02-27T12:46:57.000000Z</creationTime>
        <version>3</version>
      </creationInfo>
      <origin publicID="quakeml:uw.anss.org/Origin/UW/405698" ns0:datasource="uw" ns0:dataid="uw10128793" ns0:eventsource="uw" ns0:eventid="10128793">
        <time>
          <value>1981-08-14T12:02:04.280000Z</value>
          <uncertainty>0.34</uncertainty>
        </time>
        <latitude>
          <value>48.6351667</value>
          <uncertainty>1.59</uncertainty>
        </latitude>
        <longitude>
          <value>-121.9421667</value>
          <uncertainty>2.19</uncertainty>
        </longitude>
        <depth>
          <value>10728.0</value>
          <uncertainty>4660.0</uncertainty>
        </depth>
        <depthType>from location</depthType>
        <timeFixed>false</timeFixed>
        <epicenterFixed>false</epicenterFixed>
        <methodID>smi:uw.anss.org/origin/spong</methodID>
        <quality>
          <associatedPhaseCount>37</associatedPhaseCount>
          <usedPhaseCount>16</usedPhaseCount>
          <associatedStationCount>36</associatedStationCount>
          <usedStationCount>0</usedStationCount>
          <standardError>0.29</standardError>
          <azimuthalGap>237.0</azimuthalGap>
        </quality>
        <type>hypocenter</type>
        <evaluationMode>manual</evaluationMode>
        <evaluationStatus>final</evaluationStatus>
        <creationInfo>
          <agencyID>UW</agencyID>
          <creationTime>2012-02-27T12:46:57.000000Z</creationTime>
        </creationInfo>
        <originUncertainty>
          <preferredDescription>horizontal uncertainty</preferredDescription>
          <horizontalUncertainty>2706.0</horizontalUncertainty>
        </originUncertainty>
        <arrival publicID="quakeml:uw.anss.org/AssocArO/UW/2056988">
          <pickID>quakeml:uw.anss.org/Arrival/UW/2056988</pickID>
          <phase>P</phase>
          <azimuth>217.4</azimuth>
          <distance>1.237</distance>
          <timeResidual>-0.38</timeResidual>
          <creationInfo>
            <agencyID>UW</agencyID>
            <creationTime>2012-02-27T12:46:57.000000Z</creationTime>
          </creationInfo>
        </arrival>
        <arrival publicID="quakeml:uw.anss.org/AssocArO/UW/2056993">
          <pickID>quakeml:uw.anss.org/Arrival/UW/2056993</pickID>
          <phase>P</phase>
          <azimuth>190.0</azimuth>
          <distance>2.234</distance>
          <timeResidual>0.17</timeResidual>
          <creationInfo>
            <agencyID>UW</agencyID>
            <creationTime>2012-02-27T12:46:57.000000Z</creationTime>
          </creationInfo>
        </arrival>
        <arrival publicID="quakeml:uw.anss.org/AssocArO/UW/2056998">
          <pickID>quakeml:uw.anss.org/Arrival/UW/2056998</pickID>
          <phase>P</phase>
          <azimuth>188.1</azimuth>
          <distance>1.61</distance>
          <timeResidual>-0.07</timeResidual>
          <creationInfo>
            <agencyID>UW</agencyID>
            <creationTime>2012-02-27T12:46:57.000000Z</creationTime>
          </creationInfo>
        </arrival>
        <arrival publicID="quakeml:uw.anss.org/AssocArO/UW/2057003">
          <pickID>quakeml:uw.anss.org/Arrival/UW/2057003</pickID>
          <phase>P</phase>
          <azimuth>181.3</azimuth>
          <distance>2.146</distance>
          <timeResidual>0.05</timeResidual>
          <creationInfo>
            <agencyID>UW</agencyID>
            <creationTime>2012-02-27T12:46:57.000000Z</creationTime>
          </creationInfo>
        </arrival>
        <arrival publicID="quakeml:uw.anss.org/AssocArO/UW/2057008">
          <pickID>quakeml:uw.anss.org/Arrival/UW/2057008</pickID>
          <phase>P</phase>
          <azimuth>177.2</azimuth>
          <timeResidual>0.04</timeResidual>
          <creationInfo>
            <agencyID>UW</agencyID>
            <creationTime>2012-02-27T12:46:57.000000Z</creationTime>
          </creationInfo>
        </arrival>
        <arrival publicID="quakeml:uw.anss.org/AssocArO/UW/2057013">
          <pickID>quakeml:uw.anss.org/Arrival/UW/2057013</pickID>
          <phase>P</phase>
          <azimuth>160.3</azimuth>
          <distance>1.483</distance>
          <timeResidual>0.04</timeResidual>
          <creationInfo>
            <agencyID>UW</agencyID>
            <creationTime>2012-02-27T12:46:57.000000Z</creationTime>
          </creationInfo>
        </arrival>
        <arrival publicID="quakeml:uw.anss.org/AssocArO/UW/2057018">
          <pickID>quakeml:uw.anss.org/Arrival/UW/2057018</pickID>
          <phase>P</phase>
          <azimuth>128.3</azimuth>
          <distance>2.029</distance>
          <timeResidual>1.63</timeResidual>
          <creationInfo>
            <agencyID>UW</agencyID>
            <creationTime>2012-02-27T12:46:57.000000Z</creationTime>
          </creationInfo>
        </arrival>
        <arrival publicID="quakeml:uw.anss.org/AssocArO/UW/2057023">
          <pickID>quakeml:uw.anss.org/Arrival/UW/2057023</pickID>
          <phase>P</phase>
          <azimuth>184.6</azimuth>
          <distance>2.18</distance>
          <timeResidual>0.39</timeResidual>
          <creationInfo>
            <agencyID>UW</agencyID>
            <creationTime>2012-02-27T12:46:57.000000Z</creationTime>
          </creationInfo>
        </arrival>
        <arrival publicID="quakeml:uw.anss.org/AssocArO/UW/2057028">
          <pickID>quakeml:uw.anss.org/Arrival/UW/2057028</pickID>
          <phase>P</phase>
          <azimuth>183.4</azimuth>
          <distance>2.443</distance>
          <timeResidual>1.76</timeResidual>
          <creationInfo>
            <agencyID>UW</agencyID>
            <creationTime>2012-02-27T12:46:57.000000Z</creationTime>
          </creationInfo>
        </arrival>
        <arrival publicID="quakeml:uw.anss.org/AssocArO/UW/2057033">
          <pickID>quakeml:uw.anss.org/Arrival/UW/2057033</pickID>
          <phase>P</phase>
          <azimuth>176.0</azimuth>
          <timeResidual>0.12</timeResidual>
          <creationInfo>
            <agencyID>UW</agencyID>
            <creationTime>2012-02-27T12:46:57.000000Z</creationTime>
          </creationInfo>
        </arrival>
        <arrival publicID="quakeml:uw.anss.org/AssocArO/UW/2057038">
          <pickID>quakeml:uw.anss.org/Arrival/UW/2057038</pickID>
          <phase>P</phase>
          <azimuth>206.2</azimuth>
          <distance>1.848</distance>
          <timeResidual>-0.69</timeResidual>
          <creationInfo>
            <agencyID>UW</agencyID>
            <creationTime>2012-02-27T12:46:57.000000Z</creationTime>
          </creationInfo>
        </arrival>
        <arrival publicID="quakeml:uw.anss.org/AssocArO/UW/2057043">
          <pickID>quakeml:uw.anss.org/Arrival/UW/2057043</pickID>
          <phase>P</phase>
          <azimuth>175.5</azimuth>
          <distance>1.18</distance>
          <timeResidual>-0.06</timeResidual>
          <creationInfo>
            <agencyID>UW</agencyID>
            <creationTime>2012-02-27T12:46:57.000000Z</creationTime>
          </creationInfo>
        </arrival>
        <arrival publicID="quakeml:uw.anss.org/AssocArO/UW/2057048">
          <pickID>quakeml:uw.anss.org/Arrival/UW/2057048</pickID>
          <phase>P</phase>
          <azimuth>173.7</azimuth>
          <distance>2.091</distance>
          <timeResidual>0.51</timeResidual>
          <creationInfo>
            <agencyID>UW</agencyID>
            <creationTime>2012-02-27T12:46:57.000000Z</creationTime>
          </creationInfo>
        </arrival>
        <arrival publicID="quakeml:uw.anss.org/AssocArO/UW/2057053">
          <pickID>quakeml:uw.anss.org/Arrival/UW/2057053</pickID>
          <phase>P</phase>
          <azimuth>171.8</azimuth>
          <distance>1.957</distance>
          <timeResidual>0.17</timeResidual>
          <creationInfo>
            <agencyID>UW</agencyID>
            <creationTime>2012-02-27T12:46:57.000000Z</creationTime>
          </creationInfo>
        </arrival>
        <arrival publicID="quakeml:uw.anss.org/AssocArO/UW/2057058">
          <pickID>quakeml:uw.anss.org/Arrival/UW/2057058</pickID>
          <phase>P</phase>
          <azimuth>190.8</azimuth>
          <distance>1.102</distance>
          <timeResidual>0.43</timeResidual>
          <creationInfo>
            <agencyID>UW</agencyID>
            <creationTime>2012-02-27T12:46:57.000000Z</creationTime>
          </creationInfo>
        </arrival>
        <arrival publicID="quakeml:uw.anss.org/AssocArO/UW/2057063">
          <pickID>quakeml:uw.anss.org/Arrival/UW/2057063</pickID>
          <phase>P</phase>
          <azimuth>228.8</azimuth>
          <distance>1.68</distance>
          <timeResidual>0.77</timeResidual>
          <creationInfo>
            <agencyID>UW</agencyID>
            <creationTime>2012-02-27T12:46:57.000000Z</creationTime>
          </creationInfo>
        </arrival>
        <arrival publicID="quakeml:uw.anss.org/AssocArO/UW/2057068">
          <pickID>quakeml:uw.anss.org/Arrival/UW/2057068</pickID>
          <phase>P</phase>
          <azimuth>183.2</azimuth>
          <distance>2.396</distance>
          <timeResidual>0.49</timeResidual>
          <creationInfo>
            <agencyID>UW</agencyID>
            <creationTime>2012-02-27T12:46:57.000000Z</creationTime>
          </creationInfo>
        </arrival>
        <arrival publicID="quakeml:uw.anss.org/AssocArO/UW/2057073">
          <pickID>quakeml:uw.anss.org/Arrival/UW/2057073</pickID>
          <phase>P</phase>
          <azimuth>192.6</azimuth>
          <distance>2.546</distance>
          <timeResidual>0.75</timeResidual>
          <creationInfo>
            <agencyID>UW</agencyID>
            <creationTime>2012-02-27T12:46:57.000000Z</creationTime>
          </creationInfo>
        </arrival>
        <arrival publicID="quakeml:uw.anss.org/AssocArO/UW/2057078">
          <pickID>quakeml:uw.anss.org/Arrival/UW/2057078</pickID>
          <phase>P</phase>
          <azimuth>186.8</azimuth>
          <distance>2.346</distance>
          <timeResidual>0.62</timeResidual>
          <creationInfo>
            <agencyID>UW</agencyID>
            <creationTime>2012-02-27T12:46:57.000000Z</creationTime>
          </creationInfo>
        </arrival>
        <arrival publicID="quakeml:uw.anss.org/AssocArO/UW/2057083">
          <pickID>quakeml:uw.anss.org/Arrival/UW/2057083</pickID>
          <phase>P</phase>
          <azimuth>178.7</azimuth>
          <timeResidual>-0.33</timeResidual>
          <creationInfo>
            <agencyID>UW</agencyID>
            <creationTime>2012-02-27T12:46:57.000000Z</creationTime>
          </creationInfo>
        </arrival>
        <arrival publicID="quakeml:uw.anss.org/AssocArO/UW/2057088">
          <pickID>quakeml:uw.anss.org/Arrival/UW/2057088</pickID>
          <phase>S</phase>
          <azimuth>178.7</azimuth>
          <timeResidual>0.06</timeResidual>
          <creationInfo>
            <agencyID>UW</agencyID>
            <creationTime>2012-02-27T12:46:57.000000Z</creationTime>
          </creationInfo>
        </arrival>
        <arrival publicID="quakeml:uw.anss.org/AssocArO/UW/2057093">
          <pickID>quakeml:uw.anss.org/Arrival/UW/2057093</pickID>
          <phase>P</phase>
          <azimuth>151.3</azimuth>
          <distance>1.96</distance>
          <timeResidual>-0.47</timeResidual>
          <creationInfo>
            <agencyID>UW</agencyID>
            <creationTime>2012-02-27T12:46:57.000000Z</creationTime>
          </creationInfo>
        </arrival>
        <arrival publicID="quakeml:uw.anss.org/AssocArO/UW/2057098">
          <pickID>quakeml:uw.anss.org/Arrival/UW/2057098</pickID>
          <phase>P</phase>
          <azimuth>173.8</azimuth>
          <timeResidual>0.1</timeResidual>
          <creationInfo>
            <agencyID>UW</agencyID>
            <creationTime>2012-02-27T12:46:57.000000Z</creationTime>
          </creationInfo>
        </arrival>
        <arrival publicID="quakeml:uw.anss.org/AssocArO/UW/2057103">
          <pickID>quakeml:uw.anss.org/Arrival/UW/2057103</pickID>
          <phase>P</phase>
          <azimuth>247.9</azimuth>
          <distance>1.547</distance>
          <timeResidual>0.04</timeResidual>
          <creationInfo>
            <agencyID>UW</agencyID>
            <creationTime>2012-02-27T12:46:57.000000Z</creationTime>
          </creationInfo>
        </arrival>
        <arrival publicID="quakeml:uw.anss.org/AssocArO/UW/2057108">
          <pickID>quakeml:uw.anss.org/Arrival/UW/2057108</pickID>
          <phase>P</phase>
          <azimuth>247.8</azimuth>
          <timeResidual>-0.43</timeResidual>
          <creationInfo>
            <agencyID>UW</agencyID>
            <creationTime>2012-02-27T12:46:57.000000Z</creationTime>
          </creationInfo>
        </arrival>
        <arrival publicID="quakeml:uw.anss.org/AssocArO/UW/2057113">
          <pickID>quakeml:uw.anss.org/Arrival/UW/2057113</pickID>
          <phase>P</phase>
          <azimuth>155.0</azimuth>
          <distance>2.317</distance>
          <timeResidual>1.44</timeResidual>
          <creationInfo>
            <agencyID>UW</agencyID>
            <creationTime>2012-02-27T12:46:57.000000Z</creationTime>
          </creationInfo>
        </arrival>
        <arrival publicID="quakeml:uw.anss.org/AssocArO/UW/2057118">
          <pickID>quakeml:uw.anss.org/Arrival/UW/2057118</pickID>
          <phase>P</phase>
          <azimuth>124.5</azimuth>
          <distance>1.627</distance>
          <timeResidual>0.6</timeResidual>
          <creationInfo>
            <agencyID>UW</agencyID>
            <creationTime>2012-02-27T12:46:57.000000Z</creationTime>
          </creationInfo>
        </arrival>
        <arrival publicID="quakeml:uw.anss.org/AssocArO/UW/2057123">
          <pickID>quakeml:uw.anss.org/Arrival/UW/2057123</pickID>
          <phase>P</phase>
          <azimuth>207.8</azimuth>
          <distance>1.227</distance>
          <timeResidual>-0.35</timeResidual>
          <creationInfo>
            <agencyID>UW</agencyID>
            <creationTime>2012-02-27T12:46:57.000000Z</creationTime>
          </creationInfo>
        </arrival>
        <arrival publicID="quakeml:uw.anss.org/AssocArO/UW/2057128">
          <pickID>quakeml:uw.anss.org/Arrival/UW/2057128</pickID>
          <phase>P</phase>
          <azimuth>185.2</azimuth>
          <distance>0.7928</distance>
          <timeResidual>0.29</timeResidual>
          <creationInfo>
            <agencyID>UW</agencyID>
            <creationTime>2012-02-27T12:46:57.000000Z</creationTime>
          </creationInfo>
        </arrival>
        <arrival publicID="quakeml:uw.anss.org/AssocArO/UW/2057133">
          <pickID>quakeml:uw.anss.org/Arrival/UW/2057133</pickID>
          <phase>P</phase>
          <azimuth>194.0</azimuth>
          <distance>2.037</distance>
          <timeResidual>-0.16</timeResidual>
          <creationInfo>
            <agencyID>UW</agencyID>
            <creationTime>2012-02-27T12:46:57.000000Z</creationTime>
          </creationInfo>
        </arrival>
        <arrival publicID="quakeml:uw.anss.org/AssocArO/UW/2057138">
          <pickID>quakeml:uw.anss.org/Arrival/UW/2057138</pickID>
          <phase>P</phase>
          <azimuth>187.0</azimuth>
          <distance>1.983</distance>
          <timeResidual>-0.07</timeResidual>
          <creationInfo>
            <agencyID>UW</agencyID>
            <creationTime>2012-02-27T12:46:57.000000Z</creationTime>
          </creationInfo>
        </arrival>
        <arrival publicID="quakeml:uw.anss.org/AssocArO/UW/2057143">
          <pickID>quakeml:uw.anss.org/Arrival/UW/2057143</pickID>
          <phase>P</phase>
          <azimuth>172.0</azimuth>
          <distance>0.84</distance>
          <timeResidual>-0.04</timeResidual>
          <creationInfo>
            <agencyID>UW</agencyID>
            <creationTime>2012-02-27T12:46:57.000000Z</creationTime>
          </creationInfo>
        </arrival>
        <arrival publicID="quakeml:uw.anss.org/AssocArO/UW/2057148">
          <pickID>quakeml:uw.anss.org/Arrival/UW/2057148</pickID>
          <phase>P</phase>
          <azimuth>137.7</azimuth>
          <distance>2.367</distance>
          <timeResidual>2.41</timeResidual>
          <creationInfo>
            <agencyID>UW</agencyID>
            <creationTime>2012-02-27T12:46:57.000000Z</creationTime>
          </creationInfo>
        </arrival>
        <arrival publicID="quakeml:uw.anss.org/AssocArO/UW/2057153">
          <pickID>quakeml:uw.anss.org/Arrival/UW/2057153</pickID>
          <phase>P</phase>
          <azimuth>227.9</azimuth>
          <distance>0.932</distance>
          <timeResidual>0.28</timeResidual>
          <creationInfo>
            <agencyID>UW</agencyID>
            <creationTime>2012-02-27T12:46:57.000000Z</creationTime>
          </creationInfo>
        </arrival>
        <arrival publicID="quakeml:uw.anss.org/AssocArO/UW/2057158">
          <pickID>quakeml:uw.anss.org/Arrival/UW/2057158</pickID>
          <phase>P</phase>
          <azimuth>147.9</azimuth>
          <distance>1.722</distance>
          <timeResidual>0.05</timeResidual>
          <creationInfo>
            <agencyID>UW</agencyID>
            <creationTime>2012-02-27T12:46:57.000000Z</creationTime>
          </creationInfo>
        </arrival>
        <arrival publicID="quakeml:uw.anss.org/AssocArO/UW/2057163">
          <pickID>quakeml:uw.anss.org/Arrival/UW/2057163</pickID>
          <phase>P</phase>
          <azimuth>122.4</azimuth>
          <distance>1.522</distance>
          <timeResidual>0.44</timeResidual>
          <creationInfo>
            <agencyID>UW</agencyID>
            <creationTime>2012-02-27T12:46:57.000000Z</creationTime>
          </creationInfo>
        </arrival>
        <arrival publicID="quakeml:uw.anss.org/AssocArO/UW/2057168">
          <pickID>quakeml:uw.anss.org/Arrival/UW/2057168</pickID>
          <phase>P</phase>
          <azimuth>133.8</azimuth>
          <distance>1.221</distance>
          <timeResidual>0.19</timeResidual>
          <creationInfo>
            <agencyID>UW</agencyID>
            <creationTime>2012-02-27T12:46:57.000000Z</creationTime>
          </creationInfo>
        </arrival>
      </origin>
      <magnitude publicID="quakeml:uw.anss.org/Netmag/UW/361143">
        <mag>
          <value>1.9</value>
          <uncertainty>0.06</uncertainty>
        </mag>
        <type>Md</type>
        <originID>quakeml:uw.anss.org/Origin/UW/405698</originID>
        <methodID>smi:uw.anss.org/magnitude/Crosson</methodID>
        <stationCount>1</stationCount>
        <evaluationMode>manual</evaluationMode>
        <evaluationStatus>final</evaluationStatus>
        <stationMagnitudeContribution>
          <stationMagnitudeID>quakeml:uw.anss.org/AssocCoM/UW/715268</stationMagnitudeID>
          <weight>1.0</weight>
          <residual>-0.04</residual>
        </stationMagnitudeContribution>
        <creationInfo>
          <agencyID>UW</agencyID>
          <creationTime>2012-02-27T12:46:57.000000Z</creationTime>
        </creationInfo>
      </magnitude>
      <stationMagnitude publicID="quakeml:uw.anss.org/AssocCoM/UW/715268">
        <originID>quakeml:uw.anss.org/Origin/UW/405698</originID>
        <mag>
