<?xml version='1.0' encoding='utf-8'?>
<q:quakeml xmlns="http://quakeml.org/xmlns/bed/1.2" xmlns:q="http://quakeml.org/xmlns/quakeml/1.2" xmlns:ns0="http://anss.org/xmlns/catalog/0.1">
  <eventParameters publicID="smi:local/d7006132-20ee-444d-bf6e-cb85cad061b2">
    <event publicID="quakeml:uw.anss.org/Event/UW/10114458" ns0:datasource="uw" ns0:dataid="uw10114458" ns0:eventsource="uw" ns0:eventid="10114458">
      <preferredOriginID>quakeml:uw.anss.org/Origin/UW/391263</preferredOriginID>
      <preferredMagnitudeID>quakeml:uw.anss.org/Netmag/UW/352733</preferredMagnitudeID>
      <type>earthquake</type>
      <creationInfo>
        <agencyID>UW</agencyID>
        <creationTime>2012-02-27T10:54:39.000000Z</creationTime>
        <version>3</version>
      </creationInfo>
      <origin publicID="quakeml:uw.anss.org/Origin/UW/391263" ns0:datasource="uw" ns0:dataid="uw10114458" ns0:eventsource="uw" ns0:eventid="10114458">
        <time>
          <value>1981-06-23T00:05:28.950000Z</value>
          <uncertainty>2.85</uncertainty>
        </time>
        <latitude>
          <value>48.852</value>
          <uncertainty>1.88</uncertainty>
        </latitude>
        <longitude>
          <value>-122.1251667</value>
          <uncertainty>1.5</uncertainty>
        </longitude>
        <depth>
          <value>5039.0</value>
          <uncertainty>25970.0</uncertainty>
        </depth>
        <depthType>operator assigned</depthType>
        <timeFixed>false</timeFixed>
        <epicenterFixed>true</epicenterFixed>
        <methodID>smi:uw.anss.org/origin/spong</methodID>
        <quality>
          <associatedPhaseCount>71</associatedPhaseCount>
          <usedPhaseCount>19</usedPhaseCount>
          <associatedStationCount>67</associatedStationCount>
          <usedStationCount>0</usedStationCount>
          <standardError>0.33</standardError>
          <azimuthalGap>149.0</azimuthalGap>
        </quality>
        <type>hypocenter</type>
        <evaluationMode>manual</evaluationMode>
        <evaluationStatus>final</evaluationStatus>
        <creationInfo>
          <agencyID>UW</agencyID>
          <creationTime>2012-02-27T10:54:39.000000Z</creationTime>
        </creationInfo>
        <originUncertainty>
          <preferredDescription>horizontal uncertainty</preferredDescription>
          <horizontalUncertainty>2405.0</horizontalUncertainty>
        </originUncertainty>
        <arrival publicID="quakeml:uw.anss.org/AssocArO/UW/1910218">
          <pickID>quakeml:uw.anss.org/Arrival/UW/1910218</pickID>
          <phase>P</phase>
          <azimuth>207.6</azimuth>
          <distance>1.356</distance>
          <timeResidual>-0.57</timeResidual>
          <creationInfo>
            <agencyID>UW</agencyID>
            <creationTime>2012-02-27T10:54:39.000000Z</creationTime>
          </creationInfo>
        </arrival>
        <arrival publicID="quakeml:uw.anss.org/AssocArO/UW/1910223">
          <pickID>quakeml:uw.anss.org/Arrival/UW/1910223</pickID>
          <phase>P</phase>
          <azimuth>111.7</azimuth>
          <distance>2.157</distance>
          <timeResidual>2.37</timeResidual>
          <creationInfo>
            <agencyID>UW</agencyID>
            <creationTime>2012-02-27T10:54:39.000000Z</creationTime>
          </creationInfo>
        </arrival>
        <arrival publicID="quakeml:uw.anss.org/AssocArO/UW/1910228">
          <pickID>quakeml:uw.anss.org/Arrival/UW/1910228</pickID>
          <phase>P</phase>
          <azimuth>186.2</azimuth>
          <distance>2.432</distance>
          <timeResidual>0.03</timeResidual>
          <creationInfo>
            <agencyID>UW</agencyID>
            <creationTime>2012-02-27T10:54:39.000000Z</creationTime>
          </creationInfo>
        </arrival>
        <arrival publicID="quakeml:uw.anss.org/AssocArO/UW/1910233">
          <pickID>quakeml:uw.anss.org/Arrival/UW/1910233</pickID>
          <phase>P</phase>
          <azimuth>325.0</azimuth>
          <timeResidual>-0.29</timeResidual>
          <creationInfo>
            <agencyID>UW</agencyID>
            <creationTime>2012-02-27T10:54:39.000000Z</creationTime>
          </creationInfo>
        </arrival>
        <arrival publicID="quakeml:uw.anss.org/AssocArO/UW/1910238">
          <pickID>quakeml:uw.anss.org/Arrival/UW/1910238</pickID>
          <phase>S</phase>
          <azimuth>325.0</azimuth>
          <timeResidual>-0.19</timeResidual>
          <creationInfo>
            <agencyID>UW</agencyID>
            <creationTime>2012-02-27T10:54:39.000000Z</creationTime>
          </creationInfo>
        </arrival>
        <arrival publicID="quakeml:uw.anss.org/AssocArO/UW/1910243">
          <pickID>quakeml:uw.anss.org/Arrival/UW/1910243</pickID>
          <phase>P</phase>
          <azimuth>178.1</azimuth>
          <distance>2.364</distance>
          <timeResidual>-0.22</timeResidual>
          <creationInfo>
            <agencyID>UW</agencyID>
            <creationTime>2012-02-27T10:54:39.000000Z</creationTime>
          </creationInfo>
        </arrival>
        <arrival publicID="quakeml:uw.anss.org/AssocArO/UW/1910248">
          <pickID>quakeml:uw.anss.org/Arrival/UW/1910248</pickID>
          <phase>P</phase>
          <azimuth>208.4</azimuth>
          <distance>1.738</distance>
          <timeResidual>-0.49</timeResidual>
          <creationInfo>
            <agencyID>UW</agencyID>
            <creationTime>2012-02-27T10:54:39.000000Z</creationTime>
          </creationInfo>
        </arrival>
        <arrival publicID="quakeml:uw.anss.org/AssocArO/UW/1910253">
          <pickID>quakeml:uw.anss.org/Arrival/UW/1910253</pickID>
          <phase>P</phase>
          <azimuth>284.4</azimuth>
          <timeResidual>-1.12</timeResidual>
          <creationInfo>
            <agencyID>UW</agencyID>
            <creationTime>2012-02-27T10:54:39.000000Z</creationTime>
          </creationInfo>
        </arrival>
        <arrival publicID="quakeml:uw.anss.org/AssocArO/UW/1910258">
          <pickID>quakeml:uw.anss.org/Arrival/UW/1910258</pickID>
          <phase>P</phase>
          <azimuth>174.1</azimuth>
          <timeResidual>-0.43</timeResidual>
          <creationInfo>
            <agencyID>UW</agencyID>
            <creationTime>2012-02-27T10:54:39.000000Z</creationTime>
          </creationInfo>
        </arrival>
        <arrival publicID="quakeml:uw.anss.org/AssocArO/UW/1910263">
          <pickID>quakeml:uw.anss.org/Arrival/UW/1910263</pickID>
          <phase>P</phase>
          <azimuth>183.5</azimuth>
          <distance>2.669</distance>
          <timeResidual>0.39</timeResidual>
          <creationInfo>
            <agencyID>UW</agencyID>
            <creationTime>2012-02-27T10:54:39.000000Z</creationTime>
          </creationInfo>
        </arrival>
        <arrival publicID="quakeml:uw.anss.org/AssocArO/UW/1910268">
          <pickID>quakeml:uw.anss.org/Arrival/UW/1910268</pickID>
          <phase>P</phase>
          <azimuth>197.8</azimuth>
          <distance>2.493</distance>
          <timeResidual>-0.45</timeResidual>
          <creationInfo>
            <agencyID>UW</agencyID>
            <creationTime>2012-02-27T10:54:39.000000Z</creationTime>
          </creationInfo>
        </arrival>
        <arrival publicID="quakeml:uw.anss.org/AssocArO/UW/1910273">
          <pickID>quakeml:uw.anss.org/Arrival/UW/1910273</pickID>
          <phase>P</phase>
          <azimuth>158.8</azimuth>
          <distance>1.729</distance>
          <timeResidual>-0.02</timeResidual>
          <creationInfo>
            <agencyID>UW</agencyID>
            <creationTime>2012-02-27T10:54:39.000000Z</creationTime>
          </creationInfo>
        </arrival>
        <arrival publicID="quakeml:uw.anss.org/AssocArO/UW/1910278">
          <pickID>quakeml:uw.anss.org/Arrival/UW/1910278</pickID>
          <phase>P</phase>
          <azimuth>136.8</azimuth>
          <distance>2.741</distance>
          <timeResidual>0.45</timeResidual>
          <creationInfo>
            <agencyID>UW</agencyID>
            <creationTime>2012-02-27T10:54:39.000000Z</creationTime>
          </creationInfo>
        </arrival>
        <arrival publicID="quakeml:uw.anss.org/AssocArO/UW/1910283">
          <pickID>quakeml:uw.anss.org/Arrival/UW/1910283</pickID>
          <phase>P</phase>
          <azimuth>130.6</azimuth>
          <distance>2.261</distance>
          <timeResidual>1.1</timeResidual>
          <creationInfo>
            <agencyID>UW</agencyID>
            <creationTime>2012-02-27T10:54:39.000000Z</creationTime>
          </creationInfo>
        </arrival>
        <arrival publicID="quakeml:uw.anss.org/AssocArO/UW/1910288">
          <pickID>quakeml:uw.anss.org/Arrival/UW/1910288</pickID>
          <phase>P</phase>
          <azimuth>252.4</azimuth>
          <timeResidual>-0.87</timeResidual>
          <creationInfo>
            <agencyID>UW</agencyID>
            <creationTime>2012-02-27T10:54:39.000000Z</creationTime>
          </creationInfo>
        </arrival>
        <arrival publicID="quakeml:uw.anss.org/AssocArO/UW/1910293">
          <pickID>quakeml:uw.anss.org/Arrival/UW/1910293</pickID>
          <phase>P</phase>
          <azimuth>181.2</azimuth>
          <distance>2.391</distance>
          <timeResidual>0.09</timeResidual>
          <creationInfo>
            <agencyID>UW</agencyID>
            <creationTime>2012-02-27T10:54:39.000000Z</creationTime>
          </creationInfo>
        </arrival>
        <arrival publicID="quakeml:uw.anss.org/AssocArO/UW/1910298">
          <pickID>quakeml:uw.anss.org/Arrival/UW/1910298</pickID>
          <phase>P</phase>
          <azimuth>180.4</azimuth>
          <distance>2.656</distance>
          <timeResidual>0.99</timeResidual>
          <creationInfo>
            <agencyID>UW</agencyID>
            <creationTime>2012-02-27T10:54:39.000000Z</creationTime>
          </creationInfo>
        </arrival>
        <arrival publicID="quakeml:uw.anss.org/AssocArO/UW/1910303">
          <pickID>quakeml:uw.anss.org/Arrival/UW/1910303</pickID>
          <phase>P</phase>
          <azimuth>231.8</azimuth>
          <distance>1.758</distance>
          <timeResidual>-0.31</timeResidual>
          <creationInfo>
            <agencyID>UW</agencyID>
            <creationTime>2012-02-27T10:54:39.000000Z</creationTime>
          </creationInfo>
        </arrival>
        <arrival publicID="quakeml:uw.anss.org/AssocArO/UW/1910308">
          <pickID>quakeml:uw.anss.org/Arrival/UW/1910308</pickID>
          <phase>P</phase>
          <azimuth>200.2</azimuth>
          <distance>1.999</distance>
          <timeResidual>-0.89</timeResidual>
          <creationInfo>
            <agencyID>UW</agencyID>
            <creationTime>2012-02-27T10:54:39.000000Z</creationTime>
          </creationInfo>
        </arrival>
        <arrival publicID="quakeml:uw.anss.org/AssocArO/UW/1910313">
          <pickID>quakeml:uw.anss.org/Arrival/UW/1910313</pickID>
          <phase>P</phase>
          <timeResidual>-0.11</timeResidual>
          <creationInfo>
            <agencyID>UW</agencyID>
            <creationTime>2012-02-27T10:54:39.000000Z</creationTime>
          </creationInfo>
        </arrival>
        <arrival publicID="quakeml:uw.anss.org/AssocArO/UW/1910318">
          <pickID>quakeml:uw.anss.org/Arrival/UW/1910318</pickID>
          <phase>P</phase>
          <azimuth>134.8</azimuth>
          <distance>0.572</distance>
          <timeResidual>-0.42</timeResidual>
          <creationInfo>
            <agencyID>UW</agencyID>
            <creationTime>2012-02-27T10:54:39.000000Z</creationTime>
          </creationInfo>
        </arrival>
        <arrival publicID="quakeml:uw.anss.org/AssocArO/UW/1910323">
          <pickID>quakeml:uw.anss.org/Arrival/UW/1910323</pickID>
          <phase>P</phase>
          <azimuth>138.9</azimuth>
          <distance>2.609</distance>
          <timeResidual>-0.67</timeResidual>
          <creationInfo>
            <agencyID>UW</agencyID>
            <creationTime>2012-02-27T10:54:39.000000Z</creationTime>
          </creationInfo>
        </arrival>
        <arrival publicID="quakeml:uw.anss.org/AssocArO/UW/1910328">
          <pickID>quakeml:uw.anss.org/Arrival/UW/1910328</pickID>
          <phase>P</phase>
          <azimuth>171.2</azimuth>
          <distance>2.322</distance>
          <timeResidual>-0.01</timeResidual>
          <creationInfo>
            <agencyID>UW</agencyID>
            <creationTime>2012-02-27T10:54:39.000000Z</creationTime>
          </creationInfo>
        </arrival>
        <arrival publicID="quakeml:uw.anss.org/AssocArO/UW/1910333">
          <pickID>quakeml:uw.anss.org/Arrival/UW/1910333</pickID>
          <phase>P</phase>
          <azimuth>169.4</azimuth>
          <distance>2.191</distance>
          <timeResidual>-0.51</timeResidual>
          <creationInfo>
            <agencyID>UW</agencyID>
            <creationTime>2012-02-27T10:54:39.000000Z</creationTime>
          </creationInfo>
        </arrival>
        <arrival publicID="quakeml:uw.anss.org/AssocArO/UW/1910338">
          <pickID>quakeml:uw.anss.org/Arrival/UW/1910338</pickID>
          <phase>P</phase>
          <azimuth>183.6</azimuth>
          <distance>1.302</distance>
          <timeResidual>0.03</timeResidual>
          <creationInfo>
            <agencyID>UW</agencyID>
            <creationTime>2012-02-27T10:54:39.000000Z</creationTime>
          </creationInfo>
        </arrival>
        <arrival publicID="quakeml:uw.anss.org/AssocArO/UW/1910343">
          <pickID>quakeml:uw.anss.org/Arrival/UW/1910343</pickID>
          <phase>P</phase>
          <azimuth>220.7</azimuth>
          <distance>1.749</distance>
          <timeResidual>0.2</timeResidual>
          <creationInfo>
            <agencyID>UW</agencyID>
            <creationTime>2012-02-27T10:54:39.000000Z</creationTime>
          </creationInfo>
        </arrival>
        <arrival publicID="quakeml:uw.anss.org/AssocArO/UW/1910348">
          <pickID>quakeml:uw.anss.org/Arrival/UW/1910348</pickID>
          <phase>P</phase>
          <azimuth>113.6</azimuth>
          <distance>2.874</distance>
          <timeResidual>4.29</timeResidual>
          <creationInfo>
            <agencyID>UW</agencyID>
            <creationTime>2012-02-27T10:54:39.000000Z</creationTime>
          </creationInfo>
        </arrival>
        <arrival publicID="quakeml:uw.anss.org/AssocArO/UW/1910353">
          <pickID>quakeml:uw.anss.org/Arrival/UW/1910353</pickID>
          <phase>P</phase>
          <azimuth>118.8</azimuth>
          <distance>1.805</distance>
          <timeResidual>0.08</timeResidual>
          <creationInfo>
            <agencyID>UW</agencyID>
            <creationTime>2012-02-27T10:54:39.000000Z</creationTime>
          </creationInfo>
        </arrival>
        <arrival publicID="quakeml:uw.anss.org/AssocArO/UW/1910358">
          <pickID>quakeml:uw.anss.org/Arrival/UW/1910358</pickID>
          <phase>P</phase>
          <azimuth>170.8</azimuth>
          <timeResidual>-0.59</timeResidual>
          <creationInfo>
            <agencyID>UW</agencyID>
            <creationTime>2012-02-27T10:54:39.000000Z</creationTime>
          </creationInfo>
        </arrival>
        <arrival publicID="quakeml:uw.anss.org/AssocArO/UW/1910363">
          <pickID>quakeml:uw.anss.org/Arrival/UW/1910363</pickID>
          <phase>P</phase>
          <azimuth>189.0</azimuth>
          <distance>2.736</distance>
          <timeResidual>0.22</timeResidual>
          <creationInfo>
            <agencyID>UW</agencyID>
            <creationTime>2012-02-27T10:54:39.000000Z</creationTime>
          </creationInfo>
        </arrival>
        <arrival publicID="quakeml:uw.anss.org/AssocArO/UW/1910368">
          <pickID>quakeml:uw.anss.org/Arrival/UW/1910368</pickID>
          <phase>P</phase>
          <azimuth>207.2</azimuth>
          <distance>0.5946</distance>
          <timeResidual>0.27</timeResidual>
          <creationInfo>
            <agencyID>UW</agencyID>
            <creationTime>2012-02-27T10:54:39.000000Z</creationTime>
          </creationInfo>
        </arrival>
        <arrival publicID="quakeml:uw.anss.org/AssocArO/UW/1910373">
          <pickID>quakeml:uw.anss.org/Arrival/UW/1910373</pickID>
          <phase>P</phase>
          <azimuth>121.4</azimuth>
          <distance>2.153</distance>
          <timeResidual>2.25</timeResidual>
          <creationInfo>
            <agencyID>UW</agencyID>
            <creationTime>2012-02-27T10:54:39.000000Z</creationTime>
          </creationInfo>
        </arrival>
        <arrival publicID="quakeml:uw.anss.org/AssocArO/UW/1910378">
          <pickID>quakeml:uw.anss.org/Arrival/UW/1910378</pickID>
          <phase>P</phase>
          <azimuth>139.7</azimuth>
          <distance>2.716</distance>
          <timeResidual>0.32</timeResidual>
          <creationInfo>
            <agencyID>UW</agencyID>
            <creationTime>2012-02-27T10:54:39.000000Z</creationTime>
          </creationInfo>
        </arrival>
        <arrival publicID="quakeml:uw.anss.org/AssocArO/UW/1910383">
          <pickID>quakeml:uw.anss.org/Arrival/UW/1910383</pickID>
          <phase>P</phase>
          <azimuth>183.4</azimuth>
          <distance>2.552</distance>
          <timeResidual>0.13</timeResidual>
          <creationInfo>
            <agencyID>UW</agencyID>
            <creationTime>2012-02-27T10:54:39.000000Z</creationTime>
          </creationInfo>
        </arrival>
        <arrival publicID="quakeml:uw.anss.org/AssocArO/UW/1910388">
          <pickID>quakeml:uw.anss.org/Arrival/UW/1910388</pickID>
          <phase>P</phase>
          <azimuth>168.6</azimuth>
          <timeResidual>-0.29</timeResidual>
          <creationInfo>
            <agencyID>UW</agencyID>
            <creationTime>2012-02-27T10:54:39.000000Z</creationTime>
          </creationInfo>
        </arrival>
        <arrival publicID="quakeml:uw.anss.org/AssocArO/UW/1910393">
          <pickID>quakeml:uw.anss.org/Arrival/UW/1910393</pickID>
          <phase>P</phase>
          <azimuth>218.0</azimuth>
          <distance>1.922</distance>
          <timeResidual>-0.53</timeResidual>
          <creationInfo>
            <agencyID>UW</agencyID>
            <creationTime>2012-02-27T10:54:39.000000Z</creationTime>
          </creationInfo>
        </arrival>
        <arrival publicID="quakeml:uw.anss.org/AssocArO/UW/1910398">
          <pickID>quakeml:uw.anss.org/Arrival/UW/1910398</pickID>
          <phase>P</phase>
          <azimuth>181.7</azimuth>
          <distance>2.661</distance>
          <timeResidual>0.42</timeResidual>
          <creationInfo>
            <agencyID>UW</agencyID>
            <creationTime>2012-02-27T10:54:39.000000Z</creationTime>
          </creationInfo>
        </arrival>
        <arrival publicID="quakeml:uw.anss.org/AssocArO/UW/1910403">
          <pickID>quakeml:uw.anss.org/Arrival/UW/1910403</pickID>
          <phase>P</phase>
          <azimuth>239.5</azimuth>
          <distance>1.741</distance>
          <timeResidual>-0.26</timeResidual>
          <creationInfo>
            <agencyID>UW</agencyID>
            <creationTime>2012-02-27T10:54:39.000000Z</creationTime>
          </creationInfo>
        </arrival>
        <arrival publicID="quakeml:uw.anss.org/AssocArO/UW/1910408">
          <pickID>quakeml:uw.anss.org/Arrival/UW/1910408</pickID>
          <phase>P</phase>
          <azimuth>238.5</azimuth>
          <distance>1.536</distance>
          <timeResidual>-0.94</timeResidual>
          <creationInfo>
            <agencyID>UW</agencyID>
            <creationTime>2012-02-27T10:54:39.000000Z</creationTime>
          </creationInfo>
        </arrival>
        <arrival publicID="quakeml:uw.anss.org/AssocArO/UW/1910413">
          <pickID>quakeml:uw.anss.org/Arrival/UW/1910413</pickID>
          <phase>P</phase>
          <azimuth>135.1</azimuth>
