<?xml version='1.0' encoding='utf-8'?>
<q:quakeml xmlns="http://quakeml.org/xmlns/bed/1.2" xmlns:q="http://quakeml.org/xmlns/quakeml/1.2" xmlns:ns0="http://anss.org/xmlns/catalog/0.1">
  <eventParameters publicID="smi:local/cb60493a-4042-4e84-82bc-de981201efc1">
    <event publicID="quakeml:uw.anss.org/Event/UW/10129048" ns0:datasource="uw" ns0:dataid="uw10129048" ns0:eventsource="uw" ns0:eventid="10129048">
      <preferredOriginID>quakeml:uw.anss.org/Origin/UW/405953</preferredOriginID>
      <preferredMagnitudeID>quakeml:uw.anss.org/Netmag/UW/361288</preferredMagnitudeID>
      <type>earthquake</type>
      <creationInfo>
        <agencyID>UW</agencyID>
        <creationTime>2012-02-27T12:47:21.000000Z</creationTime>
        <version>3</version>
      </creationInfo>
      <origin publicID="quakeml:uw.anss.org/Origin/UW/405953" ns0:datasource="uw" ns0:dataid="uw10129048" ns0:eventsource="uw" ns0:eventid="10129048">
        <time>
          <value>1981-08-15T21:17:25.420000Z</value>
          <uncertainty>0.02</uncertainty>
        </time>
        <latitude>
          <value>48.8703333</value>
          <uncertainty>0.1</uncertainty>
        </latitude>
        <longitude>
          <value>-122.2216667</value>
          <uncertainty>0.1</uncertainty>
        </longitude>
        <depth>
          <value>12204.0</value>
          <uncertainty>450.0</uncertainty>
        </depth>
        <depthType>operator assigned</depthType>
        <timeFixed>false</timeFixed>
        <epicenterFixed>false</epicenterFixed>
        <methodID>smi:uw.anss.org/origin/spong</methodID>
        <quality>
          <associatedPhaseCount>38</associatedPhaseCount>
          <usedPhaseCount>16</usedPhaseCount>
          <associatedStationCount>35</associatedStationCount>
          <usedStationCount>0</usedStationCount>
          <standardError>0.26</standardError>
          <azimuthalGap>142.0</azimuthalGap>
        </quality>
        <type>hypocenter</type>
        <evaluationMode>manual</evaluationMode>
        <evaluationStatus>final</evaluationStatus>
        <creationInfo>
          <agencyID>UW</agencyID>
          <creationTime>2012-02-27T12:47:21.000000Z</creationTime>
        </creationInfo>
        <originUncertainty>
          <preferredDescription>horizontal uncertainty</preferredDescription>
          <horizontalUncertainty>141.0</horizontalUncertainty>
        </originUncertainty>
        <arrival publicID="quakeml:uw.anss.org/AssocArO/UW/2059303">
          <pickID>quakeml:uw.anss.org/Arrival/UW/2059303</pickID>
          <phase>P</phase>
          <azimuth>204.7</azimuth>
          <distance>1.344</distance>
          <timeResidual>-0.46</timeResidual>
          <creationInfo>
            <agencyID>UW</agencyID>
            <creationTime>2012-02-27T12:47:21.000000Z</creationTime>
          </creationInfo>
        </arrival>
        <arrival publicID="quakeml:uw.anss.org/AssocArO/UW/2059318">
          <pickID>quakeml:uw.anss.org/Arrival/UW/2059318</pickID>
          <phase>P</phase>
          <azimuth>184.6</azimuth>
          <distance>2.444</distance>
          <timeResidual>0.87</timeResidual>
          <creationInfo>
            <agencyID>UW</agencyID>
            <creationTime>2012-02-27T12:47:21.000000Z</creationTime>
          </creationInfo>
        </arrival>
        <arrival publicID="quakeml:uw.anss.org/AssocArO/UW/2059328">
          <pickID>quakeml:uw.anss.org/Arrival/UW/2059328</pickID>
          <phase>P</phase>
          <azimuth>330.0</azimuth>
          <timeResidual>0.01</timeResidual>
          <creationInfo>
            <agencyID>UW</agencyID>
            <creationTime>2012-02-27T12:47:21.000000Z</creationTime>
          </creationInfo>
        </arrival>
        <arrival publicID="quakeml:uw.anss.org/AssocArO/UW/2059338">
          <pickID>quakeml:uw.anss.org/Arrival/UW/2059338</pickID>
          <phase>S</phase>
          <azimuth>330.0</azimuth>
          <timeResidual>0.19</timeResidual>
          <creationInfo>
            <agencyID>UW</agencyID>
            <creationTime>2012-02-27T12:47:21.000000Z</creationTime>
          </creationInfo>
        </arrival>
        <arrival publicID="quakeml:uw.anss.org/AssocArO/UW/2059348">
          <pickID>quakeml:uw.anss.org/Arrival/UW/2059348</pickID>
          <phase>P</phase>
          <azimuth>206.2</azimuth>
          <distance>1.725</distance>
          <timeResidual>0.45</timeResidual>
          <creationInfo>
            <agencyID>UW</agencyID>
            <creationTime>2012-02-27T12:47:21.000000Z</creationTime>
          </creationInfo>
        </arrival>
        <arrival publicID="quakeml:uw.anss.org/AssocArO/UW/2059368">
          <pickID>quakeml:uw.anss.org/Arrival/UW/2059368</pickID>
          <phase>P</phase>
          <azimuth>173.6</azimuth>
          <distance>1.031</distance>
          <timeResidual>0.26</timeResidual>
          <creationInfo>
            <agencyID>UW</agencyID>
            <creationTime>2012-02-27T12:47:21.000000Z</creationTime>
          </creationInfo>
        </arrival>
        <arrival publicID="quakeml:uw.anss.org/AssocArO/UW/2059373">
          <pickID>quakeml:uw.anss.org/Arrival/UW/2059373</pickID>
          <phase>P</phase>
          <azimuth>157.1</azimuth>
          <distance>1.77</distance>
          <timeResidual>0.46</timeResidual>
          <creationInfo>
            <agencyID>UW</agencyID>
            <creationTime>2012-02-27T12:47:21.000000Z</creationTime>
          </creationInfo>
        </arrival>
        <arrival publicID="quakeml:uw.anss.org/AssocArO/UW/2059378">
          <pickID>quakeml:uw.anss.org/Arrival/UW/2059378</pickID>
          <phase>P</phase>
          <azimuth>129.8</azimuth>
          <distance>2.321</distance>
          <timeResidual>3.76</timeResidual>
          <creationInfo>
            <agencyID>UW</agencyID>
            <creationTime>2012-02-27T12:47:21.000000Z</creationTime>
          </creationInfo>
        </arrival>
        <arrival publicID="quakeml:uw.anss.org/AssocArO/UW/2059383">
          <pickID>quakeml:uw.anss.org/Arrival/UW/2059383</pickID>
          <phase>P</phase>
          <azimuth>170.1</azimuth>
          <timeResidual>0.14</timeResidual>
          <creationInfo>
            <agencyID>UW</agencyID>
            <creationTime>2012-02-27T12:47:21.000000Z</creationTime>
          </creationInfo>
        </arrival>
        <arrival publicID="quakeml:uw.anss.org/AssocArO/UW/2059388">
          <pickID>quakeml:uw.anss.org/Arrival/UW/2059388</pickID>
          <phase>P</phase>
          <azimuth>198.3</azimuth>
          <distance>1.995</distance>
          <timeResidual>-0.31</timeResidual>
          <creationInfo>
            <agencyID>UW</agencyID>
            <creationTime>2012-02-27T12:47:21.000000Z</creationTime>
          </creationInfo>
        </arrival>
        <arrival publicID="quakeml:uw.anss.org/AssocArO/UW/2059393">
          <pickID>quakeml:uw.anss.org/Arrival/UW/2059393</pickID>
          <phase>P</phase>
          <timeResidual>0.3</timeResidual>
          <creationInfo>
            <agencyID>UW</agencyID>
            <creationTime>2012-02-27T12:47:21.000000Z</creationTime>
          </creationInfo>
        </arrival>
        <arrival publicID="quakeml:uw.anss.org/AssocArO/UW/2059398">
          <pickID>quakeml:uw.anss.org/Arrival/UW/2059398</pickID>
          <phase>S</phase>
          <timeResidual>0.15</timeResidual>
          <creationInfo>
            <agencyID>UW</agencyID>
            <creationTime>2012-02-27T12:47:21.000000Z</creationTime>
          </creationInfo>
        </arrival>
        <arrival publicID="quakeml:uw.anss.org/AssocArO/UW/2059408">
          <pickID>quakeml:uw.anss.org/Arrival/UW/2059408</pickID>
          <phase>P</phase>
          <azimuth>180.7</azimuth>
          <distance>1.318</distance>
          <timeResidual>0.24</timeResidual>
          <creationInfo>
            <agencyID>UW</agencyID>
            <creationTime>2012-02-27T12:47:21.000000Z</creationTime>
          </creationInfo>
        </arrival>
        <arrival publicID="quakeml:uw.anss.org/AssocArO/UW/2059413">
          <pickID>quakeml:uw.anss.org/Arrival/UW/2059413</pickID>
          <phase>P</phase>
          <azimuth>178.7</azimuth>
          <distance>2.629</distance>
          <timeResidual>1.36</timeResidual>
          <creationInfo>
            <agencyID>UW</agencyID>
            <creationTime>2012-02-27T12:47:21.000000Z</creationTime>
          </creationInfo>
        </arrival>
        <arrival publicID="quakeml:uw.anss.org/AssocArO/UW/2059418">
          <pickID>quakeml:uw.anss.org/Arrival/UW/2059418</pickID>
          <phase>P</phase>
          <azimuth>112.2</azimuth>
          <distance>0.229</distance>
          <timeResidual>-0.04</timeResidual>
          <creationInfo>
            <agencyID>UW</agencyID>
            <creationTime>2012-02-27T12:47:21.000000Z</creationTime>
          </creationInfo>
        </arrival>
        <arrival publicID="quakeml:uw.anss.org/AssocArO/UW/2059423">
          <pickID>quakeml:uw.anss.org/Arrival/UW/2059423</pickID>
          <phase>P</phase>
          <azimuth>181.9</azimuth>
          <distance>2.567</distance>
          <timeResidual>1.0</timeResidual>
          <creationInfo>
            <agencyID>UW</agencyID>
            <creationTime>2012-02-27T12:47:21.000000Z</creationTime>
          </creationInfo>
        </arrival>
        <arrival publicID="quakeml:uw.anss.org/AssocArO/UW/2059428">
          <pickID>quakeml:uw.anss.org/Arrival/UW/2059428</pickID>
          <phase>P</phase>
          <azimuth>163.8</azimuth>
          <timeResidual>-0.04</timeResidual>
          <creationInfo>
            <agencyID>UW</agencyID>
            <creationTime>2012-02-27T12:47:21.000000Z</creationTime>
          </creationInfo>
        </arrival>
        <arrival publicID="quakeml:uw.anss.org/AssocArO/UW/2059433">
          <pickID>quakeml:uw.anss.org/Arrival/UW/2059433</pickID>
          <phase>S</phase>
          <azimuth>163.8</azimuth>
          <timeResidual>0.23</timeResidual>
          <creationInfo>
            <agencyID>UW</agencyID>
            <creationTime>2012-02-27T12:47:21.000000Z</creationTime>
          </creationInfo>
        </arrival>
        <arrival publicID="quakeml:uw.anss.org/AssocArO/UW/2059438">
          <pickID>quakeml:uw.anss.org/Arrival/UW/2059438</pickID>
          <phase>P</phase>
          <azimuth>149.9</azimuth>
          <distance>2.256</distance>
          <timeResidual>0.45</timeResidual>
          <creationInfo>
            <agencyID>UW</agencyID>
            <creationTime>2012-02-27T12:47:21.000000Z</creationTime>
          </creationInfo>
        </arrival>
        <arrival publicID="quakeml:uw.anss.org/AssocArO/UW/2059448">
          <pickID>quakeml:uw.anss.org/Arrival/UW/2059448</pickID>
          <phase>P</phase>
          <azimuth>169.0</azimuth>
          <timeResidual>0.02</timeResidual>
          <creationInfo>
            <agencyID>UW</agencyID>
            <creationTime>2012-02-27T12:47:21.000000Z</creationTime>
          </creationInfo>
        </arrival>
        <arrival publicID="quakeml:uw.anss.org/AssocArO/UW/2059458">
          <pickID>quakeml:uw.anss.org/Arrival/UW/2059458</pickID>
          <phase>P</phase>
          <azimuth>236.6</azimuth>
          <distance>1.492</distance>
          <timeResidual>-0.49</timeResidual>
          <creationInfo>
            <agencyID>UW</agencyID>
            <creationTime>2012-02-27T12:47:21.000000Z</creationTime>
          </creationInfo>
        </arrival>
        <arrival publicID="quakeml:uw.anss.org/AssocArO/UW/2059468">
          <pickID>quakeml:uw.anss.org/Arrival/UW/2059468</pickID>
          <phase>P</phase>
          <azimuth>210.3</azimuth>
          <distance>0.9986</distance>
          <timeResidual>0.29</timeResidual>
          <creationInfo>
            <agencyID>UW</agencyID>
            <creationTime>2012-02-27T12:47:21.000000Z</creationTime>
          </creationInfo>
        </arrival>
        <arrival publicID="quakeml:uw.anss.org/AssocArO/UW/2059473">
          <pickID>quakeml:uw.anss.org/Arrival/UW/2059473</pickID>
          <phase>P</phase>
          <azimuth>127.0</azimuth>
          <distance>1.915</distance>
          <timeResidual>0.49</timeResidual>
          <creationInfo>
            <agencyID>UW</agencyID>
            <creationTime>2012-02-27T12:47:21.000000Z</creationTime>
          </creationInfo>
        </arrival>
        <arrival publicID="quakeml:uw.anss.org/AssocArO/UW/2059478">
          <pickID>quakeml:uw.anss.org/Arrival/UW/2059478</pickID>
          <phase>P</phase>
          <azimuth>196.1</azimuth>
          <distance>1.377</distance>
          <timeResidual>-0.36</timeResidual>
          <creationInfo>
            <agencyID>UW</agencyID>
            <creationTime>2012-02-27T12:47:21.000000Z</creationTime>
          </creationInfo>
        </arrival>
        <arrival publicID="quakeml:uw.anss.org/AssocArO/UW/2059483">
          <pickID>quakeml:uw.anss.org/Arrival/UW/2059483</pickID>
          <phase>P</phase>
          <azimuth>181.1</azimuth>
          <distance>1.83</distance>
          <timeResidual>-0.2</timeResidual>
          <creationInfo>
            <agencyID>UW</agencyID>
            <creationTime>2012-02-27T12:47:21.000000Z</creationTime>
          </creationInfo>
        </arrival>
        <arrival publicID="quakeml:uw.anss.org/AssocArO/UW/2059488">
          <pickID>quakeml:uw.anss.org/Arrival/UW/2059488</pickID>
          <phase>P</phase>
          <azimuth>168.7</azimuth>
          <distance>1.439</distance>
          <timeResidual>0.18</timeResidual>
          <creationInfo>
            <agencyID>UW</agencyID>
            <creationTime>2012-02-27T12:47:21.000000Z</creationTime>
          </creationInfo>
        </arrival>
        <arrival publicID="quakeml:uw.anss.org/AssocArO/UW/2059493">
          <pickID>quakeml:uw.anss.org/Arrival/UW/2059493</pickID>
          <phase>P</phase>
          <timeResidual>-0.06</timeResidual>
          <creationInfo>
            <agencyID>UW</agencyID>
            <creationTime>2012-02-27T12:47:21.000000Z</creationTime>
          </creationInfo>
        </arrival>
        <arrival publicID="quakeml:uw.anss.org/AssocArO/UW/2059498">
          <pickID>quakeml:uw.anss.org/Arrival/UW/2059498</pickID>
          <phase>P</phase>
          <azimuth>284.2</azimuth>
          <timeResidual>-0.76</timeResidual>
          <creationInfo>
            <agencyID>UW</agencyID>
            <creationTime>2012-02-27T12:47:21.000000Z</creationTime>
          </creationInfo>
        </arrival>
        <arrival publicID="quakeml:uw.anss.org/AssocArO/UW/2059503">
          <pickID>quakeml:uw.anss.org/Arrival/UW/2059503</pickID>
          <phase>P</phase>
          <azimuth>187.7</azimuth>
          <distance>2.234</distance>
          <timeResidual>0.38</timeResidual>
          <creationInfo>
            <agencyID>UW</agencyID>
            <creationTime>2012-02-27T12:47:21.000000Z</creationTime>
          </creationInfo>
        </arrival>
        <arrival publicID="quakeml:uw.anss.org/AssocArO/UW/2059508">
          <pickID>quakeml:uw.anss.org/Arrival/UW/2059508</pickID>
          <phase>P</phase>
          <azimuth>181.3</azimuth>
          <distance>2.204</distance>
          <timeResidual>0.3</timeResidual>
          <creationInfo>
            <agencyID>UW</agencyID>
            <creationTime>2012-02-27T12:47:21.000000Z</creationTime>
          </creationInfo>
        </arrival>
        <arrival publicID="quakeml:uw.anss.org/AssocArO/UW/2059523">
          <pickID>quakeml:uw.anss.org/Arrival/UW/2059523</pickID>
          <phase>P</phase>
          <azimuth>164.1</azimuth>
          <distance>1.109</distance>
          <timeResidual>0.31</timeResidual>
          <creationInfo>
            <agencyID>UW</agencyID>
            <creationTime>2012-02-27T12:47:21.000000Z</creationTime>
          </creationInfo>
        </arrival>
        <arrival publicID="quakeml:uw.anss.org/AssocArO/UW/2059533">
          <pickID>quakeml:uw.anss.org/Arrival/UW/2059533</pickID>
          <phase>P</phase>
          <azimuth>138.0</azimuth>
          <distance>2.665</distance>
          <timeResidual>1.23</timeResidual>
          <creationInfo>
            <agencyID>UW</agencyID>
            <creationTime>2012-02-27T12:47:21.000000Z</creationTime>
          </creationInfo>
        </arrival>
        <arrival publicID="quakeml:uw.anss.org/AssocArO/UW/2059538">
          <pickID>quakeml:uw.anss.org/Arrival/UW/2059538</pickID>
          <phase>P</phase>
          <azimuth>233.7</azimuth>
          <timeResidual>-0.39</timeResidual>
          <creationInfo>
            <agencyID>UW</agencyID>
            <creationTime>2012-02-27T12:47:21.000000Z</creationTime>
          </creationInfo>
        </arrival>
        <arrival publicID="quakeml:uw.anss.org/AssocArO/UW/2059553">
          <pickID>quakeml:uw.anss.org/Arrival/UW/2059553</pickID>
          <phase>P</phase>
          <azimuth>146.8</azimuth>
          <distance>2.02</distance>
          <timeResidual>0.7</timeResidual>
          <creationInfo>
            <agencyID>UW</agencyID>
            <creationTime>2012-02-27T12:47:21.000000Z</creationTime>
          </creationInfo>
        </arrival>
        <arrival publicID="quakeml:uw.anss.org/AssocArO/UW/2059568">
          <pickID>quakeml:uw.anss.org/Arrival/UW/2059568</pickID>
          <phase>P</phase>
          <azimuth>125.4</azimuth>
          <distance>1.806</distance>
          <timeResidual>1.69</timeResidual>
          <creationInfo>
            <agencyID>UW</agencyID>
            <creationTime>2012-02-27T12:47:21.000000Z</creationTime>
          </creationInfo>
        </arrival>
        <arrival publicID="quakeml:uw.anss.org/AssocArO/UW/2059583">
          <pickID>quakeml:uw.anss.org/Arrival/UW/2059583</pickID>
          <phase>P</phase>
          <azimuth>242.6</azimuth>
          <distance>1.572</distance>
          <timeResidual>-0.43</timeResidual>
          <creationInfo>
            <agencyID>UW</agencyID>
            <creationTime>2012-02-27T12:47:21.000000Z</creationTime>
          </creationInfo>
        </arrival>
        <arrival publicID="quakeml:uw.anss.org/AssocArO/UW/2059598">
          <pickID>quakeml:uw.anss.org/Arrival/UW/2059598</pickID>
          <phase>P</phase>
          <azimuth>244.8</azimuth>
          <distance>0.4472</distance>
          <timeResidual>-0.42</timeResidual>
          <creationInfo>
            <agencyID>UW</agencyID>
            <creationTime>2012-02-27T12:47:21.000000Z</creationTime>
          </creationInfo>
        </arrival>
        <arrival publicID="quakeml:uw.anss.org/AssocArO/UW/2059613">
          <pickID>quakeml:uw.anss.org/Arrival/UW/2059613</pickID>
          <phase>P</phase>
          <azimuth>135.2</azimuth>
          <distance>1.518</distance>
          <timeResidual>0.81</timeResidual>
          <creationInfo>
            <agencyID>UW</agencyID>
            <creationTime>2012-02-27T12:47:21.000000Z</creationTime>
          </creationInfo>
        </arrival>
      </origin>
      <magnitude publicID="quakeml:uw.anss.org/Netmag/UW/361288">
        <mag>
          <value>2.4</value>
          <uncertainty>0.1</uncertainty>
        </mag>
        <type>Md</type>
        <originID>quakeml:uw.anss.org/Origin/UW/405953</originID>
        <methodID>smi:uw.anss.org/magnitude/Crosson</methodID>
        <stationCount>1</stationCount>
        <evaluationMode>manual</evaluationMode>
        <evaluationStatus>final</evaluationStatus>
        <stationMagnitudeContribution>
          <stationMagnitudeID>quakeml:uw.anss.org/AssocCoM/UW/715698</stationMagnitudeID>
          <weight>1.0</weight>
          <residual>0.0</residual>
        </stationMagnitudeContribution>
        <creationInfo>
          <agencyID>UW</agencyID>
          <creationTime>2012-02-27T12:47:21.000000Z</creationTime>
        </creationInfo>
      </magnitude>
