<?xml version='1.0' encoding='utf-8'?>
<q:quakeml xmlns="http://quakeml.org/xmlns/bed/1.2" xmlns:q="http://quakeml.org/xmlns/quakeml/1.2" xmlns:ns0="http://anss.org/xmlns/catalog/0.1">
  <eventParameters publicID="smi:local/b21644e0-f2e3-4a98-a564-d4ddcd42602d">
    <event publicID="quakeml:uw.anss.org/Event/UW/10348978" ns0:datasource="uw" ns0:dataid="uw10348978" ns0:eventsource="uw" ns0:eventid="10348978">
      <preferredOriginID>quakeml:uw.anss.org/Origin/UW/626383</preferredOriginID>
      <preferredMagnitudeID>quakeml:uw.anss.org/Netmag/UW/526503</preferredMagnitudeID>
      <type>earthquake</type>
      <creationInfo>
        <agencyID>UW</agencyID>
        <creationTime>2012-02-28T11:35:39.000000Z</creationTime>
        <version>3</version>
      </creationInfo>
      <origin publicID="quakeml:uw.anss.org/Origin/UW/626383" ns0:datasource="uw" ns0:dataid="uw10348978" ns0:eventsource="uw" ns0:eventid="10348978">
        <time>
          <value>1994-05-23T13:46:52.300000Z</value>
          <uncertainty>0.09</uncertainty>
        </time>
        <latitude>
          <value>48.4981667</value>
          <uncertainty>0.46</uncertainty>
        </latitude>
        <longitude>
          <value>-121.9725</value>
          <uncertainty>0.32</uncertainty>
        </longitude>
        <depth>
          <value>910.0</value>
          <uncertainty>810.0</uncertainty>
        </depth>
        <depthType>from location</depthType>
        <timeFixed>false</timeFixed>
        <epicenterFixed>false</epicenterFixed>
        <methodID>smi:uw.anss.org/origin/spong</methodID>
        <quality>
          <associatedPhaseCount>33</associatedPhaseCount>
          <usedPhaseCount>17</usedPhaseCount>
          <associatedStationCount>22</associatedStationCount>
          <usedStationCount>0</usedStationCount>
          <standardError>0.19</standardError>
          <azimuthalGap>89.0</azimuthalGap>
        </quality>
        <type>hypocenter</type>
        <evaluationMode>manual</evaluationMode>
        <evaluationStatus>final</evaluationStatus>
        <creationInfo>
          <agencyID>UW</agencyID>
          <creationTime>2012-02-28T11:35:39.000000Z</creationTime>
        </creationInfo>
        <originUncertainty>
          <preferredDescription>horizontal uncertainty</preferredDescription>
          <horizontalUncertainty>560.0</horizontalUncertainty>
        </originUncertainty>
        <arrival publicID="quakeml:uw.anss.org/AssocArO/UW/5272403">
          <pickID>quakeml:uw.anss.org/Arrival/UW/5272403</pickID>
          <phase>P</phase>
          <azimuth>299.2</azimuth>
          <timeResidual>-0.45</timeResidual>
          <creationInfo>
            <agencyID>UW</agencyID>
            <creationTime>2012-02-28T11:35:39.000000Z</creationTime>
          </creationInfo>
        </arrival>
        <arrival publicID="quakeml:uw.anss.org/AssocArO/UW/5272423">
          <pickID>quakeml:uw.anss.org/Arrival/UW/5272423</pickID>
          <phase>P</phase>
          <azimuth>155.9</azimuth>
          <distance>1.929</distance>
          <timeResidual>0.68</timeResidual>
          <creationInfo>
            <agencyID>UW</agencyID>
            <creationTime>2012-02-28T11:35:39.000000Z</creationTime>
          </creationInfo>
        </arrival>
        <arrival publicID="quakeml:uw.anss.org/AssocArO/UW/5272428">
          <pickID>quakeml:uw.anss.org/Arrival/UW/5272428</pickID>
          <phase>P</phase>
          <azimuth>110.9</azimuth>
          <distance>1.171</distance>
          <timeResidual>0.35</timeResidual>
          <creationInfo>
            <agencyID>UW</agencyID>
            <creationTime>2012-02-28T11:35:39.000000Z</creationTime>
          </creationInfo>
        </arrival>
        <arrival publicID="quakeml:uw.anss.org/AssocArO/UW/5272433">
          <pickID>quakeml:uw.anss.org/Arrival/UW/5272433</pickID>
          <phase>S</phase>
          <azimuth>110.9</azimuth>
          <distance>1.171</distance>
          <timeResidual>-0.41</timeResidual>
          <creationInfo>
            <agencyID>UW</agencyID>
            <creationTime>2012-02-28T11:35:39.000000Z</creationTime>
          </creationInfo>
        </arrival>
        <arrival publicID="quakeml:uw.anss.org/AssocArO/UW/5272438">
          <pickID>quakeml:uw.anss.org/Arrival/UW/5272438</pickID>
          <phase>P</phase>
          <azimuth>333.0</azimuth>
          <timeResidual>-0.19</timeResidual>
          <creationInfo>
            <agencyID>UW</agencyID>
            <creationTime>2012-02-28T11:35:39.000000Z</creationTime>
          </creationInfo>
        </arrival>
        <arrival publicID="quakeml:uw.anss.org/AssocArO/UW/5272443">
          <pickID>quakeml:uw.anss.org/Arrival/UW/5272443</pickID>
          <phase>P</phase>
          <azimuth>174.2</azimuth>
          <distance>1.636</distance>
          <timeResidual>0.18</timeResidual>
          <creationInfo>
            <agencyID>UW</agencyID>
            <creationTime>2012-02-28T11:35:39.000000Z</creationTime>
          </creationInfo>
        </arrival>
        <arrival publicID="quakeml:uw.anss.org/AssocArO/UW/5272448">
          <pickID>quakeml:uw.anss.org/Arrival/UW/5272448</pickID>
          <phase>P</phase>
          <timeResidual>0.16</timeResidual>
          <creationInfo>
            <agencyID>UW</agencyID>
            <creationTime>2012-02-28T11:35:39.000000Z</creationTime>
          </creationInfo>
        </arrival>
        <arrival publicID="quakeml:uw.anss.org/AssocArO/UW/5272453">
          <pickID>quakeml:uw.anss.org/Arrival/UW/5272453</pickID>
          <phase>S</phase>
          <timeResidual>0.02</timeResidual>
          <creationInfo>
            <agencyID>UW</agencyID>
            <creationTime>2012-02-28T11:35:39.000000Z</creationTime>
          </creationInfo>
        </arrival>
        <arrival publicID="quakeml:uw.anss.org/AssocArO/UW/5272458">
          <pickID>quakeml:uw.anss.org/Arrival/UW/5272458</pickID>
          <phase>P</phase>
          <azimuth>232.8</azimuth>
          <distance>0.1235</distance>
          <timeResidual>-0.09</timeResidual>
          <creationInfo>
            <agencyID>UW</agencyID>
            <creationTime>2012-02-28T11:35:39.000000Z</creationTime>
          </creationInfo>
        </arrival>
        <arrival publicID="quakeml:uw.anss.org/AssocArO/UW/5272463">
          <pickID>quakeml:uw.anss.org/Arrival/UW/5272463</pickID>
          <phase>S</phase>
          <azimuth>232.8</azimuth>
          <distance>0.1235</distance>
          <timeResidual>0.07</timeResidual>
          <creationInfo>
            <agencyID>UW</agencyID>
            <creationTime>2012-02-28T11:35:39.000000Z</creationTime>
          </creationInfo>
        </arrival>
        <arrival publicID="quakeml:uw.anss.org/AssocArO/UW/5272468">
          <pickID>quakeml:uw.anss.org/Arrival/UW/5272468</pickID>
          <phase>P</phase>
          <azimuth>174.7</azimuth>
          <timeResidual>0.19</timeResidual>
          <creationInfo>
            <agencyID>UW</agencyID>
            <creationTime>2012-02-28T11:35:39.000000Z</creationTime>
          </creationInfo>
        </arrival>
        <arrival publicID="quakeml:uw.anss.org/AssocArO/UW/5272473">
          <pickID>quakeml:uw.anss.org/Arrival/UW/5272473</pickID>
          <phase>S</phase>
          <azimuth>174.7</azimuth>
          <timeResidual>-0.51</timeResidual>
          <creationInfo>
            <agencyID>UW</agencyID>
            <creationTime>2012-02-28T11:35:39.000000Z</creationTime>
          </creationInfo>
        </arrival>
        <arrival publicID="quakeml:uw.anss.org/AssocArO/UW/5272478">
          <pickID>quakeml:uw.anss.org/Arrival/UW/5272478</pickID>
          <phase>P</phase>
          <timeResidual>0.42</timeResidual>
          <creationInfo>
            <agencyID>UW</agencyID>
            <creationTime>2012-02-28T11:35:39.000000Z</creationTime>
          </creationInfo>
        </arrival>
        <arrival publicID="quakeml:uw.anss.org/AssocArO/UW/5272483">
          <pickID>quakeml:uw.anss.org/Arrival/UW/5272483</pickID>
          <phase>S</phase>
          <timeResidual>-0.24</timeResidual>
          <creationInfo>
            <agencyID>UW</agencyID>
            <creationTime>2012-02-28T11:35:39.000000Z</creationTime>
          </creationInfo>
        </arrival>
        <arrival publicID="quakeml:uw.anss.org/AssocArO/UW/5272488">
          <pickID>quakeml:uw.anss.org/Arrival/UW/5272488</pickID>
          <phase>P</phase>
          <azimuth>99.2</azimuth>
          <distance>0.3086</distance>
          <timeResidual>0.08</timeResidual>
          <creationInfo>
            <agencyID>UW</agencyID>
            <creationTime>2012-02-28T11:35:39.000000Z</creationTime>
          </creationInfo>
        </arrival>
        <arrival publicID="quakeml:uw.anss.org/AssocArO/UW/5272493">
          <pickID>quakeml:uw.anss.org/Arrival/UW/5272493</pickID>
          <phase>S</phase>
          <azimuth>99.2</azimuth>
          <distance>0.3086</distance>
          <timeResidual>-0.22</timeResidual>
          <creationInfo>
            <agencyID>UW</agencyID>
            <creationTime>2012-02-28T11:35:39.000000Z</creationTime>
          </creationInfo>
        </arrival>
        <arrival publicID="quakeml:uw.anss.org/AssocArO/UW/5272498">
          <pickID>quakeml:uw.anss.org/Arrival/UW/5272498</pickID>
          <phase>P</phase>
          <azimuth>9.4</azimuth>
          <distance>0.2898</distance>
          <timeResidual>-0.1</timeResidual>
          <creationInfo>
            <agencyID>UW</agencyID>
            <creationTime>2012-02-28T11:35:39.000000Z</creationTime>
          </creationInfo>
        </arrival>
        <arrival publicID="quakeml:uw.anss.org/AssocArO/UW/5272503">
          <pickID>quakeml:uw.anss.org/Arrival/UW/5272503</pickID>
          <phase>S</phase>
          <azimuth>9.4</azimuth>
          <distance>0.2898</distance>
          <timeResidual>-0.2</timeResidual>
          <creationInfo>
            <agencyID>UW</agencyID>
            <creationTime>2012-02-28T11:35:39.000000Z</creationTime>
          </creationInfo>
        </arrival>
        <arrival publicID="quakeml:uw.anss.org/AssocArO/UW/5272508">
          <pickID>quakeml:uw.anss.org/Arrival/UW/5272508</pickID>
          <phase>P</phase>
          <azimuth>325.3</azimuth>
          <timeResidual>-0.31</timeResidual>
          <creationInfo>
            <agencyID>UW</agencyID>
            <creationTime>2012-02-28T11:35:39.000000Z</creationTime>
          </creationInfo>
        </arrival>
        <arrival publicID="quakeml:uw.anss.org/AssocArO/UW/5272513">
          <pickID>quakeml:uw.anss.org/Arrival/UW/5272513</pickID>
          <phase>S</phase>
          <azimuth>325.3</azimuth>
          <timeResidual>-1.75</timeResidual>
          <creationInfo>
            <agencyID>UW</agencyID>
            <creationTime>2012-02-28T11:35:39.000000Z</creationTime>
          </creationInfo>
        </arrival>
        <arrival publicID="quakeml:uw.anss.org/AssocArO/UW/5272518">
          <pickID>quakeml:uw.anss.org/Arrival/UW/5272518</pickID>
          <phase>P</phase>
          <azimuth>174.3</azimuth>
          <timeResidual>0.03</timeResidual>
          <creationInfo>
            <agencyID>UW</agencyID>
            <creationTime>2012-02-28T11:35:39.000000Z</creationTime>
          </creationInfo>
        </arrival>
        <arrival publicID="quakeml:uw.anss.org/AssocArO/UW/5272523">
          <pickID>quakeml:uw.anss.org/Arrival/UW/5272523</pickID>
          <phase>S</phase>
          <azimuth>174.3</azimuth>
          <timeResidual>-0.08</timeResidual>
          <creationInfo>
            <agencyID>UW</agencyID>
            <creationTime>2012-02-28T11:35:39.000000Z</creationTime>
          </creationInfo>
        </arrival>
        <arrival publicID="quakeml:uw.anss.org/AssocArO/UW/5272528">
          <pickID>quakeml:uw.anss.org/Arrival/UW/5272528</pickID>
          <phase>P</phase>
          <azimuth>148.7</azimuth>
          <distance>1.851</distance>
          <timeResidual>0.65</timeResidual>
          <creationInfo>
            <agencyID>UW</agencyID>
            <creationTime>2012-02-28T11:35:39.000000Z</creationTime>
          </creationInfo>
        </arrival>
        <arrival publicID="quakeml:uw.anss.org/AssocArO/UW/5272533">
          <pickID>quakeml:uw.anss.org/Arrival/UW/5272533</pickID>
          <phase>P</phase>
          <azimuth>172.5</azimuth>
          <timeResidual>0.09</timeResidual>
          <creationInfo>
            <agencyID>UW</agencyID>
            <creationTime>2012-02-28T11:35:39.000000Z</creationTime>
          </creationInfo>
        </arrival>
        <arrival publicID="quakeml:uw.anss.org/AssocArO/UW/5272538">
          <pickID>quakeml:uw.anss.org/Arrival/UW/5272538</pickID>
          <phase>S</phase>
          <azimuth>172.5</azimuth>
          <timeResidual>-0.91</timeResidual>
          <creationInfo>
            <agencyID>UW</agencyID>
            <creationTime>2012-02-28T11:35:39.000000Z</creationTime>
          </creationInfo>
        </arrival>
        <arrival publicID="quakeml:uw.anss.org/AssocArO/UW/5272543">
          <pickID>quakeml:uw.anss.org/Arrival/UW/5272543</pickID>
          <phase>P</phase>
          <timeResidual>-0.43</timeResidual>
          <creationInfo>
            <agencyID>UW</agencyID>
            <creationTime>2012-02-28T11:35:39.000000Z</creationTime>
          </creationInfo>
        </arrival>
        <arrival publicID="quakeml:uw.anss.org/AssocArO/UW/5272548">
          <pickID>quakeml:uw.anss.org/Arrival/UW/5272548</pickID>
          <phase>S</phase>
          <timeResidual>-1.61</timeResidual>
          <creationInfo>
            <agencyID>UW</agencyID>
            <creationTime>2012-02-28T11:35:39.000000Z</creationTime>
          </creationInfo>
        </arrival>
        <arrival publicID="quakeml:uw.anss.org/AssocArO/UW/5272553">
          <pickID>quakeml:uw.anss.org/Arrival/UW/5272553</pickID>
          <phase>P</phase>
          <azimuth>173.8</azimuth>
          <distance>1.045</distance>
          <timeResidual>0.18</timeResidual>
          <creationInfo>
            <agencyID>UW</agencyID>
            <creationTime>2012-02-28T11:35:39.000000Z</creationTime>
          </creationInfo>
        </arrival>
        <arrival publicID="quakeml:uw.anss.org/AssocArO/UW/5272558">
          <pickID>quakeml:uw.anss.org/Arrival/UW/5272558</pickID>
          <phase>P</phase>
          <timeResidual>-0.96</timeResidual>
          <creationInfo>
            <agencyID>UW</agencyID>
            <creationTime>2012-02-28T11:35:39.000000Z</creationTime>
          </creationInfo>
        </arrival>
        <arrival publicID="quakeml:uw.anss.org/AssocArO/UW/5272563">
          <pickID>quakeml:uw.anss.org/Arrival/UW/5272563</pickID>
          <phase>P</phase>
          <timeResidual>0.23</timeResidual>
          <creationInfo>
            <agencyID>UW</agencyID>
            <creationTime>2012-02-28T11:35:39.000000Z</creationTime>
          </creationInfo>
        </arrival>
        <arrival publicID="quakeml:uw.anss.org/AssocArO/UW/5272568">
          <pickID>quakeml:uw.anss.org/Arrival/UW/5272568</pickID>
          <phase>P</phase>
          <azimuth>168.9</azimuth>
          <distance>0.7081</distance>
          <timeResidual>0.22</timeResidual>
          <creationInfo>
            <agencyID>UW</agencyID>
            <creationTime>2012-02-28T11:35:39.000000Z</creationTime>
          </creationInfo>
        </arrival>
        <arrival publicID="quakeml:uw.anss.org/AssocArO/UW/5272573">
          <pickID>quakeml:uw.anss.org/Arrival/UW/5272573</pickID>
          <phase>P</phase>
          <azimuth>144.7</azimuth>
          <distance>1.619</distance>
          <timeResidual>0.08</timeResidual>
          <creationInfo>
            <agencyID>UW</agencyID>
            <creationTime>2012-02-28T11:35:39.000000Z</creationTime>
          </creationInfo>
        </arrival>
        <arrival publicID="quakeml:uw.anss.org/AssocArO/UW/5272578">
          <pickID>quakeml:uw.anss.org/Arrival/UW/5272578</pickID>
          <phase>P</phase>
          <azimuth>288.0</azimuth>
          <distance>0.5991</distance>
          <timeResidual>0.59</timeResidual>
          <creationInfo>
            <agencyID>UW</agencyID>
            <creationTime>2012-02-28T11:35:39.000000Z</creationTime>
          </creationInfo>
        </arrival>
      </origin>
      <magnitude publicID="quakeml:uw.anss.org/Netmag/UW/526503">
        <mag>
          <value>1.5</value>
          <uncertainty>0.08</uncertainty>
        </mag>
        <type>Md</type>
        <originID>quakeml:uw.anss.org/Origin/UW/626383</originID>
        <methodID>smi:uw.anss.org/magnitude/Crosson</methodID>
        <stationCount>4</stationCount>
        <evaluationMode>manual</evaluationMode>
        <evaluationStatus>final</evaluationStatus>
        <stationMagnitudeContribution>
          <stationMagnitudeID>quakeml:uw.anss.org/AssocCoM/UW/1361163</stationMagnitudeID>
          <weight>1.0</weight>
          <residual>0.25</residual>
        </stationMagnitudeContribution>
        <stationMagnitudeContribution>
          <stationMagnitudeID>quakeml:uw.anss.org/AssocCoM/UW/1361148</stationMagnitudeID>
          <weight>1.0</weight>
          <residual>-0.23</residual>
        </stationMagnitudeContribution>
        <stationMagnitudeContribution>
          <stationMagnitudeID>quakeml:uw.anss.org/AssocCoM/UW/1361158</stationMagnitudeID>
          <weight>1.0</weight>
          <residual>-0.07</residual>
        </stationMagnitudeContribution>
        <stationMagnitudeContribution>
          <stationMagnitudeID>quakeml:uw.anss.org/AssocCoM/UW/1361153</stationMagnitudeID>
          <weight>1.0</weight>
          <residual>-0.12</residual>
        </stationMagnitudeContribution>
        <creationInfo>
          <agencyID>UW</agencyID>
          <creationTime>2012-02-28T11:35:39.000000Z</creationTime>
        </creationInfo>
      </magnitude>
      <stationMagnitude publicID="quakeml:uw.anss.org/AssocCoM/UW/1361148">
        <originID>quakeml:uw.anss.org/Origin/UW/626383</originID>
        <mag>
          <value>1.27</value>
        </mag>
        <type>MD</type>
        <amplitudeID>quakeml:uw.anss.org/Coda/UW/1361148</amplitudeID>
        <waveformID networkCode="UW" stationCode="CMW" locationCode="" channelCode="EHZ"></waveformID>
      </stationMagnitude>
      <stationMagnitude publicID="quakeml:uw.anss.org/AssocCoM/UW/1361153">
        <originID>quakeml:uw.anss.org/Origin/UW/626383</originID>
        <mag>
          <value>1.38</value>
        </mag>
        <type>MD</type>
        <amplitudeID>quakeml:uw.anss.org/Coda/UW/1361153</amplitudeID>
        <waveformID networkCode="UW" stationCode="RPW" locationCode="" channelCode="EHZ"></waveformID>
      </stationMagnitude>
      <stationMagnitude publicID="quakeml:uw.anss.org/AssocCoM/UW/1361158">
        <originID>quakeml:uw.anss.org/Origin/UW/626383</originID>
        <mag>
          <value>1.43</value>
        </mag>
        <type>MD</type>
        <amplitudeID>quakeml:uw.anss.org/Coda/UW/1361158</amplitudeID>
        <waveformID networkCode="UW" stationCode="MBW" locationCode="" channelCode="EHZ"></waveformID>
      </stationMagnitude>
      <stationMagnitude publicID="quakeml:uw.anss.org/AssocCoM/UW/1361163">
        <originID>quakeml:uw.anss.org/Origin/UW/626383</originID>
        <mag>
          <value>1.75</value>
        </mag>
        <type>MD</type>
        <amplitudeID>quakeml:uw.anss.org/Coda/UW/1361163</amplitudeID>
        <waveformID networkCode="UW" stationCode="JCW" locationCode="" channelCode="EHZ"></waveformID>
      </stationMagnitude>
      <pick publicID="quakeml:uw.anss.org/Arrival/UW/5272403">
        <time>
          <value>1994-05-23T13:47:18.600000Z</value>
          <uncertainty>0.1</uncertainty>
        </time>
