<?xml version='1.0' encoding='utf-8'?>
<q:quakeml xmlns="http://quakeml.org/xmlns/bed/1.2" xmlns:q="http://quakeml.org/xmlns/quakeml/1.2" xmlns:ns0="http://anss.org/xmlns/catalog/0.1">
  <eventParameters publicID="smi:local/7da1633e-1d1b-4819-8392-68b8a2f36856">
    <event publicID="quakeml:uw.anss.org/Event/UW/10349023" ns0:datasource="uw" ns0:dataid="uw10349023" ns0:eventsource="uw" ns0:eventid="10349023">
      <preferredOriginID>quakeml:uw.anss.org/Origin/UW/626428</preferredOriginID>
      <preferredMagnitudeID>quakeml:uw.anss.org/Netmag/UW/526528</preferredMagnitudeID>
      <type>earthquake</type>
      <creationInfo>
        <agencyID>UW</agencyID>
        <creationTime>2012-02-28T11:35:41.000000Z</creationTime>
        <version>3</version>
      </creationInfo>
      <origin publicID="quakeml:uw.anss.org/Origin/UW/626428" ns0:datasource="uw" ns0:dataid="uw10349023" ns0:eventsource="uw" ns0:eventid="10349023">
        <time>
          <value>1994-08-08T11:06:53.340000Z</value>
          <uncertainty>0.03</uncertainty>
        </time>
        <latitude>
          <value>48.6878333</value>
          <uncertainty>0.16</uncertainty>
        </latitude>
        <longitude>
          <value>-122.2481667</value>
          <uncertainty>0.22</uncertainty>
        </longitude>
        <depth>
          <value>3529.0</value>
          <uncertainty>1620.0</uncertainty>
        </depth>
        <depthType>from location</depthType>
        <timeFixed>false</timeFixed>
        <epicenterFixed>false</epicenterFixed>
        <methodID>smi:uw.anss.org/origin/spong</methodID>
        <quality>
          <associatedPhaseCount>26</associatedPhaseCount>
          <usedPhaseCount>17</usedPhaseCount>
          <associatedStationCount>16</associatedStationCount>
          <usedStationCount>0</usedStationCount>
          <standardError>0.1</standardError>
          <azimuthalGap>87.0</azimuthalGap>
        </quality>
        <type>hypocenter</type>
        <evaluationMode>manual</evaluationMode>
        <evaluationStatus>final</evaluationStatus>
        <creationInfo>
          <agencyID>UW</agencyID>
          <creationTime>2012-02-28T11:35:41.000000Z</creationTime>
        </creationInfo>
        <originUncertainty>
          <preferredDescription>horizontal uncertainty</preferredDescription>
          <horizontalUncertainty>272.0</horizontalUncertainty>
        </originUncertainty>
        <arrival publicID="quakeml:uw.anss.org/AssocArO/UW/5272963">
          <pickID>quakeml:uw.anss.org/Arrival/UW/5272963</pickID>
          <phase>P</phase>
          <azimuth>295.5</azimuth>
          <timeResidual>-0.61</timeResidual>
          <creationInfo>
            <agencyID>UW</agencyID>
            <creationTime>2012-02-28T11:35:41.000000Z</creationTime>
          </creationInfo>
        </arrival>
        <arrival publicID="quakeml:uw.anss.org/AssocArO/UW/5272978">
          <pickID>quakeml:uw.anss.org/Arrival/UW/5272978</pickID>
          <phase>S</phase>
          <azimuth>295.5</azimuth>
          <timeResidual>-1.47</timeResidual>
          <creationInfo>
            <agencyID>UW</agencyID>
            <creationTime>2012-02-28T11:35:41.000000Z</creationTime>
          </creationInfo>
        </arrival>
        <arrival publicID="quakeml:uw.anss.org/AssocArO/UW/5272993">
          <pickID>quakeml:uw.anss.org/Arrival/UW/5272993</pickID>
          <phase>P</phase>
          <azimuth>207.5</azimuth>
          <distance>0.4112</distance>
          <timeResidual>0.0</timeResidual>
          <creationInfo>
            <agencyID>UW</agencyID>
            <creationTime>2012-02-28T11:35:41.000000Z</creationTime>
          </creationInfo>
        </arrival>
        <arrival publicID="quakeml:uw.anss.org/AssocArO/UW/5273013">
          <pickID>quakeml:uw.anss.org/Arrival/UW/5273013</pickID>
          <phase>S</phase>
          <azimuth>207.5</azimuth>
          <distance>0.4112</distance>
          <timeResidual>-0.06</timeResidual>
          <creationInfo>
            <agencyID>UW</agencyID>
            <creationTime>2012-02-28T11:35:41.000000Z</creationTime>
          </creationInfo>
        </arrival>
        <arrival publicID="quakeml:uw.anss.org/AssocArO/UW/5273023">
          <pickID>quakeml:uw.anss.org/Arrival/UW/5273023</pickID>
          <phase>P</phase>
          <azimuth>156.5</azimuth>
          <timeResidual>-0.03</timeResidual>
          <creationInfo>
            <agencyID>UW</agencyID>
            <creationTime>2012-02-28T11:35:41.000000Z</creationTime>
          </creationInfo>
        </arrival>
        <arrival publicID="quakeml:uw.anss.org/AssocArO/UW/5273028">
          <pickID>quakeml:uw.anss.org/Arrival/UW/5273028</pickID>
          <phase>S</phase>
          <azimuth>156.5</azimuth>
          <timeResidual>0.58</timeResidual>
          <creationInfo>
            <agencyID>UW</agencyID>
            <creationTime>2012-02-28T11:35:41.000000Z</creationTime>
          </creationInfo>
        </arrival>
        <arrival publicID="quakeml:uw.anss.org/AssocArO/UW/5273048">
          <pickID>quakeml:uw.anss.org/Arrival/UW/5273048</pickID>
          <phase>P</phase>
          <timeResidual>0.1</timeResidual>
          <creationInfo>
            <agencyID>UW</agencyID>
            <creationTime>2012-02-28T11:35:41.000000Z</creationTime>
          </creationInfo>
        </arrival>
        <arrival publicID="quakeml:uw.anss.org/AssocArO/UW/5273058">
          <pickID>quakeml:uw.anss.org/Arrival/UW/5273058</pickID>
          <phase>P</phase>
          <timeResidual>0.07</timeResidual>
          <creationInfo>
            <agencyID>UW</agencyID>
            <creationTime>2012-02-28T11:35:41.000000Z</creationTime>
          </creationInfo>
        </arrival>
        <arrival publicID="quakeml:uw.anss.org/AssocArO/UW/5273073">
          <pickID>quakeml:uw.anss.org/Arrival/UW/5273073</pickID>
          <phase>S</phase>
          <timeResidual>-0.71</timeResidual>
          <creationInfo>
            <agencyID>UW</agencyID>
            <creationTime>2012-02-28T11:35:41.000000Z</creationTime>
          </creationInfo>
        </arrival>
        <arrival publicID="quakeml:uw.anss.org/AssocArO/UW/5273088">
          <pickID>quakeml:uw.anss.org/Arrival/UW/5273088</pickID>
          <phase>P</phase>
          <azimuth>116.0</azimuth>
          <distance>0.5429</distance>
          <timeResidual>0.01</timeResidual>
          <creationInfo>
            <agencyID>UW</agencyID>
            <creationTime>2012-02-28T11:35:41.000000Z</creationTime>
          </creationInfo>
        </arrival>
        <arrival publicID="quakeml:uw.anss.org/AssocArO/UW/5273098">
          <pickID>quakeml:uw.anss.org/Arrival/UW/5273098</pickID>
          <phase>S</phase>
          <azimuth>116.0</azimuth>
          <distance>0.5429</distance>
          <timeResidual>-0.07</timeResidual>
          <creationInfo>
            <agencyID>UW</agencyID>
            <creationTime>2012-02-28T11:35:41.000000Z</creationTime>
          </creationInfo>
        </arrival>
        <arrival publicID="quakeml:uw.anss.org/AssocArO/UW/5273108">
          <pickID>quakeml:uw.anss.org/Arrival/UW/5273108</pickID>
          <phase>P</phase>
          <azimuth>339.8</azimuth>
          <timeResidual>0.17</timeResidual>
          <creationInfo>
            <agencyID>UW</agencyID>
            <creationTime>2012-02-28T11:35:41.000000Z</creationTime>
          </creationInfo>
        </arrival>
        <arrival publicID="quakeml:uw.anss.org/AssocArO/UW/5273113">
          <pickID>quakeml:uw.anss.org/Arrival/UW/5273113</pickID>
          <phase>S</phase>
          <azimuth>339.8</azimuth>
          <timeResidual>-0.04</timeResidual>
          <creationInfo>
            <agencyID>UW</agencyID>
            <creationTime>2012-02-28T11:35:41.000000Z</creationTime>
          </creationInfo>
        </arrival>
        <arrival publicID="quakeml:uw.anss.org/AssocArO/UW/5273118">
          <pickID>quakeml:uw.anss.org/Arrival/UW/5273118</pickID>
          <phase>P</phase>
          <azimuth>316.5</azimuth>
          <timeResidual>-0.25</timeResidual>
          <creationInfo>
            <agencyID>UW</agencyID>
            <creationTime>2012-02-28T11:35:41.000000Z</creationTime>
          </creationInfo>
        </arrival>
        <arrival publicID="quakeml:uw.anss.org/AssocArO/UW/5273123">
          <pickID>quakeml:uw.anss.org/Arrival/UW/5273123</pickID>
          <phase>S</phase>
          <azimuth>240.9</azimuth>
          <timeResidual>-1.5</timeResidual>
          <creationInfo>
            <agencyID>UW</agencyID>
            <creationTime>2012-02-28T11:35:41.000000Z</creationTime>
          </creationInfo>
        </arrival>
        <arrival publicID="quakeml:uw.anss.org/AssocArO/UW/5273128">
          <pickID>quakeml:uw.anss.org/Arrival/UW/5273128</pickID>
          <phase>P</phase>
          <azimuth>160.0</azimuth>
          <distance>0.9409</distance>
          <timeResidual>0.09</timeResidual>
          <creationInfo>
            <agencyID>UW</agencyID>
            <creationTime>2012-02-28T11:35:41.000000Z</creationTime>
          </creationInfo>
        </arrival>
        <arrival publicID="quakeml:uw.anss.org/AssocArO/UW/5273138">
          <pickID>quakeml:uw.anss.org/Arrival/UW/5273138</pickID>
          <phase>S</phase>
          <azimuth>160.0</azimuth>
          <distance>0.9409</distance>
          <timeResidual>0.8</timeResidual>
          <creationInfo>
            <agencyID>UW</agencyID>
            <creationTime>2012-02-28T11:35:41.000000Z</creationTime>
          </creationInfo>
        </arrival>
        <arrival publicID="quakeml:uw.anss.org/AssocArO/UW/5273148">
          <pickID>quakeml:uw.anss.org/Arrival/UW/5273148</pickID>
          <phase>P</phase>
          <azimuth>268.9</azimuth>
          <distance>0.3874</distance>
          <timeResidual>-0.1</timeResidual>
          <creationInfo>
            <agencyID>UW</agencyID>
            <creationTime>2012-02-28T11:35:41.000000Z</creationTime>
          </creationInfo>
        </arrival>
        <arrival publicID="quakeml:uw.anss.org/AssocArO/UW/5273158">
          <pickID>quakeml:uw.anss.org/Arrival/UW/5273158</pickID>
          <phase>S</phase>
          <azimuth>268.9</azimuth>
          <distance>0.3874</distance>
          <timeResidual>-0.03</timeResidual>
          <creationInfo>
            <agencyID>UW</agencyID>
            <creationTime>2012-02-28T11:35:41.000000Z</creationTime>
          </creationInfo>
        </arrival>
        <arrival publicID="quakeml:uw.anss.org/AssocArO/UW/5273178">
          <pickID>quakeml:uw.anss.org/Arrival/UW/5273178</pickID>
          <phase>P</phase>
          <timeResidual>0.84</timeResidual>
          <creationInfo>
            <agencyID>UW</agencyID>
            <creationTime>2012-02-28T11:35:41.000000Z</creationTime>
          </creationInfo>
        </arrival>
        <arrival publicID="quakeml:uw.anss.org/AssocArO/UW/5273188">
          <pickID>quakeml:uw.anss.org/Arrival/UW/5273188</pickID>
          <phase>P</phase>
          <azimuth>162.2</azimuth>
          <distance>0.2778</distance>
          <timeResidual>-0.4</timeResidual>
          <creationInfo>
            <agencyID>UW</agencyID>
            <creationTime>2012-02-28T11:35:41.000000Z</creationTime>
          </creationInfo>
        </arrival>
        <arrival publicID="quakeml:uw.anss.org/AssocArO/UW/5273198">
          <pickID>quakeml:uw.anss.org/Arrival/UW/5273198</pickID>
          <phase>S</phase>
          <azimuth>162.2</azimuth>
          <distance>0.2778</distance>
          <timeResidual>-0.02</timeResidual>
          <creationInfo>
            <agencyID>UW</agencyID>
            <creationTime>2012-02-28T11:35:41.000000Z</creationTime>
          </creationInfo>
        </arrival>
        <arrival publicID="quakeml:uw.anss.org/AssocArO/UW/5273208">
          <pickID>quakeml:uw.anss.org/Arrival/UW/5273208</pickID>
          <phase>P</phase>
          <azimuth>67.1</azimuth>
          <distance>0.2492</distance>
          <timeResidual>-0.05</timeResidual>
          <creationInfo>
            <agencyID>UW</agencyID>
            <creationTime>2012-02-28T11:35:41.000000Z</creationTime>
          </creationInfo>
        </arrival>
        <arrival publicID="quakeml:uw.anss.org/AssocArO/UW/5273213">
          <pickID>quakeml:uw.anss.org/Arrival/UW/5273213</pickID>
          <phase>P</phase>
          <azimuth>327.2</azimuth>
          <timeResidual>-0.12</timeResidual>
          <creationInfo>
            <agencyID>UW</agencyID>
            <creationTime>2012-02-28T11:35:41.000000Z</creationTime>
          </creationInfo>
        </arrival>
        <arrival publicID="quakeml:uw.anss.org/AssocArO/UW/5273218">
          <pickID>quakeml:uw.anss.org/Arrival/UW/5273218</pickID>
          <phase>S</phase>
          <azimuth>327.2</azimuth>
          <timeResidual>-1.44</timeResidual>
          <creationInfo>
            <agencyID>UW</agencyID>
            <creationTime>2012-02-28T11:35:41.000000Z</creationTime>
          </creationInfo>
        </arrival>
        <arrival publicID="quakeml:uw.anss.org/AssocArO/UW/5273223">
          <pickID>quakeml:uw.anss.org/Arrival/UW/5273223</pickID>
          <phase>P</phase>
          <azimuth>166.3</azimuth>
          <distance>1.264</distance>
          <timeResidual>-0.12</timeResidual>
          <creationInfo>
            <agencyID>UW</agencyID>
            <creationTime>2012-02-28T11:35:41.000000Z</creationTime>
          </creationInfo>
        </arrival>
      </origin>
      <magnitude publicID="quakeml:uw.anss.org/Netmag/UW/526528">
        <mag>
          <value>1.1</value>
          <uncertainty>0.09</uncertainty>
        </mag>
        <type>Md</type>
        <originID>quakeml:uw.anss.org/Origin/UW/626428</originID>
        <methodID>smi:uw.anss.org/magnitude/Crosson</methodID>
        <stationCount>4</stationCount>
        <evaluationMode>manual</evaluationMode>
        <evaluationStatus>final</evaluationStatus>
        <stationMagnitudeContribution>
          <stationMagnitudeID>quakeml:uw.anss.org/AssocCoM/UW/1361233</stationMagnitudeID>
          <weight>1.0</weight>
          <residual>0.23</residual>
        </stationMagnitudeContribution>
        <stationMagnitudeContribution>
          <stationMagnitudeID>quakeml:uw.anss.org/AssocCoM/UW/1361243</stationMagnitudeID>
          <weight>1.0</weight>
          <residual>-0.62</residual>
        </stationMagnitudeContribution>
        <stationMagnitudeContribution>
          <stationMagnitudeID>quakeml:uw.anss.org/AssocCoM/UW/1361218</stationMagnitudeID>
          <weight>1.0</weight>
          <residual>0.28</residual>
        </stationMagnitudeContribution>
        <stationMagnitudeContribution>
          <stationMagnitudeID>quakeml:uw.anss.org/AssocCoM/UW/1361228</stationMagnitudeID>
          <weight>1.0</weight>
          <residual>0.11</residual>
        </stationMagnitudeContribution>
        <creationInfo>
          <agencyID>UW</agencyID>
          <creationTime>2012-02-28T11:35:41.000000Z</creationTime>
        </creationInfo>
      </magnitude>
      <stationMagnitude publicID="quakeml:uw.anss.org/AssocCoM/UW/1361218">
        <originID>quakeml:uw.anss.org/Origin/UW/626428</originID>
        <mag>
          <value>1.38</value>
        </mag>
        <type>MD</type>
        <amplitudeID>quakeml:uw.anss.org/Coda/UW/1361218</amplitudeID>
        <waveformID networkCode="UW" stationCode="JCW" locationCode="" channelCode="EHZ"></waveformID>
      </stationMagnitude>
      <stationMagnitude publicID="quakeml:uw.anss.org/AssocCoM/UW/1361228">
        <originID>quakeml:uw.anss.org/Origin/UW/626428</originID>
        <mag>
          <value>1.21</value>
        </mag>
        <type>MD</type>
        <amplitudeID>quakeml:uw.anss.org/Coda/UW/1361228</amplitudeID>
        <waveformID networkCode="UW" stationCode="RPW" locationCode="" channelCode="EHZ"></waveformID>
      </stationMagnitude>
      <stationMagnitude publicID="quakeml:uw.anss.org/AssocCoM/UW/1361233">
        <originID>quakeml:uw.anss.org/Origin/UW/626428</originID>
        <mag>
          <value>1.33</value>
        </mag>
        <type>MD</type>
        <amplitudeID>quakeml:uw.anss.org/Coda/UW/1361233</amplitudeID>
        <waveformID networkCode="UW" stationCode="MCW" locationCode="" channelCode="EHZ"></waveformID>
      </stationMagnitude>
      <stationMagnitude publicID="quakeml:uw.anss.org/AssocCoM/UW/1361243">
        <originID>quakeml:uw.anss.org/Origin/UW/626428</originID>
        <mag>
          <value>0.48</value>
        </mag>
        <type>MD</type>
        <amplitudeID>quakeml:uw.anss.org/Coda/UW/1361243</amplitudeID>
        <waveformID networkCode="UW" stationCode="CMW" locationCode="" channelCode="EHZ"></waveformID>
      </stationMagnitude>
      <pick publicID="quakeml:uw.anss.org/Arrival/UW/5272963">
        <time>
          <value>1994-08-08T11:07:15.020000Z</value>
          <uncertainty>0.1</uncertainty>
        </time>
        <waveformID networkCode="CN" stationCode="NAB" locationCode="" channelCode="EHZ"></waveformID>
        <polarity>undecidable</polarity>
        <evaluationMode>manual</evaluationMode>
        <evaluationStatus>final</evaluationStatus>
        <creationInfo>
          <agencyID>UW</agencyID>
          <creationTime>2012-02-28T11:35:41.000000Z</creationTime>
        </creationInfo>
      </pick>
      <pick publicID="quakeml:uw.anss.org/Arrival/UW/5272978">
        <time>
          <value>1994-08-08T11:07:31.550000Z</value>
          <uncertainty>0.1</uncertainty>
        </time>
        <waveformID networkCode="CN" stationCode="NAB" locationCode="" channelCode="EHZ"></waveformID>
        <polarity>undecidable</polarity>
        <evaluationMode>manual</evaluationMode>
        <evaluationStatus>final</evaluationStatus>
        <creationInfo>
          <agencyID>UW</agencyID>
          <creationTime>2012-02-28T11:35:41.000000Z</creationTime>
        </creationInfo>
      </pick>
      <pick publicID="quakeml:uw.anss.org/Arrival/UW/5272993">
        <time>
          <value>1994-08-08T11:07:00.710000Z</value>
          <uncertainty>0.12</uncertainty>
        </time>
        <waveformID networkCode="UW" stationCode="OHW" locationCode="" channelCode="EHZ"></waveformID>
        <polarity>undecidable</polarity>
        <evaluationMode>manual</evaluationMode>
        <evaluationStatus>final</evaluationStatus>
        <creationInfo>
          <agencyID>UW</agencyID>
          <creationTime>2012-02-28T11:35:41.000000Z</creationTime>
        </creationInfo>
      </pick>
      <pick publicID="quakeml:uw.anss.org/Arrival/UW/5273013">
        <time>
          <value>1994-08-08T11:07:06.410000Z</value>
          <uncertainty>0.18</uncertainty>
        </time>
        <waveformID networkCode="UW" stationCode="OHW" locationCode="" channelCode="EHZ"></waveformID>
        <polarity>undecidable</polarity>
        <evaluationMode>manual</evaluationMode>
        <evaluationStatus>final</evaluationStatus>
        <creationInfo>
          <agencyID>UW</agencyID>
          <creationTime>2012-02-28T11:35:41.000000Z</creationTime>
        </creationInfo>
      </pick>
      <pick publicID="quakeml:uw.anss.org/Arrival/UW/5273023">
        <time>
          <value>1994-08-08T11:07:03.010000Z</value>
          <uncertainty>0.06</uncertainty>
        </time>
        <waveformID networkCode="UW" stationCode="JCW" locationCode="" channelCode="EHZ"></waveformID>
        <polarity>negative</polarity>
        <evaluationMode>manual</evaluationMode>
        <evaluationStatus>final</evaluationStatus>
        <creationInfo>
          <agencyID>UW</agencyID>
          <creationTime>2012-02-28T11:35:41.000000Z</creationTime>
        </creationInfo>
      </pick>
      <pick publicID="quakeml:uw.anss.org/Arrival/UW/5273028">
        <time>
          <value>1994-08-08T11:07:11.190000Z</value>
          <uncertainty>0.05</uncertainty>
        </time>
