<?xml version='1.0' encoding='utf-8'?>
<q:quakeml xmlns="http://quakeml.org/xmlns/bed/1.2" xmlns:q="http://quakeml.org/xmlns/quakeml/1.2" xmlns:ns0="http://anss.org/xmlns/catalog/0.1">
  <eventParameters publicID="smi:local/63d1d4a5-8266-422a-8504-116a76bb1543">
    <event publicID="quakeml:uw.anss.org/Event/UW/10341573" ns0:datasource="uw" ns0:dataid="uw10341573" ns0:eventsource="uw" ns0:eventid="10341573">
      <preferredOriginID>quakeml:uw.anss.org/Origin/UW/618978</preferredOriginID>
      <preferredMagnitudeID>quakeml:uw.anss.org/Netmag/UW/520718</preferredMagnitudeID>
      <type>earthquake</type>
      <creationInfo>
        <agencyID>UW</agencyID>
        <creationTime>2012-02-28T11:27:49.000000Z</creationTime>
        <version>3</version>
      </creationInfo>
      <origin publicID="quakeml:uw.anss.org/Origin/UW/618978" ns0:datasource="uw" ns0:dataid="uw10341573" ns0:eventsource="uw" ns0:eventid="10341573">
        <time>
          <value>1994-06-03T06:38:11.260000Z</value>
          <uncertainty>0.02</uncertainty>
        </time>
        <latitude>
          <value>48.5361667</value>
          <uncertainty>0.06</uncertainty>
        </latitude>
        <longitude>
          <value>-121.997</value>
          <uncertainty>0.05</uncertainty>
        </longitude>
        <depth>
          <value>-882.0</value>
          <uncertainty>150.0</uncertainty>
        </depth>
        <depthType>operator assigned</depthType>
        <timeFixed>false</timeFixed>
        <epicenterFixed>false</epicenterFixed>
        <methodID>smi:uw.anss.org/origin/spong</methodID>
        <quality>
          <associatedPhaseCount>36</associatedPhaseCount>
          <usedPhaseCount>22</usedPhaseCount>
          <associatedStationCount>25</associatedStationCount>
          <usedStationCount>0</usedStationCount>
          <standardError>0.27</standardError>
          <azimuthalGap>90.0</azimuthalGap>
        </quality>
        <type>hypocenter</type>
        <evaluationMode>manual</evaluationMode>
        <evaluationStatus>final</evaluationStatus>
        <creationInfo>
          <agencyID>UW</agencyID>
          <creationTime>2012-02-28T11:27:49.000000Z</creationTime>
        </creationInfo>
        <originUncertainty>
          <preferredDescription>horizontal uncertainty</preferredDescription>
          <horizontalUncertainty>78.0</horizontalUncertainty>
        </originUncertainty>
        <arrival publicID="quakeml:uw.anss.org/AssocArO/UW/5191458">
          <pickID>quakeml:uw.anss.org/Arrival/UW/5191458</pickID>
          <phase>P</phase>
          <azimuth>155.9</azimuth>
          <distance>1.971</distance>
          <timeResidual>-0.06</timeResidual>
          <creationInfo>
            <agencyID>UW</agencyID>
            <creationTime>2012-02-28T11:27:49.000000Z</creationTime>
          </creationInfo>
        </arrival>
        <arrival publicID="quakeml:uw.anss.org/AssocArO/UW/5191463">
          <pickID>quakeml:uw.anss.org/Arrival/UW/5191463</pickID>
          <phase>P</phase>
          <azimuth>112.3</azimuth>
          <distance>1.2</distance>
          <timeResidual>0.6</timeResidual>
          <creationInfo>
            <agencyID>UW</agencyID>
            <creationTime>2012-02-28T11:27:49.000000Z</creationTime>
          </creationInfo>
        </arrival>
        <arrival publicID="quakeml:uw.anss.org/AssocArO/UW/5191468">
          <pickID>quakeml:uw.anss.org/Arrival/UW/5191468</pickID>
          <phase>S</phase>
          <azimuth>112.3</azimuth>
          <distance>1.2</distance>
          <timeResidual>-0.13</timeResidual>
          <creationInfo>
            <agencyID>UW</agencyID>
            <creationTime>2012-02-28T11:27:49.000000Z</creationTime>
          </creationInfo>
        </arrival>
        <arrival publicID="quakeml:uw.anss.org/AssocArO/UW/5191473">
          <pickID>quakeml:uw.anss.org/Arrival/UW/5191473</pickID>
          <phase>P</phase>
          <azimuth>332.8</azimuth>
          <timeResidual>-0.24</timeResidual>
          <creationInfo>
            <agencyID>UW</agencyID>
            <creationTime>2012-02-28T11:27:49.000000Z</creationTime>
          </creationInfo>
        </arrival>
        <arrival publicID="quakeml:uw.anss.org/AssocArO/UW/5191478">
          <pickID>quakeml:uw.anss.org/Arrival/UW/5191478</pickID>
          <phase>P</phase>
          <azimuth>173.8</azimuth>
          <distance>1.676</distance>
          <timeResidual>-0.53</timeResidual>
          <creationInfo>
            <agencyID>UW</agencyID>
            <creationTime>2012-02-28T11:27:49.000000Z</creationTime>
          </creationInfo>
        </arrival>
        <arrival publicID="quakeml:uw.anss.org/AssocArO/UW/5191483">
          <pickID>quakeml:uw.anss.org/Arrival/UW/5191483</pickID>
          <phase>P</phase>
          <timeResidual>0.21</timeResidual>
          <creationInfo>
            <agencyID>UW</agencyID>
            <creationTime>2012-02-28T11:27:49.000000Z</creationTime>
          </creationInfo>
        </arrival>
        <arrival publicID="quakeml:uw.anss.org/AssocArO/UW/5191488">
          <pickID>quakeml:uw.anss.org/Arrival/UW/5191488</pickID>
          <phase>P</phase>
          <azimuth>216.0</azimuth>
          <distance>0.1394</distance>
          <timeResidual>-0.13</timeResidual>
          <creationInfo>
            <agencyID>UW</agencyID>
            <creationTime>2012-02-28T11:27:49.000000Z</creationTime>
          </creationInfo>
        </arrival>
        <arrival publicID="quakeml:uw.anss.org/AssocArO/UW/5191493">
          <pickID>quakeml:uw.anss.org/Arrival/UW/5191493</pickID>
          <phase>S</phase>
          <azimuth>216.0</azimuth>
          <distance>0.1394</distance>
          <timeResidual>-0.01</timeResidual>
          <creationInfo>
            <agencyID>UW</agencyID>
            <creationTime>2012-02-28T11:27:49.000000Z</creationTime>
          </creationInfo>
        </arrival>
        <arrival publicID="quakeml:uw.anss.org/AssocArO/UW/5191503">
          <pickID>quakeml:uw.anss.org/Arrival/UW/5191503</pickID>
          <phase>P</phase>
          <azimuth>174.1</azimuth>
          <timeResidual>0.23</timeResidual>
          <creationInfo>
            <agencyID>UW</agencyID>
            <creationTime>2012-02-28T11:27:49.000000Z</creationTime>
          </creationInfo>
        </arrival>
        <arrival publicID="quakeml:uw.anss.org/AssocArO/UW/5191538">
          <pickID>quakeml:uw.anss.org/Arrival/UW/5191538</pickID>
          <phase>S</phase>
          <azimuth>174.1</azimuth>
          <timeResidual>-0.84</timeResidual>
          <creationInfo>
            <agencyID>UW</agencyID>
            <creationTime>2012-02-28T11:27:49.000000Z</creationTime>
          </creationInfo>
        </arrival>
        <arrival publicID="quakeml:uw.anss.org/AssocArO/UW/5191548">
          <pickID>quakeml:uw.anss.org/Arrival/UW/5191548</pickID>
          <phase>P</phase>
          <azimuth>175.9</azimuth>
          <distance>1.791</distance>
          <timeResidual>0.03</timeResidual>
          <creationInfo>
            <agencyID>UW</agencyID>
            <creationTime>2012-02-28T11:27:49.000000Z</creationTime>
          </creationInfo>
        </arrival>
        <arrival publicID="quakeml:uw.anss.org/AssocArO/UW/5191558">
          <pickID>quakeml:uw.anss.org/Arrival/UW/5191558</pickID>
          <phase>P</phase>
          <timeResidual>0.44</timeResidual>
          <creationInfo>
            <agencyID>UW</agencyID>
            <creationTime>2012-02-28T11:27:49.000000Z</creationTime>
          </creationInfo>
        </arrival>
        <arrival publicID="quakeml:uw.anss.org/AssocArO/UW/5191563">
          <pickID>quakeml:uw.anss.org/Arrival/UW/5191563</pickID>
          <phase>S</phase>
          <timeResidual>-0.16</timeResidual>
          <creationInfo>
            <agencyID>UW</agencyID>
            <creationTime>2012-02-28T11:27:49.000000Z</creationTime>
          </creationInfo>
        </arrival>
        <arrival publicID="quakeml:uw.anss.org/AssocArO/UW/5191568">
          <pickID>quakeml:uw.anss.org/Arrival/UW/5191568</pickID>
          <phase>P</phase>
          <azimuth>105.2</azimuth>
          <distance>0.3326</distance>
          <timeResidual>0.03</timeResidual>
          <creationInfo>
            <agencyID>UW</agencyID>
            <creationTime>2012-02-28T11:27:49.000000Z</creationTime>
          </creationInfo>
        </arrival>
        <arrival publicID="quakeml:uw.anss.org/AssocArO/UW/5191573">
          <pickID>quakeml:uw.anss.org/Arrival/UW/5191573</pickID>
          <phase>S</phase>
          <azimuth>105.2</azimuth>
          <distance>0.3326</distance>
          <timeResidual>-0.25</timeResidual>
          <creationInfo>
            <agencyID>UW</agencyID>
            <creationTime>2012-02-28T11:27:49.000000Z</creationTime>
          </creationInfo>
        </arrival>
        <arrival publicID="quakeml:uw.anss.org/AssocArO/UW/5191578">
          <pickID>quakeml:uw.anss.org/Arrival/UW/5191578</pickID>
          <phase>P</phase>
          <azimuth>172.4</azimuth>
          <distance>1.997</distance>
          <timeResidual>0.13</timeResidual>
          <creationInfo>
            <agencyID>UW</agencyID>
            <creationTime>2012-02-28T11:27:49.000000Z</creationTime>
          </creationInfo>
        </arrival>
        <arrival publicID="quakeml:uw.anss.org/AssocArO/UW/5191583">
          <pickID>quakeml:uw.anss.org/Arrival/UW/5191583</pickID>
          <phase>P</phase>
          <azimuth>316.0</azimuth>
          <timeResidual>-0.42</timeResidual>
          <creationInfo>
            <agencyID>UW</agencyID>
            <creationTime>2012-02-28T11:27:49.000000Z</creationTime>
          </creationInfo>
        </arrival>
        <arrival publicID="quakeml:uw.anss.org/AssocArO/UW/5191588">
          <pickID>quakeml:uw.anss.org/Arrival/UW/5191588</pickID>
          <phase>S</phase>
          <azimuth>316.0</azimuth>
          <timeResidual>-1.07</timeResidual>
          <creationInfo>
            <agencyID>UW</agencyID>
            <creationTime>2012-02-28T11:27:49.000000Z</creationTime>
          </creationInfo>
        </arrival>
        <arrival publicID="quakeml:uw.anss.org/AssocArO/UW/5191593">
          <pickID>quakeml:uw.anss.org/Arrival/UW/5191593</pickID>
          <phase>P</phase>
          <azimuth>239.3</azimuth>
          <distance>0.4159</distance>
          <timeResidual>0.3</timeResidual>
          <creationInfo>
            <agencyID>UW</agencyID>
            <creationTime>2012-02-28T11:27:49.000000Z</creationTime>
          </creationInfo>
        </arrival>
        <arrival publicID="quakeml:uw.anss.org/AssocArO/UW/5191598">
          <pickID>quakeml:uw.anss.org/Arrival/UW/5191598</pickID>
          <phase>P</phase>
          <azimuth>325.0</azimuth>
          <timeResidual>-0.14</timeResidual>
          <creationInfo>
            <agencyID>UW</agencyID>
            <creationTime>2012-02-28T11:27:49.000000Z</creationTime>
          </creationInfo>
        </arrival>
        <arrival publicID="quakeml:uw.anss.org/AssocArO/UW/5191603">
          <pickID>quakeml:uw.anss.org/Arrival/UW/5191603</pickID>
          <phase>S</phase>
          <azimuth>325.0</azimuth>
          <timeResidual>-1.31</timeResidual>
          <creationInfo>
            <agencyID>UW</agencyID>
            <creationTime>2012-02-28T11:27:49.000000Z</creationTime>
          </creationInfo>
        </arrival>
        <arrival publicID="quakeml:uw.anss.org/AssocArO/UW/5191608">
          <pickID>quakeml:uw.anss.org/Arrival/UW/5191608</pickID>
          <phase>P</phase>
          <azimuth>172.3</azimuth>
          <timeResidual>-0.09</timeResidual>
          <creationInfo>
            <agencyID>UW</agencyID>
            <creationTime>2012-02-28T11:27:49.000000Z</creationTime>
          </creationInfo>
        </arrival>
        <arrival publicID="quakeml:uw.anss.org/AssocArO/UW/5191623">
          <pickID>quakeml:uw.anss.org/Arrival/UW/5191623</pickID>
          <phase>P</phase>
          <azimuth>172.1</azimuth>
          <timeResidual>0.08</timeResidual>
          <creationInfo>
            <agencyID>UW</agencyID>
            <creationTime>2012-02-28T11:27:50.000000Z</creationTime>
          </creationInfo>
        </arrival>
        <arrival publicID="quakeml:uw.anss.org/AssocArO/UW/5191628">
          <pickID>quakeml:uw.anss.org/Arrival/UW/5191628</pickID>
          <phase>S</phase>
          <azimuth>172.1</azimuth>
          <timeResidual>-0.3</timeResidual>
          <creationInfo>
            <agencyID>UW</agencyID>
            <creationTime>2012-02-28T11:27:50.000000Z</creationTime>
          </creationInfo>
        </arrival>
        <arrival publicID="quakeml:uw.anss.org/AssocArO/UW/5191648">
          <pickID>quakeml:uw.anss.org/Arrival/UW/5191648</pickID>
          <phase>P</phase>
          <azimuth>109.6</azimuth>
          <distance>1.585</distance>
          <timeResidual>1.07</timeResidual>
          <creationInfo>
            <agencyID>UW</agencyID>
            <creationTime>2012-02-28T11:27:50.000000Z</creationTime>
          </creationInfo>
        </arrival>
        <arrival publicID="quakeml:uw.anss.org/AssocArO/UW/5191663">
          <pickID>quakeml:uw.anss.org/Arrival/UW/5191663</pickID>
          <phase>P</phase>
          <azimuth>231.2</azimuth>
          <distance>0.84</distance>
          <timeResidual>0.58</timeResidual>
          <creationInfo>
            <agencyID>UW</agencyID>
            <creationTime>2012-02-28T11:27:50.000000Z</creationTime>
          </creationInfo>
        </arrival>
        <arrival publicID="quakeml:uw.anss.org/AssocArO/UW/5191678">
          <pickID>quakeml:uw.anss.org/Arrival/UW/5191678</pickID>
          <phase>P</phase>
          <timeResidual>0.3</timeResidual>
          <creationInfo>
            <agencyID>UW</agencyID>
            <creationTime>2012-02-28T11:27:50.000000Z</creationTime>
          </creationInfo>
        </arrival>
        <arrival publicID="quakeml:uw.anss.org/AssocArO/UW/5191698">
          <pickID>quakeml:uw.anss.org/Arrival/UW/5191698</pickID>
          <phase>S</phase>
          <timeResidual>-0.02</timeResidual>
          <creationInfo>
            <agencyID>UW</agencyID>
            <creationTime>2012-02-28T11:27:50.000000Z</creationTime>
          </creationInfo>
        </arrival>
        <arrival publicID="quakeml:uw.anss.org/AssocArO/UW/5191708">
          <pickID>quakeml:uw.anss.org/Arrival/UW/5191708</pickID>
          <phase>P</phase>
          <azimuth>120.8</azimuth>
          <distance>1.604</distance>
          <timeResidual>1.04</timeResidual>
          <creationInfo>
            <agencyID>UW</agencyID>
            <creationTime>2012-02-28T11:27:50.000000Z</creationTime>
          </creationInfo>
        </arrival>
        <arrival publicID="quakeml:uw.anss.org/AssocArO/UW/5191723">
          <pickID>quakeml:uw.anss.org/Arrival/UW/5191723</pickID>
          <phase>P</phase>
          <azimuth>173.2</azimuth>
          <distance>1.085</distance>
          <timeResidual>0.26</timeResidual>
          <creationInfo>
            <agencyID>UW</agencyID>
            <creationTime>2012-02-28T11:27:50.000000Z</creationTime>
          </creationInfo>
        </arrival>
        <arrival publicID="quakeml:uw.anss.org/AssocArO/UW/5191733">
          <pickID>quakeml:uw.anss.org/Arrival/UW/5191733</pickID>
          <phase>S</phase>
          <azimuth>173.2</azimuth>
          <distance>1.085</distance>
          <timeResidual>0.03</timeResidual>
          <creationInfo>
            <agencyID>UW</agencyID>
            <creationTime>2012-02-28T11:27:50.000000Z</creationTime>
          </creationInfo>
        </arrival>
        <arrival publicID="quakeml:uw.anss.org/AssocArO/UW/5191743">
          <pickID>quakeml:uw.anss.org/Arrival/UW/5191743</pickID>
          <phase>P</phase>
          <azimuth>14.3</azimuth>
          <distance>0.2559</distance>
          <timeResidual>0.01</timeResidual>
          <creationInfo>
            <agencyID>UW</agencyID>
            <creationTime>2012-02-28T11:27:50.000000Z</creationTime>
          </creationInfo>
        </arrival>
        <arrival publicID="quakeml:uw.anss.org/AssocArO/UW/5191758">
          <pickID>quakeml:uw.anss.org/Arrival/UW/5191758</pickID>
          <phase>S</phase>
          <azimuth>14.3</azimuth>
          <distance>0.2559</distance>
          <timeResidual>-0.08</timeResidual>
          <creationInfo>
            <agencyID>UW</agencyID>
            <creationTime>2012-02-28T11:27:50.000000Z</creationTime>
          </creationInfo>
        </arrival>
        <arrival publicID="quakeml:uw.anss.org/AssocArO/UW/5191773">
          <pickID>quakeml:uw.anss.org/Arrival/UW/5191773</pickID>
          <phase>P</phase>
          <azimuth>168.2</azimuth>
          <distance>0.7487</distance>
          <timeResidual>0.08</timeResidual>
          <creationInfo>
            <agencyID>UW</agencyID>
            <creationTime>2012-02-28T11:27:50.000000Z</creationTime>
          </creationInfo>
        </arrival>
        <arrival publicID="quakeml:uw.anss.org/AssocArO/UW/5191783">
          <pickID>quakeml:uw.anss.org/Arrival/UW/5191783</pickID>
          <phase>P</phase>
          <azimuth>284.8</azimuth>
          <distance>0.5727</distance>
          <timeResidual>1.93</timeResidual>
          <creationInfo>
            <agencyID>UW</agencyID>
            <creationTime>2012-02-28T11:27:50.000000Z</creationTime>
          </creationInfo>
        </arrival>
        <arrival publicID="quakeml:uw.anss.org/AssocArO/UW/5191793">
          <pickID>quakeml:uw.anss.org/Arrival/UW/5191793</pickID>
          <phase>P</phase>
          <azimuth>182.0</azimuth>
          <distance>0.701</distance>
          <timeResidual>0.33</timeResidual>
          <creationInfo>
            <agencyID>UW</agencyID>
            <creationTime>2012-02-28T11:27:50.000000Z</creationTime>
          </creationInfo>
        </arrival>
      </origin>
      <magnitude publicID="quakeml:uw.anss.org/Netmag/UW/520718">
        <mag>
          <value>1.7</value>
          <uncertainty>0.09</uncertainty>
        </mag>
        <type>Md</type>
        <originID>quakeml:uw.anss.org/Origin/UW/618978</originID>
        <methodID>smi:uw.anss.org/magnitude/Crosson</methodID>
        <stationCount>6</stationCount>
        <evaluationMode>manual</evaluationMode>
        <evaluationStatus>final</evaluationStatus>
        <stationMagnitudeContribution>
          <stationMagnitudeID>quakeml:uw.anss.org/AssocCoM/UW/1344783</stationMagnitudeID>
          <weight>1.0</weight>
          <residual>-0.27</residual>
        </stationMagnitudeContribution>
        <stationMagnitudeContribution>
          <stationMagnitudeID>quakeml:uw.anss.org/AssocCoM/UW/1344813</stationMagnitudeID>
          <weight>1.0</weight>
          <residual>0.08</residual>
        </stationMagnitudeContribution>
        <stationMagnitudeContribution>
          <stationMagnitudeID>quakeml:uw.anss.org/AssocCoM/UW/1344833</stationMagnitudeID>
          <weight>1.0</weight>
          <residual>0.08</residual>
        </stationMagnitudeContribution>
        <stationMagnitudeContribution>
          <stationMagnitudeID>quakeml:uw.anss.org/AssocCoM/UW/1344803</stationMagnitudeID>
          <weight>1.0</weight>
          <residual>0.16</residual>
        </stationMagnitudeContribution>
        <stationMagnitudeContribution>
          <stationMagnitudeID>quakeml:uw.anss.org/AssocCoM/UW/1344798</stationMagnitudeID>
          <weight>1.0</weight>
          <residual>-0.32</residual>
        </stationMagnitudeContribution>
        <stationMagnitudeContribution>
          <stationMagnitudeID>quakeml:uw.anss.org/AssocCoM/UW/1344823</stationMagnitudeID>
          <weight>1.0</weight>
          <residual>0.05</residual>
        </stationMagnitudeContribution>
        <creationInfo>
          <agencyID>UW</agencyID>
