<?xml version='1.0' encoding='utf-8'?>
<q:quakeml xmlns="http://quakeml.org/xmlns/bed/1.2" xmlns:q="http://quakeml.org/xmlns/quakeml/1.2" xmlns:ns0="http://anss.org/xmlns/catalog/0.1">
  <eventParameters publicID="smi:local/60356c60-2fde-4ddb-b6da-4b1c4a529c57">
    <event publicID="quakeml:uw.anss.org/Event/UW/10362518" ns0:datasource="uw" ns0:dataid="uw10362518" ns0:eventsource="uw" ns0:eventid="10362518">
      <preferredOriginID>quakeml:uw.anss.org/Origin/UW/639923</preferredOriginID>
      <preferredMagnitudeID>quakeml:uw.anss.org/Netmag/UW/536128</preferredMagnitudeID>
      <type>earthquake</type>
      <creationInfo>
        <agencyID>UW</agencyID>
        <creationTime>2012-02-28T11:54:51.000000Z</creationTime>
        <version>3</version>
      </creationInfo>
      <origin publicID="quakeml:uw.anss.org/Origin/UW/639923" ns0:datasource="uw" ns0:dataid="uw10362518" ns0:eventsource="uw" ns0:eventid="10362518">
        <time>
          <value>1994-11-27T08:19:31.140000Z</value>
          <uncertainty>0.1</uncertainty>
        </time>
        <latitude>
          <value>48.668</value>
          <uncertainty>0.58</uncertainty>
        </latitude>
        <longitude>
          <value>-122.1581667</value>
          <uncertainty>0.46</uncertainty>
        </longitude>
        <depth>
          <value>13267.0</value>
          <uncertainty>1760.0</uncertainty>
        </depth>
        <depthType>from location</depthType>
        <timeFixed>false</timeFixed>
        <epicenterFixed>false</epicenterFixed>
        <methodID>smi:uw.anss.org/origin/spong</methodID>
        <quality>
          <associatedPhaseCount>35</associatedPhaseCount>
          <usedPhaseCount>26</usedPhaseCount>
          <associatedStationCount>24</associatedStationCount>
          <usedStationCount>0</usedStationCount>
          <standardError>0.32</standardError>
          <azimuthalGap>61.0</azimuthalGap>
        </quality>
        <type>hypocenter</type>
        <evaluationMode>manual</evaluationMode>
        <evaluationStatus>final</evaluationStatus>
        <creationInfo>
          <agencyID>UW</agencyID>
          <creationTime>2012-02-28T11:54:51.000000Z</creationTime>
        </creationInfo>
        <originUncertainty>
          <preferredDescription>horizontal uncertainty</preferredDescription>
          <horizontalUncertainty>740.0</horizontalUncertainty>
        </originUncertainty>
        <arrival publicID="quakeml:uw.anss.org/AssocArO/UW/5459813">
          <pickID>quakeml:uw.anss.org/Arrival/UW/5459813</pickID>
          <phase>P</phase>
          <azimuth>210.7</azimuth>
          <distance>1.184</distance>
          <timeResidual>0.05</timeResidual>
          <creationInfo>
            <agencyID>UW</agencyID>
            <creationTime>2012-02-28T11:54:51.000000Z</creationTime>
          </creationInfo>
        </arrival>
        <arrival publicID="quakeml:uw.anss.org/AssocArO/UW/5459818">
          <pickID>quakeml:uw.anss.org/Arrival/UW/5459818</pickID>
          <phase>P</phase>
          <azimuth>295.3</azimuth>
          <timeResidual>-0.31</timeResidual>
          <creationInfo>
            <agencyID>UW</agencyID>
            <creationTime>2012-02-28T11:54:51.000000Z</creationTime>
          </creationInfo>
        </arrival>
        <arrival publicID="quakeml:uw.anss.org/AssocArO/UW/5459823">
          <pickID>quakeml:uw.anss.org/Arrival/UW/5459823</pickID>
          <phase>P</phase>
          <azimuth>115.7</azimuth>
          <distance>1.351</distance>
          <timeResidual>1.4</timeResidual>
          <creationInfo>
            <agencyID>UW</agencyID>
            <creationTime>2012-02-28T11:54:51.000000Z</creationTime>
          </creationInfo>
        </arrival>
        <arrival publicID="quakeml:uw.anss.org/AssocArO/UW/5459828">
          <pickID>quakeml:uw.anss.org/Arrival/UW/5459828</pickID>
          <phase>P</phase>
          <azimuth>335.7</azimuth>
          <timeResidual>-0.12</timeResidual>
          <creationInfo>
            <agencyID>UW</agencyID>
            <creationTime>2012-02-28T11:54:51.000000Z</creationTime>
          </creationInfo>
        </arrival>
        <arrival publicID="quakeml:uw.anss.org/AssocArO/UW/5459833">
          <pickID>quakeml:uw.anss.org/Arrival/UW/5459833</pickID>
          <phase>S</phase>
          <azimuth>335.7</azimuth>
          <timeResidual>-0.61</timeResidual>
          <creationInfo>
            <agencyID>UW</agencyID>
            <creationTime>2012-02-28T11:54:51.000000Z</creationTime>
          </creationInfo>
        </arrival>
        <arrival publicID="quakeml:uw.anss.org/AssocArO/UW/5459838">
          <pickID>quakeml:uw.anss.org/Arrival/UW/5459838</pickID>
          <phase>P</phase>
          <azimuth>162.1</azimuth>
          <distance>1.023</distance>
          <timeResidual>0.42</timeResidual>
          <creationInfo>
            <agencyID>UW</agencyID>
            <creationTime>2012-02-28T11:54:51.000000Z</creationTime>
          </creationInfo>
        </arrival>
        <arrival publicID="quakeml:uw.anss.org/AssocArO/UW/5459843">
          <pickID>quakeml:uw.anss.org/Arrival/UW/5459843</pickID>
          <phase>S</phase>
          <azimuth>162.1</azimuth>
          <distance>1.023</distance>
          <timeResidual>-0.21</timeResidual>
          <creationInfo>
            <agencyID>UW</agencyID>
            <creationTime>2012-02-28T11:54:51.000000Z</creationTime>
          </creationInfo>
        </arrival>
        <arrival publicID="quakeml:uw.anss.org/AssocArO/UW/5459848">
          <pickID>quakeml:uw.anss.org/Arrival/UW/5459848</pickID>
          <phase>P</phase>
          <timeResidual>0.16</timeResidual>
          <creationInfo>
            <agencyID>UW</agencyID>
            <creationTime>2012-02-28T11:54:51.000000Z</creationTime>
          </creationInfo>
        </arrival>
        <arrival publicID="quakeml:uw.anss.org/AssocArO/UW/5459853">
          <pickID>quakeml:uw.anss.org/Arrival/UW/5459853</pickID>
          <phase>S</phase>
          <timeResidual>0.54</timeResidual>
          <creationInfo>
            <agencyID>UW</agencyID>
            <creationTime>2012-02-28T11:54:51.000000Z</creationTime>
          </creationInfo>
        </arrival>
        <arrival publicID="quakeml:uw.anss.org/AssocArO/UW/5459858">
          <pickID>quakeml:uw.anss.org/Arrival/UW/5459858</pickID>
          <phase>P</phase>
          <azimuth>150.1</azimuth>
          <distance>1.759</distance>
          <timeResidual>1.79</timeResidual>
          <creationInfo>
            <agencyID>UW</agencyID>
            <creationTime>2012-02-28T11:54:51.000000Z</creationTime>
          </creationInfo>
        </arrival>
        <arrival publicID="quakeml:uw.anss.org/AssocArO/UW/5459863">
          <pickID>quakeml:uw.anss.org/Arrival/UW/5459863</pickID>
          <phase>P</phase>
          <azimuth>174.1</azimuth>
          <distance>0.246</distance>
          <timeResidual>-0.4</timeResidual>
          <creationInfo>
            <agencyID>UW</agencyID>
            <creationTime>2012-02-28T11:54:51.000000Z</creationTime>
          </creationInfo>
        </arrival>
        <arrival publicID="quakeml:uw.anss.org/AssocArO/UW/5459868">
          <pickID>quakeml:uw.anss.org/Arrival/UW/5459868</pickID>
          <phase>S</phase>
          <azimuth>174.1</azimuth>
          <distance>0.246</distance>
          <timeResidual>0.29</timeResidual>
          <creationInfo>
            <agencyID>UW</agencyID>
            <creationTime>2012-02-28T11:54:51.000000Z</creationTime>
          </creationInfo>
        </arrival>
        <arrival publicID="quakeml:uw.anss.org/AssocArO/UW/5459873">
          <pickID>quakeml:uw.anss.org/Arrival/UW/5459873</pickID>
          <phase>P</phase>
          <azimuth>170.5</azimuth>
          <timeResidual>0.29</timeResidual>
          <creationInfo>
            <agencyID>UW</agencyID>
            <creationTime>2012-02-28T11:54:51.000000Z</creationTime>
          </creationInfo>
        </arrival>
        <arrival publicID="quakeml:uw.anss.org/AssocArO/UW/5459878">
          <pickID>quakeml:uw.anss.org/Arrival/UW/5459878</pickID>
          <phase>P</phase>
          <azimuth>172.9</azimuth>
          <distance>1.933</distance>
          <timeResidual>0.15</timeResidual>
          <creationInfo>
            <agencyID>UW</agencyID>
            <creationTime>2012-02-28T11:54:51.000000Z</creationTime>
          </creationInfo>
        </arrival>
        <arrival publicID="quakeml:uw.anss.org/AssocArO/UW/5459883">
          <pickID>quakeml:uw.anss.org/Arrival/UW/5459883</pickID>
          <phase>P</phase>
          <timeResidual>0.51</timeResidual>
          <creationInfo>
            <agencyID>UW</agencyID>
            <creationTime>2012-02-28T11:54:51.000000Z</creationTime>
          </creationInfo>
        </arrival>
        <arrival publicID="quakeml:uw.anss.org/AssocArO/UW/5459888">
          <pickID>quakeml:uw.anss.org/Arrival/UW/5459888</pickID>
          <phase>S</phase>
          <timeResidual>-0.2</timeResidual>
          <creationInfo>
            <agencyID>UW</agencyID>
            <creationTime>2012-02-28T11:54:51.000000Z</creationTime>
          </creationInfo>
        </arrival>
        <arrival publicID="quakeml:uw.anss.org/AssocArO/UW/5459893">
          <pickID>quakeml:uw.anss.org/Arrival/UW/5459893</pickID>
          <phase>P</phase>
          <azimuth>117.1</azimuth>
          <distance>0.4807</distance>
          <timeResidual>-0.13</timeResidual>
          <creationInfo>
            <agencyID>UW</agencyID>
            <creationTime>2012-02-28T11:54:51.000000Z</creationTime>
          </creationInfo>
        </arrival>
        <arrival publicID="quakeml:uw.anss.org/AssocArO/UW/5459898">
          <pickID>quakeml:uw.anss.org/Arrival/UW/5459898</pickID>
          <phase>S</phase>
          <azimuth>117.1</azimuth>
          <distance>0.4807</distance>
          <timeResidual>-0.3</timeResidual>
          <creationInfo>
            <agencyID>UW</agencyID>
            <creationTime>2012-02-28T11:54:51.000000Z</creationTime>
          </creationInfo>
        </arrival>
        <arrival publicID="quakeml:uw.anss.org/AssocArO/UW/5459903">
          <pickID>quakeml:uw.anss.org/Arrival/UW/5459903</pickID>
          <phase>P</phase>
          <azimuth>315.0</azimuth>
          <timeResidual>-0.38</timeResidual>
          <creationInfo>
            <agencyID>UW</agencyID>
            <creationTime>2012-02-28T11:54:51.000000Z</creationTime>
          </creationInfo>
        </arrival>
        <arrival publicID="quakeml:uw.anss.org/AssocArO/UW/5459908">
          <pickID>quakeml:uw.anss.org/Arrival/UW/5459908</pickID>
          <phase>P</phase>
          <azimuth>55.6</azimuth>
          <distance>0.206</distance>
          <timeResidual>0.19</timeResidual>
          <creationInfo>
            <agencyID>UW</agencyID>
            <creationTime>2012-02-28T11:54:51.000000Z</creationTime>
          </creationInfo>
        </arrival>
        <arrival publicID="quakeml:uw.anss.org/AssocArO/UW/5459913">
          <pickID>quakeml:uw.anss.org/Arrival/UW/5459913</pickID>
          <phase>S</phase>
          <azimuth>55.6</azimuth>
          <distance>0.206</distance>
          <timeResidual>0.31</timeResidual>
          <creationInfo>
            <agencyID>UW</agencyID>
            <creationTime>2012-02-28T11:54:51.000000Z</creationTime>
          </creationInfo>
        </arrival>
        <arrival publicID="quakeml:uw.anss.org/AssocArO/UW/5459918">
          <pickID>quakeml:uw.anss.org/Arrival/UW/5459918</pickID>
          <phase>P</phase>
          <azimuth>325.4</azimuth>
          <timeResidual>-0.26</timeResidual>
          <creationInfo>
            <agencyID>UW</agencyID>
            <creationTime>2012-02-28T11:54:52.000000Z</creationTime>
          </creationInfo>
        </arrival>
        <arrival publicID="quakeml:uw.anss.org/AssocArO/UW/5459923">
          <pickID>quakeml:uw.anss.org/Arrival/UW/5459923</pickID>
          <phase>S</phase>
          <azimuth>325.4</azimuth>
          <timeResidual>-1.21</timeResidual>
          <creationInfo>
            <agencyID>UW</agencyID>
            <creationTime>2012-02-28T11:54:52.000000Z</creationTime>
          </creationInfo>
        </arrival>
        <arrival publicID="quakeml:uw.anss.org/AssocArO/UW/5459928">
          <pickID>quakeml:uw.anss.org/Arrival/UW/5459928</pickID>
          <phase>P</phase>
          <azimuth>162.0</azimuth>
          <timeResidual>0.1</timeResidual>
          <creationInfo>
            <agencyID>UW</agencyID>
            <creationTime>2012-02-28T11:54:52.000000Z</creationTime>
          </creationInfo>
        </arrival>
        <arrival publicID="quakeml:uw.anss.org/AssocArO/UW/5459933">
          <pickID>quakeml:uw.anss.org/Arrival/UW/5459933</pickID>
          <phase>S</phase>
          <azimuth>162.0</azimuth>
          <timeResidual>0.01</timeResidual>
          <creationInfo>
            <agencyID>UW</agencyID>
            <creationTime>2012-02-28T11:54:52.000000Z</creationTime>
          </creationInfo>
        </arrival>
        <arrival publicID="quakeml:uw.anss.org/AssocArO/UW/5459938">
          <pickID>quakeml:uw.anss.org/Arrival/UW/5459938</pickID>
          <phase>P</phase>
          <azimuth>169.1</azimuth>
          <timeResidual>0.43</timeResidual>
          <creationInfo>
            <agencyID>UW</agencyID>
            <creationTime>2012-02-28T11:54:52.000000Z</creationTime>
          </creationInfo>
        </arrival>
        <arrival publicID="quakeml:uw.anss.org/AssocArO/UW/5459943">
          <pickID>quakeml:uw.anss.org/Arrival/UW/5459943</pickID>
          <phase>P</phase>
          <azimuth>112.4</azimuth>
          <distance>1.732</distance>
          <timeResidual>1.88</timeResidual>
          <creationInfo>
            <agencyID>UW</agencyID>
            <creationTime>2012-02-28T11:54:52.000000Z</creationTime>
          </creationInfo>
        </arrival>
        <arrival publicID="quakeml:uw.anss.org/AssocArO/UW/5459948">
          <pickID>quakeml:uw.anss.org/Arrival/UW/5459948</pickID>
          <phase>P</phase>
          <azimuth>168.9</azimuth>
          <distance>1.232</distance>
          <timeResidual>0.69</timeResidual>
          <creationInfo>
            <agencyID>UW</agencyID>
            <creationTime>2012-02-28T11:54:52.000000Z</creationTime>
          </creationInfo>
        </arrival>
        <arrival publicID="quakeml:uw.anss.org/AssocArO/UW/5459953">
          <pickID>quakeml:uw.anss.org/Arrival/UW/5459953</pickID>
          <phase>P</phase>
          <azimuth>215.9</azimuth>
          <distance>0.4258</distance>
          <timeResidual>0.42</timeResidual>
          <creationInfo>
            <agencyID>UW</agencyID>
            <creationTime>2012-02-28T11:54:52.000000Z</creationTime>
          </creationInfo>
        </arrival>
        <arrival publicID="quakeml:uw.anss.org/AssocArO/UW/5459958">
          <pickID>quakeml:uw.anss.org/Arrival/UW/5459958</pickID>
          <phase>P</phase>
          <azimuth>163.2</azimuth>
          <distance>0.9032</distance>
          <timeResidual>0.62</timeResidual>
          <creationInfo>
            <agencyID>UW</agencyID>
            <creationTime>2012-02-28T11:54:52.000000Z</creationTime>
          </creationInfo>
        </arrival>
        <arrival publicID="quakeml:uw.anss.org/AssocArO/UW/5459963">
          <pickID>quakeml:uw.anss.org/Arrival/UW/5459963</pickID>
          <phase>P</phase>
          <azimuth>144.5</azimuth>
          <distance>1.829</distance>
          <timeResidual>0.43</timeResidual>
          <creationInfo>
            <agencyID>UW</agencyID>
            <creationTime>2012-02-28T11:54:52.000000Z</creationTime>
          </creationInfo>
        </arrival>
        <arrival publicID="quakeml:uw.anss.org/AssocArO/UW/5459973">
          <pickID>quakeml:uw.anss.org/Arrival/UW/5459973</pickID>
          <phase>P</phase>
          <azimuth>271.7</azimuth>
          <distance>0.4472</distance>
          <timeResidual>0.21</timeResidual>
          <creationInfo>
            <agencyID>UW</agencyID>
            <creationTime>2012-02-28T11:54:52.000000Z</creationTime>
          </creationInfo>
        </arrival>
        <arrival publicID="quakeml:uw.anss.org/AssocArO/UW/5459983">
          <pickID>quakeml:uw.anss.org/Arrival/UW/5459983</pickID>
          <phase>S</phase>
          <azimuth>271.7</azimuth>
          <distance>0.4472</distance>
          <timeResidual>0.0</timeResidual>
          <creationInfo>
            <agencyID>UW</agencyID>
            <creationTime>2012-02-28T11:54:52.000000Z</creationTime>
          </creationInfo>
        </arrival>
        <arrival publicID="quakeml:uw.anss.org/AssocArO/UW/5459993">
          <pickID>quakeml:uw.anss.org/Arrival/UW/5459993</pickID>
          <phase>P</phase>
          <azimuth>174.2</azimuth>
          <distance>0.8367</distance>
          <timeResidual>0.48</timeResidual>
          <creationInfo>
            <agencyID>UW</agencyID>
            <creationTime>2012-02-28T11:54:52.000000Z</creationTime>
          </creationInfo>
        </arrival>
        <arrival publicID="quakeml:uw.anss.org/AssocArO/UW/5460003">
          <pickID>quakeml:uw.anss.org/Arrival/UW/5460003</pickID>
          <phase>S</phase>
          <azimuth>174.2</azimuth>
          <distance>0.8367</distance>
          <timeResidual>-0.02</timeResidual>
          <creationInfo>
            <agencyID>UW</agencyID>
            <creationTime>2012-02-28T11:54:52.000000Z</creationTime>
          </creationInfo>
        </arrival>
      </origin>
      <magnitude publicID="quakeml:uw.anss.org/Netmag/UW/536128">
        <mag>
          <value>1.8</value>
          <uncertainty>0.1</uncertainty>
        </mag>
        <type>Md</type>
        <originID>quakeml:uw.anss.org/Origin/UW/639923</originID>
        <methodID>smi:uw.anss.org/magnitude/Crosson</methodID>
        <stationCount>5</stationCount>
        <evaluationMode>manual</evaluationMode>
        <evaluationStatus>final</evaluationStatus>
        <stationMagnitudeContribution>
          <stationMagnitudeID>quakeml:uw.anss.org/AssocCoM/UW/1392563</stationMagnitudeID>
          <weight>1.0</weight>
          <residual>-0.27</residual>
        </stationMagnitudeContribution>
        <stationMagnitudeContribution>
          <stationMagnitudeID>quakeml:uw.anss.org/AssocCoM/UW/1392568</stationMagnitudeID>
          <weight>1.0</weight>
          <residual>-0.05</residual>
        </stationMagnitudeContribution>
        <stationMagnitudeContribution>
          <stationMagnitudeID>quakeml:uw.anss.org/AssocCoM/UW/1392578</stationMagnitudeID>
          <weight>1.0</weight>
          <residual>-0.02</residual>
        </stationMagnitudeContribution>
        <stationMagnitudeContribution>
          <stationMagnitudeID>quakeml:uw.anss.org/AssocCoM/UW/1392558</stationMagnitudeID>
          <weight>1.0</weight>
          <residual>-0.02</residual>
        </stationMagnitudeContribution>
        <stationMagnitudeContribution>
          <stationMagnitudeID>quakeml:uw.anss.org/AssocCoM/UW/1392573</stationMagnitudeID>
          <weight>1.0</weight>
          <residual>0.19</residual>
        </stationMagnitudeContribution>
        <creationInfo>
          <agencyID>UW</agencyID>
          <creationTime>2012-02-28T11:54:51.000000Z</creationTime>
        </creationInfo>
      </magnitude>
      <stationMagnitude publicID="quakeml:uw.anss.org/AssocCoM/UW/1392558">
        <originID>quakeml:uw.anss.org/Origin/UW/639923</originID>
        <mag>
          <value>1.78</value>
        </mag>
        <type>MD</type>
        <amplitudeID>quakeml:uw.anss.org/Coda/UW/1392558</amplitudeID>
        <waveformID networkCode="UW" stationCode="HDW" locationCode="" channelCode="EHZ"></waveformID>
      </stationMagnitude>
      <stationMagnitude publicID="quakeml:uw.anss.org/AssocCoM/UW/1392563">
