<?xml version='1.0' encoding='utf-8'?>
<q:quakeml xmlns="http://quakeml.org/xmlns/bed/1.2" xmlns:q="http://quakeml.org/xmlns/quakeml/1.2" xmlns:ns0="http://anss.org/xmlns/catalog/0.1">
  <eventParameters publicID="smi:local/ef3adf05-a364-46b6-a209-958596444924">
    <event publicID="quakeml:uw.anss.org/Event/UW/10338458" ns0:datasource="uw" ns0:dataid="uw10338458" ns0:eventsource="uw" ns0:eventid="10338458">
      <preferredOriginID>quakeml:uw.anss.org/Origin/UW/615863</preferredOriginID>
      <preferredMagnitudeID>quakeml:uw.anss.org/Netmag/UW/518253</preferredMagnitudeID>
      <type>earthquake</type>
      <creationInfo>
        <agencyID>UW</agencyID>
        <creationTime>2012-02-28T11:24:40.000000Z</creationTime>
        <version>3</version>
      </creationInfo>
      <origin publicID="quakeml:uw.anss.org/Origin/UW/615863" ns0:datasource="uw" ns0:dataid="uw10338458" ns0:eventsource="uw" ns0:eventid="10338458">
        <time>
          <value>1994-04-01T04:38:55.670000Z</value>
          <uncertainty>0.01</uncertainty>
        </time>
        <latitude>
          <value>48.9453333</value>
          <uncertainty>0.14</uncertainty>
        </latitude>
        <longitude>
          <value>-121.9518333</value>
          <uncertainty>0.11</uncertainty>
        </longitude>
        <depth>
          <value>7162.0</value>
          <uncertainty>150.0</uncertainty>
        </depth>
        <depthType>operator assigned</depthType>
        <timeFixed>false</timeFixed>
        <epicenterFixed>false</epicenterFixed>
        <methodID>smi:uw.anss.org/origin/spong</methodID>
        <quality>
          <associatedPhaseCount>38</associatedPhaseCount>
          <usedPhaseCount>17</usedPhaseCount>
          <associatedStationCount>23</associatedStationCount>
          <usedStationCount>0</usedStationCount>
          <standardError>0.24</standardError>
          <azimuthalGap>199.0</azimuthalGap>
        </quality>
        <type>hypocenter</type>
        <evaluationMode>manual</evaluationMode>
        <evaluationStatus>final</evaluationStatus>
        <creationInfo>
          <agencyID>UW</agencyID>
          <creationTime>2012-02-28T11:24:40.000000Z</creationTime>
        </creationInfo>
        <originUncertainty>
          <preferredDescription>horizontal uncertainty</preferredDescription>
          <horizontalUncertainty>178.0</horizontalUncertainty>
        </originUncertainty>
        <arrival publicID="quakeml:uw.anss.org/AssocArO/UW/5159218">
          <pickID>quakeml:uw.anss.org/Arrival/UW/5159218</pickID>
          <phase>P</phase>
          <azimuth>282.4</azimuth>
          <timeResidual>-0.07</timeResidual>
          <creationInfo>
            <agencyID>UW</agencyID>
            <creationTime>2012-02-28T11:24:40.000000Z</creationTime>
          </creationInfo>
        </arrival>
        <arrival publicID="quakeml:uw.anss.org/AssocArO/UW/5159223">
          <pickID>quakeml:uw.anss.org/Arrival/UW/5159223</pickID>
          <phase>S</phase>
          <azimuth>282.4</azimuth>
          <timeResidual>-1.87</timeResidual>
          <creationInfo>
            <agencyID>UW</agencyID>
            <creationTime>2012-02-28T11:24:40.000000Z</creationTime>
          </creationInfo>
        </arrival>
        <arrival publicID="quakeml:uw.anss.org/AssocArO/UW/5159228">
          <pickID>quakeml:uw.anss.org/Arrival/UW/5159228</pickID>
          <phase>P</phase>
          <azimuth>160.7</azimuth>
          <distance>2.34</distance>
          <timeResidual>2.61</timeResidual>
          <creationInfo>
            <agencyID>UW</agencyID>
            <creationTime>2012-02-28T11:24:40.000000Z</creationTime>
          </creationInfo>
        </arrival>
        <arrival publicID="quakeml:uw.anss.org/AssocArO/UW/5159233">
          <pickID>quakeml:uw.anss.org/Arrival/UW/5159233</pickID>
          <phase>P</phase>
          <azimuth>308.9</azimuth>
          <timeResidual>0.01</timeResidual>
          <creationInfo>
            <agencyID>UW</agencyID>
            <creationTime>2012-02-28T11:24:40.000000Z</creationTime>
          </creationInfo>
        </arrival>
        <arrival publicID="quakeml:uw.anss.org/AssocArO/UW/5159238">
          <pickID>quakeml:uw.anss.org/Arrival/UW/5159238</pickID>
          <phase>S</phase>
          <azimuth>308.9</azimuth>
          <timeResidual>-0.54</timeResidual>
          <creationInfo>
            <agencyID>UW</agencyID>
            <creationTime>2012-02-28T11:24:40.000000Z</creationTime>
          </creationInfo>
        </arrival>
        <arrival publicID="quakeml:uw.anss.org/AssocArO/UW/5159243">
          <pickID>quakeml:uw.anss.org/Arrival/UW/5159243</pickID>
          <phase>P</phase>
          <azimuth>175.9</azimuth>
          <distance>2.081</distance>
          <timeResidual>1.14</timeResidual>
          <creationInfo>
            <agencyID>UW</agencyID>
            <creationTime>2012-02-28T11:24:40.000000Z</creationTime>
          </creationInfo>
        </arrival>
        <arrival publicID="quakeml:uw.anss.org/AssocArO/UW/5159248">
          <pickID>quakeml:uw.anss.org/Arrival/UW/5159248</pickID>
          <phase>S</phase>
          <azimuth>175.9</azimuth>
          <distance>2.081</distance>
          <timeResidual>0.03</timeResidual>
          <creationInfo>
            <agencyID>UW</agencyID>
            <creationTime>2012-02-28T11:24:40.000000Z</creationTime>
          </creationInfo>
        </arrival>
        <arrival publicID="quakeml:uw.anss.org/AssocArO/UW/5159253">
          <pickID>quakeml:uw.anss.org/Arrival/UW/5159253</pickID>
          <phase>P</phase>
          <timeResidual>0.21</timeResidual>
          <creationInfo>
            <agencyID>UW</agencyID>
            <creationTime>2012-02-28T11:24:40.000000Z</creationTime>
          </creationInfo>
        </arrival>
        <arrival publicID="quakeml:uw.anss.org/AssocArO/UW/5159258">
          <pickID>quakeml:uw.anss.org/Arrival/UW/5159258</pickID>
          <phase>S</phase>
          <timeResidual>0.12</timeResidual>
          <creationInfo>
            <agencyID>UW</agencyID>
            <creationTime>2012-02-28T11:24:40.000000Z</creationTime>
          </creationInfo>
        </arrival>
        <arrival publicID="quakeml:uw.anss.org/AssocArO/UW/5159263">
          <pickID>quakeml:uw.anss.org/Arrival/UW/5159263</pickID>
          <phase>P</phase>
          <azimuth>192.1</azimuth>
          <distance>0.534</distance>
          <timeResidual>-0.08</timeResidual>
          <creationInfo>
            <agencyID>UW</agencyID>
            <creationTime>2012-02-28T11:24:40.000000Z</creationTime>
          </creationInfo>
        </arrival>
        <arrival publicID="quakeml:uw.anss.org/AssocArO/UW/5159268">
          <pickID>quakeml:uw.anss.org/Arrival/UW/5159268</pickID>
          <phase>S</phase>
          <azimuth>192.1</azimuth>
          <distance>0.534</distance>
          <timeResidual>-0.33</timeResidual>
          <creationInfo>
            <agencyID>UW</agencyID>
            <creationTime>2012-02-28T11:24:40.000000Z</creationTime>
          </creationInfo>
        </arrival>
        <arrival publicID="quakeml:uw.anss.org/AssocArO/UW/5159273">
          <pickID>quakeml:uw.anss.org/Arrival/UW/5159273</pickID>
          <phase>P</phase>
          <azimuth>176.5</azimuth>
          <timeResidual>0.53</timeResidual>
          <creationInfo>
            <agencyID>UW</agencyID>
            <creationTime>2012-02-28T11:24:40.000000Z</creationTime>
          </creationInfo>
        </arrival>
        <arrival publicID="quakeml:uw.anss.org/AssocArO/UW/5159278">
          <pickID>quakeml:uw.anss.org/Arrival/UW/5159278</pickID>
          <phase>S</phase>
          <azimuth>176.5</azimuth>
          <timeResidual>-0.78</timeResidual>
          <creationInfo>
            <agencyID>UW</agencyID>
            <creationTime>2012-02-28T11:24:40.000000Z</creationTime>
          </creationInfo>
        </arrival>
        <arrival publicID="quakeml:uw.anss.org/AssocArO/UW/5159283">
          <pickID>quakeml:uw.anss.org/Arrival/UW/5159283</pickID>
          <phase>P</phase>
          <timeResidual>0.28</timeResidual>
          <creationInfo>
            <agencyID>UW</agencyID>
            <creationTime>2012-02-28T11:24:40.000000Z</creationTime>
          </creationInfo>
        </arrival>
        <arrival publicID="quakeml:uw.anss.org/AssocArO/UW/5159288">
          <pickID>quakeml:uw.anss.org/Arrival/UW/5159288</pickID>
          <phase>P</phase>
          <azimuth>149.7</azimuth>
          <distance>0.5757</distance>
          <timeResidual>0.19</timeResidual>
          <creationInfo>
            <agencyID>UW</agencyID>
            <creationTime>2012-02-28T11:24:40.000000Z</creationTime>
          </creationInfo>
        </arrival>
        <arrival publicID="quakeml:uw.anss.org/AssocArO/UW/5159293">
          <pickID>quakeml:uw.anss.org/Arrival/UW/5159293</pickID>
          <phase>S</phase>
          <azimuth>149.7</azimuth>
          <distance>0.5757</distance>
          <timeResidual>-0.11</timeResidual>
          <creationInfo>
            <agencyID>UW</agencyID>
            <creationTime>2012-02-28T11:24:40.000000Z</creationTime>
          </creationInfo>
        </arrival>
        <arrival publicID="quakeml:uw.anss.org/AssocArO/UW/5159298">
          <pickID>quakeml:uw.anss.org/Arrival/UW/5159298</pickID>
          <phase>P</phase>
          <azimuth>298.2</azimuth>
          <timeResidual>-0.05</timeResidual>
          <creationInfo>
            <agencyID>UW</agencyID>
            <creationTime>2012-02-28T11:24:40.000000Z</creationTime>
          </creationInfo>
        </arrival>
        <arrival publicID="quakeml:uw.anss.org/AssocArO/UW/5159303">
          <pickID>quakeml:uw.anss.org/Arrival/UW/5159303</pickID>
          <phase>S</phase>
          <azimuth>298.2</azimuth>
          <timeResidual>-0.95</timeResidual>
          <creationInfo>
            <agencyID>UW</agencyID>
            <creationTime>2012-02-28T11:24:40.000000Z</creationTime>
          </creationInfo>
        </arrival>
        <arrival publicID="quakeml:uw.anss.org/AssocArO/UW/5159308">
          <pickID>quakeml:uw.anss.org/Arrival/UW/5159308</pickID>
          <phase>P</phase>
          <azimuth>168.3</azimuth>
          <distance>0.1651</distance>
          <timeResidual>-0.13</timeResidual>
          <creationInfo>
            <agencyID>UW</agencyID>
            <creationTime>2012-02-28T11:24:40.000000Z</creationTime>
          </creationInfo>
        </arrival>
        <arrival publicID="quakeml:uw.anss.org/AssocArO/UW/5159313">
          <pickID>quakeml:uw.anss.org/Arrival/UW/5159313</pickID>
          <phase>P</phase>
          <azimuth>311.1</azimuth>
          <timeResidual>0.13</timeResidual>
          <creationInfo>
            <agencyID>UW</agencyID>
            <creationTime>2012-02-28T11:24:40.000000Z</creationTime>
          </creationInfo>
        </arrival>
        <arrival publicID="quakeml:uw.anss.org/AssocArO/UW/5159318">
          <pickID>quakeml:uw.anss.org/Arrival/UW/5159318</pickID>
          <phase>S</phase>
          <azimuth>311.1</azimuth>
          <timeResidual>-0.87</timeResidual>
          <creationInfo>
            <agencyID>UW</agencyID>
            <creationTime>2012-02-28T11:24:40.000000Z</creationTime>
          </creationInfo>
        </arrival>
        <arrival publicID="quakeml:uw.anss.org/AssocArO/UW/5159323">
          <pickID>quakeml:uw.anss.org/Arrival/UW/5159323</pickID>
          <phase>P</phase>
          <azimuth>178.8</azimuth>
          <timeResidual>0.58</timeResidual>
          <creationInfo>
            <agencyID>UW</agencyID>
            <creationTime>2012-02-28T11:24:40.000000Z</creationTime>
          </creationInfo>
        </arrival>
        <arrival publicID="quakeml:uw.anss.org/AssocArO/UW/5159328">
          <pickID>quakeml:uw.anss.org/Arrival/UW/5159328</pickID>
          <phase>S</phase>
          <azimuth>178.8</azimuth>
          <timeResidual>0.37</timeResidual>
          <creationInfo>
            <agencyID>UW</agencyID>
            <creationTime>2012-02-28T11:24:40.000000Z</creationTime>
          </creationInfo>
        </arrival>
        <arrival publicID="quakeml:uw.anss.org/AssocArO/UW/5159333">
          <pickID>quakeml:uw.anss.org/Arrival/UW/5159333</pickID>
          <phase>P</phase>
          <azimuth>155.0</azimuth>
          <distance>2.24</distance>
          <timeResidual>1.45</timeResidual>
          <creationInfo>
            <agencyID>UW</agencyID>
            <creationTime>2012-02-28T11:24:40.000000Z</creationTime>
          </creationInfo>
        </arrival>
        <arrival publicID="quakeml:uw.anss.org/AssocArO/UW/5159338">
          <pickID>quakeml:uw.anss.org/Arrival/UW/5159338</pickID>
          <phase>P</phase>
          <azimuth>174.5</azimuth>
          <timeResidual>0.76</timeResidual>
          <creationInfo>
            <agencyID>UW</agencyID>
            <creationTime>2012-02-28T11:24:40.000000Z</creationTime>
          </creationInfo>
        </arrival>
        <arrival publicID="quakeml:uw.anss.org/AssocArO/UW/5159353">
          <pickID>quakeml:uw.anss.org/Arrival/UW/5159353</pickID>
          <phase>S</phase>
          <azimuth>174.5</azimuth>
          <timeResidual>-0.56</timeResidual>
          <creationInfo>
            <agencyID>UW</agencyID>
            <creationTime>2012-02-28T11:24:40.000000Z</creationTime>
          </creationInfo>
        </arrival>
        <arrival publicID="quakeml:uw.anss.org/AssocArO/UW/5159368">
          <pickID>quakeml:uw.anss.org/Arrival/UW/5159368</pickID>
          <phase>P</phase>
          <timeResidual>0.28</timeResidual>
          <creationInfo>
            <agencyID>UW</agencyID>
            <creationTime>2012-02-28T11:24:40.000000Z</creationTime>
          </creationInfo>
        </arrival>
        <arrival publicID="quakeml:uw.anss.org/AssocArO/UW/5159378">
          <pickID>quakeml:uw.anss.org/Arrival/UW/5159378</pickID>
          <phase>S</phase>
          <timeResidual>-0.61</timeResidual>
          <creationInfo>
            <agencyID>UW</agencyID>
            <creationTime>2012-02-28T11:24:40.000000Z</creationTime>
          </creationInfo>
        </arrival>
        <arrival publicID="quakeml:uw.anss.org/AssocArO/UW/5159403">
          <pickID>quakeml:uw.anss.org/Arrival/UW/5159403</pickID>
          <phase>P</phase>
          <azimuth>216.2</azimuth>
          <distance>1.159</distance>
          <timeResidual>0.89</timeResidual>
          <creationInfo>
            <agencyID>UW</agencyID>
            <creationTime>2012-02-28T11:24:40.000000Z</creationTime>
          </creationInfo>
        </arrival>
        <arrival publicID="quakeml:uw.anss.org/AssocArO/UW/5159478">
          <pickID>quakeml:uw.anss.org/Arrival/UW/5159478</pickID>
          <phase>P</phase>
          <azimuth>176.2</azimuth>
          <distance>1.49</distance>
          <timeResidual>0.34</timeResidual>
          <creationInfo>
            <agencyID>UW</agencyID>
            <creationTime>2012-02-28T11:24:40.000000Z</creationTime>
          </creationInfo>
        </arrival>
        <arrival publicID="quakeml:uw.anss.org/AssocArO/UW/5159488">
          <pickID>quakeml:uw.anss.org/Arrival/UW/5159488</pickID>
          <phase>S</phase>
          <azimuth>176.2</azimuth>
          <distance>1.49</distance>
          <timeResidual>-0.09</timeResidual>
          <creationInfo>
            <agencyID>UW</agencyID>
            <creationTime>2012-02-28T11:24:40.000000Z</creationTime>
          </creationInfo>
        </arrival>
        <arrival publicID="quakeml:uw.anss.org/AssocArO/UW/5159503">
          <pickID>quakeml:uw.anss.org/Arrival/UW/5159503</pickID>
          <phase>P</phase>
          <timeResidual>-0.42</timeResidual>
          <creationInfo>
            <agencyID>UW</agencyID>
            <creationTime>2012-02-28T11:24:40.000000Z</creationTime>
          </creationInfo>
        </arrival>
        <arrival publicID="quakeml:uw.anss.org/AssocArO/UW/5159538">
          <pickID>quakeml:uw.anss.org/Arrival/UW/5159538</pickID>
          <phase>S</phase>
          <timeResidual>-1.85</timeResidual>
          <creationInfo>
            <agencyID>UW</agencyID>
            <creationTime>2012-02-28T11:24:40.000000Z</creationTime>
          </creationInfo>
        </arrival>
        <arrival publicID="quakeml:uw.anss.org/AssocArO/UW/5159543">
          <pickID>quakeml:uw.anss.org/Arrival/UW/5159543</pickID>
          <phase>P</phase>
          <timeResidual>0.68</timeResidual>
          <creationInfo>
            <agencyID>UW</agencyID>
            <creationTime>2012-02-28T11:24:40.000000Z</creationTime>
          </creationInfo>
        </arrival>
        <arrival publicID="quakeml:uw.anss.org/AssocArO/UW/5159548">
          <pickID>quakeml:uw.anss.org/Arrival/UW/5159548</pickID>
          <phase>P</phase>
          <azimuth>177.5</azimuth>
          <distance>2.198</distance>
          <timeResidual>0.46</timeResidual>
          <creationInfo>
            <agencyID>UW</agencyID>
            <creationTime>2012-02-28T11:24:40.000000Z</creationTime>
          </creationInfo>
        </arrival>
        <arrival publicID="quakeml:uw.anss.org/AssocArO/UW/5159553">
          <pickID>quakeml:uw.anss.org/Arrival/UW/5159553</pickID>
          <phase>S</phase>
          <azimuth>177.5</azimuth>
          <distance>2.198</distance>
          <timeResidual>-0.22</timeResidual>
          <creationInfo>
            <agencyID>UW</agencyID>
            <creationTime>2012-02-28T11:24:40.000000Z</creationTime>
          </creationInfo>
        </arrival>
        <arrival publicID="quakeml:uw.anss.org/AssocArO/UW/5159558">
          <pickID>quakeml:uw.anss.org/Arrival/UW/5159558</pickID>
          <phase>P</phase>
          <azimuth>245.7</azimuth>
          <distance>0.6403</distance>
          <timeResidual>0.38</timeResidual>
          <creationInfo>
            <agencyID>UW</agencyID>
            <creationTime>2012-02-28T11:24:40.000000Z</creationTime>
          </creationInfo>
        </arrival>
        <arrival publicID="quakeml:uw.anss.org/AssocArO/UW/5159563">
          <pickID>quakeml:uw.anss.org/Arrival/UW/5159563</pickID>
          <phase>P</phase>
          <azimuth>182.8</azimuth>
          <distance>1.111</distance>
          <timeResidual>0.35</timeResidual>
          <creationInfo>
            <agencyID>UW</agencyID>
            <creationTime>2012-02-28T11:24:40.000000Z</creationTime>
          </creationInfo>
        </arrival>
      </origin>
      <magnitude publicID="quakeml:uw.anss.org/Netmag/UW/518253">
        <mag>
          <value>2.2</value>
          <uncertainty>0.09</uncertainty>
        </mag>
        <type>Md</type>
        <originID>quakeml:uw.anss.org/Origin/UW/615863</originID>
        <methodID>smi:uw.anss.org/magnitude/Crosson</methodID>
        <stationCount>5</stationCount>
        <evaluationMode>manual</evaluationMode>
        <evaluationStatus>final</evaluationStatus>
        <stationMagnitudeContribution>
          <stationMagnitudeID>quakeml:uw.anss.org/AssocCoM/UW/1337948</stationMagnitudeID>
          <weight>1.0</weight>
          <residual>0.0</residual>
        </stationMagnitudeContribution>
        <stationMagnitudeContribution>
          <stationMagnitudeID>quakeml:uw.anss.org/AssocCoM/UW/1337953</stationMagnitudeID>
          <weight>1.0</weight>
          <residual>-0.08</residual>
        </stationMagnitudeContribution>
        <stationMagnitudeContribution>
          <stationMagnitudeID>quakeml:uw.anss.org/AssocCoM/UW/1337938</stationMagnitudeID>
          <weight>1.0</weight>
          <residual>0.0</residual>
        </stationMagnitudeContribution>
        <stationMagnitudeContribution>
          <stationMagnitudeID>quakeml:uw.anss.org/AssocCoM/UW/1337943</stationMagnitudeID>
          <weight>1.0</weight>
          <residual>0.35</residual>
        </stationMagnitudeContribution>
