<?xml version='1.0' encoding='utf-8'?>
<q:quakeml xmlns="http://quakeml.org/xmlns/bed/1.2" xmlns:q="http://quakeml.org/xmlns/quakeml/1.2" xmlns:ns0="http://anss.org/xmlns/catalog/0.1">
  <eventParameters publicID="smi:local/7fe0b1c9-92b3-43e0-959c-60d35fd7398d">
    <event publicID="quakeml:uw.anss.org/Event/UW/61684702" ns0:datasource="uw" ns0:dataid="uw61684702" ns0:eventsource="uw" ns0:eventid="61684702">
      <preferredOriginID>quakeml:uw.anss.org/Origin/UW/3143068</preferredOriginID>
      <preferredMagnitudeID>quakeml:uw.anss.org/Netmag/UW/3078078</preferredMagnitudeID>
      <type>earthquake</type>
      <creationInfo>
        <agencyID>UW</agencyID>
        <creationTime>2020-10-20T16:46:26.000000Z</creationTime>
        <version>1</version>
      </creationInfo>
      <origin publicID="quakeml:uw.anss.org/Origin/UW/3143068" ns0:datasource="uw" ns0:dataid="uw61684702" ns0:eventsource="uw" ns0:eventid="61684702">
        <time>
          <value>2020-10-20T15:45:17.880000Z</value>
        </time>
        <latitude>
          <value>48.6655</value>
        </latitude>
        <longitude>
          <value>-121.72416666666666</value>
        </longitude>
        <depth>
          <value>4060.0</value>
          <uncertainty>600.0</uncertainty>
        </depth>
        <depthType>from location</depthType>
        <timeFixed>false</timeFixed>
        <epicenterFixed>false</epicenterFixed>
        <methodID>smi:uw.anss.org/origin/HYP2000</methodID>
        <quality>
          <associatedPhaseCount>17</associatedPhaseCount>
          <usedPhaseCount>13</usedPhaseCount>
          <associatedStationCount>11</associatedStationCount>
          <usedStationCount>8</usedStationCount>
          <standardError>0.11</standardError>
          <azimuthalGap>129.0</azimuthalGap>
          <secondaryAzimuthalGap>494.0</secondaryAzimuthalGap>
          <minimumDistance>0.02718</minimumDistance>
          <maximumDistance>0.7349</maximumDistance>
          <medianDistance>0.2582</medianDistance>
        </quality>
        <type>hypocenter</type>
        <evaluationMode>manual</evaluationMode>
        <evaluationStatus>final</evaluationStatus>
        <creationInfo>
          <agencyID>UW</agencyID>
          <creationTime>2020-10-20T16:46:21.000000Z</creationTime>
        </creationInfo>
        <originUncertainty>
          <preferredDescription>confidence ellipsoid</preferredDescription>
          <horizontalUncertainty>490.0</horizontalUncertainty>
          <confidenceLevel>95.0</confidenceLevel>
          <confidenceEllipsoid>
            <semiMajorAxisLength>1848.0</semiMajorAxisLength>
            <semiMinorAxisLength>600.0</semiMinorAxisLength>
            <semiIntermediateAxisLength>1128.0</semiIntermediateAxisLength>
            <majorAxisPlunge>50.0</majorAxisPlunge>
            <majorAxisAzimuth>79.0</majorAxisAzimuth>
            <majorAxisRotation>350.0</majorAxisRotation>
          </confidenceEllipsoid>
        </originUncertainty>
        <arrival publicID="quakeml:uw.anss.org/AssocArO/UW/15330948">
          <pickID>quakeml:uw.anss.org/Arrival/UW/15330948</pickID>
          <phase>P</phase>
          <timeCorrection>0.0</timeCorrection>
          <azimuth>118.41450435977691</azimuth>
          <distance>0.02718</distance>
          <takeoffAngle>
            <value>143.0</value>
          </takeoffAngle>
          <timeResidual>0.04</timeResidual>
          <timeWeight>0.12</timeWeight>
          <creationInfo>
            <agencyID>UW</agencyID>
            <creationTime>2020-10-20T16:46:26.000000Z</creationTime>
          </creationInfo>
        </arrival>
        <arrival publicID="quakeml:uw.anss.org/AssocArO/UW/15330953">
          <pickID>quakeml:uw.anss.org/Arrival/UW/15330953</pickID>
          <phase>S</phase>
          <timeCorrection>0.0</timeCorrection>
          <azimuth>118.41450435977691</azimuth>
          <distance>0.02718</distance>
          <takeoffAngle>
            <value>143.0</value>
          </takeoffAngle>
          <timeResidual>-0.06</timeResidual>
          <timeWeight>0.12</timeWeight>
          <creationInfo>
            <agencyID>UW</agencyID>
            <creationTime>2020-10-20T16:46:26.000000Z</creationTime>
          </creationInfo>
        </arrival>
        <arrival publicID="quakeml:uw.anss.org/AssocArO/UW/15330958">
          <pickID>quakeml:uw.anss.org/Arrival/UW/15330958</pickID>
          <phase>P</phase>
          <timeCorrection>0.0</timeCorrection>
          <azimuth>186.48200089157328</azimuth>
          <distance>0.1188</distance>
          <takeoffAngle>
            <value>97.0</value>
          </takeoffAngle>
          <timeResidual>0.15</timeResidual>
          <timeWeight>0.12</timeWeight>
          <creationInfo>
            <agencyID>UW</agencyID>
            <creationTime>2020-10-20T16:46:26.000000Z</creationTime>
          </creationInfo>
        </arrival>
        <arrival publicID="quakeml:uw.anss.org/AssocArO/UW/15330963">
          <pickID>quakeml:uw.anss.org/Arrival/UW/15330963</pickID>
          <phase>S</phase>
          <timeCorrection>0.0</timeCorrection>
          <azimuth>186.48200089157328</azimuth>
          <distance>0.1188</distance>
          <takeoffAngle>
            <value>97.0</value>
          </takeoffAngle>
          <timeResidual>0.1</timeResidual>
          <timeWeight>0.09</timeWeight>
          <creationInfo>
            <agencyID>UW</agencyID>
            <creationTime>2020-10-20T16:46:26.000000Z</creationTime>
          </creationInfo>
        </arrival>
        <arrival publicID="quakeml:uw.anss.org/AssocArO/UW/15330968">
          <pickID>quakeml:uw.anss.org/Arrival/UW/15330968</pickID>
          <phase>P</phase>
          <timeCorrection>0.38</timeCorrection>
          <azimuth>315.483379237091</azimuth>
          <distance>0.1665</distance>
          <takeoffAngle>
            <value>94.0</value>
          </takeoffAngle>
          <timeResidual>-0.05</timeResidual>
          <timeWeight>0.12</timeWeight>
          <creationInfo>
            <agencyID>UW</agencyID>
            <creationTime>2020-10-20T16:46:26.000000Z</creationTime>
          </creationInfo>
        </arrival>
        <arrival publicID="quakeml:uw.anss.org/AssocArO/UW/15330973">
          <pickID>quakeml:uw.anss.org/Arrival/UW/15330973</pickID>
          <phase>S</phase>
          <timeCorrection>0.68</timeCorrection>
          <azimuth>315.483379237091</azimuth>
          <distance>0.1665</distance>
          <takeoffAngle>
            <value>94.0</value>
          </takeoffAngle>
          <timeResidual>-0.13</timeResidual>
          <timeWeight>0.06</timeWeight>
          <creationInfo>
            <agencyID>UW</agencyID>
            <creationTime>2020-10-20T16:46:26.000000Z</creationTime>
          </creationInfo>
        </arrival>
        <arrival publicID="quakeml:uw.anss.org/AssocArO/UW/15330978">
          <pickID>quakeml:uw.anss.org/Arrival/UW/15330978</pickID>
          <phase>P</phase>
          <timeCorrection>0.0</timeCorrection>
          <azimuth>9.41573635386726</azimuth>
          <distance>0.1901</distance>
          <takeoffAngle>
            <value>93.0</value>
          </takeoffAngle>
          <timeResidual>0.16</timeResidual>
          <timeWeight>0.12</timeWeight>
          <creationInfo>
            <agencyID>UW</agencyID>
            <creationTime>2020-10-20T16:46:26.000000Z</creationTime>
          </creationInfo>
        </arrival>
        <arrival publicID="quakeml:uw.anss.org/AssocArO/UW/15330983">
          <pickID>quakeml:uw.anss.org/Arrival/UW/15330983</pickID>
          <phase>S</phase>
          <timeCorrection>0.0</timeCorrection>
          <azimuth>9.41573635386726</azimuth>
          <distance>0.1901</distance>
          <takeoffAngle>
            <value>93.0</value>
          </takeoffAngle>
          <timeResidual>0.05</timeResidual>
          <timeWeight>0.09</timeWeight>
          <creationInfo>
            <agencyID>UW</agencyID>
            <creationTime>2020-10-20T16:46:26.000000Z</creationTime>
          </creationInfo>
        </arrival>
        <arrival publicID="quakeml:uw.anss.org/AssocArO/UW/15330988">
          <pickID>quakeml:uw.anss.org/Arrival/UW/15330988</pickID>
          <phase>P</phase>
          <timeCorrection>0.0</timeCorrection>
          <azimuth>149.2502966243046</azimuth>
          <distance>0.2569</distance>
          <takeoffAngle>
            <value>92.0</value>
          </takeoffAngle>
          <timeResidual>-0.03</timeResidual>
          <timeWeight>0.12</timeWeight>
          <creationInfo>
            <agencyID>UW</agencyID>
            <creationTime>2020-10-20T16:46:26.000000Z</creationTime>
          </creationInfo>
        </arrival>
        <arrival publicID="quakeml:uw.anss.org/AssocArO/UW/15330993">
          <pickID>quakeml:uw.anss.org/Arrival/UW/15330993</pickID>
          <phase>S</phase>
          <timeCorrection>0.0</timeCorrection>
          <azimuth>149.2502966243046</azimuth>
          <distance>0.2569</distance>
          <takeoffAngle>
            <value>92.0</value>
          </takeoffAngle>
          <timeResidual>-0.07</timeResidual>
          <timeWeight>0.09</timeWeight>
          <creationInfo>
            <agencyID>UW</agencyID>
            <creationTime>2020-10-20T16:46:26.000000Z</creationTime>
          </creationInfo>
        </arrival>
        <arrival publicID="quakeml:uw.anss.org/AssocArO/UW/15330998">
          <pickID>quakeml:uw.anss.org/Arrival/UW/15330998</pickID>
          <phase>P</phase>
          <timeCorrection>0.14</timeCorrection>
          <azimuth>147.40474885416643</azimuth>
          <distance>0.2582</distance>
          <takeoffAngle>
            <value>92.0</value>
          </takeoffAngle>
          <timeResidual>-0.12</timeResidual>
          <timeWeight>0.12</timeWeight>
          <creationInfo>
            <agencyID>UW</agencyID>
            <creationTime>2020-10-20T16:46:26.000000Z</creationTime>
          </creationInfo>
        </arrival>
        <arrival publicID="quakeml:uw.anss.org/AssocArO/UW/15331003">
          <pickID>quakeml:uw.anss.org/Arrival/UW/15331003</pickID>
          <phase>P</phase>
          <timeCorrection>0.0</timeCorrection>
          <azimuth>230.00243559068252</azimuth>
          <distance>0.3757</distance>
          <takeoffAngle>
            <value>91.0</value>
          </takeoffAngle>
          <timeResidual>0.71</timeResidual>
          <timeWeight>0.0</timeWeight>
          <creationInfo>
            <agencyID>UW</agencyID>
            <creationTime>2020-10-20T16:46:26.000000Z</creationTime>
          </creationInfo>
        </arrival>
        <arrival publicID="quakeml:uw.anss.org/AssocArO/UW/15331008">
          <pickID>quakeml:uw.anss.org/Arrival/UW/15331008</pickID>
          <phase>P</phase>
          <timeCorrection>0.35</timeCorrection>
          <azimuth>324.6046929956743</azimuth>
          <distance>0.4097</distance>
          <takeoffAngle>
            <value>91.0</value>
          </takeoffAngle>
          <timeResidual>-0.25</timeResidual>
          <timeWeight>0.09</timeWeight>
          <creationInfo>
            <agencyID>UW</agencyID>
            <creationTime>2020-10-20T16:46:26.000000Z</creationTime>
          </creationInfo>
        </arrival>
        <arrival publicID="quakeml:uw.anss.org/AssocArO/UW/15331013">
          <pickID>quakeml:uw.anss.org/Arrival/UW/15331013</pickID>
          <phase>S</phase>
          <timeCorrection>0.62</timeCorrection>
          <azimuth>324.6046929956743</azimuth>
          <distance>0.4097</distance>
          <takeoffAngle>
            <value>91.0</value>
          </takeoffAngle>
          <timeResidual>0.6</timeResidual>
          <timeWeight>0.0</timeWeight>
          <creationInfo>
            <agencyID>UW</agencyID>
            <creationTime>2020-10-20T16:46:26.000000Z</creationTime>
          </creationInfo>
        </arrival>
        <arrival publicID="quakeml:uw.anss.org/AssocArO/UW/15331018">
          <pickID>quakeml:uw.anss.org/Arrival/UW/15331018</pickID>
          <phase>P</phase>
          <timeCorrection>-0.06</timeCorrection>
          <azimuth>196.0842749304323</azimuth>
          <distance>0.4896</distance>
          <takeoffAngle>
            <value>91.0</value>
          </takeoffAngle>
          <timeResidual>0.57</timeResidual>
          <timeWeight>0.0</timeWeight>
          <creationInfo>
            <agencyID>UW</agencyID>
            <creationTime>2020-10-20T16:46:26.000000Z</creationTime>
          </creationInfo>
        </arrival>
        <arrival publicID="quakeml:uw.anss.org/AssocArO/UW/15331023">
          <pickID>quakeml:uw.anss.org/Arrival/UW/15331023</pickID>
          <phase>P</phase>
          <timeCorrection>0.3</timeCorrection>
          <azimuth>144.37059069690707</azimuth>
          <distance>0.6731</distance>
          <takeoffAngle>
            <value>90.0</value>
          </takeoffAngle>
          <timeResidual>-0.2</timeResidual>
          <timeWeight>0.04</timeWeight>
          <creationInfo>
            <agencyID>UW</agencyID>
            <creationTime>2020-10-20T16:46:26.000000Z</creationTime>
          </creationInfo>
        </arrival>
        <arrival publicID="quakeml:uw.anss.org/AssocArO/UW/15331028">
          <pickID>quakeml:uw.anss.org/Arrival/UW/15331028</pickID>
          <phase>P</phase>
          <timeCorrection>-0.08</timeCorrection>
          <azimuth>271.47284155699253</azimuth>
          <distance>0.7349</distance>
          <takeoffAngle>
            <value>75.0</value>
          </takeoffAngle>
          <timeResidual>1.7</timeResidual>
          <timeWeight>0.0</timeWeight>
          <creationInfo>
            <agencyID>UW</agencyID>
            <creationTime>2020-10-20T16:46:26.000000Z</creationTime>
          </creationInfo>
        </arrival>
      </origin>
      <magnitude publicID="quakeml:uw.anss.org/Netmag/UW/3078078">
        <mag>
          <value>1.19</value>
          <uncertainty>0.03344958802083964</uncertainty>
        </mag>
        <type>Ml</type>
        <originID>quakeml:uw.anss.org/Origin/UW/3143068</originID>
        <methodID>smi:uw.anss.org/magnitude/RichterMl2</methodID>
        <stationCount>2</stationCount>
        <azimuthalGap>184.64560362863028</azimuthalGap>
        <evaluationMode>manual</evaluationMode>
        <evaluationStatus>reviewed</evaluationStatus>
        <stationMagnitudeContribution>
          <stationMagnitudeID>quakeml:uw.anss.org/AssocAmM/UW/12425743</stationMagnitudeID>
          <weight>0.0</weight>
          <residual>-0.34</residual>
        </stationMagnitudeContribution>
        <stationMagnitudeContribution>
          <stationMagnitudeID>quakeml:uw.anss.org/AssocAmM/UW/12425763</stationMagnitudeID>
          <weight>0.0</weight>
          <residual>0.52</residual>
        </stationMagnitudeContribution>
        <stationMagnitudeContribution>
          <stationMagnitudeID>quakeml:uw.anss.org/AssocAmM/UW/12425718</stationMagnitudeID>
          <weight>0.0</weight>
          <residual>0.73</residual>
        </stationMagnitudeContribution>
        <stationMagnitudeContribution>
          <stationMagnitudeID>quakeml:uw.anss.org/AssocAmM/UW/12425738</stationMagnitudeID>
          <weight>1.0</weight>
          <residual>-0.01</residual>
        </stationMagnitudeContribution>
        <stationMagnitudeContribution>
          <stationMagnitudeID>quakeml:uw.anss.org/AssocAmM/UW/12425758</stationMagnitudeID>
          <weight>1.0</weight>
          <residual>-0.05</residual>
        </stationMagnitudeContribution>
        <stationMagnitudeContribution>
          <stationMagnitudeID>quakeml:uw.anss.org/AssocAmM/UW/12425698</stationMagnitudeID>
          <weight>0.0</weight>
          <residual>1.43</residual>
        </stationMagnitudeContribution>
        <stationMagnitudeContribution>
          <stationMagnitudeID>quakeml:uw.anss.org/AssocAmM/UW/12425703</stationMagnitudeID>
          <weight>0.0</weight>
          <residual>0.96</residual>
        </stationMagnitudeContribution>
        <stationMagnitudeContribution>
          <stationMagnitudeID>quakeml:uw.anss.org/AssocAmM/UW/12425733</stationMagnitudeID>
          <weight>1.0</weight>
          <residual>0.1</residual>
        </stationMagnitudeContribution>
        <stationMagnitudeContribution>
          <stationMagnitudeID>quakeml:uw.anss.org/AssocAmM/UW/12425713</stationMagnitudeID>
          <weight>0.0</weight>
          <residual>1.12</residual>
        </stationMagnitudeContribution>
        <stationMagnitudeContribution>
          <stationMagnitudeID>quakeml:uw.anss.org/AssocAmM/UW/12425753</stationMagnitudeID>
          <weight>1.0</weight>
          <residual>0.02</residual>
        </stationMagnitudeContribution>
        <stationMagnitudeContribution>
          <stationMagnitudeID>quakeml:uw.anss.org/AssocAmM/UW/12425748</stationMagnitudeID>
          <weight>0.0</weight>
          <residual>-0.51</residual>
        </stationMagnitudeContribution>
        <stationMagnitudeContribution>
          <stationMagnitudeID>quakeml:uw.anss.org/AssocAmM/UW/12425728</stationMagnitudeID>
          <weight>0.0</weight>
          <residual>0.57</residual>
        </stationMagnitudeContribution>
        <stationMagnitudeContribution>
          <stationMagnitudeID>quakeml:uw.anss.org/AssocAmM/UW/12425723</stationMagnitudeID>
          <weight>0.0</weight>
          <residual>0.68</residual>
        </stationMagnitudeContribution>
        <stationMagnitudeContribution>
          <stationMagnitudeID>quakeml:uw.anss.org/AssocAmM/UW/12425708</stationMagnitudeID>
          <weight>0.0</weight>
          <residual>0.93</residual>
        </stationMagnitudeContribution>
        <creationInfo>
          <agencyID>UW</agencyID>
          <creationTime>2020-10-20T16:46:26.000000Z</creationTime>
        </creationInfo>
      </magnitude>
      <stationMagnitude publicID="quakeml:uw.anss.org/AssocAmM/UW/12425698">
        <originID>quakeml:uw.anss.org/Origin/UW/3143068</originID>
        <mag>
          <value>2.62</value>
        </mag>
        <type>ML</type>
        <amplitudeID>quakeml:uw.anss.org/Amp/UW/12425698</amplitudeID>
        <waveformID networkCode="UW" stationCode="PUBD" locationCode="" channelCode="ENN"></waveformID>
      </stationMagnitude>
      <stationMagnitude publicID="quakeml:uw.anss.org/AssocAmM/UW/12425703">
        <originID>quakeml:uw.anss.org/Origin/UW/3143068</originID>
        <mag>
          <value>2.15</value>
        </mag>
        <type>ML</type>
        <amplitudeID>quakeml:uw.anss.org/Amp/UW/12425703</amplitudeID>
        <waveformID networkCode="UW" stationCode="PUBD" locationCode="" channelCode="ENE"></waveformID>
      </stationMagnitude>
      <stationMagnitude publicID="quakeml:uw.anss.org/AssocAmM/UW/12425708">
        <originID>quakeml:uw.anss.org/Origin/UW/3143068</originID>
        <mag>
          <value>2.12</value>
        </mag>
        <type>ML</type>
        <amplitudeID>quakeml:uw.anss.org/Amp/UW/12425708</amplitudeID>
        <waveformID networkCode="UW" stationCode="PLBD" locationCode="" channelCode="ENN"></waveformID>
      </stationMagnitude>
      <stationMagnitude publicID="quakeml:uw.anss.org/AssocAmM/UW/12425713">
        <originID>quakeml:uw.anss.org/Origin/UW/3143068</originID>
        <mag>
          <value>2.31</value>
        </mag>
        <type>ML</type>
        <amplitudeID>quakeml:uw.anss.org/Amp/UW/12425713</amplitudeID>
        <waveformID networkCode="UW" stationCode="PLBD" locationCode="" channelCode="ENE"></waveformID>
      </stationMagnitude>
      <stationMagnitude publicID="quakeml:uw.anss.org/AssocAmM/UW/12425718">
        <originID>quakeml:uw.anss.org/Origin/UW/3143068</originID>
        <mag>
          <value>1.92</value>
        </mag>
        <type>ML</type>
        <amplitudeID>quakeml:uw.anss.org/Amp/UW/12425718</amplitudeID>
