<?xml version='1.0' encoding='utf-8'?>
<q:quakeml xmlns="http://quakeml.org/xmlns/bed/1.2" xmlns:q="http://quakeml.org/xmlns/quakeml/1.2" xmlns:ns0="http://anss.org/xmlns/catalog/0.1">
  <eventParameters publicID="smi:local/26e72d45-0ace-4552-b160-f83932af4c8a">
    <event publicID="quakeml:uw.anss.org/Event/UW/10477148" ns0:datasource="uw" ns0:dataid="uw10477148" ns0:eventsource="uw" ns0:eventid="10477148">
      <preferredOriginID>quakeml:uw.anss.org/Origin/UW/754578</preferredOriginID>
      <preferredMagnitudeID>quakeml:uw.anss.org/Netmag/UW/618698</preferredMagnitudeID>
      <type>earthquake</type>
      <creationInfo>
        <agencyID>UW</agencyID>
        <creationTime>2012-02-28T15:49:35.000000Z</creationTime>
        <version>3</version>
      </creationInfo>
      <origin publicID="quakeml:uw.anss.org/Origin/UW/754578" ns0:datasource="uw" ns0:dataid="uw10477148" ns0:eventsource="uw" ns0:eventid="10477148">
        <time>
          <value>1999-04-04T16:53:02.160000Z</value>
          <uncertainty>0.04</uncertainty>
        </time>
        <latitude>
          <value>48.3948333</value>
          <uncertainty>0.1</uncertainty>
        </latitude>
        <longitude>
          <value>-122.0708333</value>
          <uncertainty>0.16</uncertainty>
        </longitude>
        <depth>
          <value>-505.0</value>
          <uncertainty>300.0</uncertainty>
        </depth>
        <depthType>operator assigned</depthType>
        <timeFixed>false</timeFixed>
        <epicenterFixed>false</epicenterFixed>
        <methodID>smi:uw.anss.org/origin/spong</methodID>
        <quality>
          <associatedPhaseCount>41</associatedPhaseCount>
          <usedPhaseCount>19</usedPhaseCount>
          <associatedStationCount>34</associatedStationCount>
          <usedStationCount>0</usedStationCount>
          <standardError>0.57</standardError>
          <azimuthalGap>184.0</azimuthalGap>
        </quality>
        <type>hypocenter</type>
        <evaluationMode>manual</evaluationMode>
        <evaluationStatus>final</evaluationStatus>
        <creationInfo>
          <agencyID>UW</agencyID>
          <creationTime>2012-02-28T15:49:35.000000Z</creationTime>
        </creationInfo>
        <originUncertainty>
          <preferredDescription>horizontal uncertainty</preferredDescription>
          <horizontalUncertainty>189.0</horizontalUncertainty>
        </originUncertainty>
        <arrival publicID="quakeml:uw.anss.org/AssocArO/UW/6934968">
          <pickID>quakeml:uw.anss.org/Arrival/UW/6934968</pickID>
          <phase>P</phase>
          <azimuth>152.7</azimuth>
          <distance>1.865</distance>
          <timeResidual>0.2</timeResidual>
          <creationInfo>
            <agencyID>UW</agencyID>
            <creationTime>2012-02-28T15:49:35.000000Z</creationTime>
          </creationInfo>
        </arrival>
        <arrival publicID="quakeml:uw.anss.org/AssocArO/UW/6934973">
          <pickID>quakeml:uw.anss.org/Arrival/UW/6934973</pickID>
          <phase>S</phase>
          <azimuth>152.7</azimuth>
          <distance>1.865</distance>
          <timeResidual>-0.33</timeResidual>
          <creationInfo>
            <agencyID>UW</agencyID>
            <creationTime>2012-02-28T15:49:35.000000Z</creationTime>
          </creationInfo>
        </arrival>
        <arrival publicID="quakeml:uw.anss.org/AssocArO/UW/6934978">
          <pickID>quakeml:uw.anss.org/Arrival/UW/6934978</pickID>
          <phase>P</phase>
          <azimuth>105.1</azimuth>
          <distance>1.201</distance>
          <timeResidual>1.05</timeResidual>
          <creationInfo>
            <agencyID>UW</agencyID>
            <creationTime>2012-02-28T15:49:35.000000Z</creationTime>
          </creationInfo>
        </arrival>
        <arrival publicID="quakeml:uw.anss.org/AssocArO/UW/6934983">
          <pickID>quakeml:uw.anss.org/Arrival/UW/6934983</pickID>
          <phase>P</phase>
          <azimuth>235.6</azimuth>
          <timeResidual>1.71</timeResidual>
          <creationInfo>
            <agencyID>UW</agencyID>
            <creationTime>2012-02-28T15:49:35.000000Z</creationTime>
          </creationInfo>
        </arrival>
        <arrival publicID="quakeml:uw.anss.org/AssocArO/UW/6934988">
          <pickID>quakeml:uw.anss.org/Arrival/UW/6934988</pickID>
          <phase>P</phase>
          <azimuth>170.2</azimuth>
          <distance>1.865</distance>
          <timeResidual>0.15</timeResidual>
          <creationInfo>
            <agencyID>UW</agencyID>
            <creationTime>2012-02-28T15:49:35.000000Z</creationTime>
          </creationInfo>
        </arrival>
        <arrival publicID="quakeml:uw.anss.org/AssocArO/UW/6934993">
          <pickID>quakeml:uw.anss.org/Arrival/UW/6934993</pickID>
          <phase>S</phase>
          <azimuth>170.2</azimuth>
          <distance>1.865</distance>
          <timeResidual>0.05</timeResidual>
          <creationInfo>
            <agencyID>UW</agencyID>
            <creationTime>2012-02-28T15:49:35.000000Z</creationTime>
          </creationInfo>
        </arrival>
        <arrival publicID="quakeml:uw.anss.org/AssocArO/UW/6934998">
          <pickID>quakeml:uw.anss.org/Arrival/UW/6934998</pickID>
          <phase>P</phase>
          <azimuth>130.0</azimuth>
          <distance>2.4</distance>
          <timeResidual>3.04</timeResidual>
          <creationInfo>
            <agencyID>UW</agencyID>
            <creationTime>2012-02-28T15:49:35.000000Z</creationTime>
          </creationInfo>
        </arrival>
        <arrival publicID="quakeml:uw.anss.org/AssocArO/UW/6935003">
          <pickID>quakeml:uw.anss.org/Arrival/UW/6935003</pickID>
          <phase>P</phase>
          <azimuth>146.8</azimuth>
          <distance>1.496</distance>
          <timeResidual>1.37</timeResidual>
          <creationInfo>
            <agencyID>UW</agencyID>
            <creationTime>2012-02-28T15:49:35.000000Z</creationTime>
          </creationInfo>
        </arrival>
        <arrival publicID="quakeml:uw.anss.org/AssocArO/UW/6935008">
          <pickID>quakeml:uw.anss.org/Arrival/UW/6935008</pickID>
          <phase>P</phase>
          <azimuth>121.1</azimuth>
          <distance>1.963</distance>
          <timeResidual>2.06</timeResidual>
          <creationInfo>
            <agencyID>UW</agencyID>
            <creationTime>2012-02-28T15:49:35.000000Z</creationTime>
          </creationInfo>
        </arrival>
        <arrival publicID="quakeml:uw.anss.org/AssocArO/UW/6935013">
          <pickID>quakeml:uw.anss.org/Arrival/UW/6935013</pickID>
          <phase>P</phase>
          <azimuth>177.4</azimuth>
          <distance>1.453</distance>
          <timeResidual>0.07</timeResidual>
          <creationInfo>
            <agencyID>UW</agencyID>
            <creationTime>2012-02-28T15:49:35.000000Z</creationTime>
          </creationInfo>
        </arrival>
        <arrival publicID="quakeml:uw.anss.org/AssocArO/UW/6935018">
          <pickID>quakeml:uw.anss.org/Arrival/UW/6935018</pickID>
          <phase>P</phase>
          <azimuth>161.0</azimuth>
          <distance>0.6252</distance>
          <timeResidual>-0.15</timeResidual>
          <creationInfo>
            <agencyID>UW</agencyID>
            <creationTime>2012-02-28T15:49:35.000000Z</creationTime>
          </creationInfo>
        </arrival>
        <arrival publicID="quakeml:uw.anss.org/AssocArO/UW/6935023">
          <pickID>quakeml:uw.anss.org/Arrival/UW/6935023</pickID>
          <phase>P</phase>
          <azimuth>169.2</azimuth>
          <distance>0.9526</distance>
          <timeResidual>-0.08</timeResidual>
          <creationInfo>
            <agencyID>UW</agencyID>
            <creationTime>2012-02-28T15:49:35.000000Z</creationTime>
          </creationInfo>
        </arrival>
        <arrival publicID="quakeml:uw.anss.org/AssocArO/UW/6935028">
          <pickID>quakeml:uw.anss.org/Arrival/UW/6935028</pickID>
          <phase>P</phase>
          <azimuth>81.6</azimuth>
          <distance>0.3742</distance>
          <timeResidual>-0.06</timeResidual>
          <creationInfo>
            <agencyID>UW</agencyID>
            <creationTime>2012-02-28T15:49:35.000000Z</creationTime>
          </creationInfo>
        </arrival>
        <arrival publicID="quakeml:uw.anss.org/AssocArO/UW/6935033">
          <pickID>quakeml:uw.anss.org/Arrival/UW/6935033</pickID>
          <phase>S</phase>
          <azimuth>81.6</azimuth>
          <distance>0.3742</distance>
          <timeResidual>-0.09</timeResidual>
          <creationInfo>
            <agencyID>UW</agencyID>
            <creationTime>2012-02-28T15:49:35.000000Z</creationTime>
          </creationInfo>
        </arrival>
        <arrival publicID="quakeml:uw.anss.org/AssocArO/UW/6935038">
          <pickID>quakeml:uw.anss.org/Arrival/UW/6935038</pickID>
          <phase>P</phase>
          <azimuth>167.8</azimuth>
          <distance>1.735</distance>
          <timeResidual>-0.14</timeResidual>
          <creationInfo>
            <agencyID>UW</agencyID>
            <creationTime>2012-02-28T15:49:35.000000Z</creationTime>
          </creationInfo>
        </arrival>
        <arrival publicID="quakeml:uw.anss.org/AssocArO/UW/6935043">
          <pickID>quakeml:uw.anss.org/Arrival/UW/6935043</pickID>
          <phase>S</phase>
          <azimuth>167.8</azimuth>
          <distance>1.735</distance>
          <timeResidual>-1.27</timeResidual>
          <creationInfo>
            <agencyID>UW</agencyID>
            <creationTime>2012-02-28T15:49:35.000000Z</creationTime>
          </creationInfo>
        </arrival>
        <arrival publicID="quakeml:uw.anss.org/AssocArO/UW/6935048">
          <pickID>quakeml:uw.anss.org/Arrival/UW/6935048</pickID>
          <phase>P</phase>
          <azimuth>159.9</azimuth>
          <distance>0.746</distance>
          <timeResidual>0.18</timeResidual>
          <creationInfo>
            <agencyID>UW</agencyID>
            <creationTime>2012-02-28T15:49:35.000000Z</creationTime>
          </creationInfo>
        </arrival>
        <arrival publicID="quakeml:uw.anss.org/AssocArO/UW/6935053">
          <pickID>quakeml:uw.anss.org/Arrival/UW/6935053</pickID>
          <phase>S</phase>
          <azimuth>159.9</azimuth>
          <distance>0.746</distance>
          <timeResidual>-0.23</timeResidual>
          <creationInfo>
            <agencyID>UW</agencyID>
            <creationTime>2012-02-28T15:49:35.000000Z</creationTime>
          </creationInfo>
        </arrival>
        <arrival publicID="quakeml:uw.anss.org/AssocArO/UW/6935058">
          <pickID>quakeml:uw.anss.org/Arrival/UW/6935058</pickID>
          <phase>P</phase>
          <azimuth>150.3</azimuth>
          <distance>2.141</distance>
          <timeResidual>1.37</timeResidual>
          <creationInfo>
            <agencyID>UW</agencyID>
            <creationTime>2012-02-28T15:49:35.000000Z</creationTime>
          </creationInfo>
        </arrival>
        <arrival publicID="quakeml:uw.anss.org/AssocArO/UW/6935063">
          <pickID>quakeml:uw.anss.org/Arrival/UW/6935063</pickID>
          <phase>P</phase>
          <azimuth>211.9</azimuth>
          <distance>0.6745</distance>
          <timeResidual>-0.08</timeResidual>
          <creationInfo>
            <agencyID>UW</agencyID>
            <creationTime>2012-02-28T15:49:35.000000Z</creationTime>
          </creationInfo>
        </arrival>
        <arrival publicID="quakeml:uw.anss.org/AssocArO/UW/6935068">
          <pickID>quakeml:uw.anss.org/Arrival/UW/6935068</pickID>
          <phase>P</phase>
          <azimuth>181.2</azimuth>
          <distance>2.153</distance>
          <timeResidual>-0.5</timeResidual>
          <creationInfo>
            <agencyID>UW</agencyID>
            <creationTime>2012-02-28T15:49:35.000000Z</creationTime>
          </creationInfo>
        </arrival>
        <arrival publicID="quakeml:uw.anss.org/AssocArO/UW/6935073">
          <pickID>quakeml:uw.anss.org/Arrival/UW/6935073</pickID>
          <phase>P</phase>
          <azimuth>134.9</azimuth>
          <distance>2.0</distance>
          <timeResidual>1.82</timeResidual>
          <creationInfo>
            <agencyID>UW</agencyID>
            <creationTime>2012-02-28T15:49:35.000000Z</creationTime>
          </creationInfo>
        </arrival>
        <arrival publicID="quakeml:uw.anss.org/AssocArO/UW/6935078">
          <pickID>quakeml:uw.anss.org/Arrival/UW/6935078</pickID>
          <phase>P</phase>
          <azimuth>257.0</azimuth>
          <distance>0.3165</distance>
          <timeResidual>-0.02</timeResidual>
          <creationInfo>
            <agencyID>UW</agencyID>
            <creationTime>2012-02-28T15:49:36.000000Z</creationTime>
          </creationInfo>
        </arrival>
        <arrival publicID="quakeml:uw.anss.org/AssocArO/UW/6935108">
          <pickID>quakeml:uw.anss.org/Arrival/UW/6935108</pickID>
          <phase>P</phase>
          <azimuth>110.2</azimuth>
          <distance>1.921</distance>
          <timeResidual>2.8</timeResidual>
          <creationInfo>
            <agencyID>UW</agencyID>
            <creationTime>2012-02-28T15:49:36.000000Z</creationTime>
          </creationInfo>
        </arrival>
        <arrival publicID="quakeml:uw.anss.org/AssocArO/UW/6935113">
          <pickID>quakeml:uw.anss.org/Arrival/UW/6935113</pickID>
          <phase>P</phase>
          <azimuth>133.2</azimuth>
          <distance>2.359</distance>
          <timeResidual>2.37</timeResidual>
          <creationInfo>
            <agencyID>UW</agencyID>
            <creationTime>2012-02-28T15:49:36.000000Z</creationTime>
          </creationInfo>
        </arrival>
        <arrival publicID="quakeml:uw.anss.org/AssocArO/UW/6935118">
          <pickID>quakeml:uw.anss.org/Arrival/UW/6935118</pickID>
          <phase>P</phase>
          <azimuth>185.1</azimuth>
          <distance>2.098</distance>
          <timeResidual>-0.08</timeResidual>
          <creationInfo>
            <agencyID>UW</agencyID>
            <creationTime>2012-02-28T15:49:36.000000Z</creationTime>
          </creationInfo>
        </arrival>
        <arrival publicID="quakeml:uw.anss.org/AssocArO/UW/6935123">
          <pickID>quakeml:uw.anss.org/Arrival/UW/6935123</pickID>
          <phase>P</phase>
          <azimuth>154.4</azimuth>
          <timeResidual>-0.07</timeResidual>
          <creationInfo>
            <agencyID>UW</agencyID>
            <creationTime>2012-02-28T15:49:36.000000Z</creationTime>
          </creationInfo>
        </arrival>
        <arrival publicID="quakeml:uw.anss.org/AssocArO/UW/6935128">
          <pickID>quakeml:uw.anss.org/Arrival/UW/6935128</pickID>
          <phase>S</phase>
          <azimuth>154.4</azimuth>
          <timeResidual>0.14</timeResidual>
          <creationInfo>
            <agencyID>UW</agencyID>
            <creationTime>2012-02-28T15:49:36.000000Z</creationTime>
          </creationInfo>
        </arrival>
        <arrival publicID="quakeml:uw.anss.org/AssocArO/UW/6935143">
          <pickID>quakeml:uw.anss.org/Arrival/UW/6935143</pickID>
          <phase>P</phase>
          <azimuth>145.2</azimuth>
          <distance>1.8</distance>
          <timeResidual>-4.58</timeResidual>
          <creationInfo>
            <agencyID>UW</agencyID>
            <creationTime>2012-02-28T15:49:36.000000Z</creationTime>
          </creationInfo>
        </arrival>
        <arrival publicID="quakeml:uw.anss.org/AssocArO/UW/6935153">
          <pickID>quakeml:uw.anss.org/Arrival/UW/6935153</pickID>
          <phase>P</phase>
          <azimuth>171.7</azimuth>
          <distance>2.266</distance>
          <timeResidual>0.49</timeResidual>
          <creationInfo>
            <agencyID>UW</agencyID>
            <creationTime>2012-02-28T15:49:36.000000Z</creationTime>
          </creationInfo>
        </arrival>
        <arrival publicID="quakeml:uw.anss.org/AssocArO/UW/6935163">
          <pickID>quakeml:uw.anss.org/Arrival/UW/6935163</pickID>
          <phase>P</phase>
          <azimuth>169.4</azimuth>
          <timeResidual>0.14</timeResidual>
          <creationInfo>
            <agencyID>UW</agencyID>
            <creationTime>2012-02-28T15:49:36.000000Z</creationTime>
          </creationInfo>
        </arrival>
        <arrival publicID="quakeml:uw.anss.org/AssocArO/UW/6935173">
          <pickID>quakeml:uw.anss.org/Arrival/UW/6935173</pickID>
          <phase>P</phase>
          <azimuth>255.7</azimuth>
          <distance>1.39</distance>
          <timeResidual>1.7</timeResidual>
          <creationInfo>
            <agencyID>UW</agencyID>
            <creationTime>2012-02-28T15:49:36.000000Z</creationTime>
          </creationInfo>
        </arrival>
        <arrival publicID="quakeml:uw.anss.org/AssocArO/UW/6935183">
          <pickID>quakeml:uw.anss.org/Arrival/UW/6935183</pickID>
          <phase>P</phase>
          <azimuth>104.1</azimuth>
          <distance>1.591</distance>
          <timeResidual>0.78</timeResidual>
          <creationInfo>
            <agencyID>UW</agencyID>
            <creationTime>2012-02-28T15:49:36.000000Z</creationTime>
          </creationInfo>
        </arrival>
        <arrival publicID="quakeml:uw.anss.org/AssocArO/UW/6935193">
          <pickID>quakeml:uw.anss.org/Arrival/UW/6935193</pickID>
          <phase>P</phase>
          <azimuth>257.7</azimuth>
          <timeResidual>-0.5</timeResidual>
          <creationInfo>
            <agencyID>UW</agencyID>
            <creationTime>2012-02-28T15:49:36.000000Z</creationTime>
          </creationInfo>
        </arrival>
        <arrival publicID="quakeml:uw.anss.org/AssocArO/UW/6935198">
          <pickID>quakeml:uw.anss.org/Arrival/UW/6935198</pickID>
          <phase>P</phase>
          <azimuth>115.4</azimuth>
          <distance>1.581</distance>
          <timeResidual>0.82</timeResidual>
          <creationInfo>
            <agencyID>UW</agencyID>
            <creationTime>2012-02-28T15:49:36.000000Z</creationTime>
          </creationInfo>
        </arrival>
        <arrival publicID="quakeml:uw.anss.org/AssocArO/UW/6935203">
          <pickID>quakeml:uw.anss.org/Arrival/UW/6935203</pickID>
          <phase>P</phase>
          <azimuth>173.8</azimuth>
          <distance>1.655</distance>
          <timeResidual>-0.09</timeResidual>
          <creationInfo>
            <agencyID>UW</agencyID>
            <creationTime>2012-02-28T15:49:36.000000Z</creationTime>
          </creationInfo>
        </arrival>
        <arrival publicID="quakeml:uw.anss.org/AssocArO/UW/6935208">
          <pickID>quakeml:uw.anss.org/Arrival/UW/6935208</pickID>
          <phase>P</phase>
          <azimuth>112.8</azimuth>
          <distance>1.482</distance>
          <timeResidual>1.09</timeResidual>
          <creationInfo>
            <agencyID>UW</agencyID>
            <creationTime>2012-02-28T15:49:36.000000Z</creationTime>
          </creationInfo>
        </arrival>
        <arrival publicID="quakeml:uw.anss.org/AssocArO/UW/6935213">
          <pickID>quakeml:uw.anss.org/Arrival/UW/6935213</pickID>
          <phase>P</phase>
          <azimuth>237.5</azimuth>
          <distance>0.7176</distance>
          <timeResidual>0.12</timeResidual>
          <creationInfo>
            <agencyID>UW</agencyID>
            <creationTime>2012-02-28T15:49:36.000000Z</creationTime>
          </creationInfo>
        </arrival>
        <arrival publicID="quakeml:uw.anss.org/AssocArO/UW/6935218">
          <pickID>quakeml:uw.anss.org/Arrival/UW/6935218</pickID>
          <phase>S</phase>
          <azimuth>237.5</azimuth>
          <distance>0.7176</distance>
          <timeResidual>-0.01</timeResidual>
          <creationInfo>
            <agencyID>UW</agencyID>
            <creationTime>2012-02-28T15:49:36.000000Z</creationTime>
          </creationInfo>
        </arrival>
        <arrival publicID="quakeml:uw.anss.org/AssocArO/UW/6935223">
