<?xml version='1.0' encoding='utf-8'?>
<q:quakeml xmlns="http://quakeml.org/xmlns/bed/1.2" xmlns:q="http://quakeml.org/xmlns/quakeml/1.2" xmlns:ns0="http://anss.org/xmlns/catalog/0.1">
  <eventParameters publicID="smi:local/daac6cb8-a41d-4d27-9d9e-d0d48127c4f1">
    <event publicID="quakeml:uw.anss.org/Event/UW/10482798" ns0:datasource="uw" ns0:dataid="uw10482798" ns0:eventsource="uw" ns0:eventid="10482798">
      <preferredOriginID>quakeml:uw.anss.org/Origin/UW/760228</preferredOriginID>
      <preferredMagnitudeID>quakeml:uw.anss.org/Netmag/UW/621568</preferredMagnitudeID>
      <type>earthquake</type>
      <creationInfo>
        <agencyID>UW</agencyID>
        <creationTime>2012-02-28T16:01:28.000000Z</creationTime>
        <version>3</version>
      </creationInfo>
      <origin publicID="quakeml:uw.anss.org/Origin/UW/760228" ns0:datasource="uw" ns0:dataid="uw10482798" ns0:eventsource="uw" ns0:eventid="10482798">
        <time>
          <value>1999-10-20T03:02:21.750000Z</value>
          <uncertainty>0.01</uncertainty>
        </time>
        <latitude>
          <value>48.528</value>
          <uncertainty>0.06</uncertainty>
        </latitude>
        <longitude>
          <value>-122.0611667</value>
          <uncertainty>0.03</uncertainty>
        </longitude>
        <depth>
          <value>-911.0</value>
          <uncertainty>90.0</uncertainty>
        </depth>
        <depthType>operator assigned</depthType>
        <timeFixed>false</timeFixed>
        <epicenterFixed>false</epicenterFixed>
        <methodID>smi:uw.anss.org/origin/spong</methodID>
        <quality>
          <associatedPhaseCount>29</associatedPhaseCount>
          <usedPhaseCount>13</usedPhaseCount>
          <associatedStationCount>23</associatedStationCount>
          <usedStationCount>0</usedStationCount>
          <standardError>0.14</standardError>
          <azimuthalGap>165.0</azimuthalGap>
        </quality>
        <type>hypocenter</type>
        <evaluationMode>manual</evaluationMode>
        <evaluationStatus>final</evaluationStatus>
        <creationInfo>
          <agencyID>UW</agencyID>
          <creationTime>2012-02-28T16:01:28.000000Z</creationTime>
        </creationInfo>
        <originUncertainty>
          <preferredDescription>horizontal uncertainty</preferredDescription>
          <horizontalUncertainty>67.0</horizontalUncertainty>
        </originUncertainty>
        <arrival publicID="quakeml:uw.anss.org/AssocArO/UW/6986068">
          <pickID>quakeml:uw.anss.org/Arrival/UW/6986068</pickID>
          <phase>P</phase>
          <azimuth>217.4</azimuth>
          <distance>1.104</distance>
          <timeResidual>-0.32</timeResidual>
          <creationInfo>
            <agencyID>UW</agencyID>
            <creationTime>2012-02-28T16:01:28.000000Z</creationTime>
          </creationInfo>
        </arrival>
        <arrival publicID="quakeml:uw.anss.org/AssocArO/UW/6986073">
          <pickID>quakeml:uw.anss.org/Arrival/UW/6986073</pickID>
          <phase>S</phase>
          <azimuth>217.4</azimuth>
          <distance>1.104</distance>
          <timeResidual>-1.02</timeResidual>
          <creationInfo>
            <agencyID>UW</agencyID>
            <creationTime>2012-02-28T16:01:28.000000Z</creationTime>
          </creationInfo>
        </arrival>
        <arrival publicID="quakeml:uw.anss.org/AssocArO/UW/6986078">
          <pickID>quakeml:uw.anss.org/Arrival/UW/6986078</pickID>
          <phase>P</phase>
          <azimuth>172.3</azimuth>
          <distance>1.673</distance>
          <timeResidual>0.01</timeResidual>
          <creationInfo>
            <agencyID>UW</agencyID>
            <creationTime>2012-02-28T16:01:28.000000Z</creationTime>
          </creationInfo>
        </arrival>
        <arrival publicID="quakeml:uw.anss.org/AssocArO/UW/6986083">
          <pickID>quakeml:uw.anss.org/Arrival/UW/6986083</pickID>
          <phase>S</phase>
          <azimuth>172.3</azimuth>
          <distance>1.673</distance>
          <timeResidual>-0.46</timeResidual>
          <creationInfo>
            <agencyID>UW</agencyID>
            <creationTime>2012-02-28T16:01:28.000000Z</creationTime>
          </creationInfo>
        </arrival>
        <arrival publicID="quakeml:uw.anss.org/AssocArO/UW/6986088">
          <pickID>quakeml:uw.anss.org/Arrival/UW/6986088</pickID>
          <phase>S</phase>
          <azimuth>172.4</azimuth>
          <timeResidual>-0.7</timeResidual>
          <creationInfo>
            <agencyID>UW</agencyID>
            <creationTime>2012-02-28T16:01:28.000000Z</creationTime>
          </creationInfo>
        </arrival>
        <arrival publicID="quakeml:uw.anss.org/AssocArO/UW/6986093">
          <pickID>quakeml:uw.anss.org/Arrival/UW/6986093</pickID>
          <phase>P</phase>
          <azimuth>200.6</azimuth>
          <distance>0.1117</distance>
          <timeResidual>0.04</timeResidual>
          <creationInfo>
            <agencyID>UW</agencyID>
            <creationTime>2012-02-28T16:01:28.000000Z</creationTime>
          </creationInfo>
        </arrival>
        <arrival publicID="quakeml:uw.anss.org/AssocArO/UW/6986098">
          <pickID>quakeml:uw.anss.org/Arrival/UW/6986098</pickID>
          <phase>P</phase>
          <azimuth>177.9</azimuth>
          <distance>1.586</distance>
          <timeResidual>0.14</timeResidual>
          <creationInfo>
            <agencyID>UW</agencyID>
            <creationTime>2012-02-28T16:01:28.000000Z</creationTime>
          </creationInfo>
        </arrival>
        <arrival publicID="quakeml:uw.anss.org/AssocArO/UW/6986103">
          <pickID>quakeml:uw.anss.org/Arrival/UW/6986103</pickID>
          <phase>S</phase>
          <azimuth>174.5</azimuth>
          <distance>1.787</distance>
          <timeResidual>-1.71</timeResidual>
          <creationInfo>
            <agencyID>UW</agencyID>
            <creationTime>2012-02-28T16:01:28.000000Z</creationTime>
          </creationInfo>
        </arrival>
        <arrival publicID="quakeml:uw.anss.org/AssocArO/UW/6986108">
          <pickID>quakeml:uw.anss.org/Arrival/UW/6986108</pickID>
          <phase>P</phase>
          <azimuth>170.8</azimuth>
          <distance>1.083</distance>
          <timeResidual>0.0</timeResidual>
          <creationInfo>
            <agencyID>UW</agencyID>
            <creationTime>2012-02-28T16:01:28.000000Z</creationTime>
          </creationInfo>
        </arrival>
        <arrival publicID="quakeml:uw.anss.org/AssocArO/UW/6986113">
          <pickID>quakeml:uw.anss.org/Arrival/UW/6986113</pickID>
          <phase>P</phase>
          <azimuth>102.2</azimuth>
          <distance>0.3721</distance>
          <timeResidual>0.05</timeResidual>
          <creationInfo>
            <agencyID>UW</agencyID>
            <creationTime>2012-02-28T16:01:28.000000Z</creationTime>
          </creationInfo>
        </arrival>
        <arrival publicID="quakeml:uw.anss.org/AssocArO/UW/6986118">
          <pickID>quakeml:uw.anss.org/Arrival/UW/6986118</pickID>
          <phase>S</phase>
          <azimuth>102.2</azimuth>
          <distance>0.3721</distance>
          <timeResidual>-0.19</timeResidual>
          <creationInfo>
            <agencyID>UW</agencyID>
            <creationTime>2012-02-28T16:01:28.000000Z</creationTime>
          </creationInfo>
        </arrival>
        <arrival publicID="quakeml:uw.anss.org/AssocArO/UW/6986123">
          <pickID>quakeml:uw.anss.org/Arrival/UW/6986123</pickID>
          <phase>S</phase>
          <azimuth>168.9</azimuth>
          <distance>1.864</distance>
          <timeResidual>-1.71</timeResidual>
          <creationInfo>
            <agencyID>UW</agencyID>
            <creationTime>2012-02-28T16:01:28.000000Z</creationTime>
          </creationInfo>
        </arrival>
        <arrival publicID="quakeml:uw.anss.org/AssocArO/UW/6986128">
          <pickID>quakeml:uw.anss.org/Arrival/UW/6986128</pickID>
          <phase>P</phase>
          <azimuth>163.3</azimuth>
          <distance>0.8704</distance>
          <timeResidual>-0.04</timeResidual>
          <creationInfo>
            <agencyID>UW</agencyID>
            <creationTime>2012-02-28T16:01:28.000000Z</creationTime>
          </creationInfo>
        </arrival>
        <arrival publicID="quakeml:uw.anss.org/AssocArO/UW/6986133">
          <pickID>quakeml:uw.anss.org/Arrival/UW/6986133</pickID>
          <phase>P</phase>
          <azimuth>161.8</azimuth>
          <distance>1.579</distance>
          <timeResidual>0.6</timeResidual>
          <creationInfo>
            <agencyID>UW</agencyID>
            <creationTime>2012-02-28T16:01:28.000000Z</creationTime>
          </creationInfo>
        </arrival>
        <arrival publicID="quakeml:uw.anss.org/AssocArO/UW/6986138">
          <pickID>quakeml:uw.anss.org/Arrival/UW/6986138</pickID>
          <phase>P</phase>
          <azimuth>22.4</azimuth>
          <distance>0.2772</distance>
          <timeResidual>0.04</timeResidual>
          <creationInfo>
            <agencyID>UW</agencyID>
            <creationTime>2012-02-28T16:01:28.000000Z</creationTime>
          </creationInfo>
        </arrival>
        <arrival publicID="quakeml:uw.anss.org/AssocArO/UW/6986143">
          <pickID>quakeml:uw.anss.org/Arrival/UW/6986143</pickID>
          <phase>S</phase>
          <azimuth>22.4</azimuth>
          <distance>0.2772</distance>
          <timeResidual>1.2</timeResidual>
          <creationInfo>
            <agencyID>UW</agencyID>
            <creationTime>2012-02-28T16:01:28.000000Z</creationTime>
          </creationInfo>
        </arrival>
        <arrival publicID="quakeml:uw.anss.org/AssocArO/UW/6986148">
          <pickID>quakeml:uw.anss.org/Arrival/UW/6986148</pickID>
          <phase>S</phase>
          <azimuth>185.0</azimuth>
          <distance>2.231</distance>
          <timeResidual>-1.37</timeResidual>
          <creationInfo>
            <agencyID>UW</agencyID>
            <creationTime>2012-02-28T16:01:28.000000Z</creationTime>
          </creationInfo>
        </arrival>
        <arrival publicID="quakeml:uw.anss.org/AssocArO/UW/6986153">
          <pickID>quakeml:uw.anss.org/Arrival/UW/6986153</pickID>
          <phase>P</phase>
          <azimuth>165.0</azimuth>
          <timeResidual>-0.14</timeResidual>
          <creationInfo>
            <agencyID>UW</agencyID>
            <creationTime>2012-02-28T16:01:28.000000Z</creationTime>
          </creationInfo>
        </arrival>
        <arrival publicID="quakeml:uw.anss.org/AssocArO/UW/6986158">
          <pickID>quakeml:uw.anss.org/Arrival/UW/6986158</pickID>
          <phase>S</phase>
          <azimuth>165.0</azimuth>
          <timeResidual>0.36</timeResidual>
          <creationInfo>
            <agencyID>UW</agencyID>
            <creationTime>2012-02-28T16:01:28.000000Z</creationTime>
          </creationInfo>
        </arrival>
        <arrival publicID="quakeml:uw.anss.org/AssocArO/UW/6986163">
          <pickID>quakeml:uw.anss.org/Arrival/UW/6986163</pickID>
          <phase>S</phase>
          <azimuth>147.6</azimuth>
          <distance>1.908</distance>
          <timeResidual>0.08</timeResidual>
          <creationInfo>
            <agencyID>UW</agencyID>
            <creationTime>2012-02-28T16:01:28.000000Z</creationTime>
          </creationInfo>
        </arrival>
        <arrival publicID="quakeml:uw.anss.org/AssocArO/UW/6986168">
          <pickID>quakeml:uw.anss.org/Arrival/UW/6986168</pickID>
          <phase>P</phase>
          <azimuth>170.5</azimuth>
          <timeResidual>-0.07</timeResidual>
          <creationInfo>
            <agencyID>UW</agencyID>
            <creationTime>2012-02-28T16:01:28.000000Z</creationTime>
          </creationInfo>
        </arrival>
        <arrival publicID="quakeml:uw.anss.org/AssocArO/UW/6986173">
          <pickID>quakeml:uw.anss.org/Arrival/UW/6986173</pickID>
          <phase>S</phase>
          <azimuth>108.8</azimuth>
          <distance>1.623</distance>
          <timeResidual>0.18</timeResidual>
          <creationInfo>
            <agencyID>UW</agencyID>
            <creationTime>2012-02-28T16:01:28.000000Z</creationTime>
          </creationInfo>
        </arrival>
        <arrival publicID="quakeml:uw.anss.org/AssocArO/UW/6986178">
          <pickID>quakeml:uw.anss.org/Arrival/UW/6986178</pickID>
          <phase>P</phase>
          <azimuth>130.1</azimuth>
          <distance>1.036</distance>
          <timeResidual>-0.15</timeResidual>
          <creationInfo>
            <agencyID>UW</agencyID>
            <creationTime>2012-02-28T16:01:28.000000Z</creationTime>
          </creationInfo>
        </arrival>
        <arrival publicID="quakeml:uw.anss.org/AssocArO/UW/6986183">
          <pickID>quakeml:uw.anss.org/Arrival/UW/6986183</pickID>
          <phase>S</phase>
          <azimuth>119.8</azimuth>
          <distance>1.637</distance>
          <timeResidual>0.06</timeResidual>
          <creationInfo>
            <agencyID>UW</agencyID>
            <creationTime>2012-02-28T16:01:29.000000Z</creationTime>
          </creationInfo>
        </arrival>
        <arrival publicID="quakeml:uw.anss.org/AssocArO/UW/6986188">
          <pickID>quakeml:uw.anss.org/Arrival/UW/6986188</pickID>
          <phase>S</phase>
          <azimuth>184.9</azimuth>
          <distance>1.868</distance>
          <timeResidual>-0.99</timeResidual>
          <creationInfo>
            <agencyID>UW</agencyID>
            <creationTime>2012-02-28T16:01:29.000000Z</creationTime>
          </creationInfo>
        </arrival>
        <arrival publicID="quakeml:uw.anss.org/AssocArO/UW/6986193">
          <pickID>quakeml:uw.anss.org/Arrival/UW/6986193</pickID>
          <phase>P</phase>
          <azimuth>164.8</azimuth>
          <distance>0.7507</distance>
          <timeResidual>-0.06</timeResidual>
          <creationInfo>
            <agencyID>UW</agencyID>
            <creationTime>2012-02-28T16:01:29.000000Z</creationTime>
          </creationInfo>
        </arrival>
        <arrival publicID="quakeml:uw.anss.org/AssocArO/UW/6986198">
          <pickID>quakeml:uw.anss.org/Arrival/UW/6986198</pickID>
          <phase>S</phase>
          <azimuth>164.8</azimuth>
          <distance>0.7507</distance>
          <timeResidual>0.09</timeResidual>
          <creationInfo>
            <agencyID>UW</agencyID>
            <creationTime>2012-02-28T16:01:29.000000Z</creationTime>
          </creationInfo>
        </arrival>
        <arrival publicID="quakeml:uw.anss.org/AssocArO/UW/6986203">
          <pickID>quakeml:uw.anss.org/Arrival/UW/6986203</pickID>
          <phase>P</phase>
          <azimuth>143.6</azimuth>
          <distance>1.678</distance>
          <timeResidual>-0.05</timeResidual>
          <creationInfo>
            <agencyID>UW</agencyID>
            <creationTime>2012-02-28T16:01:29.000000Z</creationTime>
          </creationInfo>
        </arrival>
        <arrival publicID="quakeml:uw.anss.org/AssocArO/UW/6986208">
          <pickID>quakeml:uw.anss.org/Arrival/UW/6986208</pickID>
          <phase>P</phase>
          <azimuth>178.5</azimuth>
          <distance>0.6927</distance>
          <timeResidual>0.19</timeResidual>
          <creationInfo>
            <agencyID>UW</agencyID>
            <creationTime>2012-02-28T16:01:29.000000Z</creationTime>
          </creationInfo>
        </arrival>
      </origin>
      <magnitude publicID="quakeml:uw.anss.org/Netmag/UW/621568">
        <mag>
          <value>1.6</value>
          <uncertainty>0.04</uncertainty>
        </mag>
        <type>Md</type>
        <originID>quakeml:uw.anss.org/Origin/UW/760228</originID>
        <methodID>smi:uw.anss.org/magnitude/Crosson</methodID>
        <stationCount>7</stationCount>
        <evaluationMode>manual</evaluationMode>
        <evaluationStatus>final</evaluationStatus>
        <stationMagnitudeContribution>
          <stationMagnitudeID>quakeml:uw.anss.org/AssocCoM/UW/1672213</stationMagnitudeID>
          <weight>1.0</weight>
          <residual>-0.02</residual>
        </stationMagnitudeContribution>
        <stationMagnitudeContribution>
          <stationMagnitudeID>quakeml:uw.anss.org/AssocCoM/UW/1672208</stationMagnitudeID>
          <weight>1.0</weight>
          <residual>0.06</residual>
        </stationMagnitudeContribution>
        <stationMagnitudeContribution>
          <stationMagnitudeID>quakeml:uw.anss.org/AssocCoM/UW/1672218</stationMagnitudeID>
          <weight>1.0</weight>
          <residual>-0.33</residual>
        </stationMagnitudeContribution>
        <stationMagnitudeContribution>
          <stationMagnitudeID>quakeml:uw.anss.org/AssocCoM/UW/1672223</stationMagnitudeID>
          <weight>1.0</weight>
          <residual>-0.12</residual>
        </stationMagnitudeContribution>
        <stationMagnitudeContribution>
          <stationMagnitudeID>quakeml:uw.anss.org/AssocCoM/UW/1672238</stationMagnitudeID>
          <weight>1.0</weight>
          <residual>0.06</residual>
        </stationMagnitudeContribution>
        <stationMagnitudeContribution>
          <stationMagnitudeID>quakeml:uw.anss.org/AssocCoM/UW/1672233</stationMagnitudeID>
          <weight>1.0</weight>
          <residual>-0.33</residual>
        </stationMagnitudeContribution>
        <stationMagnitudeContribution>
          <stationMagnitudeID>quakeml:uw.anss.org/AssocCoM/UW/1672228</stationMagnitudeID>
          <weight>1.0</weight>
          <residual>0.22</residual>
        </stationMagnitudeContribution>
        <creationInfo>
          <agencyID>UW</agencyID>
          <creationTime>2012-02-28T16:01:28.000000Z</creationTime>
        </creationInfo>
      </magnitude>
      <stationMagnitude publicID="quakeml:uw.anss.org/AssocCoM/UW/1672208">
        <originID>quakeml:uw.anss.org/Origin/UW/760228</originID>
        <mag>
          <value>1.66</value>
        </mag>
        <type>MD</type>
        <amplitudeID>quakeml:uw.anss.org/Coda/UW/1672208</amplitudeID>
        <waveformID networkCode="UW" stationCode="HDW" locationCode="" channelCode="EHZ"></waveformID>
      </stationMagnitude>
      <stationMagnitude publicID="quakeml:uw.anss.org/AssocCoM/UW/1672213">
        <originID>quakeml:uw.anss.org/Origin/UW/760228</originID>
        <mag>
          <value>1.58</value>
        </mag>
        <type>MD</type>
        <amplitudeID>quakeml:uw.anss.org/Coda/UW/1672213</amplitudeID>
        <waveformID networkCode="UW" stationCode="CMW" locationCode="" channelCode="EHZ"></waveformID>
      </stationMagnitude>
      <stationMagnitude publicID="quakeml:uw.anss.org/AssocCoM/UW/1672218">
        <originID>quakeml:uw.anss.org/Origin/UW/760228</originID>
        <mag>
          <value>1.27</value>
        </mag>
        <type>MD</type>
        <amplitudeID>quakeml:uw.anss.org/Coda/UW/1672218</amplitudeID>
        <waveformID networkCode="UW" stationCode="RMW" locationCode="" channelCode="EHZ"></waveformID>
      </stationMagnitude>
      <stationMagnitude publicID="quakeml:uw.anss.org/AssocCoM/UW/1672223">
        <originID>quakeml:uw.anss.org/Origin/UW/760228</originID>
        <mag>
          <value>1.48</value>
        </mag>
        <type>MD</type>
        <amplitudeID>quakeml:uw.anss.org/Coda/UW/1672223</amplitudeID>
        <waveformID networkCode="UW" stationCode="RPW" locationCode="" channelCode="EHZ"></waveformID>
      </stationMagnitude>
      <stationMagnitude publicID="quakeml:uw.anss.org/AssocCoM/UW/1672228">
        <originID>quakeml:uw.anss.org/Origin/UW/760228</originID>
        <mag>
          <value>1.82</value>
        </mag>
        <type>MD</type>
        <amplitudeID>quakeml:uw.anss.org/Coda/UW/1672228</amplitudeID>
        <waveformID networkCode="UW" stationCode="JCW" locationCode="" channelCode="EHZ"></waveformID>
      </stationMagnitude>
      <stationMagnitude publicID="quakeml:uw.anss.org/AssocCoM/UW/1672233">
        <originID>quakeml:uw.anss.org/Origin/UW/760228</originID>
        <mag>
