<?xml version='1.0' encoding='utf-8'?>
<q:quakeml xmlns="http://quakeml.org/xmlns/bed/1.2" xmlns:q="http://quakeml.org/xmlns/quakeml/1.2" xmlns:ns0="http://anss.org/xmlns/catalog/0.1">
  <eventParameters publicID="smi:local/0f8fc7b3-f1d5-451b-ad75-044d6441a2b0">
    <event publicID="quakeml:uw.anss.org/Event/UW/10476808" ns0:datasource="uw" ns0:dataid="uw10476808" ns0:eventsource="uw" ns0:eventid="10476808">
      <preferredOriginID>quakeml:uw.anss.org/Origin/UW/754238</preferredOriginID>
      <preferredMagnitudeID>quakeml:uw.anss.org/Netmag/UW/618478</preferredMagnitudeID>
      <type>earthquake</type>
      <creationInfo>
        <agencyID>UW</agencyID>
        <creationTime>2012-02-28T15:49:05.000000Z</creationTime>
        <version>3</version>
      </creationInfo>
      <origin publicID="quakeml:uw.anss.org/Origin/UW/754238" ns0:datasource="uw" ns0:dataid="uw10476808" ns0:eventsource="uw" ns0:eventid="10476808">
        <time>
          <value>1999-05-14T09:26:11.120000Z</value>
          <uncertainty>0.02</uncertainty>
        </time>
        <latitude>
          <value>48.4268333</value>
          <uncertainty>0.09</uncertainty>
        </latitude>
        <longitude>
          <value>-121.6563333</value>
          <uncertainty>0.18</uncertainty>
        </longitude>
        <depth>
          <value>-475.0</value>
          <uncertainty>270.0</uncertainty>
        </depth>
        <depthType>operator assigned</depthType>
        <timeFixed>false</timeFixed>
        <epicenterFixed>false</epicenterFixed>
        <methodID>smi:uw.anss.org/origin/spong</methodID>
        <quality>
          <associatedPhaseCount>41</associatedPhaseCount>
          <usedPhaseCount>16</usedPhaseCount>
          <associatedStationCount>29</associatedStationCount>
          <usedStationCount>0</usedStationCount>
          <standardError>0.3</standardError>
          <azimuthalGap>177.0</azimuthalGap>
        </quality>
        <type>hypocenter</type>
        <evaluationMode>manual</evaluationMode>
        <evaluationStatus>final</evaluationStatus>
        <creationInfo>
          <agencyID>UW</agencyID>
          <creationTime>2012-02-28T15:49:05.000000Z</creationTime>
        </creationInfo>
        <originUncertainty>
          <preferredDescription>horizontal uncertainty</preferredDescription>
          <horizontalUncertainty>201.0</horizontalUncertainty>
        </originUncertainty>
        <arrival publicID="quakeml:uw.anss.org/AssocArO/UW/6930908">
          <pickID>quakeml:uw.anss.org/Arrival/UW/6930908</pickID>
          <phase>S</phase>
          <azimuth>102.3</azimuth>
          <distance>2.378</distance>
          <timeResidual>2.83</timeResidual>
          <creationInfo>
            <agencyID>UW</agencyID>
            <creationTime>2012-02-28T15:49:05.000000Z</creationTime>
          </creationInfo>
        </arrival>
        <arrival publicID="quakeml:uw.anss.org/AssocArO/UW/6930913">
          <pickID>quakeml:uw.anss.org/Arrival/UW/6930913</pickID>
          <phase>P</phase>
          <azimuth>161.4</azimuth>
          <distance>1.786</distance>
          <timeResidual>0.09</timeResidual>
          <creationInfo>
            <agencyID>UW</agencyID>
            <creationTime>2012-02-28T15:49:05.000000Z</creationTime>
          </creationInfo>
        </arrival>
        <arrival publicID="quakeml:uw.anss.org/AssocArO/UW/6930918">
          <pickID>quakeml:uw.anss.org/Arrival/UW/6930918</pickID>
          <phase>P</phase>
          <azimuth>111.7</azimuth>
          <distance>0.9487</distance>
          <timeResidual>0.12</timeResidual>
          <creationInfo>
            <agencyID>UW</agencyID>
            <creationTime>2012-02-28T15:49:05.000000Z</creationTime>
          </creationInfo>
        </arrival>
        <arrival publicID="quakeml:uw.anss.org/AssocArO/UW/6930923">
          <pickID>quakeml:uw.anss.org/Arrival/UW/6930923</pickID>
          <phase>S</phase>
          <azimuth>111.7</azimuth>
          <distance>0.9487</distance>
          <timeResidual>-0.52</timeResidual>
          <creationInfo>
            <agencyID>UW</agencyID>
            <creationTime>2012-02-28T15:49:05.000000Z</creationTime>
          </creationInfo>
        </arrival>
        <arrival publicID="quakeml:uw.anss.org/AssocArO/UW/6930928">
          <pickID>quakeml:uw.anss.org/Arrival/UW/6930928</pickID>
          <phase>P</phase>
          <azimuth>179.0</azimuth>
          <distance>1.871</distance>
          <timeResidual>0.08</timeResidual>
          <creationInfo>
            <agencyID>UW</agencyID>
            <creationTime>2012-02-28T15:49:05.000000Z</creationTime>
          </creationInfo>
        </arrival>
        <arrival publicID="quakeml:uw.anss.org/AssocArO/UW/6930933">
          <pickID>quakeml:uw.anss.org/Arrival/UW/6930933</pickID>
          <phase>P</phase>
          <azimuth>181.9</azimuth>
          <distance>1.558</distance>
          <timeResidual>0.23</timeResidual>
          <creationInfo>
            <agencyID>UW</agencyID>
            <creationTime>2012-02-28T15:49:05.000000Z</creationTime>
          </creationInfo>
        </arrival>
        <arrival publicID="quakeml:uw.anss.org/AssocArO/UW/6930938">
          <pickID>quakeml:uw.anss.org/Arrival/UW/6930938</pickID>
          <phase>S</phase>
          <azimuth>181.9</azimuth>
          <distance>1.558</distance>
          <timeResidual>-0.26</timeResidual>
          <creationInfo>
            <agencyID>UW</agencyID>
            <creationTime>2012-02-28T15:49:05.000000Z</creationTime>
          </creationInfo>
        </arrival>
        <arrival publicID="quakeml:uw.anss.org/AssocArO/UW/6930943">
          <pickID>quakeml:uw.anss.org/Arrival/UW/6930943</pickID>
          <phase>P</phase>
          <azimuth>181.9</azimuth>
          <timeResidual>0.49</timeResidual>
          <creationInfo>
            <agencyID>UW</agencyID>
            <creationTime>2012-02-28T15:49:05.000000Z</creationTime>
          </creationInfo>
        </arrival>
        <arrival publicID="quakeml:uw.anss.org/AssocArO/UW/6930948">
          <pickID>quakeml:uw.anss.org/Arrival/UW/6930948</pickID>
          <phase>P</phase>
          <azimuth>157.4</azimuth>
          <distance>1.395</distance>
          <timeResidual>0.91</timeResidual>
          <creationInfo>
            <agencyID>UW</agencyID>
            <creationTime>2012-02-28T15:49:05.000000Z</creationTime>
          </creationInfo>
        </arrival>
        <arrival publicID="quakeml:uw.anss.org/AssocArO/UW/6930953">
          <pickID>quakeml:uw.anss.org/Arrival/UW/6930953</pickID>
          <phase>P</phase>
          <azimuth>127.0</azimuth>
          <distance>1.752</distance>
          <timeResidual>2.13</timeResidual>
          <creationInfo>
            <agencyID>UW</agencyID>
            <creationTime>2012-02-28T15:49:05.000000Z</creationTime>
          </creationInfo>
        </arrival>
        <arrival publicID="quakeml:uw.anss.org/AssocArO/UW/6930958">
          <pickID>quakeml:uw.anss.org/Arrival/UW/6930958</pickID>
          <phase>S</phase>
          <azimuth>127.0</azimuth>
          <distance>1.752</distance>
          <timeResidual>1.57</timeResidual>
          <creationInfo>
            <agencyID>UW</agencyID>
            <creationTime>2012-02-28T15:49:05.000000Z</creationTime>
          </creationInfo>
        </arrival>
        <arrival publicID="quakeml:uw.anss.org/AssocArO/UW/6930963">
          <pickID>quakeml:uw.anss.org/Arrival/UW/6930963</pickID>
          <phase>P</phase>
          <azimuth>186.9</azimuth>
          <distance>0.628</distance>
          <timeResidual>-0.04</timeResidual>
          <creationInfo>
            <agencyID>UW</agencyID>
            <creationTime>2012-02-28T15:49:05.000000Z</creationTime>
          </creationInfo>
        </arrival>
        <arrival publicID="quakeml:uw.anss.org/AssocArO/UW/6930968">
          <pickID>quakeml:uw.anss.org/Arrival/UW/6930968</pickID>
          <phase>P</phase>
          <azimuth>186.0</azimuth>
          <distance>0.9732</distance>
          <timeResidual>0.0</timeResidual>
          <creationInfo>
            <agencyID>UW</agencyID>
            <creationTime>2012-02-28T15:49:05.000000Z</creationTime>
          </creationInfo>
        </arrival>
        <arrival publicID="quakeml:uw.anss.org/AssocArO/UW/6930973">
          <pickID>quakeml:uw.anss.org/Arrival/UW/6930973</pickID>
          <phase>P</phase>
          <azimuth>77.1</azimuth>
          <distance>0.09661</distance>
          <timeResidual>-0.08</timeResidual>
          <creationInfo>
            <agencyID>UW</agencyID>
            <creationTime>2012-02-28T15:49:05.000000Z</creationTime>
          </creationInfo>
        </arrival>
        <arrival publicID="quakeml:uw.anss.org/AssocArO/UW/6930978">
          <pickID>quakeml:uw.anss.org/Arrival/UW/6930978</pickID>
          <phase>P</phase>
          <azimuth>177.3</azimuth>
          <distance>1.731</distance>
          <timeResidual>0.95</timeResidual>
          <creationInfo>
            <agencyID>UW</agencyID>
            <creationTime>2012-02-28T15:49:05.000000Z</creationTime>
          </creationInfo>
        </arrival>
        <arrival publicID="quakeml:uw.anss.org/AssocArO/UW/6930983">
          <pickID>quakeml:uw.anss.org/Arrival/UW/6930983</pickID>
          <phase>P</phase>
          <azimuth>181.8</azimuth>
          <distance>0.7332</distance>
          <timeResidual>-0.13</timeResidual>
          <creationInfo>
            <agencyID>UW</agencyID>
            <creationTime>2012-02-28T15:49:05.000000Z</creationTime>
          </creationInfo>
        </arrival>
        <arrival publicID="quakeml:uw.anss.org/AssocArO/UW/6930988">
          <pickID>quakeml:uw.anss.org/Arrival/UW/6930988</pickID>
          <phase>S</phase>
          <azimuth>181.8</azimuth>
          <distance>0.7332</distance>
          <timeResidual>-0.25</timeResidual>
          <creationInfo>
            <agencyID>UW</agencyID>
            <creationTime>2012-02-28T15:49:05.000000Z</creationTime>
          </creationInfo>
        </arrival>
        <arrival publicID="quakeml:uw.anss.org/AssocArO/UW/6930993">
          <pickID>quakeml:uw.anss.org/Arrival/UW/6930993</pickID>
          <phase>P</phase>
          <azimuth>171.2</azimuth>
          <distance>1.417</distance>
          <timeResidual>0.75</timeResidual>
          <creationInfo>
            <agencyID>UW</agencyID>
            <creationTime>2012-02-28T15:49:05.000000Z</creationTime>
          </creationInfo>
        </arrival>
        <arrival publicID="quakeml:uw.anss.org/AssocArO/UW/6930998">
          <pickID>quakeml:uw.anss.org/Arrival/UW/6930998</pickID>
          <phase>P</phase>
          <azimuth>188.7</azimuth>
          <distance>2.209</distance>
          <timeResidual>0.61</timeResidual>
          <creationInfo>
            <agencyID>UW</agencyID>
            <creationTime>2012-02-28T15:49:05.000000Z</creationTime>
          </creationInfo>
        </arrival>
        <arrival publicID="quakeml:uw.anss.org/AssocArO/UW/6931003">
          <pickID>quakeml:uw.anss.org/Arrival/UW/6931003</pickID>
          <phase>P</phase>
          <azimuth>260.2</azimuth>
          <distance>0.5937</distance>
          <timeResidual>-0.02</timeResidual>
          <creationInfo>
            <agencyID>UW</agencyID>
            <creationTime>2012-02-28T15:49:05.000000Z</creationTime>
          </creationInfo>
        </arrival>
        <arrival publicID="quakeml:uw.anss.org/AssocArO/UW/6931008">
          <pickID>quakeml:uw.anss.org/Arrival/UW/6931008</pickID>
          <phase>P</phase>
          <azimuth>114.9</azimuth>
          <distance>1.677</distance>
          <timeResidual>2.0</timeResidual>
          <creationInfo>
            <agencyID>UW</agencyID>
            <creationTime>2012-02-28T15:49:05.000000Z</creationTime>
          </creationInfo>
        </arrival>
        <arrival publicID="quakeml:uw.anss.org/AssocArO/UW/6931013">
          <pickID>quakeml:uw.anss.org/Arrival/UW/6931013</pickID>
          <phase>S</phase>
          <azimuth>114.9</azimuth>
          <distance>1.677</distance>
          <timeResidual>1.35</timeResidual>
          <creationInfo>
            <agencyID>UW</agencyID>
            <creationTime>2012-02-28T15:49:05.000000Z</creationTime>
          </creationInfo>
        </arrival>
        <arrival publicID="quakeml:uw.anss.org/AssocArO/UW/6931018">
          <pickID>quakeml:uw.anss.org/Arrival/UW/6931018</pickID>
          <phase>P</phase>
          <azimuth>192.6</azimuth>
          <distance>2.173</distance>
          <timeResidual>0.12</timeResidual>
          <creationInfo>
            <agencyID>UW</agencyID>
            <creationTime>2012-02-28T15:49:05.000000Z</creationTime>
          </creationInfo>
        </arrival>
        <arrival publicID="quakeml:uw.anss.org/AssocArO/UW/6931023">
          <pickID>quakeml:uw.anss.org/Arrival/UW/6931023</pickID>
          <phase>P</phase>
          <azimuth>153.8</azimuth>
          <distance>1.687</distance>
          <timeResidual>-4.9</timeResidual>
          <creationInfo>
            <agencyID>UW</agencyID>
            <creationTime>2012-02-28T15:49:05.000000Z</creationTime>
          </creationInfo>
        </arrival>
        <arrival publicID="quakeml:uw.anss.org/AssocArO/UW/6931028">
          <pickID>quakeml:uw.anss.org/Arrival/UW/6931028</pickID>
          <phase>P</phase>
          <azimuth>180.4</azimuth>
          <timeResidual>0.13</timeResidual>
          <creationInfo>
            <agencyID>UW</agencyID>
            <creationTime>2012-02-28T15:49:05.000000Z</creationTime>
          </creationInfo>
        </arrival>
        <arrival publicID="quakeml:uw.anss.org/AssocArO/UW/6931033">
          <pickID>quakeml:uw.anss.org/Arrival/UW/6931033</pickID>
          <phase>S</phase>
          <azimuth>180.4</azimuth>
          <timeResidual>0.01</timeResidual>
          <creationInfo>
            <agencyID>UW</agencyID>
            <creationTime>2012-02-28T15:49:05.000000Z</creationTime>
          </creationInfo>
        </arrival>
        <arrival publicID="quakeml:uw.anss.org/AssocArO/UW/6931038">
          <pickID>quakeml:uw.anss.org/Arrival/UW/6931038</pickID>
          <phase>P</phase>
          <azimuth>116.7</azimuth>
          <distance>2.238</distance>
          <timeResidual>2.54</timeResidual>
          <creationInfo>
            <agencyID>UW</agencyID>
            <creationTime>2012-02-28T15:49:05.000000Z</creationTime>
          </creationInfo>
        </arrival>
        <arrival publicID="quakeml:uw.anss.org/AssocArO/UW/6931043">
          <pickID>quakeml:uw.anss.org/Arrival/UW/6931043</pickID>
          <phase>S</phase>
          <azimuth>116.7</azimuth>
          <distance>2.238</distance>
          <timeResidual>2.31</timeResidual>
          <creationInfo>
            <agencyID>UW</agencyID>
            <creationTime>2012-02-28T15:49:05.000000Z</creationTime>
          </creationInfo>
        </arrival>
        <arrival publicID="quakeml:uw.anss.org/AssocArO/UW/6931048">
          <pickID>quakeml:uw.anss.org/Arrival/UW/6931048</pickID>
          <phase>P</phase>
          <azimuth>108.7</azimuth>
          <distance>1.335</distance>
          <timeResidual>0.8</timeResidual>
          <creationInfo>
            <agencyID>UW</agencyID>
            <creationTime>2012-02-28T15:49:05.000000Z</creationTime>
          </creationInfo>
        </arrival>
        <arrival publicID="quakeml:uw.anss.org/AssocArO/UW/6931053">
          <pickID>quakeml:uw.anss.org/Arrival/UW/6931053</pickID>
          <phase>S</phase>
          <azimuth>108.7</azimuth>
          <distance>1.335</distance>
          <timeResidual>0.18</timeResidual>
          <creationInfo>
            <agencyID>UW</agencyID>
            <creationTime>2012-02-28T15:49:05.000000Z</creationTime>
          </creationInfo>
        </arrival>
        <arrival publicID="quakeml:uw.anss.org/AssocArO/UW/6931058">
          <pickID>quakeml:uw.anss.org/Arrival/UW/6931058</pickID>
          <phase>P</phase>
          <azimuth>122.0</azimuth>
          <distance>1.354</distance>
          <timeResidual>0.57</timeResidual>
          <creationInfo>
            <agencyID>UW</agencyID>
            <creationTime>2012-02-28T15:49:05.000000Z</creationTime>
          </creationInfo>
        </arrival>
        <arrival publicID="quakeml:uw.anss.org/AssocArO/UW/6931063">
          <pickID>quakeml:uw.anss.org/Arrival/UW/6931063</pickID>
          <phase>S</phase>
          <azimuth>122.0</azimuth>
          <distance>1.354</distance>
          <timeResidual>0.59</timeResidual>
          <creationInfo>
            <agencyID>UW</agencyID>
            <creationTime>2012-02-28T15:49:05.000000Z</creationTime>
          </creationInfo>
        </arrival>
        <arrival publicID="quakeml:uw.anss.org/AssocArO/UW/6931068">
          <pickID>quakeml:uw.anss.org/Arrival/UW/6931068</pickID>
          <phase>P</phase>
          <azimuth>190.6</azimuth>
          <distance>2.112</distance>
          <timeResidual>0.13</timeResidual>
          <creationInfo>
            <agencyID>UW</agencyID>
            <creationTime>2012-02-28T15:49:05.000000Z</creationTime>
          </creationInfo>
        </arrival>
        <arrival publicID="quakeml:uw.anss.org/AssocArO/UW/6931073">
          <pickID>quakeml:uw.anss.org/Arrival/UW/6931073</pickID>
          <phase>P</phase>
          <azimuth>194.0</azimuth>
          <distance>1.812</distance>
          <timeResidual>0.18</timeResidual>
          <creationInfo>
            <agencyID>UW</agencyID>
            <creationTime>2012-02-28T15:49:05.000000Z</creationTime>
          </creationInfo>
        </arrival>
        <arrival publicID="quakeml:uw.anss.org/AssocArO/UW/6931078">
          <pickID>quakeml:uw.anss.org/Arrival/UW/6931078</pickID>
          <phase>S</phase>
          <azimuth>194.0</azimuth>
          <distance>1.812</distance>
          <timeResidual>-0.15</timeResidual>
          <creationInfo>
            <agencyID>UW</agencyID>
            <creationTime>2012-02-28T15:49:05.000000Z</creationTime>
          </creationInfo>
        </arrival>
        <arrival publicID="quakeml:uw.anss.org/AssocArO/UW/6931083">
          <pickID>quakeml:uw.anss.org/Arrival/UW/6931083</pickID>
          <phase>P</phase>
          <azimuth>183.6</azimuth>
          <distance>1.68</distance>
          <timeResidual>0.2</timeResidual>
          <creationInfo>
            <agencyID>UW</agencyID>
            <creationTime>2012-02-28T15:49:05.000000Z</creationTime>
          </creationInfo>
        </arrival>
        <arrival publicID="quakeml:uw.anss.org/AssocArO/UW/6931088">
          <pickID>quakeml:uw.anss.org/Arrival/UW/6931088</pickID>
          <phase>P</phase>
          <azimuth>119.4</azimuth>
          <distance>1.248</distance>
          <timeResidual>0.4</timeResidual>
          <creationInfo>
            <agencyID>UW</agencyID>
            <creationTime>2012-02-28T15:49:05.000000Z</creationTime>
          </creationInfo>
        </arrival>
        <arrival publicID="quakeml:uw.anss.org/AssocArO/UW/6931093">
          <pickID>quakeml:uw.anss.org/Arrival/UW/6931093</pickID>
          <phase>S</phase>
          <azimuth>119.4</azimuth>
          <distance>1.248</distance>
          <timeResidual>-0.04</timeResidual>
          <creationInfo>
            <agencyID>UW</agencyID>
            <creationTime>2012-02-28T15:49:05.000000Z</creationTime>
          </creationInfo>
        </arrival>
        <arrival publicID="quakeml:uw.anss.org/AssocArO/UW/6931098">
          <pickID>quakeml:uw.anss.org/Arrival/UW/6931098</pickID>
          <phase>S</phase>
          <azimuth>144.7</azimuth>
          <distance>2.47</distance>
          <timeResidual>5.26</timeResidual>
          <creationInfo>
            <agencyID>UW</agencyID>
            <creationTime>2012-02-28T15:49:05.000000Z</creationTime>
          </creationInfo>
        </arrival>
