<?xml version='1.0' encoding='utf-8'?>
<q:quakeml xmlns="http://quakeml.org/xmlns/bed/1.2" xmlns:q="http://quakeml.org/xmlns/quakeml/1.2" xmlns:ns0="http://anss.org/xmlns/catalog/0.1">
  <eventParameters publicID="smi:local/9868c399-0f6a-46e0-ba97-8b5ec5c7c4c3">
    <event publicID="quakeml:uw.anss.org/Event/UW/10834508" ns0:datasource="uw" ns0:dataid="uw10834508" ns0:eventsource="uw" ns0:eventid="10834508">
      <preferredOriginID>quakeml:uw.anss.org/Origin/UW/1149243</preferredOriginID>
      <preferredMagnitudeID>quakeml:uw.anss.org/Netmag/UW/893123</preferredMagnitudeID>
      <type>earthquake</type>
      <creationInfo>
        <agencyID>UW</agencyID>
        <creationTime>2012-05-14T12:04:10.000000Z</creationTime>
        <version>3</version>
      </creationInfo>
      <origin publicID="quakeml:uw.anss.org/Origin/UW/1149243" ns0:datasource="uw" ns0:dataid="uw10834508" ns0:eventsource="uw" ns0:eventid="10834508">
        <time>
          <value>1999-03-16T13:39:49.400000Z</value>
          <uncertainty>0.02</uncertainty>
        </time>
        <latitude>
          <value>48.487</value>
          <uncertainty>0.07</uncertainty>
        </latitude>
        <longitude>
          <value>-121.8066667</value>
          <uncertainty>0.18</uncertainty>
        </longitude>
        <depth>
          <value>-515.0</value>
          <uncertainty>240.0</uncertainty>
        </depth>
        <depthType>operator assigned</depthType>
        <timeFixed>false</timeFixed>
        <epicenterFixed>false</epicenterFixed>
        <methodID>smi:uw.anss.org/origin/spong</methodID>
        <quality>
          <associatedPhaseCount>48</associatedPhaseCount>
          <usedPhaseCount>15</usedPhaseCount>
          <associatedStationCount>32</associatedStationCount>
          <usedStationCount>0</usedStationCount>
          <standardError>0.28</standardError>
          <azimuthalGap>209.0</azimuthalGap>
        </quality>
        <type>hypocenter</type>
        <evaluationMode>manual</evaluationMode>
        <evaluationStatus>final</evaluationStatus>
        <creationInfo>
          <agencyID>UW</agencyID>
          <creationTime>2012-05-14T12:04:10.000000Z</creationTime>
        </creationInfo>
        <originUncertainty>
          <preferredDescription>horizontal uncertainty</preferredDescription>
          <horizontalUncertainty>193.0</horizontalUncertainty>
        </originUncertainty>
        <arrival publicID="quakeml:uw.anss.org/AssocArO/UW/10664553">
          <pickID>quakeml:uw.anss.org/Arrival/UW/10664553</pickID>
          <phase>P</phase>
          <azimuth>159.0</azimuth>
          <distance>1.877</distance>
          <timeResidual>0.77</timeResidual>
          <creationInfo>
            <agencyID>UW</agencyID>
            <creationTime>2012-05-14T12:04:10.000000Z</creationTime>
          </creationInfo>
        </arrival>
        <arrival publicID="quakeml:uw.anss.org/AssocArO/UW/10664558">
          <pickID>quakeml:uw.anss.org/Arrival/UW/10664558</pickID>
          <phase>S</phase>
          <azimuth>159.0</azimuth>
          <distance>1.877</distance>
          <timeResidual>0.59</timeResidual>
          <creationInfo>
            <agencyID>UW</agencyID>
            <creationTime>2012-05-14T12:04:10.000000Z</creationTime>
          </creationInfo>
        </arrival>
        <arrival publicID="quakeml:uw.anss.org/AssocArO/UW/10664563">
          <pickID>quakeml:uw.anss.org/Arrival/UW/10664563</pickID>
          <phase>P</phase>
          <azimuth>112.6</azimuth>
          <distance>1.064</distance>
          <timeResidual>0.64</timeResidual>
          <creationInfo>
            <agencyID>UW</agencyID>
            <creationTime>2012-05-14T12:04:10.000000Z</creationTime>
          </creationInfo>
        </arrival>
        <arrival publicID="quakeml:uw.anss.org/AssocArO/UW/10664568">
          <pickID>quakeml:uw.anss.org/Arrival/UW/10664568</pickID>
          <phase>S</phase>
          <azimuth>112.6</azimuth>
          <distance>1.064</distance>
          <timeResidual>0.04</timeResidual>
          <creationInfo>
            <agencyID>UW</agencyID>
            <creationTime>2012-05-14T12:04:10.000000Z</creationTime>
          </creationInfo>
        </arrival>
        <arrival publicID="quakeml:uw.anss.org/AssocArO/UW/10664573">
          <pickID>quakeml:uw.anss.org/Arrival/UW/10664573</pickID>
          <phase>P</phase>
          <azimuth>192.4</azimuth>
          <distance>1.48</distance>
          <timeResidual>0.48</timeResidual>
          <creationInfo>
            <agencyID>UW</agencyID>
            <creationTime>2012-05-14T12:04:10.000000Z</creationTime>
          </creationInfo>
        </arrival>
        <arrival publicID="quakeml:uw.anss.org/AssocArO/UW/10664578">
          <pickID>quakeml:uw.anss.org/Arrival/UW/10664578</pickID>
          <phase>S</phase>
          <azimuth>192.4</azimuth>
          <distance>1.48</distance>
          <timeResidual>-0.08</timeResidual>
          <creationInfo>
            <agencyID>UW</agencyID>
            <creationTime>2012-05-14T12:04:10.000000Z</creationTime>
          </creationInfo>
        </arrival>
        <arrival publicID="quakeml:uw.anss.org/AssocArO/UW/10664583">
          <pickID>quakeml:uw.anss.org/Arrival/UW/10664583</pickID>
          <phase>P</phase>
          <azimuth>131.3</azimuth>
          <distance>1.326</distance>
          <timeResidual>0.77</timeResidual>
          <creationInfo>
            <agencyID>UW</agencyID>
            <creationTime>2012-05-14T12:04:10.000000Z</creationTime>
          </creationInfo>
        </arrival>
        <arrival publicID="quakeml:uw.anss.org/AssocArO/UW/10664588">
          <pickID>quakeml:uw.anss.org/Arrival/UW/10664588</pickID>
          <phase>S</phase>
          <azimuth>131.3</azimuth>
          <distance>1.326</distance>
          <timeResidual>0.5</timeResidual>
          <creationInfo>
            <agencyID>UW</agencyID>
            <creationTime>2012-05-14T12:04:10.000000Z</creationTime>
          </creationInfo>
        </arrival>
        <arrival publicID="quakeml:uw.anss.org/AssocArO/UW/10664593">
          <pickID>quakeml:uw.anss.org/Arrival/UW/10664593</pickID>
          <phase>S</phase>
          <azimuth>139.2</azimuth>
          <distance>2.469</distance>
          <timeResidual>2.51</timeResidual>
          <creationInfo>
            <agencyID>UW</agencyID>
            <creationTime>2012-05-14T12:04:10.000000Z</creationTime>
          </creationInfo>
        </arrival>
        <arrival publicID="quakeml:uw.anss.org/AssocArO/UW/10664598">
          <pickID>quakeml:uw.anss.org/Arrival/UW/10664598</pickID>
          <phase>P</phase>
          <azimuth>154.6</azimuth>
          <distance>1.49</distance>
          <timeResidual>1.6</timeResidual>
          <creationInfo>
            <agencyID>UW</agencyID>
            <creationTime>2012-05-14T12:04:10.000000Z</creationTime>
          </creationInfo>
        </arrival>
        <arrival publicID="quakeml:uw.anss.org/AssocArO/UW/10664603">
          <pickID>quakeml:uw.anss.org/Arrival/UW/10664603</pickID>
          <phase>P</phase>
          <azimuth>126.5</azimuth>
          <distance>1.868</distance>
          <timeResidual>2.13</timeResidual>
          <creationInfo>
            <agencyID>UW</agencyID>
            <creationTime>2012-05-14T12:04:10.000000Z</creationTime>
          </creationInfo>
        </arrival>
        <arrival publicID="quakeml:uw.anss.org/AssocArO/UW/10664608">
          <pickID>quakeml:uw.anss.org/Arrival/UW/10664608</pickID>
          <phase>P</phase>
          <azimuth>184.2</azimuth>
          <distance>1.548</distance>
          <timeResidual>0.85</timeResidual>
          <creationInfo>
            <agencyID>UW</agencyID>
            <creationTime>2012-05-14T12:04:10.000000Z</creationTime>
          </creationInfo>
        </arrival>
        <arrival publicID="quakeml:uw.anss.org/AssocArO/UW/10664613">
          <pickID>quakeml:uw.anss.org/Arrival/UW/10664613</pickID>
          <phase>S</phase>
          <azimuth>184.2</azimuth>
          <distance>1.548</distance>
          <timeResidual>0.21</timeResidual>
          <creationInfo>
            <agencyID>UW</agencyID>
            <creationTime>2012-05-14T12:04:10.000000Z</creationTime>
          </creationInfo>
        </arrival>
        <arrival publicID="quakeml:uw.anss.org/AssocArO/UW/10664618">
          <pickID>quakeml:uw.anss.org/Arrival/UW/10664618</pickID>
          <phase>P</phase>
          <azimuth>177.9</azimuth>
          <distance>0.6842</distance>
          <timeResidual>0.0</timeResidual>
          <creationInfo>
            <agencyID>UW</agencyID>
            <creationTime>2012-05-14T12:04:10.000000Z</creationTime>
          </creationInfo>
        </arrival>
        <arrival publicID="quakeml:uw.anss.org/AssocArO/UW/10664623">
          <pickID>quakeml:uw.anss.org/Arrival/UW/10664623</pickID>
          <phase>S</phase>
          <azimuth>177.9</azimuth>
          <distance>0.6842</distance>
          <timeResidual>0.42</timeResidual>
          <creationInfo>
            <agencyID>UW</agencyID>
            <creationTime>2012-05-14T12:04:10.000000Z</creationTime>
          </creationInfo>
        </arrival>
        <arrival publicID="quakeml:uw.anss.org/AssocArO/UW/10664628">
          <pickID>quakeml:uw.anss.org/Arrival/UW/10664628</pickID>
          <phase>P</phase>
          <azimuth>180.0</azimuth>
          <distance>1.028</distance>
          <timeResidual>0.35</timeResidual>
          <creationInfo>
            <agencyID>UW</agencyID>
            <creationTime>2012-05-14T12:04:10.000000Z</creationTime>
          </creationInfo>
        </arrival>
        <arrival publicID="quakeml:uw.anss.org/AssocArO/UW/10664633">
          <pickID>quakeml:uw.anss.org/Arrival/UW/10664633</pickID>
          <phase>P</phase>
          <azimuth>101.2</azimuth>
          <distance>0.1981</distance>
          <timeResidual>-0.3</timeResidual>
          <creationInfo>
            <agencyID>UW</agencyID>
            <creationTime>2012-05-14T12:04:10.000000Z</creationTime>
          </creationInfo>
        </arrival>
        <arrival publicID="quakeml:uw.anss.org/AssocArO/UW/10664638">
          <pickID>quakeml:uw.anss.org/Arrival/UW/10664638</pickID>
          <phase>S</phase>
          <azimuth>101.2</azimuth>
          <distance>0.1981</distance>
          <timeResidual>0.16</timeResidual>
          <creationInfo>
            <agencyID>UW</agencyID>
            <creationTime>2012-05-14T12:04:10.000000Z</creationTime>
          </creationInfo>
        </arrival>
        <arrival publicID="quakeml:uw.anss.org/AssocArO/UW/10664643">
          <pickID>quakeml:uw.anss.org/Arrival/UW/10664643</pickID>
          <phase>S</phase>
          <azimuth>174.1</azimuth>
          <distance>1.799</distance>
          <timeResidual>-0.16</timeResidual>
          <creationInfo>
            <agencyID>UW</agencyID>
            <creationTime>2012-05-14T12:04:10.000000Z</creationTime>
          </creationInfo>
        </arrival>
        <arrival publicID="quakeml:uw.anss.org/AssocArO/UW/10664648">
          <pickID>quakeml:uw.anss.org/Arrival/UW/10664648</pickID>
          <phase>P</phase>
          <azimuth>174.3</azimuth>
          <distance>0.7969</distance>
          <timeResidual>0.13</timeResidual>
          <creationInfo>
            <agencyID>UW</agencyID>
            <creationTime>2012-05-14T12:04:10.000000Z</creationTime>
          </creationInfo>
        </arrival>
        <arrival publicID="quakeml:uw.anss.org/AssocArO/UW/10664653">
          <pickID>quakeml:uw.anss.org/Arrival/UW/10664653</pickID>
          <phase>S</phase>
          <azimuth>174.3</azimuth>
          <distance>0.7969</distance>
          <timeResidual>-0.09</timeResidual>
          <creationInfo>
            <agencyID>UW</agencyID>
            <creationTime>2012-05-14T12:04:10.000000Z</creationTime>
          </creationInfo>
        </arrival>
        <arrival publicID="quakeml:uw.anss.org/AssocArO/UW/10664658">
          <pickID>quakeml:uw.anss.org/Arrival/UW/10664658</pickID>
          <phase>P</phase>
          <azimuth>167.6</azimuth>
          <distance>1.495</distance>
          <timeResidual>1.52</timeResidual>
          <creationInfo>
            <agencyID>UW</agencyID>
            <creationTime>2012-05-14T12:04:10.000000Z</creationTime>
          </creationInfo>
        </arrival>
        <arrival publicID="quakeml:uw.anss.org/AssocArO/UW/10664663">
          <pickID>quakeml:uw.anss.org/Arrival/UW/10664663</pickID>
          <phase>S</phase>
          <timeResidual>1.71</timeResidual>
          <creationInfo>
            <agencyID>UW</agencyID>
            <creationTime>2012-05-14T12:04:10.000000Z</creationTime>
          </creationInfo>
        </arrival>
        <arrival publicID="quakeml:uw.anss.org/AssocArO/UW/10664668">
          <pickID>quakeml:uw.anss.org/Arrival/UW/10664668</pickID>
          <phase>P</phase>
          <azimuth>251.5</azimuth>
          <distance>0.5111</distance>
          <timeResidual>0.28</timeResidual>
          <creationInfo>
            <agencyID>UW</agencyID>
            <creationTime>2012-05-14T12:04:10.000000Z</creationTime>
          </creationInfo>
        </arrival>
        <arrival publicID="quakeml:uw.anss.org/AssocArO/UW/10664673">
          <pickID>quakeml:uw.anss.org/Arrival/UW/10664673</pickID>
          <phase>S</phase>
          <azimuth>251.5</azimuth>
          <distance>0.5111</distance>
          <timeResidual>1.59</timeResidual>
          <creationInfo>
            <agencyID>UW</agencyID>
            <creationTime>2012-05-14T12:04:10.000000Z</creationTime>
          </creationInfo>
        </arrival>
        <arrival publicID="quakeml:uw.anss.org/AssocArO/UW/10664678">
          <pickID>quakeml:uw.anss.org/Arrival/UW/10664678</pickID>
          <phase>S</phase>
          <azimuth>115.2</azimuth>
          <distance>1.794</distance>
          <timeResidual>1.83</timeResidual>
          <creationInfo>
            <agencyID>UW</agencyID>
            <creationTime>2012-05-14T12:04:10.000000Z</creationTime>
          </creationInfo>
        </arrival>
        <arrival publicID="quakeml:uw.anss.org/AssocArO/UW/10664683">
          <pickID>quakeml:uw.anss.org/Arrival/UW/10664683</pickID>
          <phase>P</phase>
          <azimuth>142.9</azimuth>
          <distance>2.331</distance>
          <timeResidual>2.99</timeResidual>
          <creationInfo>
            <agencyID>UW</agencyID>
            <creationTime>2012-05-14T12:04:10.000000Z</creationTime>
          </creationInfo>
        </arrival>
        <arrival publicID="quakeml:uw.anss.org/AssocArO/UW/10664688">
          <pickID>quakeml:uw.anss.org/Arrival/UW/10664688</pickID>
          <phase>P</phase>
          <azimuth>189.6</azimuth>
          <distance>2.212</distance>
          <timeResidual>0.85</timeResidual>
          <creationInfo>
            <agencyID>UW</agencyID>
            <creationTime>2012-05-14T12:04:10.000000Z</creationTime>
          </creationInfo>
        </arrival>
        <arrival publicID="quakeml:uw.anss.org/AssocArO/UW/10664693">
          <pickID>quakeml:uw.anss.org/Arrival/UW/10664693</pickID>
          <phase>S</phase>
          <azimuth>189.6</azimuth>
          <distance>2.212</distance>
          <timeResidual>-0.25</timeResidual>
          <creationInfo>
            <agencyID>UW</agencyID>
            <creationTime>2012-05-14T12:04:10.000000Z</creationTime>
          </creationInfo>
        </arrival>
        <arrival publicID="quakeml:uw.anss.org/AssocArO/UW/10664698">
          <pickID>quakeml:uw.anss.org/Arrival/UW/10664698</pickID>
          <phase>S</phase>
          <azimuth>129.3</azimuth>
          <distance>2.352</distance>
          <timeResidual>4.42</timeResidual>
          <creationInfo>
            <agencyID>UW</agencyID>
            <creationTime>2012-05-14T12:04:10.000000Z</creationTime>
          </creationInfo>
        </arrival>
        <arrival publicID="quakeml:uw.anss.org/AssocArO/UW/10664703">
          <pickID>quakeml:uw.anss.org/Arrival/UW/10664703</pickID>
          <phase>P</phase>
          <azimuth>195.4</azimuth>
          <timeResidual>-0.27</timeResidual>
          <creationInfo>
            <agencyID>UW</agencyID>
            <creationTime>2012-05-14T12:04:10.000000Z</creationTime>
          </creationInfo>
        </arrival>
        <arrival publicID="quakeml:uw.anss.org/AssocArO/UW/10664708">
          <pickID>quakeml:uw.anss.org/Arrival/UW/10664708</pickID>
          <phase>S</phase>
          <azimuth>195.4</azimuth>
          <timeResidual>-0.05</timeResidual>
          <creationInfo>
            <agencyID>UW</agencyID>
            <creationTime>2012-05-14T12:04:10.000000Z</creationTime>
          </creationInfo>
        </arrival>
        <arrival publicID="quakeml:uw.anss.org/AssocArO/UW/10664713">
          <pickID>quakeml:uw.anss.org/Arrival/UW/10664713</pickID>
          <phase>S</phase>
          <azimuth>151.7</azimuth>
          <distance>1.787</distance>
          <timeResidual>2.43</timeResidual>
          <creationInfo>
            <agencyID>UW</agencyID>
            <creationTime>2012-05-14T12:04:10.000000Z</creationTime>
          </creationInfo>
        </arrival>
        <arrival publicID="quakeml:uw.anss.org/AssocArO/UW/10664718">
          <pickID>quakeml:uw.anss.org/Arrival/UW/10664718</pickID>
          <phase>P</phase>
          <azimuth>176.6</azimuth>
          <timeResidual>0.23</timeResidual>
          <creationInfo>
            <agencyID>UW</agencyID>
            <creationTime>2012-05-14T12:04:10.000000Z</creationTime>
          </creationInfo>
        </arrival>
        <arrival publicID="quakeml:uw.anss.org/AssocArO/UW/10664723">
          <pickID>quakeml:uw.anss.org/Arrival/UW/10664723</pickID>
          <phase>P</phase>
          <azimuth>116.8</azimuth>
          <distance>2.354</distance>
          <timeResidual>4.31</timeResidual>
          <creationInfo>
            <agencyID>UW</agencyID>
            <creationTime>2012-05-14T12:04:10.000000Z</creationTime>
          </creationInfo>
        </arrival>
        <arrival publicID="quakeml:uw.anss.org/AssocArO/UW/10664728">
          <pickID>quakeml:uw.anss.org/Arrival/UW/10664728</pickID>
          <phase>P</phase>
          <azimuth>109.6</azimuth>
          <distance>1.45</distance>
          <timeResidual>1.69</timeResidual>
          <creationInfo>
            <agencyID>UW</agencyID>
            <creationTime>2012-05-14T12:04:10.000000Z</creationTime>
          </creationInfo>
        </arrival>
        <arrival publicID="quakeml:uw.anss.org/AssocArO/UW/10664733">
          <pickID>quakeml:uw.anss.org/Arrival/UW/10664733</pickID>
          <phase>S</phase>
          <azimuth>109.6</azimuth>
          <distance>1.45</distance>
          <timeResidual>0.47</timeResidual>
          <creationInfo>
            <agencyID>UW</agencyID>
            <creationTime>2012-05-14T12:04:10.000000Z</creationTime>
          </creationInfo>
        </arrival>
        <arrival publicID="quakeml:uw.anss.org/AssocArO/UW/10664738">
          <pickID>quakeml:uw.anss.org/Arrival/UW/10664738</pickID>
          <phase>P</phase>
          <azimuth>121.8</azimuth>
          <distance>1.471</distance>
          <timeResidual>1.61</timeResidual>
          <creationInfo>
            <agencyID>UW</agencyID>
            <creationTime>2012-05-14T12:04:10.000000Z</creationTime>
          </creationInfo>
        </arrival>
        <arrival publicID="quakeml:uw.anss.org/AssocArO/UW/10664743">
          <pickID>quakeml:uw.anss.org/Arrival/UW/10664743</pickID>
          <phase>S</phase>
          <azimuth>121.8</azimuth>
          <distance>1.471</distance>
          <timeResidual>0.89</timeResidual>
          <creationInfo>
            <agencyID>UW</agencyID>
            <creationTime>2012-05-14T12:04:10.000000Z</creationTime>
          </creationInfo>
        </arrival>
