<?xml version='1.0' encoding='utf-8'?>
<q:quakeml xmlns="http://quakeml.org/xmlns/bed/1.2" xmlns:q="http://quakeml.org/xmlns/quakeml/1.2" xmlns:ns0="http://anss.org/xmlns/catalog/0.1">
  <eventParameters publicID="smi:local/84963d54-1d14-4455-992d-56b6f7b01e1f">
    <event publicID="quakeml:uw.anss.org/Event/UW/10491213" ns0:datasource="uw" ns0:dataid="uw10491213" ns0:eventsource="uw" ns0:eventid="10491213">
      <preferredOriginID>quakeml:uw.anss.org/Origin/UW/768643</preferredOriginID>
      <preferredMagnitudeID>quakeml:uw.anss.org/Netmag/UW/626053</preferredMagnitudeID>
      <type>earthquake</type>
      <creationInfo>
        <agencyID>UW</agencyID>
        <creationTime>2012-02-28T16:23:11.000000Z</creationTime>
        <version>3</version>
      </creationInfo>
      <origin publicID="quakeml:uw.anss.org/Origin/UW/768643" ns0:datasource="uw" ns0:dataid="uw10491213" ns0:eventsource="uw" ns0:eventid="10491213">
        <time>
          <value>1999-10-31T02:27:00.970000Z</value>
          <uncertainty>0.09</uncertainty>
        </time>
        <latitude>
          <value>48.5263333</value>
          <uncertainty>0.8</uncertainty>
        </latitude>
        <longitude>
          <value>-122.0741667</value>
          <uncertainty>0.43</uncertainty>
        </longitude>
        <depth>
          <value>1349.0</value>
          <uncertainty>1000.0</uncertainty>
        </depth>
        <depthType>from location</depthType>
        <timeFixed>false</timeFixed>
        <epicenterFixed>false</epicenterFixed>
        <methodID>smi:uw.anss.org/origin/spong</methodID>
        <quality>
          <associatedPhaseCount>35</associatedPhaseCount>
          <usedPhaseCount>16</usedPhaseCount>
          <associatedStationCount>27</associatedStationCount>
          <usedStationCount>0</usedStationCount>
          <standardError>0.19</standardError>
          <azimuthalGap>167.0</azimuthalGap>
        </quality>
        <type>hypocenter</type>
        <evaluationMode>manual</evaluationMode>
        <evaluationStatus>final</evaluationStatus>
        <creationInfo>
          <agencyID>UW</agencyID>
          <creationTime>2012-02-28T16:23:11.000000Z</creationTime>
        </creationInfo>
        <originUncertainty>
          <preferredDescription>horizontal uncertainty</preferredDescription>
          <horizontalUncertainty>908.0</horizontalUncertainty>
        </originUncertainty>
        <arrival publicID="quakeml:uw.anss.org/AssocArO/UW/7075953">
          <pickID>quakeml:uw.anss.org/Arrival/UW/7075953</pickID>
          <phase>S</phase>
          <azimuth>217.1</azimuth>
          <distance>1.098</distance>
          <timeResidual>-0.42</timeResidual>
          <creationInfo>
            <agencyID>UW</agencyID>
            <creationTime>2012-02-28T16:23:11.000000Z</creationTime>
          </creationInfo>
        </arrival>
        <arrival publicID="quakeml:uw.anss.org/AssocArO/UW/7075958">
          <pickID>quakeml:uw.anss.org/Arrival/UW/7075958</pickID>
          <phase>P</phase>
          <azimuth>154.4</azimuth>
          <distance>1.983</distance>
          <timeResidual>0.59</timeResidual>
          <creationInfo>
            <agencyID>UW</agencyID>
            <creationTime>2012-02-28T16:23:11.000000Z</creationTime>
          </creationInfo>
        </arrival>
        <arrival publicID="quakeml:uw.anss.org/AssocArO/UW/7075963">
          <pickID>quakeml:uw.anss.org/Arrival/UW/7075963</pickID>
          <phase>P</phase>
          <azimuth>110.9</azimuth>
          <distance>1.244</distance>
          <timeResidual>0.4</timeResidual>
          <creationInfo>
            <agencyID>UW</agencyID>
            <creationTime>2012-02-28T16:23:11.000000Z</creationTime>
          </creationInfo>
        </arrival>
        <arrival publicID="quakeml:uw.anss.org/AssocArO/UW/7075968">
          <pickID>quakeml:uw.anss.org/Arrival/UW/7075968</pickID>
          <phase>S</phase>
          <azimuth>110.9</azimuth>
          <distance>1.244</distance>
          <timeResidual>-0.24</timeResidual>
          <creationInfo>
            <agencyID>UW</agencyID>
            <creationTime>2012-02-28T16:23:11.000000Z</creationTime>
          </creationInfo>
        </arrival>
        <arrival publicID="quakeml:uw.anss.org/AssocArO/UW/7075973">
          <pickID>quakeml:uw.anss.org/Arrival/UW/7075973</pickID>
          <phase>S</phase>
          <azimuth>127.8</azimuth>
          <distance>1.489</distance>
          <timeResidual>0.02</timeResidual>
          <creationInfo>
            <agencyID>UW</agencyID>
            <creationTime>2012-02-28T16:23:11.000000Z</creationTime>
          </creationInfo>
        </arrival>
        <arrival publicID="quakeml:uw.anss.org/AssocArO/UW/7075978">
          <pickID>quakeml:uw.anss.org/Arrival/UW/7075978</pickID>
          <phase>P</phase>
          <azimuth>174.7</azimuth>
          <timeResidual>0.47</timeResidual>
          <creationInfo>
            <agencyID>UW</agencyID>
            <creationTime>2012-02-28T16:23:11.000000Z</creationTime>
          </creationInfo>
        </arrival>
        <arrival publicID="quakeml:uw.anss.org/AssocArO/UW/7075983">
          <pickID>quakeml:uw.anss.org/Arrival/UW/7075983</pickID>
          <phase>P</phase>
          <azimuth>196.6</azimuth>
          <distance>0.1074</distance>
          <timeResidual>-0.04</timeResidual>
          <creationInfo>
            <agencyID>UW</agencyID>
            <creationTime>2012-02-28T16:23:11.000000Z</creationTime>
          </creationInfo>
        </arrival>
        <arrival publicID="quakeml:uw.anss.org/AssocArO/UW/7075988">
          <pickID>quakeml:uw.anss.org/Arrival/UW/7075988</pickID>
          <phase>P</phase>
          <azimuth>177.5</azimuth>
          <distance>1.585</distance>
          <timeResidual>0.09</timeResidual>
          <creationInfo>
            <agencyID>UW</agencyID>
            <creationTime>2012-02-28T16:23:11.000000Z</creationTime>
          </creationInfo>
        </arrival>
        <arrival publicID="quakeml:uw.anss.org/AssocArO/UW/7075993">
          <pickID>quakeml:uw.anss.org/Arrival/UW/7075993</pickID>
          <phase>P</phase>
          <azimuth>174.2</azimuth>
          <distance>1.786</distance>
          <timeResidual>-0.05</timeResidual>
          <creationInfo>
            <agencyID>UW</agencyID>
            <creationTime>2012-02-28T16:23:11.000000Z</creationTime>
          </creationInfo>
        </arrival>
        <arrival publicID="quakeml:uw.anss.org/AssocArO/UW/7075998">
          <pickID>quakeml:uw.anss.org/Arrival/UW/7075998</pickID>
          <phase>S</phase>
          <azimuth>174.2</azimuth>
          <distance>1.786</distance>
          <timeResidual>-1.39</timeResidual>
          <creationInfo>
            <agencyID>UW</agencyID>
            <creationTime>2012-02-28T16:23:11.000000Z</creationTime>
          </creationInfo>
        </arrival>
        <arrival publicID="quakeml:uw.anss.org/AssocArO/UW/7076003">
          <pickID>quakeml:uw.anss.org/Arrival/UW/7076003</pickID>
          <phase>P</phase>
          <azimuth>170.4</azimuth>
          <distance>1.083</distance>
          <timeResidual>0.17</timeResidual>
          <creationInfo>
            <agencyID>UW</agencyID>
            <creationTime>2012-02-28T16:23:11.000000Z</creationTime>
          </creationInfo>
        </arrival>
        <arrival publicID="quakeml:uw.anss.org/AssocArO/UW/7076008">
          <pickID>quakeml:uw.anss.org/Arrival/UW/7076008</pickID>
          <phase>P</phase>
          <azimuth>101.7</azimuth>
          <distance>0.3802</distance>
          <timeResidual>-0.01</timeResidual>
          <creationInfo>
            <agencyID>UW</agencyID>
            <creationTime>2012-02-28T16:23:11.000000Z</creationTime>
          </creationInfo>
        </arrival>
        <arrival publicID="quakeml:uw.anss.org/AssocArO/UW/7076013">
          <pickID>quakeml:uw.anss.org/Arrival/UW/7076013</pickID>
          <phase>S</phase>
          <azimuth>101.7</azimuth>
          <distance>0.3802</distance>
          <timeResidual>-0.18</timeResidual>
          <creationInfo>
            <agencyID>UW</agencyID>
            <creationTime>2012-02-28T16:23:11.000000Z</creationTime>
          </creationInfo>
        </arrival>
        <arrival publicID="quakeml:uw.anss.org/AssocArO/UW/7076018">
          <pickID>quakeml:uw.anss.org/Arrival/UW/7076018</pickID>
          <phase>S</phase>
          <azimuth>168.6</azimuth>
          <distance>1.864</distance>
          <timeResidual>-1.4</timeResidual>
          <creationInfo>
            <agencyID>UW</agencyID>
            <creationTime>2012-02-28T16:23:11.000000Z</creationTime>
          </creationInfo>
        </arrival>
        <arrival publicID="quakeml:uw.anss.org/AssocArO/UW/7076023">
          <pickID>quakeml:uw.anss.org/Arrival/UW/7076023</pickID>
          <phase>P</phase>
          <azimuth>162.7</azimuth>
          <distance>0.8713</distance>
          <timeResidual>0.18</timeResidual>
          <creationInfo>
            <agencyID>UW</agencyID>
            <creationTime>2012-02-28T16:23:11.000000Z</creationTime>
          </creationInfo>
        </arrival>
        <arrival publicID="quakeml:uw.anss.org/AssocArO/UW/7076028">
          <pickID>quakeml:uw.anss.org/Arrival/UW/7076028</pickID>
          <phase>S</phase>
          <azimuth>162.7</azimuth>
          <distance>0.8713</distance>
          <timeResidual>-0.52</timeResidual>
          <creationInfo>
            <agencyID>UW</agencyID>
            <creationTime>2012-02-28T16:23:11.000000Z</creationTime>
          </creationInfo>
        </arrival>
        <arrival publicID="quakeml:uw.anss.org/AssocArO/UW/7076033">
          <pickID>quakeml:uw.anss.org/Arrival/UW/7076033</pickID>
          <phase>P</phase>
          <azimuth>161.5</azimuth>
          <distance>1.58</distance>
          <timeResidual>0.66</timeResidual>
          <creationInfo>
            <agencyID>UW</agencyID>
            <creationTime>2012-02-28T16:23:11.000000Z</creationTime>
          </creationInfo>
        </arrival>
        <arrival publicID="quakeml:uw.anss.org/AssocArO/UW/7076038">
          <pickID>quakeml:uw.anss.org/Arrival/UW/7076038</pickID>
          <phase>S</phase>
          <azimuth>161.5</azimuth>
          <distance>1.58</distance>
          <timeResidual>0.08</timeResidual>
          <creationInfo>
            <agencyID>UW</agencyID>
            <creationTime>2012-02-28T16:23:11.000000Z</creationTime>
          </creationInfo>
        </arrival>
        <arrival publicID="quakeml:uw.anss.org/AssocArO/UW/7076043">
          <pickID>quakeml:uw.anss.org/Arrival/UW/7076043</pickID>
          <phase>P</phase>
          <azimuth>23.9</azimuth>
          <distance>0.2821</distance>
          <timeResidual>0.01</timeResidual>
          <creationInfo>
            <agencyID>UW</agencyID>
            <creationTime>2012-02-28T16:23:11.000000Z</creationTime>
          </creationInfo>
        </arrival>
        <arrival publicID="quakeml:uw.anss.org/AssocArO/UW/7076048">
          <pickID>quakeml:uw.anss.org/Arrival/UW/7076048</pickID>
          <phase>S</phase>
          <azimuth>184.8</azimuth>
          <distance>2.229</distance>
          <timeResidual>-1.21</timeResidual>
          <creationInfo>
            <agencyID>UW</agencyID>
            <creationTime>2012-02-28T16:23:11.000000Z</creationTime>
          </creationInfo>
        </arrival>
        <arrival publicID="quakeml:uw.anss.org/AssocArO/UW/7076053">
          <pickID>quakeml:uw.anss.org/Arrival/UW/7076053</pickID>
          <phase>P</phase>
          <azimuth>163.5</azimuth>
          <timeResidual>-0.07</timeResidual>
          <creationInfo>
            <agencyID>UW</agencyID>
            <creationTime>2012-02-28T16:23:11.000000Z</creationTime>
          </creationInfo>
        </arrival>
        <arrival publicID="quakeml:uw.anss.org/AssocArO/UW/7076058">
          <pickID>quakeml:uw.anss.org/Arrival/UW/7076058</pickID>
          <phase>S</phase>
          <azimuth>163.5</azimuth>
          <timeResidual>0.4</timeResidual>
          <creationInfo>
            <agencyID>UW</agencyID>
            <creationTime>2012-02-28T16:23:11.000000Z</creationTime>
          </creationInfo>
        </arrival>
        <arrival publicID="quakeml:uw.anss.org/AssocArO/UW/7076063">
          <pickID>quakeml:uw.anss.org/Arrival/UW/7076063</pickID>
          <phase>P</phase>
          <azimuth>147.4</azimuth>
          <distance>1.911</distance>
          <timeResidual>0.44</timeResidual>
          <creationInfo>
            <agencyID>UW</agencyID>
            <creationTime>2012-02-28T16:23:11.000000Z</creationTime>
          </creationInfo>
        </arrival>
        <arrival publicID="quakeml:uw.anss.org/AssocArO/UW/7076068">
          <pickID>quakeml:uw.anss.org/Arrival/UW/7076068</pickID>
          <phase>P</phase>
          <azimuth>170.1</azimuth>
          <timeResidual>-0.14</timeResidual>
          <creationInfo>
            <agencyID>UW</agencyID>
            <creationTime>2012-02-28T16:23:11.000000Z</creationTime>
          </creationInfo>
        </arrival>
        <arrival publicID="quakeml:uw.anss.org/AssocArO/UW/7076073">
          <pickID>quakeml:uw.anss.org/Arrival/UW/7076073</pickID>
          <phase>S</phase>
          <azimuth>170.1</azimuth>
          <timeResidual>-0.98</timeResidual>
          <creationInfo>
            <agencyID>UW</agencyID>
            <creationTime>2012-02-28T16:23:11.000000Z</creationTime>
          </creationInfo>
        </arrival>
        <arrival publicID="quakeml:uw.anss.org/AssocArO/UW/7076078">
          <pickID>quakeml:uw.anss.org/Arrival/UW/7076078</pickID>
          <phase>S</phase>
          <azimuth>108.6</azimuth>
          <distance>1.631</distance>
          <timeResidual>0.26</timeResidual>
          <creationInfo>
            <agencyID>UW</agencyID>
            <creationTime>2012-02-28T16:23:11.000000Z</creationTime>
          </creationInfo>
        </arrival>
        <arrival publicID="quakeml:uw.anss.org/AssocArO/UW/7076083">
          <pickID>quakeml:uw.anss.org/Arrival/UW/7076083</pickID>
          <phase>P</phase>
          <azimuth>129.7</azimuth>
          <distance>1.041</distance>
          <timeResidual>-0.14</timeResidual>
          <creationInfo>
            <agencyID>UW</agencyID>
            <creationTime>2012-02-28T16:23:11.000000Z</creationTime>
          </creationInfo>
        </arrival>
        <arrival publicID="quakeml:uw.anss.org/AssocArO/UW/7076088">
          <pickID>quakeml:uw.anss.org/Arrival/UW/7076088</pickID>
          <phase>S</phase>
          <azimuth>119.5</azimuth>
          <distance>1.644</distance>
          <timeResidual>0.26</timeResidual>
          <creationInfo>
            <agencyID>UW</agencyID>
            <creationTime>2012-02-28T16:23:11.000000Z</creationTime>
          </creationInfo>
        </arrival>
        <arrival publicID="quakeml:uw.anss.org/AssocArO/UW/7076093">
          <pickID>quakeml:uw.anss.org/Arrival/UW/7076093</pickID>
          <phase>S</phase>
          <azimuth>179.5</azimuth>
          <distance>2.411</distance>
          <timeResidual>-0.08</timeResidual>
          <creationInfo>
            <agencyID>UW</agencyID>
            <creationTime>2012-02-28T16:23:11.000000Z</creationTime>
          </creationInfo>
        </arrival>
        <arrival publicID="quakeml:uw.anss.org/AssocArO/UW/7076098">
          <pickID>quakeml:uw.anss.org/Arrival/UW/7076098</pickID>
          <phase>S</phase>
          <azimuth>184.7</azimuth>
          <distance>2.339</distance>
          <timeResidual>-0.37</timeResidual>
          <creationInfo>
            <agencyID>UW</agencyID>
            <creationTime>2012-02-28T16:23:11.000000Z</creationTime>
          </creationInfo>
        </arrival>
        <arrival publicID="quakeml:uw.anss.org/AssocArO/UW/7076103">
          <pickID>quakeml:uw.anss.org/Arrival/UW/7076103</pickID>
          <phase>P</phase>
          <azimuth>164.1</azimuth>
          <distance>0.7514</distance>
          <timeResidual>0.03</timeResidual>
          <creationInfo>
            <agencyID>UW</agencyID>
            <creationTime>2012-02-28T16:23:11.000000Z</creationTime>
          </creationInfo>
        </arrival>
        <arrival publicID="quakeml:uw.anss.org/AssocArO/UW/7076108">
          <pickID>quakeml:uw.anss.org/Arrival/UW/7076108</pickID>
          <phase>S</phase>
          <azimuth>164.1</azimuth>
          <distance>0.7514</distance>
          <timeResidual>0.4</timeResidual>
          <creationInfo>
            <agencyID>UW</agencyID>
            <creationTime>2012-02-28T16:23:11.000000Z</creationTime>
          </creationInfo>
        </arrival>
        <arrival publicID="quakeml:uw.anss.org/AssocArO/UW/7076113">
          <pickID>quakeml:uw.anss.org/Arrival/UW/7076113</pickID>
          <phase>S</phase>
          <azimuth>117.3</azimuth>
          <distance>1.54</distance>
          <timeResidual>-0.32</timeResidual>
          <creationInfo>
            <agencyID>UW</agencyID>
            <creationTime>2012-02-28T16:23:11.000000Z</creationTime>
          </creationInfo>
        </arrival>
        <arrival publicID="quakeml:uw.anss.org/AssocArO/UW/7076118">
          <pickID>quakeml:uw.anss.org/Arrival/UW/7076118</pickID>
          <phase>P</phase>
          <azimuth>143.3</azimuth>
          <distance>1.682</distance>
          <timeResidual>0.03</timeResidual>
          <creationInfo>
            <agencyID>UW</agencyID>
            <creationTime>2012-02-28T16:23:11.000000Z</creationTime>
          </creationInfo>
        </arrival>
        <arrival publicID="quakeml:uw.anss.org/AssocArO/UW/7076123">
          <pickID>quakeml:uw.anss.org/Arrival/UW/7076123</pickID>
          <phase>P</phase>
          <azimuth>177.7</azimuth>
          <distance>0.6913</distance>
          <timeResidual>0.27</timeResidual>
          <creationInfo>
            <agencyID>UW</agencyID>
            <creationTime>2012-02-28T16:23:11.000000Z</creationTime>
          </creationInfo>
        </arrival>
      </origin>
      <magnitude publicID="quakeml:uw.anss.org/Netmag/UW/626053">
        <mag>
          <value>1.5</value>
          <uncertainty>0.05</uncertainty>
        </mag>
        <type>Md</type>
        <originID>quakeml:uw.anss.org/Origin/UW/768643</originID>
        <methodID>smi:uw.anss.org/magnitude/Crosson</methodID>
        <stationCount>7</stationCount>
        <evaluationMode>manual</evaluationMode>
        <evaluationStatus>final</evaluationStatus>
        <stationMagnitudeContribution>
          <stationMagnitudeID>quakeml:uw.anss.org/AssocCoM/UW/1689063</stationMagnitudeID>
          <weight>1.0</weight>
          <residual>0.36</residual>
        </stationMagnitudeContribution>
        <stationMagnitudeContribution>
          <stationMagnitudeID>quakeml:uw.anss.org/AssocCoM/UW/1689073</stationMagnitudeID>
          <weight>1.0</weight>
          <residual>-0.07</residual>
        </stationMagnitudeContribution>
        <stationMagnitudeContribution>
          <stationMagnitudeID>quakeml:uw.anss.org/AssocCoM/UW/1689043</stationMagnitudeID>
          <weight>1.0</weight>
          <residual>-0.73</residual>
        </stationMagnitudeContribution>
        <stationMagnitudeContribution>
          <stationMagnitudeID>quakeml:uw.anss.org/AssocCoM/UW/1689053</stationMagnitudeID>
          <weight>1.0</weight>
          <residual>0.08</residual>
        </stationMagnitudeContribution>
        <stationMagnitudeContribution>
          <stationMagnitudeID>quakeml:uw.anss.org/AssocCoM/UW/1689048</stationMagnitudeID>
          <weight>1.0</weight>
          <residual>-0.17</residual>
        </stationMagnitudeContribution>
        <stationMagnitudeContribution>
          <stationMagnitudeID>quakeml:uw.anss.org/AssocCoM/UW/1689068</stationMagnitudeID>
          <weight>1.0</weight>
          <residual>0.03</residual>
        </stationMagnitudeContribution>
