<?xml version='1.0' encoding='utf-8'?>
<q:quakeml xmlns="http://quakeml.org/xmlns/bed/1.2" xmlns:q="http://quakeml.org/xmlns/quakeml/1.2" xmlns:ns0="http://anss.org/xmlns/catalog/0.1">
  <eventParameters publicID="smi:local/8ba7ef67-444f-4e8f-8c1b-0877335bae72">
    <event publicID="quakeml:uw.anss.org/Event/UW/10091478" ns0:datasource="uw" ns0:dataid="uw10091478" ns0:eventsource="uw" ns0:eventid="10091478">
      <preferredOriginID>quakeml:uw.anss.org/Origin/UW/368283</preferredOriginID>
      <preferredMagnitudeID>quakeml:uw.anss.org/Netmag/UW/336978</preferredMagnitudeID>
      <type>earthquake</type>
      <creationInfo>
        <agencyID>UW</agencyID>
        <creationTime>2012-02-27T10:26:08.000000Z</creationTime>
        <version>3</version>
      </creationInfo>
      <origin publicID="quakeml:uw.anss.org/Origin/UW/368283" ns0:datasource="uw" ns0:dataid="uw10091478" ns0:eventsource="uw" ns0:eventid="10091478">
        <time>
          <value>1980-10-16T20:57:20.290000Z</value>
          <uncertainty>0.04</uncertainty>
        </time>
        <latitude>
          <value>48.9223333</value>
          <uncertainty>0.35</uncertainty>
        </latitude>
        <longitude>
          <value>-121.8855</value>
          <uncertainty>0.16</uncertainty>
        </longitude>
        <depth>
          <value>-670.0</value>
          <uncertainty>260.0</uncertainty>
        </depth>
        <depthType>operator assigned</depthType>
        <timeFixed>false</timeFixed>
        <epicenterFixed>false</epicenterFixed>
        <methodID>smi:uw.anss.org/origin/spong</methodID>
        <quality>
          <associatedPhaseCount>40</associatedPhaseCount>
          <usedPhaseCount>14</usedPhaseCount>
          <associatedStationCount>36</associatedStationCount>
          <usedStationCount>0</usedStationCount>
          <standardError>0.53</standardError>
          <azimuthalGap>228.0</azimuthalGap>
        </quality>
        <type>hypocenter</type>
        <evaluationMode>manual</evaluationMode>
        <evaluationStatus>final</evaluationStatus>
        <creationInfo>
          <agencyID>UW</agencyID>
          <creationTime>2012-02-27T10:26:08.000000Z</creationTime>
        </creationInfo>
        <originUncertainty>
          <preferredDescription>horizontal uncertainty</preferredDescription>
          <horizontalUncertainty>385.0</horizontalUncertainty>
        </originUncertainty>
        <arrival publicID="quakeml:uw.anss.org/AssocArO/UW/1654803">
          <pickID>quakeml:uw.anss.org/Arrival/UW/1654803</pickID>
          <phase>P</phase>
          <azimuth>211.9</azimuth>
          <distance>1.495</distance>
          <timeResidual>0.15</timeResidual>
          <creationInfo>
            <agencyID>UW</agencyID>
            <creationTime>2012-02-27T10:26:08.000000Z</creationTime>
          </creationInfo>
        </arrival>
        <arrival publicID="quakeml:uw.anss.org/AssocArO/UW/1654808">
          <pickID>quakeml:uw.anss.org/Arrival/UW/1654808</pickID>
          <phase>P</phase>
          <azimuth>308.0</azimuth>
          <timeResidual>0.21</timeResidual>
          <creationInfo>
            <agencyID>UW</agencyID>
            <creationTime>2012-02-27T10:26:08.000000Z</creationTime>
          </creationInfo>
        </arrival>
        <arrival publicID="quakeml:uw.anss.org/AssocArO/UW/1654813">
          <pickID>quakeml:uw.anss.org/Arrival/UW/1654813</pickID>
          <phase>S</phase>
          <azimuth>308.0</azimuth>
          <timeResidual>-0.33</timeResidual>
          <creationInfo>
            <agencyID>UW</agencyID>
            <creationTime>2012-02-27T10:26:08.000000Z</creationTime>
          </creationInfo>
        </arrival>
        <arrival publicID="quakeml:uw.anss.org/AssocArO/UW/1654818">
          <pickID>quakeml:uw.anss.org/Arrival/UW/1654818</pickID>
          <phase>P</phase>
          <azimuth>139.5</azimuth>
          <distance>1.655</distance>
          <timeResidual>0.84</timeResidual>
          <creationInfo>
            <agencyID>UW</agencyID>
            <creationTime>2012-02-27T10:26:08.000000Z</creationTime>
          </creationInfo>
        </arrival>
        <arrival publicID="quakeml:uw.anss.org/AssocArO/UW/1654823">
          <pickID>quakeml:uw.anss.org/Arrival/UW/1654823</pickID>
          <phase>P</phase>
          <azimuth>211.8</azimuth>
          <distance>1.878</distance>
          <timeResidual>1.43</timeResidual>
          <creationInfo>
            <agencyID>UW</agencyID>
            <creationTime>2012-02-27T10:26:08.000000Z</creationTime>
          </creationInfo>
        </arrival>
        <arrival publicID="quakeml:uw.anss.org/AssocArO/UW/1654828">
          <pickID>quakeml:uw.anss.org/Arrival/UW/1654828</pickID>
          <phase>P</phase>
          <azimuth>281.4</azimuth>
          <timeResidual>0.83</timeResidual>
          <creationInfo>
            <agencyID>UW</agencyID>
            <creationTime>2012-02-27T10:26:08.000000Z</creationTime>
          </creationInfo>
        </arrival>
        <arrival publicID="quakeml:uw.anss.org/AssocArO/UW/1654833">
          <pickID>quakeml:uw.anss.org/Arrival/UW/1654833</pickID>
          <phase>P</phase>
          <azimuth>164.7</azimuth>
          <distance>1.746</distance>
          <timeResidual>0.67</timeResidual>
          <creationInfo>
            <agencyID>UW</agencyID>
            <creationTime>2012-02-27T10:26:08.000000Z</creationTime>
          </creationInfo>
        </arrival>
        <arrival publicID="quakeml:uw.anss.org/AssocArO/UW/1654838">
          <pickID>quakeml:uw.anss.org/Arrival/UW/1654838</pickID>
          <phase>P</phase>
          <azimuth>140.5</azimuth>
          <distance>2.689</distance>
          <timeResidual>4.78</timeResidual>
          <creationInfo>
            <agencyID>UW</agencyID>
            <creationTime>2012-02-27T10:26:08.000000Z</creationTime>
          </creationInfo>
        </arrival>
        <arrival publicID="quakeml:uw.anss.org/AssocArO/UW/1654843">
          <pickID>quakeml:uw.anss.org/Arrival/UW/1654843</pickID>
          <phase>P</phase>
          <azimuth>134.9</azimuth>
          <distance>2.192</distance>
          <timeResidual>3.25</timeResidual>
          <creationInfo>
            <agencyID>UW</agencyID>
            <creationTime>2012-02-27T10:26:08.000000Z</creationTime>
          </creationInfo>
        </arrival>
        <arrival publicID="quakeml:uw.anss.org/AssocArO/UW/1654848">
          <pickID>quakeml:uw.anss.org/Arrival/UW/1654848</pickID>
          <phase>P</phase>
          <azimuth>178.0</azimuth>
          <timeResidual>0.64</timeResidual>
          <creationInfo>
            <agencyID>UW</agencyID>
            <creationTime>2012-02-27T10:26:08.000000Z</creationTime>
          </creationInfo>
        </arrival>
        <arrival publicID="quakeml:uw.anss.org/AssocArO/UW/1654853">
          <pickID>quakeml:uw.anss.org/Arrival/UW/1654853</pickID>
          <phase>P</phase>
          <azimuth>203.8</azimuth>
          <distance>2.124</distance>
          <timeResidual>-0.15</timeResidual>
          <creationInfo>
            <agencyID>UW</agencyID>
            <creationTime>2012-02-27T10:26:08.000000Z</creationTime>
          </creationInfo>
        </arrival>
        <arrival publicID="quakeml:uw.anss.org/AssocArO/UW/1654858">
          <pickID>quakeml:uw.anss.org/Arrival/UW/1654858</pickID>
          <phase>P</phase>
          <azimuth>200.4</azimuth>
          <distance>0.4134</distance>
          <timeResidual>-0.18</timeResidual>
          <creationInfo>
            <agencyID>UW</agencyID>
            <creationTime>2012-02-27T10:26:08.000000Z</creationTime>
          </creationInfo>
        </arrival>
        <arrival publicID="quakeml:uw.anss.org/AssocArO/UW/1654863">
          <pickID>quakeml:uw.anss.org/Arrival/UW/1654863</pickID>
          <phase>S</phase>
          <azimuth>200.4</azimuth>
          <distance>0.4134</distance>
          <timeResidual>0.16</timeResidual>
          <creationInfo>
            <agencyID>UW</agencyID>
            <creationTime>2012-02-27T10:26:08.000000Z</creationTime>
          </creationInfo>
        </arrival>
        <arrival publicID="quakeml:uw.anss.org/AssocArO/UW/1654868">
          <pickID>quakeml:uw.anss.org/Arrival/UW/1654868</pickID>
          <phase>P</phase>
          <timeResidual>0.78</timeResidual>
          <creationInfo>
            <agencyID>UW</agencyID>
            <creationTime>2012-02-27T10:26:08.000000Z</creationTime>
          </creationInfo>
        </arrival>
        <arrival publicID="quakeml:uw.anss.org/AssocArO/UW/1654873">
          <pickID>quakeml:uw.anss.org/Arrival/UW/1654873</pickID>
          <phase>P</phase>
          <azimuth>264.2</azimuth>
          <distance>0.9523</distance>
          <timeResidual>0.61</timeResidual>
          <creationInfo>
            <agencyID>UW</agencyID>
            <creationTime>2012-02-27T10:26:08.000000Z</creationTime>
          </creationInfo>
        </arrival>
        <arrival publicID="quakeml:uw.anss.org/AssocArO/UW/1654878">
          <pickID>quakeml:uw.anss.org/Arrival/UW/1654878</pickID>
          <phase>P</phase>
          <azimuth>173.9</azimuth>
          <distance>2.237</distance>
          <timeResidual>0.31</timeResidual>
          <creationInfo>
            <agencyID>UW</agencyID>
            <creationTime>2012-02-27T10:26:08.000000Z</creationTime>
          </creationInfo>
        </arrival>
        <arrival publicID="quakeml:uw.anss.org/AssocArO/UW/1654883">
          <pickID>quakeml:uw.anss.org/Arrival/UW/1654883</pickID>
          <phase>P</phase>
          <azimuth>190.1</azimuth>
          <distance>1.391</distance>
          <timeResidual>1.0</timeResidual>
          <creationInfo>
            <agencyID>UW</agencyID>
            <creationTime>2012-02-27T10:26:08.000000Z</creationTime>
          </creationInfo>
        </arrival>
        <arrival publicID="quakeml:uw.anss.org/AssocArO/UW/1654888">
          <pickID>quakeml:uw.anss.org/Arrival/UW/1654888</pickID>
          <phase>P</phase>
          <azimuth>123.6</azimuth>
          <distance>1.706</distance>
          <timeResidual>2.42</timeResidual>
          <creationInfo>
            <agencyID>UW</agencyID>
            <creationTime>2012-02-27T10:26:08.000000Z</creationTime>
          </creationInfo>
        </arrival>
        <arrival publicID="quakeml:uw.anss.org/AssocArO/UW/1654893">
          <pickID>quakeml:uw.anss.org/Arrival/UW/1654893</pickID>
          <phase>P</phase>
          <azimuth>175.8</azimuth>
          <timeResidual>0.29</timeResidual>
          <creationInfo>
            <agencyID>UW</agencyID>
            <creationTime>2012-02-27T10:26:08.000000Z</creationTime>
          </creationInfo>
        </arrival>
        <arrival publicID="quakeml:uw.anss.org/AssocArO/UW/1654898">
          <pickID>quakeml:uw.anss.org/Arrival/UW/1654898</pickID>
          <phase>P</phase>
          <azimuth>184.2</azimuth>
          <distance>0.139</distance>
          <timeResidual>-0.37</timeResidual>
          <creationInfo>
            <agencyID>UW</agencyID>
            <creationTime>2012-02-27T10:26:08.000000Z</creationTime>
          </creationInfo>
        </arrival>
        <arrival publicID="quakeml:uw.anss.org/AssocArO/UW/1654903">
          <pickID>quakeml:uw.anss.org/Arrival/UW/1654903</pickID>
          <phase>P</phase>
          <azimuth>125.5</azimuth>
          <distance>2.059</distance>
          <timeResidual>3.19</timeResidual>
          <creationInfo>
            <agencyID>UW</agencyID>
            <creationTime>2012-02-27T10:26:08.000000Z</creationTime>
          </creationInfo>
        </arrival>
        <arrival publicID="quakeml:uw.anss.org/AssocArO/UW/1654908">
          <pickID>quakeml:uw.anss.org/Arrival/UW/1654908</pickID>
          <phase>P</phase>
          <azimuth>182.2</azimuth>
          <timeResidual>0.2</timeResidual>
          <creationInfo>
            <agencyID>UW</agencyID>
            <creationTime>2012-02-27T10:26:08.000000Z</creationTime>
          </creationInfo>
        </arrival>
        <arrival publicID="quakeml:uw.anss.org/AssocArO/UW/1654913">
          <pickID>quakeml:uw.anss.org/Arrival/UW/1654913</pickID>
          <phase>S</phase>
          <azimuth>182.2</azimuth>
          <timeResidual>-0.54</timeResidual>
          <creationInfo>
            <agencyID>UW</agencyID>
            <creationTime>2012-02-27T10:26:08.000000Z</creationTime>
          </creationInfo>
        </arrival>
        <arrival publicID="quakeml:uw.anss.org/AssocArO/UW/1654918">
          <pickID>quakeml:uw.anss.org/Arrival/UW/1654918</pickID>
          <phase>P</phase>
          <azimuth>220.4</azimuth>
          <distance>2.077</distance>
          <timeResidual>0.73</timeResidual>
          <creationInfo>
            <agencyID>UW</agencyID>
            <creationTime>2012-02-27T10:26:08.000000Z</creationTime>
          </creationInfo>
        </arrival>
        <arrival publicID="quakeml:uw.anss.org/AssocArO/UW/1654923">
          <pickID>quakeml:uw.anss.org/Arrival/UW/1654923</pickID>
          <phase>P</phase>
          <azimuth>240.3</azimuth>
          <distance>1.913</distance>
          <timeResidual>1.66</timeResidual>
          <creationInfo>
            <agencyID>UW</agencyID>
            <creationTime>2012-02-27T10:26:08.000000Z</creationTime>
          </creationInfo>
        </arrival>
        <arrival publicID="quakeml:uw.anss.org/AssocArO/UW/1654928">
          <pickID>quakeml:uw.anss.org/Arrival/UW/1654928</pickID>
          <phase>P</phase>
          <azimuth>140.4</azimuth>
          <distance>1.794</distance>
          <timeResidual>1.0</timeResidual>
          <creationInfo>
            <agencyID>UW</agencyID>
            <creationTime>2012-02-27T10:26:08.000000Z</creationTime>
          </creationInfo>
        </arrival>
        <arrival publicID="quakeml:uw.anss.org/AssocArO/UW/1654933">
          <pickID>quakeml:uw.anss.org/Arrival/UW/1654933</pickID>
          <phase>P</phase>
          <azimuth>130.1</azimuth>
          <distance>1.466</distance>
          <timeResidual>1.22</timeResidual>
          <creationInfo>
            <agencyID>UW</agencyID>
            <creationTime>2012-02-27T10:26:08.000000Z</creationTime>
          </creationInfo>
        </arrival>
        <arrival publicID="quakeml:uw.anss.org/AssocArO/UW/1654938">
          <pickID>quakeml:uw.anss.org/Arrival/UW/1654938</pickID>
          <phase>P</phase>
          <azimuth>218.6</azimuth>
          <distance>1.168</distance>
          <timeResidual>0.85</timeResidual>
          <creationInfo>
            <agencyID>UW</agencyID>
            <creationTime>2012-02-27T10:26:09.000000Z</creationTime>
          </creationInfo>
        </arrival>
        <arrival publicID="quakeml:uw.anss.org/AssocArO/UW/1654943">
          <pickID>quakeml:uw.anss.org/Arrival/UW/1654943</pickID>
          <phase>P</phase>
          <azimuth>203.9</azimuth>
          <distance>1.502</distance>
          <timeResidual>0.14</timeResidual>
          <creationInfo>
            <agencyID>UW</agencyID>
            <creationTime>2012-02-27T10:26:09.000000Z</creationTime>
          </creationInfo>
        </arrival>
        <arrival publicID="quakeml:uw.anss.org/AssocArO/UW/1654948">
          <pickID>quakeml:uw.anss.org/Arrival/UW/1654948</pickID>
          <phase>P</phase>
          <azimuth>177.9</azimuth>
          <distance>1.465</distance>
          <timeResidual>0.54</timeResidual>
          <creationInfo>
            <agencyID>UW</agencyID>
            <creationTime>2012-02-27T10:26:09.000000Z</creationTime>
          </creationInfo>
        </arrival>
        <arrival publicID="quakeml:uw.anss.org/AssocArO/UW/1654953">
          <pickID>quakeml:uw.anss.org/Arrival/UW/1654953</pickID>
          <phase>P</phase>
          <azimuth>155.8</azimuth>
          <distance>2.201</distance>
          <timeResidual>1.18</timeResidual>
          <creationInfo>
            <agencyID>UW</agencyID>
            <creationTime>2012-02-27T10:26:09.000000Z</creationTime>
          </creationInfo>
        </arrival>
        <arrival publicID="quakeml:uw.anss.org/AssocArO/UW/1654958">
          <pickID>quakeml:uw.anss.org/Arrival/UW/1654958</pickID>
          <phase>P</phase>
          <azimuth>185.8</azimuth>
          <distance>1.083</distance>
          <timeResidual>0.78</timeResidual>
          <creationInfo>
            <agencyID>UW</agencyID>
            <creationTime>2012-02-27T10:26:09.000000Z</creationTime>
          </creationInfo>
        </arrival>
        <arrival publicID="quakeml:uw.anss.org/AssocArO/UW/1654963">
          <pickID>quakeml:uw.anss.org/Arrival/UW/1654963</pickID>
          <phase>S</phase>
          <azimuth>185.8</azimuth>
          <distance>1.083</distance>
          <timeResidual>1.14</timeResidual>
          <creationInfo>
            <agencyID>UW</agencyID>
            <creationTime>2012-02-27T10:26:09.000000Z</creationTime>
          </creationInfo>
        </arrival>
        <arrival publicID="quakeml:uw.anss.org/AssocArO/UW/1654968">
          <pickID>quakeml:uw.anss.org/Arrival/UW/1654968</pickID>
          <phase>P</phase>
          <azimuth>187.1</azimuth>
          <distance>2.273</distance>
          <timeResidual>0.52</timeResidual>
          <creationInfo>
            <agencyID>UW</agencyID>
            <creationTime>2012-02-27T10:26:09.000000Z</creationTime>
          </creationInfo>
        </arrival>
        <arrival publicID="quakeml:uw.anss.org/AssocArO/UW/1654973">
          <pickID>quakeml:uw.anss.org/Arrival/UW/1654973</pickID>
          <phase>P</phase>
          <azimuth>176.0</azimuth>
          <distance>1.122</distance>
          <timeResidual>0.37</timeResidual>
          <creationInfo>
            <agencyID>UW</agencyID>
            <creationTime>2012-02-27T10:26:09.000000Z</creationTime>
          </creationInfo>
        </arrival>
        <arrival publicID="quakeml:uw.anss.org/AssocArO/UW/1654978">
          <pickID>quakeml:uw.anss.org/Arrival/UW/1654978</pickID>
          <phase>P</phase>
          <azimuth>237.5</azimuth>
          <timeResidual>0.25</timeResidual>
          <creationInfo>
            <agencyID>UW</agencyID>
            <creationTime>2012-02-27T10:26:09.000000Z</creationTime>
          </creationInfo>
        </arrival>
        <arrival publicID="quakeml:uw.anss.org/AssocArO/UW/1654983">
          <pickID>quakeml:uw.anss.org/Arrival/UW/1654983</pickID>
          <phase>P</phase>
          <azimuth>153.4</azimuth>
          <distance>1.955</distance>
          <timeResidual>0.17</timeResidual>
          <creationInfo>
            <agencyID>UW</agencyID>
            <creationTime>2012-02-27T10:26:09.000000Z</creationTime>
          </creationInfo>
        </arrival>
        <arrival publicID="quakeml:uw.anss.org/AssocArO/UW/1654988">
          <pickID>quakeml:uw.anss.org/Arrival/UW/1654988</pickID>
          <phase>P</phase>
          <azimuth>131.5</azimuth>
          <distance>1.664</distance>
          <timeResidual>1.48</timeResidual>
          <creationInfo>
            <agencyID>UW</agencyID>
            <creationTime>2012-02-27T10:26:09.000000Z</creationTime>
          </creationInfo>
        </arrival>
        <arrival publicID="quakeml:uw.anss.org/AssocArO/UW/1654993">
          <pickID>quakeml:uw.anss.org/Arrival/UW/1654993</pickID>
          <phase>P</phase>
          <azimuth>249.1</azimuth>
          <distance>0.6719</distance>
          <timeResidual>0.62</timeResidual>
          <creationInfo>
            <agencyID>UW</agencyID>
            <creationTime>2012-02-27T10:26:09.000000Z</creationTime>
          </creationInfo>
        </arrival>
        <arrival publicID="quakeml:uw.anss.org/AssocArO/UW/1654998">
          <pickID>quakeml:uw.anss.org/Arrival/UW/1654998</pickID>
          <phase>P</phase>
          <azimuth>143.4</azimuth>
          <distance>1.412</distance>
          <timeResidual>1.18</timeResidual>
