<?xml version='1.0' encoding='utf-8'?>
<q:quakeml xmlns="http://quakeml.org/xmlns/bed/1.2" xmlns:q="http://quakeml.org/xmlns/quakeml/1.2" xmlns:ns0="http://anss.org/xmlns/catalog/0.1">
  <eventParameters publicID="smi:local/677125fb-0e5b-4518-8b72-17a984fda8f3">
    <event publicID="quakeml:uw.anss.org/Event/UW/10849673" ns0:datasource="uw" ns0:dataid="uw10849673" ns0:eventsource="uw" ns0:eventid="10849673">
      <preferredOriginID>quakeml:uw.anss.org/Origin/UW/1170523</preferredOriginID>
      <preferredMagnitudeID>quakeml:uw.anss.org/Netmag/UW/913918</preferredMagnitudeID>
      <type>earthquake</type>
      <creationInfo>
        <agencyID>UW</agencyID>
        <creationTime>2012-05-24T12:15:52.000000Z</creationTime>
        <version>3</version>
      </creationInfo>
      <origin publicID="quakeml:uw.anss.org/Origin/UW/1170523" ns0:datasource="uw" ns0:dataid="uw10849673" ns0:eventsource="uw" ns0:eventid="10849673">
        <time>
          <value>1979-05-03T22:55:56.540000Z</value>
          <uncertainty>0.34</uncertainty>
        </time>
        <latitude>
          <value>48.7838333</value>
          <uncertainty>1.6</uncertainty>
        </latitude>
        <longitude>
          <value>-121.784</value>
          <uncertainty>1.68</uncertainty>
        </longitude>
        <depth>
          <value>-66.0</value>
          <uncertainty>2870.0</uncertainty>
        </depth>
        <depthType>from location</depthType>
        <timeFixed>false</timeFixed>
        <epicenterFixed>false</epicenterFixed>
        <methodID>smi:uw.anss.org/origin/spong</methodID>
        <quality>
          <associatedPhaseCount>24</associatedPhaseCount>
          <usedPhaseCount>16</usedPhaseCount>
          <associatedStationCount>16</associatedStationCount>
          <usedStationCount>0</usedStationCount>
          <standardError>0.47</standardError>
          <azimuthalGap>199.0</azimuthalGap>
        </quality>
        <type>hypocenter</type>
        <evaluationMode>manual</evaluationMode>
        <evaluationStatus>final</evaluationStatus>
        <creationInfo>
          <agencyID>UW</agencyID>
          <creationTime>2012-05-24T12:15:52.000000Z</creationTime>
        </creationInfo>
        <originUncertainty>
          <preferredDescription>horizontal uncertainty</preferredDescription>
          <horizontalUncertainty>2320.0</horizontalUncertainty>
        </originUncertainty>
        <arrival publicID="quakeml:uw.anss.org/AssocArO/UW/10842363">
          <pickID>quakeml:uw.anss.org/Arrival/UW/10842363</pickID>
          <phase>P</phase>
          <azimuth>227.4</azimuth>
          <distance>0.6784</distance>
          <timeResidual>0.85</timeResidual>
          <creationInfo>
            <agencyID>UW</agencyID>
            <creationTime>2012-05-24T12:15:52.000000Z</creationTime>
          </creationInfo>
        </arrival>
        <arrival publicID="quakeml:uw.anss.org/AssocArO/UW/10842368">
          <pickID>quakeml:uw.anss.org/Arrival/UW/10842368</pickID>
          <phase>P</phase>
          <azimuth>189.2</azimuth>
          <timeResidual>0.36</timeResidual>
          <creationInfo>
            <agencyID>UW</agencyID>
            <creationTime>2012-05-24T12:15:52.000000Z</creationTime>
          </creationInfo>
        </arrival>
        <arrival publicID="quakeml:uw.anss.org/AssocArO/UW/10842373">
          <pickID>quakeml:uw.anss.org/Arrival/UW/10842373</pickID>
          <phase>S</phase>
          <azimuth>189.2</azimuth>
          <timeResidual>-0.29</timeResidual>
          <creationInfo>
            <agencyID>UW</agencyID>
            <creationTime>2012-05-24T12:15:52.000000Z</creationTime>
          </creationInfo>
        </arrival>
        <arrival publicID="quakeml:uw.anss.org/AssocArO/UW/10842378">
          <pickID>quakeml:uw.anss.org/Arrival/UW/10842378</pickID>
          <phase>P</phase>
          <timeResidual>0.3</timeResidual>
          <creationInfo>
            <agencyID>UW</agencyID>
            <creationTime>2012-05-24T12:15:52.000000Z</creationTime>
          </creationInfo>
        </arrival>
        <arrival publicID="quakeml:uw.anss.org/AssocArO/UW/10842383">
          <pickID>quakeml:uw.anss.org/Arrival/UW/10842383</pickID>
          <phase>P</phase>
          <azimuth>152.0</azimuth>
          <timeResidual>0.25</timeResidual>
          <creationInfo>
            <agencyID>UW</agencyID>
            <creationTime>2012-05-24T12:15:52.000000Z</creationTime>
          </creationInfo>
        </arrival>
        <arrival publicID="quakeml:uw.anss.org/AssocArO/UW/10842388">
          <pickID>quakeml:uw.anss.org/Arrival/UW/10842388</pickID>
          <phase>S</phase>
          <azimuth>152.0</azimuth>
          <timeResidual>-0.49</timeResidual>
          <creationInfo>
            <agencyID>UW</agencyID>
            <creationTime>2012-05-24T12:15:52.000000Z</creationTime>
          </creationInfo>
        </arrival>
        <arrival publicID="quakeml:uw.anss.org/AssocArO/UW/10842393">
          <pickID>quakeml:uw.anss.org/Arrival/UW/10842393</pickID>
          <phase>P</phase>
          <azimuth>180.3</azimuth>
          <timeResidual>0.61</timeResidual>
          <creationInfo>
            <agencyID>UW</agencyID>
            <creationTime>2012-05-24T12:15:52.000000Z</creationTime>
          </creationInfo>
        </arrival>
        <arrival publicID="quakeml:uw.anss.org/AssocArO/UW/10842398">
          <pickID>quakeml:uw.anss.org/Arrival/UW/10842398</pickID>
          <phase>S</phase>
          <azimuth>180.3</azimuth>
          <timeResidual>-0.61</timeResidual>
          <creationInfo>
            <agencyID>UW</agencyID>
            <creationTime>2012-05-24T12:15:52.000000Z</creationTime>
          </creationInfo>
        </arrival>
        <arrival publicID="quakeml:uw.anss.org/AssocArO/UW/10842403">
          <pickID>quakeml:uw.anss.org/Arrival/UW/10842403</pickID>
          <phase>P</phase>
          <azimuth>272.5</azimuth>
          <distance>1.016</distance>
          <timeResidual>0.06</timeResidual>
          <creationInfo>
            <agencyID>UW</agencyID>
            <creationTime>2012-05-24T12:15:52.000000Z</creationTime>
          </creationInfo>
        </arrival>
        <arrival publicID="quakeml:uw.anss.org/AssocArO/UW/10842408">
          <pickID>quakeml:uw.anss.org/Arrival/UW/10842408</pickID>
          <phase>P</phase>
          <azimuth>313.3</azimuth>
          <distance>0.7086</distance>
          <timeResidual>-0.31</timeResidual>
          <creationInfo>
            <agencyID>UW</agencyID>
            <creationTime>2012-05-24T12:15:52.000000Z</creationTime>
          </creationInfo>
        </arrival>
        <arrival publicID="quakeml:uw.anss.org/AssocArO/UW/10842413">
          <pickID>quakeml:uw.anss.org/Arrival/UW/10842413</pickID>
          <phase>P</phase>
          <azimuth>243.9</azimuth>
          <timeResidual>0.22</timeResidual>
          <creationInfo>
            <agencyID>UW</agencyID>
            <creationTime>2012-05-24T12:15:52.000000Z</creationTime>
          </creationInfo>
        </arrival>
        <arrival publicID="quakeml:uw.anss.org/AssocArO/UW/10842418">
          <pickID>quakeml:uw.anss.org/Arrival/UW/10842418</pickID>
          <phase>S</phase>
          <azimuth>243.9</azimuth>
          <timeResidual>-10.1</timeResidual>
          <creationInfo>
            <agencyID>UW</agencyID>
            <creationTime>2012-05-24T12:15:52.000000Z</creationTime>
          </creationInfo>
        </arrival>
        <arrival publicID="quakeml:uw.anss.org/AssocArO/UW/10842423">
          <pickID>quakeml:uw.anss.org/Arrival/UW/10842423</pickID>
          <phase>P</phase>
          <azimuth>179.4</azimuth>
          <timeResidual>0.54</timeResidual>
          <creationInfo>
            <agencyID>UW</agencyID>
            <creationTime>2012-05-24T12:15:52.000000Z</creationTime>
          </creationInfo>
        </arrival>
        <arrival publicID="quakeml:uw.anss.org/AssocArO/UW/10842428">
          <pickID>quakeml:uw.anss.org/Arrival/UW/10842428</pickID>
          <phase>P</phase>
          <azimuth>220.4</azimuth>
          <distance>0.3266</distance>
          <timeResidual>-0.45</timeResidual>
          <creationInfo>
            <agencyID>UW</agencyID>
            <creationTime>2012-05-24T12:15:52.000000Z</creationTime>
          </creationInfo>
        </arrival>
        <arrival publicID="quakeml:uw.anss.org/AssocArO/UW/10842433">
          <pickID>quakeml:uw.anss.org/Arrival/UW/10842433</pickID>
          <phase>P</phase>
          <azimuth>177.6</azimuth>
          <timeResidual>0.69</timeResidual>
          <creationInfo>
            <agencyID>UW</agencyID>
            <creationTime>2012-05-24T12:15:52.000000Z</creationTime>
          </creationInfo>
        </arrival>
        <arrival publicID="quakeml:uw.anss.org/AssocArO/UW/10842438">
          <pickID>quakeml:uw.anss.org/Arrival/UW/10842438</pickID>
          <phase>S</phase>
          <azimuth>177.6</azimuth>
          <timeResidual>-0.51</timeResidual>
          <creationInfo>
            <agencyID>UW</agencyID>
            <creationTime>2012-05-24T12:15:52.000000Z</creationTime>
          </creationInfo>
        </arrival>
        <arrival publicID="quakeml:uw.anss.org/AssocArO/UW/10842443">
          <pickID>quakeml:uw.anss.org/Arrival/UW/10842443</pickID>
          <phase>P</phase>
          <azimuth>261.8</azimuth>
          <timeResidual>0.49</timeResidual>
          <creationInfo>
            <agencyID>UW</agencyID>
            <creationTime>2012-05-24T12:15:52.000000Z</creationTime>
          </creationInfo>
        </arrival>
        <arrival publicID="quakeml:uw.anss.org/AssocArO/UW/10842448">
          <pickID>quakeml:uw.anss.org/Arrival/UW/10842448</pickID>
          <phase>P</phase>
          <azimuth>225.9</azimuth>
          <timeResidual>0.83</timeResidual>
          <creationInfo>
            <agencyID>UW</agencyID>
            <creationTime>2012-05-24T12:15:52.000000Z</creationTime>
          </creationInfo>
        </arrival>
        <arrival publicID="quakeml:uw.anss.org/AssocArO/UW/10842453">
          <pickID>quakeml:uw.anss.org/Arrival/UW/10842453</pickID>
          <phase>S</phase>
          <azimuth>225.9</azimuth>
          <timeResidual>0.52</timeResidual>
          <creationInfo>
            <agencyID>UW</agencyID>
            <creationTime>2012-05-24T12:15:52.000000Z</creationTime>
          </creationInfo>
        </arrival>
        <arrival publicID="quakeml:uw.anss.org/AssocArO/UW/10842458">
          <pickID>quakeml:uw.anss.org/Arrival/UW/10842458</pickID>
          <phase>P</phase>
          <azimuth>270.0</azimuth>
          <timeResidual>-0.12</timeResidual>
          <creationInfo>
            <agencyID>UW</agencyID>
            <creationTime>2012-05-24T12:15:52.000000Z</creationTime>
          </creationInfo>
        </arrival>
        <arrival publicID="quakeml:uw.anss.org/AssocArO/UW/10842463">
          <pickID>quakeml:uw.anss.org/Arrival/UW/10842463</pickID>
          <phase>P</phase>
          <azimuth>208.8</azimuth>
          <timeResidual>0.41</timeResidual>
          <creationInfo>
            <agencyID>UW</agencyID>
            <creationTime>2012-05-24T12:15:52.000000Z</creationTime>
          </creationInfo>
        </arrival>
        <arrival publicID="quakeml:uw.anss.org/AssocArO/UW/10842468">
          <pickID>quakeml:uw.anss.org/Arrival/UW/10842468</pickID>
          <phase>S</phase>
          <azimuth>208.8</azimuth>
          <timeResidual>-0.02</timeResidual>
          <creationInfo>
            <agencyID>UW</agencyID>
            <creationTime>2012-05-24T12:15:52.000000Z</creationTime>
          </creationInfo>
        </arrival>
        <arrival publicID="quakeml:uw.anss.org/AssocArO/UW/10842473">
          <pickID>quakeml:uw.anss.org/Arrival/UW/10842473</pickID>
          <phase>P</phase>
          <azimuth>180.7</azimuth>
          <distance>1.325</distance>
          <timeResidual>0.67</timeResidual>
          <creationInfo>
            <agencyID>UW</agencyID>
            <creationTime>2012-05-24T12:15:52.000000Z</creationTime>
          </creationInfo>
        </arrival>
        <arrival publicID="quakeml:uw.anss.org/AssocArO/UW/10842478">
          <pickID>quakeml:uw.anss.org/Arrival/UW/10842478</pickID>
          <phase>S</phase>
          <azimuth>180.7</azimuth>
          <distance>1.325</distance>
          <timeResidual>1.11</timeResidual>
          <creationInfo>
            <agencyID>UW</agencyID>
            <creationTime>2012-05-24T12:15:52.000000Z</creationTime>
          </creationInfo>
        </arrival>
      </origin>
      <magnitude publicID="quakeml:uw.anss.org/Netmag/UW/913918">
        <mag>
          <value>2.2</value>
          <uncertainty>0.09</uncertainty>
        </mag>
        <type>Md</type>
        <originID>quakeml:uw.anss.org/Origin/UW/1170523</originID>
        <methodID>smi:uw.anss.org/magnitude/Crosson</methodID>
        <stationCount>10</stationCount>
        <evaluationMode>manual</evaluationMode>
        <evaluationStatus>final</evaluationStatus>
        <stationMagnitudeContribution>
          <stationMagnitudeID>quakeml:uw.anss.org/AssocCoM/UW/2528793</stationMagnitudeID>
          <weight>1.0</weight>
          <residual>-0.08</residual>
        </stationMagnitudeContribution>
        <stationMagnitudeContribution>
          <stationMagnitudeID>quakeml:uw.anss.org/AssocCoM/UW/2528803</stationMagnitudeID>
          <weight>1.0</weight>
          <residual>-0.11</residual>
        </stationMagnitudeContribution>
        <stationMagnitudeContribution>
          <stationMagnitudeID>quakeml:uw.anss.org/AssocCoM/UW/2528788</stationMagnitudeID>
          <weight>1.0</weight>
          <residual>0.08</residual>
        </stationMagnitudeContribution>
        <stationMagnitudeContribution>
          <stationMagnitudeID>quakeml:uw.anss.org/AssocCoM/UW/2528773</stationMagnitudeID>
          <weight>1.0</weight>
          <residual>0.08</residual>
        </stationMagnitudeContribution>
        <stationMagnitudeContribution>
          <stationMagnitudeID>quakeml:uw.anss.org/AssocCoM/UW/2528778</stationMagnitudeID>
          <weight>1.0</weight>
          <residual>-0.03</residual>
        </stationMagnitudeContribution>
        <stationMagnitudeContribution>
          <stationMagnitudeID>quakeml:uw.anss.org/AssocCoM/UW/2528818</stationMagnitudeID>
          <weight>1.0</weight>
          <residual>-0.17</residual>
        </stationMagnitudeContribution>
        <stationMagnitudeContribution>
          <stationMagnitudeID>quakeml:uw.anss.org/AssocCoM/UW/2528808</stationMagnitudeID>
          <weight>1.0</weight>
          <residual>0.08</residual>
        </stationMagnitudeContribution>
        <stationMagnitudeContribution>
          <stationMagnitudeID>quakeml:uw.anss.org/AssocCoM/UW/2528813</stationMagnitudeID>
          <weight>1.0</weight>
          <residual>0.03</residual>
        </stationMagnitudeContribution>
        <stationMagnitudeContribution>
          <stationMagnitudeID>quakeml:uw.anss.org/AssocCoM/UW/2528798</stationMagnitudeID>
          <weight>1.0</weight>
          <residual>-0.08</residual>
        </stationMagnitudeContribution>
        <stationMagnitudeContribution>
          <stationMagnitudeID>quakeml:uw.anss.org/AssocCoM/UW/2528783</stationMagnitudeID>
          <weight>1.0</weight>
          <residual>-0.03</residual>
        </stationMagnitudeContribution>
        <creationInfo>
          <agencyID>UW</agencyID>
          <creationTime>2012-05-24T12:15:52.000000Z</creationTime>
        </creationInfo>
      </magnitude>
      <stationMagnitude publicID="quakeml:uw.anss.org/AssocCoM/UW/2528773">
        <originID>quakeml:uw.anss.org/Origin/UW/1170523</originID>
        <mag>
          <value>2.28</value>
        </mag>
        <type>MD</type>
        <amplitudeID>quakeml:uw.anss.org/Coda/UW/2528773</amplitudeID>
        <waveformID networkCode="UW" stationCode="JCW" locationCode="" channelCode="EHZ"></waveformID>
      </stationMagnitude>
      <stationMagnitude publicID="quakeml:uw.anss.org/AssocCoM/UW/2528778">
        <originID>quakeml:uw.anss.org/Origin/UW/1170523</originID>
        <mag>
          <value>2.17</value>
        </mag>
        <type>MD</type>
        <amplitudeID>quakeml:uw.anss.org/Coda/UW/2528778</amplitudeID>
        <waveformID networkCode="UW" stationCode="RPW" locationCode="" channelCode="EHZ"></waveformID>
      </stationMagnitude>
      <stationMagnitude publicID="quakeml:uw.anss.org/AssocCoM/UW/2528783">
        <originID>quakeml:uw.anss.org/Origin/UW/1170523</originID>
        <mag>
          <value>2.17</value>
        </mag>
        <type>MD</type>
        <amplitudeID>quakeml:uw.anss.org/Coda/UW/2528783</amplitudeID>
        <waveformID networkCode="UW" stationCode="GSM" locationCode="" channelCode="EHZ"></waveformID>
      </stationMagnitude>
      <stationMagnitude publicID="quakeml:uw.anss.org/AssocCoM/UW/2528788">
        <originID>quakeml:uw.anss.org/Origin/UW/1170523</originID>
        <mag>
          <value>2.28</value>
        </mag>
        <type>MD</type>
        <amplitudeID>quakeml:uw.anss.org/Coda/UW/2528788</amplitudeID>
        <waveformID networkCode="UW" stationCode="HTW" locationCode="" channelCode="EHZ"></waveformID>
      </stationMagnitude>
      <stationMagnitude publicID="quakeml:uw.anss.org/AssocCoM/UW/2528793">
        <originID>quakeml:uw.anss.org/Origin/UW/1170523</originID>
        <mag>
          <value>2.12</value>
        </mag>
        <type>MD</type>
        <amplitudeID>quakeml:uw.anss.org/Coda/UW/2528793</amplitudeID>
        <waveformID networkCode="UW" stationCode="LYW" locationCode="" channelCode="EHZ"></waveformID>
      </stationMagnitude>
      <stationMagnitude publicID="quakeml:uw.anss.org/AssocCoM/UW/2528798">
        <originID>quakeml:uw.anss.org/Origin/UW/1170523</originID>
        <mag>
          <value>2.12</value>
        </mag>
        <type>MD</type>
        <amplitudeID>quakeml:uw.anss.org/Coda/UW/2528798</amplitudeID>
        <waveformID networkCode="UW" stationCode="MCW" locationCode="" channelCode="EHZ"></waveformID>
      </stationMagnitude>
      <stationMagnitude publicID="quakeml:uw.anss.org/AssocCoM/UW/2528803">
        <originID>quakeml:uw.anss.org/Origin/UW/1170523</originID>
        <mag>
          <value>2.09</value>
        </mag>
        <type>MD</type>
        <amplitudeID>quakeml:uw.anss.org/Coda/UW/2528803</amplitudeID>
        <waveformID networkCode="UW" stationCode="BLN" locationCode="" channelCode="EHZ"></waveformID>
      </stationMagnitude>
      <stationMagnitude publicID="quakeml:uw.anss.org/AssocCoM/UW/2528808">
        <originID>quakeml:uw.anss.org/Origin/UW/1170523</originID>
        <mag>
          <value>2.28</value>
        </mag>
        <type>MD</type>
        <amplitudeID>quakeml:uw.anss.org/Coda/UW/2528808</amplitudeID>
        <waveformID networkCode="UW" stationCode="MBW" locationCode="" channelCode="EHZ"></waveformID>
      </stationMagnitude>
      <stationMagnitude publicID="quakeml:uw.anss.org/AssocCoM/UW/2528813">
        <originID>quakeml:uw.anss.org/Origin/UW/1170523</originID>
        <mag>
          <value>2.23</value>
        </mag>
        <type>MD</type>
        <amplitudeID>quakeml:uw.anss.org/Coda/UW/2528813</amplitudeID>
        <waveformID networkCode="UW" stationCode="GMW" locationCode="" channelCode="EHZ"></waveformID>
      </stationMagnitude>
      <stationMagnitude publicID="quakeml:uw.anss.org/AssocCoM/UW/2528818">
        <originID>quakeml:uw.anss.org/Origin/UW/1170523</originID>
        <mag>
          <value>2.03</value>
        </mag>
        <type>MD</type>
        <amplitudeID>quakeml:uw.anss.org/Coda/UW/2528818</amplitudeID>
        <waveformID networkCode="UW" stationCode="RMW" locationCode="" channelCode="EHZ"></waveformID>
      </stationMagnitude>
      <pick publicID="quakeml:uw.anss.org/Arrival/UW/10842363">
        <time>
