<?xml version='1.0' encoding='utf-8'?>
<q:quakeml xmlns="http://quakeml.org/xmlns/bed/1.2" xmlns:q="http://quakeml.org/xmlns/quakeml/1.2" xmlns:ns0="http://anss.org/xmlns/catalog/0.1">
  <eventParameters publicID="smi:local/e8c1abf3-eb70-4615-a1ce-5003bb872e53">
    <event publicID="quakeml:uw.anss.org/Event/UW/61997621" ns0:datasource="uw" ns0:dataid="uw61997621" ns0:eventsource="uw" ns0:eventid="61997621">
      <preferredOriginID>quakeml:uw.anss.org/Origin/UW/3266338</preferredOriginID>
      <preferredMagnitudeID>quakeml:uw.anss.org/Netmag/UW/3271428</preferredMagnitudeID>
      <type>other event</type>
      <creationInfo>
        <agencyID>UW</agencyID>
        <creationTime>2024-04-18T23:33:12.000000Z</creationTime>
        <version>3</version>
      </creationInfo>
      <origin publicID="quakeml:uw.anss.org/Origin/UW/3266338" ns0:datasource="uw" ns0:dataid="uw61997621" ns0:eventsource="uw" ns0:eventid="61997621">
        <time>
          <value>2024-04-18T10:52:11.150000Z</value>
        </time>
        <latitude>
          <value>48.805</value>
        </latitude>
        <longitude>
          <value>-121.80183333333333</value>
        </longitude>
        <depth>
          <value>-517.378</value>
          <uncertainty>10190.0</uncertainty>
        </depth>
        <depthType>operator assigned</depthType>
        <timeFixed>false</timeFixed>
        <epicenterFixed>false</epicenterFixed>
        <methodID>smi:uw.anss.org/origin/HYP2000</methodID>
        <quality>
          <associatedPhaseCount>6</associatedPhaseCount>
          <usedPhaseCount>0</usedPhaseCount>
          <associatedStationCount>6</associatedStationCount>
          <usedStationCount>0</usedStationCount>
          <standardError>0.38</standardError>
          <azimuthalGap>102.0</azimuthalGap>
          <secondaryAzimuthalGap>512.0</secondaryAzimuthalGap>
          <minimumDistance>0.09537</minimumDistance>
          <maximumDistance>0.4483</maximumDistance>
          <medianDistance>0.2951</medianDistance>
        </quality>
        <type>hypocenter</type>
        <evaluationMode>manual</evaluationMode>
        <evaluationStatus>final</evaluationStatus>
        <creationInfo>
          <agencyID>UW</agencyID>
          <creationTime>2024-04-18T23:30:36.000000Z</creationTime>
        </creationInfo>
        <originUncertainty>
          <preferredDescription>horizontal uncertainty</preferredDescription>
          <horizontalUncertainty>3020.0</horizontalUncertainty>
        </originUncertainty>
        <arrival publicID="quakeml:uw.anss.org/AssocArO/UW/16991028">
          <pickID>quakeml:uw.anss.org/Arrival/UW/16991028</pickID>
          <phase>P</phase>
          <distance>0.09537</distance>
          <creationInfo>
            <agencyID>UW</agencyID>
            <creationTime>2024-04-18T23:33:12.000000Z</creationTime>
          </creationInfo>
        </arrival>
        <arrival publicID="quakeml:uw.anss.org/AssocArO/UW/16991033">
          <pickID>quakeml:uw.anss.org/Arrival/UW/16991033</pickID>
          <phase>P</phase>
          <distance>0.267</distance>
          <creationInfo>
            <agencyID>UW</agencyID>
            <creationTime>2024-04-18T23:33:12.000000Z</creationTime>
          </creationInfo>
        </arrival>
        <arrival publicID="quakeml:uw.anss.org/AssocArO/UW/16991038">
          <pickID>quakeml:uw.anss.org/Arrival/UW/16991038</pickID>
          <phase>P</phase>
          <distance>0.2691</distance>
          <creationInfo>
            <agencyID>UW</agencyID>
            <creationTime>2024-04-18T23:33:12.000000Z</creationTime>
          </creationInfo>
        </arrival>
        <arrival publicID="quakeml:uw.anss.org/AssocArO/UW/16991043">
          <pickID>quakeml:uw.anss.org/Arrival/UW/16991043</pickID>
          <phase>P</phase>
          <distance>0.3211</distance>
          <creationInfo>
            <agencyID>UW</agencyID>
            <creationTime>2024-04-18T23:33:12.000000Z</creationTime>
          </creationInfo>
        </arrival>
        <arrival publicID="quakeml:uw.anss.org/AssocArO/UW/16991048">
          <pickID>quakeml:uw.anss.org/Arrival/UW/16991048</pickID>
          <phase>P</phase>
          <distance>0.4041</distance>
          <creationInfo>
            <agencyID>UW</agencyID>
            <creationTime>2024-04-18T23:33:12.000000Z</creationTime>
          </creationInfo>
        </arrival>
        <arrival publicID="quakeml:uw.anss.org/AssocArO/UW/16991053">
          <pickID>quakeml:uw.anss.org/Arrival/UW/16991053</pickID>
          <phase>P</phase>
          <distance>0.4483</distance>
          <creationInfo>
            <agencyID>UW</agencyID>
            <creationTime>2024-04-18T23:33:12.000000Z</creationTime>
          </creationInfo>
        </arrival>
      </origin>
      <magnitude publicID="quakeml:uw.anss.org/Netmag/UW/3271428">
        <mag>
          <value>-5.0</value>
        </mag>
        <type>Mh</type>
        <originID>quakeml:uw.anss.org/Origin/UW/3266338</originID>
        <methodID>smi:uw.anss.org/magnitude/HAND</methodID>
        <stationCount>0</stationCount>
        <evaluationMode>manual</evaluationMode>
        <evaluationStatus>reviewed</evaluationStatus>
        <creationInfo>
          <agencyID>UW</agencyID>
          <creationTime>2024-04-18T23:33:12.000000Z</creationTime>
        </creationInfo>
      </magnitude>
      <pick publicID="quakeml:uw.anss.org/Arrival/UW/16991028">
        <time>
          <value>2024-04-18T10:52:13.050000Z</value>
          <uncertainty>0.15</uncertainty>
        </time>
        <waveformID networkCode="UW" stationCode="SHUK" locationCode="" channelCode="HHZ"></waveformID>
        <onset>emergent</onset>
        <polarity>undecidable</polarity>
        <evaluationMode>manual</evaluationMode>
        <evaluationStatus>reviewed</evaluationStatus>
        <creationInfo>
          <agencyID>UW</agencyID>
          <creationTime>2024-04-18T23:33:12.000000Z</creationTime>
        </creationInfo>
      </pick>
      <pick publicID="quakeml:uw.anss.org/Arrival/UW/16991033">
        <time>
          <value>2024-04-18T10:52:16.280000Z</value>
          <uncertainty>0.15</uncertainty>
        </time>
        <waveformID networkCode="UW" stationCode="SAXON" locationCode="" channelCode="HHZ"></waveformID>
        <onset>emergent</onset>
        <polarity>undecidable</polarity>
        <evaluationMode>manual</evaluationMode>
        <evaluationStatus>reviewed</evaluationStatus>
        <creationInfo>
          <agencyID>UW</agencyID>
          <creationTime>2024-04-18T23:33:12.000000Z</creationTime>
        </creationInfo>
      </pick>
      <pick publicID="quakeml:uw.anss.org/Arrival/UW/16991038">
        <time>
          <value>2024-04-18T10:52:17.590000Z</value>
          <uncertainty>0.3</uncertainty>
        </time>
        <waveformID networkCode="UW" stationCode="PASS" locationCode="" channelCode="HHZ"></waveformID>
        <onset>emergent</onset>
        <polarity>undecidable</polarity>
        <evaluationMode>manual</evaluationMode>
        <evaluationStatus>reviewed</evaluationStatus>
        <creationInfo>
          <agencyID>UW</agencyID>
          <creationTime>2024-04-18T23:33:12.000000Z</creationTime>
        </creationInfo>
      </pick>
      <pick publicID="quakeml:uw.anss.org/Arrival/UW/16991043">
        <time>
          <value>2024-04-18T10:52:18.080000Z</value>
          <uncertainty>0.3</uncertainty>
        </time>
        <waveformID networkCode="UW" stationCode="MULN" locationCode="" channelCode="HHZ"></waveformID>
        <onset>emergent</onset>
        <polarity>undecidable</polarity>
        <evaluationMode>manual</evaluationMode>
        <evaluationStatus>reviewed</evaluationStatus>
        <creationInfo>
          <agencyID>UW</agencyID>
          <creationTime>2024-04-18T23:33:12.000000Z</creationTime>
        </creationInfo>
      </pick>
      <pick publicID="quakeml:uw.anss.org/Arrival/UW/16991048">
        <time>
          <value>2024-04-18T10:52:19.180000Z</value>
          <uncertainty>0.3</uncertainty>
        </time>
        <waveformID networkCode="UW" stationCode="RPW2" locationCode="" channelCode="HHZ"></waveformID>
        <onset>emergent</onset>
        <polarity>undecidable</polarity>
        <evaluationMode>manual</evaluationMode>
        <evaluationStatus>reviewed</evaluationStatus>
        <creationInfo>
          <agencyID>UW</agencyID>
          <creationTime>2024-04-18T23:33:12.000000Z</creationTime>
        </creationInfo>
      </pick>
      <pick publicID="quakeml:uw.anss.org/Arrival/UW/16991053">
        <time>
          <value>2024-04-18T10:52:20.230000Z</value>
          <uncertainty>0.3</uncertainty>
        </time>
        <waveformID networkCode="UW" stationCode="DONK" locationCode="" channelCode="HHZ"></waveformID>
        <onset>emergent</onset>
        <polarity>undecidable</polarity>
        <evaluationMode>manual</evaluationMode>
        <evaluationStatus>reviewed</evaluationStatus>
        <creationInfo>
          <agencyID>UW</agencyID>
          <creationTime>2024-04-18T23:33:12.000000Z</creationTime>
        </creationInfo>
      </pick>
    </event>
  </eventParameters>
</q:quakeml>
