<?xml version='1.0' encoding='utf-8'?>
<q:quakeml xmlns="http://quakeml.org/xmlns/bed/1.2" xmlns:q="http://quakeml.org/xmlns/quakeml/1.2" xmlns:ns0="http://anss.org/xmlns/catalog/0.1">
  <eventParameters publicID="smi:local/eec1f1f6-ae10-47b9-9083-34442d2ab497">
    <event publicID="quakeml:uw.anss.org/Event/UW/62034766" ns0:datasource="uw" ns0:dataid="uw62034766" ns0:eventsource="uw" ns0:eventid="62034766">
      <preferredOriginID>quakeml:uw.anss.org/Origin/UW/3284403</preferredOriginID>
      <preferredMagnitudeID>quakeml:uw.anss.org/Netmag/UW/3299443</preferredMagnitudeID>
      <type>earthquake</type>
      <creationInfo>
        <agencyID>UW</agencyID>
        <creationTime>2024-08-16T22:43:34.000000Z</creationTime>
        <version>6</version>
      </creationInfo>
      <origin publicID="quakeml:uw.anss.org/Origin/UW/3284403" ns0:datasource="uw" ns0:dataid="uw62034766" ns0:eventsource="uw" ns0:eventid="62034766">
        <time>
          <value>2024-08-11T17:00:36.750000Z</value>
        </time>
        <latitude>
          <value>48.7745</value>
        </latitude>
        <longitude>
          <value>-121.86416666666666</value>
        </longitude>
        <depth>
          <value>-660.0</value>
          <uncertainty>1740.0</uncertainty>
        </depth>
        <depthType>from location</depthType>
        <timeFixed>false</timeFixed>
        <epicenterFixed>false</epicenterFixed>
        <methodID>smi:uw.anss.org/origin/HYP2000</methodID>
        <quality>
          <associatedPhaseCount>13</associatedPhaseCount>
          <usedPhaseCount>12</usedPhaseCount>
          <associatedStationCount>10</associatedStationCount>
          <usedStationCount>9</usedStationCount>
          <standardError>0.29</standardError>
          <azimuthalGap>89.0</azimuthalGap>
          <secondaryAzimuthalGap>464.0</secondaryAzimuthalGap>
          <minimumDistance>0.04536</minimumDistance>
          <maximumDistance>0.5812</maximumDistance>
          <medianDistance>0.2919</medianDistance>
        </quality>
        <type>hypocenter</type>
        <evaluationMode>manual</evaluationMode>
        <evaluationStatus>final</evaluationStatus>
        <creationInfo>
          <agencyID>UW</agencyID>
          <creationTime>2024-08-16T22:37:45.000000Z</creationTime>
        </creationInfo>
        <originUncertainty>
          <preferredDescription>confidence ellipsoid</preferredDescription>
          <horizontalUncertainty>610.0</horizontalUncertainty>
          <confidenceLevel>95.0</confidenceLevel>
          <confidenceEllipsoid>
            <semiMajorAxisLength>4416.0</semiMajorAxisLength>
            <semiMinorAxisLength>1224.0</semiMinorAxisLength>
            <semiIntermediateAxisLength>1296.0</semiIntermediateAxisLength>
            <majorAxisPlunge>70.0</majorAxisPlunge>
            <majorAxisAzimuth>330.0</majorAxisAzimuth>
            <majorAxisRotation>337.0</majorAxisRotation>
          </confidenceEllipsoid>
        </originUncertainty>
        <arrival publicID="quakeml:uw.anss.org/AssocArO/UW/17223848">
          <pickID>quakeml:uw.anss.org/Arrival/UW/17223848</pickID>
          <phase>P</phase>
          <timeCorrection>0.07</timeCorrection>
          <azimuth>57.4959380017869</azimuth>
          <distance>0.1465</distance>
          <takeoffAngle>
            <value>90.0</value>
          </takeoffAngle>
          <timeResidual>-0.26</timeResidual>
          <timeWeight>0.14</timeWeight>
          <creationInfo>
            <agencyID>UW</agencyID>
            <creationTime>2024-08-16T22:43:33.000000Z</creationTime>
          </creationInfo>
        </arrival>
        <arrival publicID="quakeml:uw.anss.org/AssocArO/UW/17223853">
          <pickID>quakeml:uw.anss.org/Arrival/UW/17223853</pickID>
          <phase>P</phase>
          <timeCorrection>0.1</timeCorrection>
          <azimuth>245.12152606318256</azimuth>
          <distance>0.2166</distance>
          <takeoffAngle>
            <value>90.0</value>
          </takeoffAngle>
          <timeResidual>-0.18</timeResidual>
          <timeWeight>0.07</timeWeight>
          <creationInfo>
            <agencyID>UW</agencyID>
            <creationTime>2024-08-16T22:43:33.000000Z</creationTime>
          </creationInfo>
        </arrival>
        <arrival publicID="quakeml:uw.anss.org/AssocArO/UW/17233053">
          <pickID>quakeml:uw.anss.org/Arrival/UW/17233053</pickID>
          <phase>P</phase>
          <timeCorrection>0.17</timeCorrection>
          <azimuth>305.50388979563746</azimuth>
          <distance>0.04536</distance>
          <takeoffAngle>
            <value>90.0</value>
          </takeoffAngle>
          <timeResidual>-0.05</timeResidual>
          <timeWeight>0.14</timeWeight>
          <creationInfo>
            <agencyID>UW</agencyID>
            <creationTime>2024-08-16T22:43:33.000000Z</creationTime>
          </creationInfo>
        </arrival>
        <arrival publicID="quakeml:uw.anss.org/AssocArO/UW/17233058">
          <pickID>quakeml:uw.anss.org/Arrival/UW/17233058</pickID>
          <phase>S</phase>
          <timeCorrection>0.12</timeCorrection>
          <azimuth>57.4959380017869</azimuth>
          <distance>0.1465</distance>
          <takeoffAngle>
            <value>90.0</value>
          </takeoffAngle>
          <timeResidual>0.44</timeResidual>
          <timeWeight>0.07</timeWeight>
          <creationInfo>
            <agencyID>UW</agencyID>
            <creationTime>2024-08-16T22:43:33.000000Z</creationTime>
          </creationInfo>
        </arrival>
        <arrival publicID="quakeml:uw.anss.org/AssocArO/UW/17233063">
          <pickID>quakeml:uw.anss.org/Arrival/UW/17233063</pickID>
          <phase>S</phase>
          <timeCorrection>0.18</timeCorrection>
          <azimuth>245.12152606318256</azimuth>
          <distance>0.2166</distance>
          <takeoffAngle>
            <value>90.0</value>
          </takeoffAngle>
          <timeResidual>-0.27</timeResidual>
          <timeWeight>0.14</timeWeight>
          <creationInfo>
            <agencyID>UW</agencyID>
            <creationTime>2024-08-16T22:43:33.000000Z</creationTime>
          </creationInfo>
        </arrival>
        <arrival publicID="quakeml:uw.anss.org/AssocArO/UW/17233068">
          <pickID>quakeml:uw.anss.org/Arrival/UW/17233068</pickID>
          <phase>P</phase>
          <timeCorrection>0.27</timeCorrection>
          <azimuth>327.08273997561207</azimuth>
          <distance>0.2673</distance>
          <takeoffAngle>
            <value>57.0</value>
          </takeoffAngle>
          <timeResidual>0.26</timeResidual>
          <timeWeight>0.14</timeWeight>
          <creationInfo>
            <agencyID>UW</agencyID>
            <creationTime>2024-08-16T22:43:33.000000Z</creationTime>
          </creationInfo>
        </arrival>
        <arrival publicID="quakeml:uw.anss.org/AssocArO/UW/17233073">
          <pickID>quakeml:uw.anss.org/Arrival/UW/17233073</pickID>
          <phase>P</phase>
          <timeCorrection>0.0</timeCorrection>
          <azimuth>335.90151422354205</azimuth>
          <distance>0.3101</distance>
          <timeResidual>0.0</timeResidual>
          <timeWeight>0.0</timeWeight>
          <creationInfo>
            <agencyID>UW</agencyID>
            <creationTime>2024-08-16T22:43:33.000000Z</creationTime>
          </creationInfo>
        </arrival>
        <arrival publicID="quakeml:uw.anss.org/AssocArO/UW/17233078">
          <pickID>quakeml:uw.anss.org/Arrival/UW/17233078</pickID>
          <phase>P</phase>
          <timeCorrection>0.0</timeCorrection>
          <azimuth>209.03228965980875</azimuth>
          <distance>0.2736</distance>
          <takeoffAngle>
            <value>57.0</value>
          </takeoffAngle>
          <timeResidual>0.32</timeResidual>
          <timeWeight>0.14</timeWeight>
          <creationInfo>
            <agencyID>UW</agencyID>
            <creationTime>2024-08-16T22:43:33.000000Z</creationTime>
          </creationInfo>
        </arrival>
        <arrival publicID="quakeml:uw.anss.org/AssocArO/UW/17233083">
          <pickID>quakeml:uw.anss.org/Arrival/UW/17233083</pickID>
          <phase>P</phase>
          <timeCorrection>-0.02</timeCorrection>
          <azimuth>208.99780146530586</azimuth>
          <distance>0.4011</distance>
          <takeoffAngle>
            <value>57.0</value>
          </takeoffAngle>
          <timeResidual>-0.04</timeResidual>
          <timeWeight>0.07</timeWeight>
          <creationInfo>
            <agencyID>UW</agencyID>
            <creationTime>2024-08-16T22:43:33.000000Z</creationTime>
          </creationInfo>
        </arrival>
        <arrival publicID="quakeml:uw.anss.org/AssocArO/UW/17233088">
          <pickID>quakeml:uw.anss.org/Arrival/UW/17233088</pickID>
          <phase>P</phase>
          <timeCorrection>0.14</timeCorrection>
          <azimuth>145.76559059852923</azimuth>
          <distance>0.3988</distance>
          <takeoffAngle>
            <value>57.0</value>
          </takeoffAngle>
          <timeResidual>-1.19</timeResidual>
          <timeWeight>0.0</timeWeight>
          <creationInfo>
            <agencyID>UW</agencyID>
            <creationTime>2024-08-16T22:43:33.000000Z</creationTime>
          </creationInfo>
        </arrival>
        <arrival publicID="quakeml:uw.anss.org/AssocArO/UW/17233093">
          <pickID>quakeml:uw.anss.org/Arrival/UW/17233093</pickID>
          <phase>P</phase>
          <timeCorrection>-0.11</timeCorrection>
          <azimuth>184.16667239525574</azimuth>
          <distance>0.5812</distance>
          <takeoffAngle>
            <value>57.0</value>
          </takeoffAngle>
          <timeResidual>0.34</timeResidual>
          <timeWeight>0.13</timeWeight>
          <creationInfo>
            <agencyID>UW</agencyID>
            <creationTime>2024-08-16T22:43:33.000000Z</creationTime>
          </creationInfo>
        </arrival>
        <arrival publicID="quakeml:uw.anss.org/AssocArO/UW/17233123">
          <pickID>quakeml:uw.anss.org/Arrival/UW/17233123</pickID>
          <phase>S</phase>
          <timeCorrection>0.25</timeCorrection>
          <azimuth>145.76559059852923</azimuth>
          <distance>0.3988</distance>
          <takeoffAngle>
            <value>57.0</value>
          </takeoffAngle>
          <timeResidual>0.98</timeResidual>
          <timeWeight>0.05</timeWeight>
          <creationInfo>
            <agencyID>UW</agencyID>
            <creationTime>2024-08-16T22:43:33.000000Z</creationTime>
          </creationInfo>
        </arrival>
        <arrival publicID="quakeml:uw.anss.org/AssocArO/UW/17233128">
          <pickID>quakeml:uw.anss.org/Arrival/UW/17233128</pickID>
          <phase>S</phase>
          <timeCorrection>0.21</timeCorrection>
          <azimuth>161.93138711439906</azimuth>
          <distance>0.559</distance>
          <takeoffAngle>
            <value>57.0</value>
          </takeoffAngle>
          <timeResidual>0.25</timeResidual>
          <timeWeight>0.13</timeWeight>
          <creationInfo>
            <agencyID>UW</agencyID>
            <creationTime>2024-08-16T22:43:33.000000Z</creationTime>
          </creationInfo>
        </arrival>
      </origin>
      <magnitude publicID="quakeml:uw.anss.org/Netmag/UW/3299443">
        <mag>
          <value>1.55</value>
          <uncertainty>0.07320540274633147</uncertainty>
        </mag>
        <type>Ml</type>
        <originID>quakeml:uw.anss.org/Origin/UW/3284403</originID>
        <methodID>smi:uw.anss.org/magnitude/RichterMl2</methodID>
        <stationCount>6</stationCount>
        <azimuthalGap>90.41319802617483</azimuthalGap>
        <evaluationMode>manual</evaluationMode>
        <evaluationStatus>reviewed</evaluationStatus>
        <stationMagnitudeContribution>
          <stationMagnitudeID>quakeml:uw.anss.org/AssocAmM/UW/15942223</stationMagnitudeID>
          <weight>1.0</weight>
          <residual>0.06</residual>
        </stationMagnitudeContribution>
        <stationMagnitudeContribution>
          <stationMagnitudeID>quakeml:uw.anss.org/AssocAmM/UW/15942198</stationMagnitudeID>
          <weight>1.0</weight>
          <residual>-0.07</residual>
        </stationMagnitudeContribution>
        <stationMagnitudeContribution>
          <stationMagnitudeID>quakeml:uw.anss.org/AssocAmM/UW/15942218</stationMagnitudeID>
          <weight>1.0</weight>
          <residual>-0.15</residual>
        </stationMagnitudeContribution>
        <stationMagnitudeContribution>
          <stationMagnitudeID>quakeml:uw.anss.org/AssocAmM/UW/15942208</stationMagnitudeID>
          <weight>1.0</weight>
          <residual>0.01</residual>
        </stationMagnitudeContribution>
        <stationMagnitudeContribution>
          <stationMagnitudeID>quakeml:uw.anss.org/AssocAmM/UW/15942188</stationMagnitudeID>
          <weight>1.0</weight>
          <residual>-0.01</residual>
        </stationMagnitudeContribution>
        <stationMagnitudeContribution>
          <stationMagnitudeID>quakeml:uw.anss.org/AssocAmM/UW/15942238</stationMagnitudeID>
          <weight>0.0</weight>
          <residual>-1.3</residual>
        </stationMagnitudeContribution>
        <stationMagnitudeContribution>
          <stationMagnitudeID>quakeml:uw.anss.org/AssocAmM/UW/15942168</stationMagnitudeID>
          <weight>1.0</weight>
          <residual>-0.09</residual>
        </stationMagnitudeContribution>
        <stationMagnitudeContribution>
          <stationMagnitudeID>quakeml:uw.anss.org/AssocAmM/UW/15942203</stationMagnitudeID>
          <weight>1.0</weight>
          <residual>-0.13</residual>
        </stationMagnitudeContribution>
        <stationMagnitudeContribution>
          <stationMagnitudeID>quakeml:uw.anss.org/AssocAmM/UW/15942233</stationMagnitudeID>
          <weight>0.0</weight>
          <residual>0.24</residual>
        </stationMagnitudeContribution>
        <stationMagnitudeContribution>
          <stationMagnitudeID>quakeml:uw.anss.org/AssocAmM/UW/15942163</stationMagnitudeID>
          <weight>1.0</weight>
          <residual>0.04</residual>
        </stationMagnitudeContribution>
        <stationMagnitudeContribution>
          <stationMagnitudeID>quakeml:uw.anss.org/AssocAmM/UW/15942183</stationMagnitudeID>
          <weight>1.0</weight>
          <residual>0.16</residual>
        </stationMagnitudeContribution>
        <stationMagnitudeContribution>
          <stationMagnitudeID>quakeml:uw.anss.org/AssocAmM/UW/15942213</stationMagnitudeID>
          <weight>1.0</weight>
          <residual>0.07</residual>
        </stationMagnitudeContribution>
        <stationMagnitudeContribution>
          <stationMagnitudeID>quakeml:uw.anss.org/AssocAmM/UW/15942228</stationMagnitudeID>
          <weight>1.0</weight>
          <residual>-0.1</residual>
        </stationMagnitudeContribution>
        <stationMagnitudeContribution>
          <stationMagnitudeID>quakeml:uw.anss.org/AssocAmM/UW/15942143</stationMagnitudeID>
          <weight>0.0</weight>
          <residual>-0.79</residual>
        </stationMagnitudeContribution>
        <stationMagnitudeContribution>
          <stationMagnitudeID>quakeml:uw.anss.org/AssocAmM/UW/15942193</stationMagnitudeID>
          <weight>1.0</weight>
          <residual>-0.13</residual>
        </stationMagnitudeContribution>
        <stationMagnitudeContribution>
          <stationMagnitudeID>quakeml:uw.anss.org/AssocAmM/UW/15942178</stationMagnitudeID>
          <weight>1.0</weight>
          <residual>0.06</residual>
        </stationMagnitudeContribution>
        <stationMagnitudeContribution>
          <stationMagnitudeID>quakeml:uw.anss.org/AssocAmM/UW/15942153</stationMagnitudeID>
          <weight>0.0</weight>
          <residual>-0.83</residual>
        </stationMagnitudeContribution>
        <stationMagnitudeContribution>
          <stationMagnitudeID>quakeml:uw.anss.org/AssocAmM/UW/15942173</stationMagnitudeID>
          <weight>1.0</weight>
          <residual>0.08</residual>
        </stationMagnitudeContribution>
        <stationMagnitudeContribution>
          <stationMagnitudeID>quakeml:uw.anss.org/AssocAmM/UW/15942148</stationMagnitudeID>
          <weight>0.0</weight>
          <residual>-0.46</residual>
        </stationMagnitudeContribution>
        <stationMagnitudeContribution>
          <stationMagnitudeID>quakeml:uw.anss.org/AssocAmM/UW/15942158</stationMagnitudeID>
          <weight>0.0</weight>
          <residual>-0.48</residual>
        </stationMagnitudeContribution>
        <creationInfo>
          <agencyID>UW</agencyID>
          <creationTime>2024-08-16T22:43:34.000000Z</creationTime>
        </creationInfo>
      </magnitude>
      <stationMagnitude publicID="quakeml:uw.anss.org/AssocAmM/UW/15942143">
        <originID>quakeml:uw.anss.org/Origin/UW/3284403</originID>
        <mag>
          <value>0.76</value>
        </mag>
        <type>ML</type>
        <amplitudeID>quakeml:uw.anss.org/Amp/UW/15942143</amplitudeID>
        <waveformID networkCode="UW" stationCode="MBW2" locationCode="" channelCode="ENN"></waveformID>
      </stationMagnitude>
      <stationMagnitude publicID="quakeml:uw.anss.org/AssocAmM/UW/15942148">
        <originID>quakeml:uw.anss.org/Origin/UW/3284403</originID>
        <mag>
          <value>1.09</value>
        </mag>
        <type>ML</type>
        <amplitudeID>quakeml:uw.anss.org/Amp/UW/15942148</amplitudeID>
        <waveformID networkCode="UW" stationCode="MBW2" locationCode="" channelCode="ENE"></waveformID>
      </stationMagnitude>
      <stationMagnitude publicID="quakeml:uw.anss.org/AssocAmM/UW/15942153">
        <originID>quakeml:uw.anss.org/Origin/UW/3284403</originID>
        <mag>
          <value>0.72</value>
        </mag>
        <type>ML</type>
        <amplitudeID>quakeml:uw.anss.org/Amp/UW/15942153</amplitudeID>
        <waveformID networkCode="UW" stationCode="MBW2" locationCode="" channelCode="HHN"></waveformID>
      </stationMagnitude>
      <stationMagnitude publicID="quakeml:uw.anss.org/AssocAmM/UW/15942158">
        <originID>quakeml:uw.anss.org/Origin/UW/3284403</originID>
        <mag>
          <value>1.07</value>
        </mag>
        <type>ML</type>
        <amplitudeID>quakeml:uw.anss.org/Amp/UW/15942158</amplitudeID>
        <waveformID networkCode="UW" stationCode="MBW2" locationCode="" channelCode="HHE"></waveformID>
      </stationMagnitude>
      <stationMagnitude publicID="quakeml:uw.anss.org/AssocAmM/UW/15942163">
        <originID>quakeml:uw.anss.org/Origin/UW/3284403</originID>
        <mag>
          <value>1.59</value>
        </mag>
        <type>ML</type>
        <amplitudeID>quakeml:uw.anss.org/Amp/UW/15942163</amplitudeID>
        <waveformID networkCode="UW" stationCode="SHUK" locationCode="" channelCode="ENE"></waveformID>
      </stationMagnitude>
      <stationMagnitude publicID="quakeml:uw.anss.org/AssocAmM/UW/15942168">
        <originID>quakeml:uw.anss.org/Origin/UW/3284403</originID>
        <mag>
          <value>1.46</value>
        </mag>
        <type>ML</type>
        <amplitudeID>quakeml:uw.anss.org/Amp/UW/15942168</amplitudeID>
        <waveformID networkCode="UW" stationCode="SHUK" locationCode="" channelCode="HHN"></waveformID>
      </stationMagnitude>
      <stationMagnitude publicID="quakeml:uw.anss.org/AssocAmM/UW/15942173">
        <originID>quakeml:uw.anss.org/Origin/UW/3284403</originID>
        <mag>
          <value>1.63</value>
        </mag>
        <type>ML</type>
        <amplitudeID>quakeml:uw.anss.org/Amp/UW/15942173</amplitudeID>
        <waveformID networkCode="UW" stationCode="SHUK" locationCode="" channelCode="HHE"></waveformID>
      </stationMagnitude>
      <stationMagnitude publicID="quakeml:uw.anss.org/AssocAmM/UW/15942178">
        <originID>quakeml:uw.anss.org/Origin/UW/3284403</originID>
        <mag>
          <value>1.61</value>
        </mag>
        <type>ML</type>
