<?xml version='1.0' encoding='utf-8'?>
<q:quakeml xmlns="http://quakeml.org/xmlns/bed/1.2" xmlns:q="http://quakeml.org/xmlns/quakeml/1.2" xmlns:ns0="http://anss.org/xmlns/catalog/0.1">
  <eventParameters publicID="smi:local/7e86f02b-4178-4d51-9926-6826df480837">
    <event publicID="quakeml:uw.anss.org/Event/UW/62027632" ns0:datasource="uw" ns0:dataid="uw62027632" ns0:eventsource="uw" ns0:eventid="62027632">
      <preferredOriginID>quakeml:uw.anss.org/Origin/UW/3283813</preferredOriginID>
      <preferredMagnitudeID>quakeml:uw.anss.org/Netmag/UW/3298498</preferredMagnitudeID>
      <type>other event</type>
      <creationInfo>
        <agencyID>UW</agencyID>
        <creationTime>2024-08-14T18:55:46.000000Z</creationTime>
        <version>3</version>
      </creationInfo>
      <origin publicID="quakeml:uw.anss.org/Origin/UW/3283813" ns0:datasource="uw" ns0:dataid="uw62027632" ns0:eventsource="uw" ns0:eventid="62027632">
        <time>
          <value>2024-08-14T08:55:20.740000Z</value>
        </time>
        <latitude>
          <value>48.8008</value>
        </latitude>
        <longitude>
          <value>-121.9201</value>
        </longitude>
        <depth>
          <value>-748.76</value>
        </depth>
        <depthType>operator assigned</depthType>
        <timeFixed>false</timeFixed>
        <epicenterFixed>false</epicenterFixed>
        <methodID>smi:uw.anss.org/origin/HAND</methodID>
        <quality>
          <associatedPhaseCount>0</associatedPhaseCount>
          <usedPhaseCount>0</usedPhaseCount>
          <associatedStationCount>40</associatedStationCount>
          <usedStationCount>0</usedStationCount>
          <secondaryAzimuthalGap>401.0</secondaryAzimuthalGap>
          <minimumDistance>0.1689</minimumDistance>
          <maximumDistance>6.724</maximumDistance>
          <medianDistance>1.937</medianDistance>
        </quality>
        <type>hypocenter</type>
        <evaluationMode>manual</evaluationMode>
        <evaluationStatus>final</evaluationStatus>
        <creationInfo>
          <agencyID>UW</agencyID>
          <creationTime>2024-08-14T18:54:55.000000Z</creationTime>
        </creationInfo>
        <arrival publicID="quakeml:uw.anss.org/AssocArO/UW/17227198">
          <pickID>quakeml:uw.anss.org/Arrival/UW/17227198</pickID>
          <phase>P</phase>
          <distance>5.095e-05</distance>
          <creationInfo>
            <agencyID>UW</agencyID>
            <creationTime>2024-08-14T18:55:46.000000Z</creationTime>
          </creationInfo>
        </arrival>
        <arrival publicID="quakeml:uw.anss.org/AssocArO/UW/17227203">
          <pickID>quakeml:uw.anss.org/Arrival/UW/17227203</pickID>
          <phase>P</phase>
          <distance>0.1689</distance>
          <creationInfo>
            <agencyID>UW</agencyID>
            <creationTime>2024-08-14T18:55:46.000000Z</creationTime>
          </creationInfo>
        </arrival>
        <arrival publicID="quakeml:uw.anss.org/AssocArO/UW/17227208">
          <pickID>quakeml:uw.anss.org/Arrival/UW/17227208</pickID>
          <phase>P</phase>
          <distance>0.1981</distance>
          <creationInfo>
            <agencyID>UW</agencyID>
            <creationTime>2024-08-14T18:55:46.000000Z</creationTime>
          </creationInfo>
        </arrival>
        <arrival publicID="quakeml:uw.anss.org/AssocArO/UW/17227213">
          <pickID>quakeml:uw.anss.org/Arrival/UW/17227213</pickID>
          <phase>P</phase>
          <distance>0.2257</distance>
          <creationInfo>
            <agencyID>UW</agencyID>
            <creationTime>2024-08-14T18:55:46.000000Z</creationTime>
          </creationInfo>
        </arrival>
        <arrival publicID="quakeml:uw.anss.org/AssocArO/UW/17227218">
          <pickID>quakeml:uw.anss.org/Arrival/UW/17227218</pickID>
          <phase>P</phase>
          <distance>0.2719</distance>
          <creationInfo>
            <agencyID>UW</agencyID>
            <creationTime>2024-08-14T18:55:46.000000Z</creationTime>
          </creationInfo>
        </arrival>
        <arrival publicID="quakeml:uw.anss.org/AssocArO/UW/17227223">
          <pickID>quakeml:uw.anss.org/Arrival/UW/17227223</pickID>
          <phase>P</phase>
          <distance>0.2823</distance>
          <creationInfo>
            <agencyID>UW</agencyID>
            <creationTime>2024-08-14T18:55:46.000000Z</creationTime>
          </creationInfo>
        </arrival>
        <arrival publicID="quakeml:uw.anss.org/AssocArO/UW/17227228">
          <pickID>quakeml:uw.anss.org/Arrival/UW/17227228</pickID>
          <phase>P</phase>
          <distance>0.3292</distance>
          <creationInfo>
            <agencyID>UW</agencyID>
            <creationTime>2024-08-14T18:55:46.000000Z</creationTime>
          </creationInfo>
        </arrival>
        <arrival publicID="quakeml:uw.anss.org/AssocArO/UW/17227233">
          <pickID>quakeml:uw.anss.org/Arrival/UW/17227233</pickID>
          <phase>P</phase>
          <distance>0.4086</distance>
          <creationInfo>
            <agencyID>UW</agencyID>
            <creationTime>2024-08-14T18:55:46.000000Z</creationTime>
          </creationInfo>
        </arrival>
        <arrival publicID="quakeml:uw.anss.org/AssocArO/UW/17227238">
          <pickID>quakeml:uw.anss.org/Arrival/UW/17227238</pickID>
          <phase>P</phase>
          <distance>0.4417</distance>
          <creationInfo>
            <agencyID>UW</agencyID>
            <creationTime>2024-08-14T18:55:46.000000Z</creationTime>
          </creationInfo>
        </arrival>
        <arrival publicID="quakeml:uw.anss.org/AssocArO/UW/17227243">
          <pickID>quakeml:uw.anss.org/Arrival/UW/17227243</pickID>
          <phase>P</phase>
          <distance>0.5413</distance>
          <creationInfo>
            <agencyID>UW</agencyID>
            <creationTime>2024-08-14T18:55:46.000000Z</creationTime>
          </creationInfo>
        </arrival>
        <arrival publicID="quakeml:uw.anss.org/AssocArO/UW/17227248">
          <pickID>quakeml:uw.anss.org/Arrival/UW/17227248</pickID>
          <phase>P</phase>
          <distance>0.7556</distance>
          <creationInfo>
            <agencyID>UW</agencyID>
            <creationTime>2024-08-14T18:55:46.000000Z</creationTime>
          </creationInfo>
        </arrival>
        <arrival publicID="quakeml:uw.anss.org/AssocArO/UW/17227253">
          <pickID>quakeml:uw.anss.org/Arrival/UW/17227253</pickID>
          <phase>P</phase>
          <distance>0.9021</distance>
          <creationInfo>
            <agencyID>UW</agencyID>
            <creationTime>2024-08-14T18:55:46.000000Z</creationTime>
          </creationInfo>
        </arrival>
        <arrival publicID="quakeml:uw.anss.org/AssocArO/UW/17227258">
          <pickID>quakeml:uw.anss.org/Arrival/UW/17227258</pickID>
          <phase>P</phase>
          <distance>0.9935</distance>
          <creationInfo>
            <agencyID>UW</agencyID>
            <creationTime>2024-08-14T18:55:46.000000Z</creationTime>
          </creationInfo>
        </arrival>
        <arrival publicID="quakeml:uw.anss.org/AssocArO/UW/17227263">
          <pickID>quakeml:uw.anss.org/Arrival/UW/17227263</pickID>
          <phase>P</phase>
          <distance>1.01</distance>
          <creationInfo>
            <agencyID>UW</agencyID>
            <creationTime>2024-08-14T18:55:46.000000Z</creationTime>
          </creationInfo>
        </arrival>
        <arrival publicID="quakeml:uw.anss.org/AssocArO/UW/17227268">
          <pickID>quakeml:uw.anss.org/Arrival/UW/17227268</pickID>
          <phase>P</phase>
          <distance>1.136</distance>
          <creationInfo>
            <agencyID>UW</agencyID>
            <creationTime>2024-08-14T18:55:46.000000Z</creationTime>
          </creationInfo>
        </arrival>
        <arrival publicID="quakeml:uw.anss.org/AssocArO/UW/17227273">
          <pickID>quakeml:uw.anss.org/Arrival/UW/17227273</pickID>
          <phase>P</phase>
          <distance>1.242</distance>
          <creationInfo>
            <agencyID>UW</agencyID>
            <creationTime>2024-08-14T18:55:46.000000Z</creationTime>
          </creationInfo>
        </arrival>
        <arrival publicID="quakeml:uw.anss.org/AssocArO/UW/17227278">
          <pickID>quakeml:uw.anss.org/Arrival/UW/17227278</pickID>
          <phase>P</phase>
          <distance>1.292</distance>
          <creationInfo>
            <agencyID>UW</agencyID>
            <creationTime>2024-08-14T18:55:46.000000Z</creationTime>
          </creationInfo>
        </arrival>
        <arrival publicID="quakeml:uw.anss.org/AssocArO/UW/17227283">
          <pickID>quakeml:uw.anss.org/Arrival/UW/17227283</pickID>
          <phase>P</phase>
          <distance>1.6</distance>
          <creationInfo>
            <agencyID>UW</agencyID>
            <creationTime>2024-08-14T18:55:46.000000Z</creationTime>
          </creationInfo>
        </arrival>
        <arrival publicID="quakeml:uw.anss.org/AssocArO/UW/17227288">
          <pickID>quakeml:uw.anss.org/Arrival/UW/17227288</pickID>
          <phase>P</phase>
          <distance>1.814</distance>
          <creationInfo>
            <agencyID>UW</agencyID>
            <creationTime>2024-08-14T18:55:46.000000Z</creationTime>
          </creationInfo>
        </arrival>
        <arrival publicID="quakeml:uw.anss.org/AssocArO/UW/17227293">
          <pickID>quakeml:uw.anss.org/Arrival/UW/17227293</pickID>
          <phase>P</phase>
          <distance>1.841</distance>
          <creationInfo>
            <agencyID>UW</agencyID>
            <creationTime>2024-08-14T18:55:46.000000Z</creationTime>
          </creationInfo>
        </arrival>
        <arrival publicID="quakeml:uw.anss.org/AssocArO/UW/17227298">
          <pickID>quakeml:uw.anss.org/Arrival/UW/17227298</pickID>
          <phase>P</phase>
          <distance>1.904</distance>
          <creationInfo>
            <agencyID>UW</agencyID>
            <creationTime>2024-08-14T18:55:46.000000Z</creationTime>
          </creationInfo>
        </arrival>
        <arrival publicID="quakeml:uw.anss.org/AssocArO/UW/17227303">
          <pickID>quakeml:uw.anss.org/Arrival/UW/17227303</pickID>
          <phase>P</phase>
          <distance>1.97</distance>
          <creationInfo>
            <agencyID>UW</agencyID>
            <creationTime>2024-08-14T18:55:46.000000Z</creationTime>
          </creationInfo>
        </arrival>
        <arrival publicID="quakeml:uw.anss.org/AssocArO/UW/17227308">
          <pickID>quakeml:uw.anss.org/Arrival/UW/17227308</pickID>
          <phase>P</phase>
          <distance>2.094</distance>
          <creationInfo>
            <agencyID>UW</agencyID>
            <creationTime>2024-08-14T18:55:46.000000Z</creationTime>
          </creationInfo>
        </arrival>
        <arrival publicID="quakeml:uw.anss.org/AssocArO/UW/17227313">
          <pickID>quakeml:uw.anss.org/Arrival/UW/17227313</pickID>
          <phase>P</phase>
          <distance>2.125</distance>
          <creationInfo>
            <agencyID>UW</agencyID>
            <creationTime>2024-08-14T18:55:46.000000Z</creationTime>
          </creationInfo>
        </arrival>
        <arrival publicID="quakeml:uw.anss.org/AssocArO/UW/17227318">
          <pickID>quakeml:uw.anss.org/Arrival/UW/17227318</pickID>
          <phase>P</phase>
          <distance>2.203</distance>
          <creationInfo>
            <agencyID>UW</agencyID>
            <creationTime>2024-08-14T18:55:46.000000Z</creationTime>
          </creationInfo>
        </arrival>
        <arrival publicID="quakeml:uw.anss.org/AssocArO/UW/17227323">
          <pickID>quakeml:uw.anss.org/Arrival/UW/17227323</pickID>
          <phase>P</phase>
          <distance>2.616</distance>
          <creationInfo>
            <agencyID>UW</agencyID>
            <creationTime>2024-08-14T18:55:46.000000Z</creationTime>
          </creationInfo>
        </arrival>
        <arrival publicID="quakeml:uw.anss.org/AssocArO/UW/17227328">
          <pickID>quakeml:uw.anss.org/Arrival/UW/17227328</pickID>
          <phase>P</phase>
          <distance>3.004</distance>
          <creationInfo>
            <agencyID>UW</agencyID>
            <creationTime>2024-08-14T18:55:46.000000Z</creationTime>
          </creationInfo>
        </arrival>
        <arrival publicID="quakeml:uw.anss.org/AssocArO/UW/17227333">
          <pickID>quakeml:uw.anss.org/Arrival/UW/17227333</pickID>
          <phase>P</phase>
          <distance>3.084</distance>
          <creationInfo>
            <agencyID>UW</agencyID>
            <creationTime>2024-08-14T18:55:46.000000Z</creationTime>
          </creationInfo>
        </arrival>
        <arrival publicID="quakeml:uw.anss.org/AssocArO/UW/17227338">
          <pickID>quakeml:uw.anss.org/Arrival/UW/17227338</pickID>
          <phase>P</phase>
          <distance>3.089</distance>
          <creationInfo>
            <agencyID>UW</agencyID>
            <creationTime>2024-08-14T18:55:46.000000Z</creationTime>
          </creationInfo>
        </arrival>
        <arrival publicID="quakeml:uw.anss.org/AssocArO/UW/17227343">
          <pickID>quakeml:uw.anss.org/Arrival/UW/17227343</pickID>
          <phase>P</phase>
          <distance>3.447</distance>
          <creationInfo>
            <agencyID>UW</agencyID>
            <creationTime>2024-08-14T18:55:46.000000Z</creationTime>
          </creationInfo>
        </arrival>
        <arrival publicID="quakeml:uw.anss.org/AssocArO/UW/17227348">
          <pickID>quakeml:uw.anss.org/Arrival/UW/17227348</pickID>
          <phase>P</phase>
          <distance>3.585</distance>
          <creationInfo>
            <agencyID>UW</agencyID>
            <creationTime>2024-08-14T18:55:46.000000Z</creationTime>
          </creationInfo>
        </arrival>
        <arrival publicID="quakeml:uw.anss.org/AssocArO/UW/17227353">
          <pickID>quakeml:uw.anss.org/Arrival/UW/17227353</pickID>
          <phase>P</phase>
          <distance>4.15</distance>
          <creationInfo>
            <agencyID>UW</agencyID>
            <creationTime>2024-08-14T18:55:46.000000Z</creationTime>
          </creationInfo>
        </arrival>
        <arrival publicID="quakeml:uw.anss.org/AssocArO/UW/17227358">
          <pickID>quakeml:uw.anss.org/Arrival/UW/17227358</pickID>
          <phase>P</phase>
          <distance>4.261</distance>
          <creationInfo>
            <agencyID>UW</agencyID>
            <creationTime>2024-08-14T18:55:46.000000Z</creationTime>
          </creationInfo>
        </arrival>
        <arrival publicID="quakeml:uw.anss.org/AssocArO/UW/17227363">
          <pickID>quakeml:uw.anss.org/Arrival/UW/17227363</pickID>
          <phase>P</phase>
          <distance>4.568</distance>
          <creationInfo>
            <agencyID>UW</agencyID>
            <creationTime>2024-08-14T18:55:46.000000Z</creationTime>
          </creationInfo>
        </arrival>
        <arrival publicID="quakeml:uw.anss.org/AssocArO/UW/17227368">
          <pickID>quakeml:uw.anss.org/Arrival/UW/17227368</pickID>
          <phase>P</phase>
          <distance>4.628</distance>
          <creationInfo>
            <agencyID>UW</agencyID>
            <creationTime>2024-08-14T18:55:46.000000Z</creationTime>
          </creationInfo>
        </arrival>
        <arrival publicID="quakeml:uw.anss.org/AssocArO/UW/17227373">
          <pickID>quakeml:uw.anss.org/Arrival/UW/17227373</pickID>
          <phase>P</phase>
          <distance>5.02</distance>
          <creationInfo>
            <agencyID>UW</agencyID>
            <creationTime>2024-08-14T18:55:46.000000Z</creationTime>
          </creationInfo>
        </arrival>
        <arrival publicID="quakeml:uw.anss.org/AssocArO/UW/17227378">
          <pickID>quakeml:uw.anss.org/Arrival/UW/17227378</pickID>
          <phase>P</phase>
          <distance>5.474</distance>
          <creationInfo>
            <agencyID>UW</agencyID>
            <creationTime>2024-08-14T18:55:46.000000Z</creationTime>
          </creationInfo>
        </arrival>
        <arrival publicID="quakeml:uw.anss.org/AssocArO/UW/17227383">
          <pickID>quakeml:uw.anss.org/Arrival/UW/17227383</pickID>
          <phase>P</phase>
          <distance>5.812</distance>
          <creationInfo>
            <agencyID>UW</agencyID>
            <creationTime>2024-08-14T18:55:46.000000Z</creationTime>
          </creationInfo>
        </arrival>
        <arrival publicID="quakeml:uw.anss.org/AssocArO/UW/17227388">
          <pickID>quakeml:uw.anss.org/Arrival/UW/17227388</pickID>
          <phase>P</phase>
          <distance>6.589</distance>
          <creationInfo>
            <agencyID>UW</agencyID>
            <creationTime>2024-08-14T18:55:46.000000Z</creationTime>
          </creationInfo>
        </arrival>
        <arrival publicID="quakeml:uw.anss.org/AssocArO/UW/17227393">
          <pickID>quakeml:uw.anss.org/Arrival/UW/17227393</pickID>
          <phase>P</phase>
          <distance>6.724</distance>
          <creationInfo>
            <agencyID>UW</agencyID>
            <creationTime>2024-08-14T18:55:46.000000Z</creationTime>
          </creationInfo>
        </arrival>
      </origin>
      <magnitude publicID="quakeml:uw.anss.org/Netmag/UW/3298498">
        <mag>
          <value>-5.0</value>
        </mag>
        <type>Mh</type>
        <originID>quakeml:uw.anss.org/Origin/UW/3283813</originID>
        <methodID>smi:uw.anss.org/magnitude/HAND</methodID>
        <stationCount>0</stationCount>
        <evaluationMode>manual</evaluationMode>
        <evaluationStatus>reviewed</evaluationStatus>
        <creationInfo>
          <agencyID>UW</agencyID>
          <creationTime>2024-08-14T18:55:46.000000Z</creationTime>
        </creationInfo>
      </magnitude>
      <pick publicID="quakeml:uw.anss.org/Arrival/UW/17227198">
        <time>
          <value>2024-08-14T08:55:21.740000Z</value>
          <uncertainty>0.15</uncertainty>
        </time>
        <waveformID networkCode="UW" stationCode="MBW2" locationCode="" channelCode="HHZ"></waveformID>
        <onset>emergent</onset>
        <polarity>undecidable</polarity>
        <evaluationMode>manual</evaluationMode>
        <evaluationStatus>reviewed</evaluationStatus>
        <creationInfo>
          <agencyID>UW</agencyID>
          <creationTime>2024-08-14T18:55:46.000000Z</creationTime>
        </creationInfo>
      </pick>
      <pick publicID="quakeml:uw.anss.org/Arrival/UW/17227203">
        <time>
          <value>2024-08-14T08:55:24.000000Z</value>
        </time>
        <waveformID networkCode="UW" stationCode="SHUK" locationCode="" channelCode="HHZ"></waveformID>
        <onset>questionable</onset>
        <polarity>undecidable</polarity>
        <evaluationMode>automatic</evaluationMode>
        <evaluationStatus>preliminary</evaluationStatus>
        <creationInfo>
          <agencyID>UW</agencyID>
          <creationTime>2024-08-14T18:55:46.000000Z</creationTime>
        </creationInfo>
      </pick>
      <pick publicID="quakeml:uw.anss.org/Arrival/UW/17227208">
        <time>
          <value>2024-08-14T08:55:26.000000Z</value>
        </time>
        <waveformID networkCode="UW" stationCode="SAXON" locationCode="" channelCode="HHZ"></waveformID>
        <onset>questionable</onset>
        <polarity>undecidable</polarity>
        <evaluationMode>automatic</evaluationMode>
        <evaluationStatus>preliminary</evaluationStatus>
        <creationInfo>
          <agencyID>UW</agencyID>
          <creationTime>2024-08-14T18:55:46.000000Z</creationTime>
        </creationInfo>
      </pick>
      <pick publicID="quakeml:uw.anss.org/Arrival/UW/17227213">
        <time>
          <value>2024-08-14T08:55:27.000000Z</value>
        </time>
        <waveformID networkCode="UW" stationCode="PASS" locationCode="" channelCode="HHZ"></waveformID>
        <onset>questionable</onset>
        <polarity>undecidable</polarity>
