<?xml version='1.0' encoding='utf-8'?>
<q:quakeml xmlns="http://quakeml.org/xmlns/bed/1.2" xmlns:q="http://quakeml.org/xmlns/quakeml/1.2" xmlns:ns0="http://anss.org/xmlns/catalog/0.1">
  <eventParameters publicID="smi:local/bfa3a613-4200-410c-b776-0c5da6204f52">
    <event publicID="quakeml:uw.anss.org/Event/UW/62041881" ns0:datasource="uw" ns0:dataid="uw62041881" ns0:eventsource="uw" ns0:eventid="62041881">
      <preferredOriginID>quakeml:uw.anss.org/Origin/UW/3286553</preferredOriginID>
      <preferredMagnitudeID>quakeml:uw.anss.org/Netmag/UW/3302953</preferredMagnitudeID>
      <type>earthquake</type>
      <creationInfo>
        <agencyID>UW</agencyID>
        <creationTime>2024-08-29T17:25:15.000000Z</creationTime>
        <version>2</version>
      </creationInfo>
      <origin publicID="quakeml:uw.anss.org/Origin/UW/3286553" ns0:datasource="uw" ns0:dataid="uw62041881" ns0:eventsource="uw" ns0:eventid="62041881">
        <time>
          <value>2024-08-29T07:39:31.870000Z</value>
        </time>
        <latitude>
          <value>48.758</value>
        </latitude>
        <longitude>
          <value>-121.785</value>
        </longitude>
        <depth>
          <value>-700.0</value>
          <uncertainty>5660.0</uncertainty>
        </depth>
        <depthType>from location</depthType>
        <timeFixed>false</timeFixed>
        <epicenterFixed>false</epicenterFixed>
        <methodID>smi:uw.anss.org/origin/HYP2000</methodID>
        <quality>
          <associatedPhaseCount>13</associatedPhaseCount>
          <usedPhaseCount>11</usedPhaseCount>
          <associatedStationCount>8</associatedStationCount>
          <usedStationCount>7</usedStationCount>
          <standardError>0.7</standardError>
          <azimuthalGap>115.0</azimuthalGap>
          <secondaryAzimuthalGap>542.0</secondaryAzimuthalGap>
          <minimumDistance>0.09906</minimumDistance>
          <maximumDistance>0.4195</maximumDistance>
          <medianDistance>0.3007</medianDistance>
        </quality>
        <type>hypocenter</type>
        <evaluationMode>manual</evaluationMode>
        <evaluationStatus>final</evaluationStatus>
        <creationInfo>
          <agencyID>UW</agencyID>
          <creationTime>2024-08-29T17:16:26.000000Z</creationTime>
        </creationInfo>
        <originUncertainty>
          <preferredDescription>confidence ellipsoid</preferredDescription>
          <horizontalUncertainty>2060.0</horizontalUncertainty>
          <confidenceLevel>95.0</confidenceLevel>
          <confidenceEllipsoid>
            <semiMajorAxisLength>14448.0</semiMajorAxisLength>
            <semiMinorAxisLength>3072.0</semiMinorAxisLength>
            <semiIntermediateAxisLength>3456.0</semiIntermediateAxisLength>
            <majorAxisPlunge>70.0</majorAxisPlunge>
            <majorAxisAzimuth>30.0</majorAxisAzimuth>
            <majorAxisRotation>270.0</majorAxisRotation>
          </confidenceEllipsoid>
        </originUncertainty>
        <arrival publicID="quakeml:uw.anss.org/AssocArO/UW/17267088">
          <pickID>quakeml:uw.anss.org/Arrival/UW/17267088</pickID>
          <phase>P</phase>
          <timeCorrection>0.17</timeCorrection>
          <azimuth>295.7086285707619</azimuth>
          <distance>0.09906</distance>
          <takeoffAngle>
            <value>90.0</value>
          </takeoffAngle>
          <timeResidual>-1.12</timeResidual>
          <timeWeight>0.06</timeWeight>
          <creationInfo>
            <agencyID>UW</agencyID>
            <creationTime>2024-08-29T17:25:15.000000Z</creationTime>
          </creationInfo>
        </arrival>
        <arrival publicID="quakeml:uw.anss.org/AssocArO/UW/17267093">
          <pickID>quakeml:uw.anss.org/Arrival/UW/17267093</pickID>
          <phase>P</phase>
          <timeCorrection>0.07</timeCorrection>
          <azimuth>36.819043436137974</azimuth>
          <distance>0.1188</distance>
          <takeoffAngle>
            <value>90.0</value>
          </takeoffAngle>
          <timeResidual>0.3</timeResidual>
          <timeWeight>0.12</timeWeight>
          <creationInfo>
            <agencyID>UW</agencyID>
            <creationTime>2024-08-29T17:25:15.000000Z</creationTime>
          </creationInfo>
        </arrival>
        <arrival publicID="quakeml:uw.anss.org/AssocArO/UW/17267098">
          <pickID>quakeml:uw.anss.org/Arrival/UW/17267098</pickID>
          <phase>S</phase>
          <timeCorrection>0.12</timeCorrection>
          <azimuth>36.819043436137974</azimuth>
          <distance>0.1188</distance>
          <takeoffAngle>
            <value>90.0</value>
          </takeoffAngle>
          <timeResidual>0.11</timeResidual>
          <timeWeight>0.06</timeWeight>
          <creationInfo>
            <agencyID>UW</agencyID>
            <creationTime>2024-08-29T17:25:15.000000Z</creationTime>
          </creationInfo>
        </arrival>
        <arrival publicID="quakeml:uw.anss.org/AssocArO/UW/17267103">
          <pickID>quakeml:uw.anss.org/Arrival/UW/17267103</pickID>
          <phase>P</phase>
          <timeCorrection>0.1</timeCorrection>
          <azimuth>253.37303205072945</azimuth>
          <distance>0.2599</distance>
          <takeoffAngle>
            <value>57.0</value>
          </takeoffAngle>
          <timeResidual>-0.95</timeResidual>
          <timeWeight>0.12</timeWeight>
          <creationInfo>
            <agencyID>UW</agencyID>
            <creationTime>2024-08-29T17:25:15.000000Z</creationTime>
          </creationInfo>
        </arrival>
        <arrival publicID="quakeml:uw.anss.org/AssocArO/UW/17267108">
          <pickID>quakeml:uw.anss.org/Arrival/UW/17267108</pickID>
          <phase>P</phase>
          <timeCorrection>0.0</timeCorrection>
          <azimuth>219.77953118210172</azimuth>
          <distance>0.2897</distance>
          <takeoffAngle>
            <value>57.0</value>
          </takeoffAngle>
          <timeResidual>-0.33</timeResidual>
          <timeWeight>0.12</timeWeight>
          <creationInfo>
            <agencyID>UW</agencyID>
            <creationTime>2024-08-29T17:25:15.000000Z</creationTime>
          </creationInfo>
        </arrival>
        <arrival publicID="quakeml:uw.anss.org/AssocArO/UW/17267113">
          <pickID>quakeml:uw.anss.org/Arrival/UW/17267113</pickID>
          <phase>S</phase>
          <timeCorrection>0.0</timeCorrection>
          <azimuth>219.77953118210172</azimuth>
          <distance>0.2897</distance>
          <takeoffAngle>
            <value>57.0</value>
          </takeoffAngle>
          <timeResidual>0.26</timeResidual>
          <timeWeight>0.12</timeWeight>
          <creationInfo>
            <agencyID>UW</agencyID>
            <creationTime>2024-08-29T17:25:15.000000Z</creationTime>
          </creationInfo>
        </arrival>
        <arrival publicID="quakeml:uw.anss.org/AssocArO/UW/17267118">
          <pickID>quakeml:uw.anss.org/Arrival/UW/17267118</pickID>
          <phase>P</phase>
          <timeCorrection>0.27</timeCorrection>
          <azimuth>320.70665016773955</azimuth>
          <distance>0.3116</distance>
          <takeoffAngle>
            <value>57.0</value>
          </takeoffAngle>
          <timeResidual>-0.51</timeResidual>
          <timeWeight>0.12</timeWeight>
          <creationInfo>
            <agencyID>UW</agencyID>
            <creationTime>2024-08-29T17:25:15.000000Z</creationTime>
          </creationInfo>
        </arrival>
        <arrival publicID="quakeml:uw.anss.org/AssocArO/UW/17267123">
          <pickID>quakeml:uw.anss.org/Arrival/UW/17267123</pickID>
          <phase>P</phase>
          <timeCorrection>0.0</timeCorrection>
          <azimuth>329.2169709285334</azimuth>
          <distance>0.349</distance>
          <timeResidual>0.0</timeResidual>
          <timeWeight>0.0</timeWeight>
          <creationInfo>
            <agencyID>UW</agencyID>
            <creationTime>2024-08-29T17:25:15.000000Z</creationTime>
          </creationInfo>
        </arrival>
        <arrival publicID="quakeml:uw.anss.org/AssocArO/UW/17267128">
          <pickID>quakeml:uw.anss.org/Arrival/UW/17267128</pickID>
          <phase>S</phase>
          <timeCorrection>0.0</timeCorrection>
          <azimuth>329.2169709285334</azimuth>
          <distance>0.349</distance>
          <timeResidual>0.0</timeResidual>
          <timeWeight>0.0</timeWeight>
          <creationInfo>
            <agencyID>UW</agencyID>
            <creationTime>2024-08-29T17:25:15.000000Z</creationTime>
          </creationInfo>
        </arrival>
        <arrival publicID="quakeml:uw.anss.org/AssocArO/UW/17267133">
          <pickID>quakeml:uw.anss.org/Arrival/UW/17267133</pickID>
          <phase>P</phase>
          <timeCorrection>0.14</timeCorrection>
          <azimuth>151.27489569253441</azimuth>
          <distance>0.3573</distance>
          <takeoffAngle>
            <value>57.0</value>
          </takeoffAngle>
          <timeResidual>-0.4</timeResidual>
          <timeWeight>0.06</timeWeight>
          <creationInfo>
            <agencyID>UW</agencyID>
            <creationTime>2024-08-29T17:25:15.000000Z</creationTime>
          </creationInfo>
        </arrival>
        <arrival publicID="quakeml:uw.anss.org/AssocArO/UW/17267138">
          <pickID>quakeml:uw.anss.org/Arrival/UW/17267138</pickID>
          <phase>S</phase>
          <timeCorrection>0.25</timeCorrection>
          <azimuth>151.27489569253441</azimuth>
          <distance>0.3573</distance>
          <takeoffAngle>
            <value>57.0</value>
          </takeoffAngle>
          <timeResidual>0.21</timeResidual>
          <timeWeight>0.12</timeWeight>
          <creationInfo>
            <agencyID>UW</agencyID>
            <creationTime>2024-08-29T17:25:15.000000Z</creationTime>
          </creationInfo>
        </arrival>
        <arrival publicID="quakeml:uw.anss.org/AssocArO/UW/17267143">
          <pickID>quakeml:uw.anss.org/Arrival/UW/17267143</pickID>
          <phase>P</phase>
          <timeCorrection>0.3</timeCorrection>
          <azimuth>274.2501559133599</azimuth>
          <distance>0.4195</distance>
          <takeoffAngle>
            <value>57.0</value>
          </takeoffAngle>
          <timeResidual>0.66</timeResidual>
          <timeWeight>0.06</timeWeight>
          <creationInfo>
            <agencyID>UW</agencyID>
            <creationTime>2024-08-29T17:25:15.000000Z</creationTime>
          </creationInfo>
        </arrival>
        <arrival publicID="quakeml:uw.anss.org/AssocArO/UW/17267148">
          <pickID>quakeml:uw.anss.org/Arrival/UW/17267148</pickID>
          <phase>S</phase>
          <timeCorrection>0.53</timeCorrection>
          <azimuth>274.2501559133599</azimuth>
          <distance>0.4195</distance>
          <takeoffAngle>
            <value>57.0</value>
          </takeoffAngle>
          <timeResidual>1.4</timeResidual>
          <timeWeight>0.12</timeWeight>
          <creationInfo>
            <agencyID>UW</agencyID>
            <creationTime>2024-08-29T17:25:15.000000Z</creationTime>
          </creationInfo>
        </arrival>
      </origin>
      <magnitude publicID="quakeml:uw.anss.org/Netmag/UW/3302953">
        <mag>
          <value>1.56</value>
          <uncertainty>0.19662776993477316</uncertainty>
        </mag>
        <type>Ml</type>
        <originID>quakeml:uw.anss.org/Origin/UW/3286553</originID>
        <methodID>smi:uw.anss.org/magnitude/RichterMl2</methodID>
        <stationCount>6</stationCount>
        <azimuthalGap>114.45585225639644</azimuthalGap>
        <evaluationMode>manual</evaluationMode>
        <evaluationStatus>reviewed</evaluationStatus>
        <stationMagnitudeContribution>
          <stationMagnitudeID>quakeml:uw.anss.org/AssocAmM/UW/15980853</stationMagnitudeID>
          <weight>0.0</weight>
          <residual>0.0</residual>
        </stationMagnitudeContribution>
        <stationMagnitudeContribution>
          <stationMagnitudeID>quakeml:uw.anss.org/AssocAmM/UW/15980883</stationMagnitudeID>
          <weight>1.0</weight>
          <residual>0.32</residual>
        </stationMagnitudeContribution>
        <stationMagnitudeContribution>
          <stationMagnitudeID>quakeml:uw.anss.org/AssocAmM/UW/15980928</stationMagnitudeID>
          <weight>1.0</weight>
          <residual>0.0</residual>
        </stationMagnitudeContribution>
        <stationMagnitudeContribution>
          <stationMagnitudeID>quakeml:uw.anss.org/AssocAmM/UW/15980878</stationMagnitudeID>
          <weight>1.0</weight>
          <residual>-0.1</residual>
        </stationMagnitudeContribution>
        <stationMagnitudeContribution>
          <stationMagnitudeID>quakeml:uw.anss.org/AssocAmM/UW/15980863</stationMagnitudeID>
          <weight>0.0</weight>
          <residual>0.01</residual>
        </stationMagnitudeContribution>
        <stationMagnitudeContribution>
          <stationMagnitudeID>quakeml:uw.anss.org/AssocAmM/UW/15980868</stationMagnitudeID>
          <weight>0.0</weight>
          <residual>0.13</residual>
        </stationMagnitudeContribution>
        <stationMagnitudeContribution>
          <stationMagnitudeID>quakeml:uw.anss.org/AssocAmM/UW/15980893</stationMagnitudeID>
          <weight>1.0</weight>
          <residual>0.3</residual>
        </stationMagnitudeContribution>
        <stationMagnitudeContribution>
          <stationMagnitudeID>quakeml:uw.anss.org/AssocAmM/UW/15980913</stationMagnitudeID>
          <weight>1.0</weight>
          <residual>-0.06</residual>
        </stationMagnitudeContribution>
        <stationMagnitudeContribution>
          <stationMagnitudeID>quakeml:uw.anss.org/AssocAmM/UW/15980898</stationMagnitudeID>
          <weight>1.0</weight>
          <residual>0.21</residual>
        </stationMagnitudeContribution>
        <stationMagnitudeContribution>
          <stationMagnitudeID>quakeml:uw.anss.org/AssocAmM/UW/15980938</stationMagnitudeID>
          <weight>1.0</weight>
          <residual>-0.29</residual>
        </stationMagnitudeContribution>
        <stationMagnitudeContribution>
          <stationMagnitudeID>quakeml:uw.anss.org/AssocAmM/UW/15980953</stationMagnitudeID>
          <weight>1.0</weight>
          <residual>0.43</residual>
        </stationMagnitudeContribution>
        <stationMagnitudeContribution>
          <stationMagnitudeID>quakeml:uw.anss.org/AssocAmM/UW/15980943</stationMagnitudeID>
          <weight>1.0</weight>
          <residual>0.44</residual>
        </stationMagnitudeContribution>
        <stationMagnitudeContribution>
          <stationMagnitudeID>quakeml:uw.anss.org/AssocAmM/UW/15980903</stationMagnitudeID>
          <weight>1.0</weight>
          <residual>-0.19</residual>
        </stationMagnitudeContribution>
        <stationMagnitudeContribution>
          <stationMagnitudeID>quakeml:uw.anss.org/AssocAmM/UW/15980918</stationMagnitudeID>
          <weight>1.0</weight>
          <residual>0.06</residual>
        </stationMagnitudeContribution>
        <stationMagnitudeContribution>
          <stationMagnitudeID>quakeml:uw.anss.org/AssocAmM/UW/15980933</stationMagnitudeID>
          <weight>1.0</weight>
          <residual>-0.48</residual>
        </stationMagnitudeContribution>
        <stationMagnitudeContribution>
          <stationMagnitudeID>quakeml:uw.anss.org/AssocAmM/UW/15980908</stationMagnitudeID>
          <weight>1.0</weight>
          <residual>-0.05</residual>
        </stationMagnitudeContribution>
        <stationMagnitudeContribution>
          <stationMagnitudeID>quakeml:uw.anss.org/AssocAmM/UW/15980873</stationMagnitudeID>
          <weight>1.0</weight>
          <residual>-0.19</residual>
        </stationMagnitudeContribution>
        <stationMagnitudeContribution>
          <stationMagnitudeID>quakeml:uw.anss.org/AssocAmM/UW/15980888</stationMagnitudeID>
          <weight>1.0</weight>
          <residual>0.11</residual>
        </stationMagnitudeContribution>
        <stationMagnitudeContribution>
          <stationMagnitudeID>quakeml:uw.anss.org/AssocAmM/UW/15980858</stationMagnitudeID>
          <weight>0.0</weight>
          <residual>0.13</residual>
        </stationMagnitudeContribution>
        <stationMagnitudeContribution>
          <stationMagnitudeID>quakeml:uw.anss.org/AssocAmM/UW/15980923</stationMagnitudeID>
          <weight>1.0</weight>
          <residual>0.07</residual>
        </stationMagnitudeContribution>
        <stationMagnitudeContribution>
          <stationMagnitudeID>quakeml:uw.anss.org/AssocAmM/UW/15980948</stationMagnitudeID>
          <weight>1.0</weight>
          <residual>-0.08</residual>
        </stationMagnitudeContribution>
        <creationInfo>
          <agencyID>UW</agencyID>
          <creationTime>2024-08-29T17:25:15.000000Z</creationTime>
        </creationInfo>
      </magnitude>
      <stationMagnitude publicID="quakeml:uw.anss.org/AssocAmM/UW/15980853">
        <originID>quakeml:uw.anss.org/Origin/UW/3286553</originID>
        <mag>
          <value>1.56</value>
        </mag>
        <type>ML</type>
        <amplitudeID>quakeml:uw.anss.org/Amp/UW/15980853</amplitudeID>
        <waveformID networkCode="UW" stationCode="MBW2" locationCode="" channelCode="ENN"></waveformID>
      </stationMagnitude>
      <stationMagnitude publicID="quakeml:uw.anss.org/AssocAmM/UW/15980858">
        <originID>quakeml:uw.anss.org/Origin/UW/3286553</originID>
        <mag>
          <value>1.69</value>
        </mag>
        <type>ML</type>
        <amplitudeID>quakeml:uw.anss.org/Amp/UW/15980858</amplitudeID>
        <waveformID networkCode="UW" stationCode="MBW2" locationCode="" channelCode="ENE"></waveformID>
      </stationMagnitude>
      <stationMagnitude publicID="quakeml:uw.anss.org/AssocAmM/UW/15980863">
        <originID>quakeml:uw.anss.org/Origin/UW/3286553</originID>
        <mag>
          <value>1.57</value>
        </mag>
        <type>ML</type>
        <amplitudeID>quakeml:uw.anss.org/Amp/UW/15980863</amplitudeID>
        <waveformID networkCode="UW" stationCode="MBW2" locationCode="" channelCode="HHN"></waveformID>
      </stationMagnitude>
      <stationMagnitude publicID="quakeml:uw.anss.org/AssocAmM/UW/15980868">
        <originID>quakeml:uw.anss.org/Origin/UW/3286553</originID>
        <mag>
          <value>1.69</value>
        </mag>
        <type>ML</type>
        <amplitudeID>quakeml:uw.anss.org/Amp/UW/15980868</amplitudeID>
        <waveformID networkCode="UW" stationCode="MBW2" locationCode="" channelCode="HHE"></waveformID>
      </stationMagnitude>
      <stationMagnitude publicID="quakeml:uw.anss.org/AssocAmM/UW/15980873">
        <originID>quakeml:uw.anss.org/Origin/UW/3286553</originID>
        <mag>
          <value>1.37</value>
        </mag>
        <type>ML</type>
        <amplitudeID>quakeml:uw.anss.org/Amp/UW/15980873</amplitudeID>
        <waveformID networkCode="UW" stationCode="SHUK" locationCode="" channelCode="HHN"></waveformID>
      </stationMagnitude>
      <stationMagnitude publicID="quakeml:uw.anss.org/AssocAmM/UW/15980878">
        <originID>quakeml:uw.anss.org/Origin/UW/3286553</originID>
        <mag>
          <value>1.46</value>
        </mag>
        <type>ML</type>
        <amplitudeID>quakeml:uw.anss.org/Amp/UW/15980878</amplitudeID>
        <waveformID networkCode="UW" stationCode="SHUK" locationCode="" channelCode="HHE"></waveformID>
      </stationMagnitude>
      <stationMagnitude publicID="quakeml:uw.anss.org/AssocAmM/UW/15980883">
        <originID>quakeml:uw.anss.org/Origin/UW/3286553</originID>
        <mag>
          <value>1.88</value>
        </mag>
        <type>ML</type>
        <amplitudeID>quakeml:uw.anss.org/Amp/UW/15980883</amplitudeID>
        <waveformID networkCode="UW" stationCode="SAXON" locationCode="" channelCode="ENN"></waveformID>
      </stationMagnitude>
      <stationMagnitude publicID="quakeml:uw.anss.org/AssocAmM/UW/15980888">
        <originID>quakeml:uw.anss.org/Origin/UW/3286553</originID>
        <mag>
