<?xml version='1.0' encoding='utf-8'?>
<q:quakeml xmlns="http://quakeml.org/xmlns/bed/1.2" xmlns:q="http://quakeml.org/xmlns/quakeml/1.2" xmlns:ns0="http://anss.org/xmlns/catalog/0.1">
  <eventParameters publicID="smi:local/faf9937a-348f-4fc9-84b5-d11301c8d38d">
    <event publicID="quakeml:uw.anss.org/Event/UW/62008611" ns0:datasource="uw" ns0:dataid="uw62008611" ns0:eventsource="uw" ns0:eventid="62008611">
      <preferredOriginID>quakeml:uw.anss.org/Origin/UW/3271763</preferredOriginID>
      <preferredMagnitudeID>quakeml:uw.anss.org/Netmag/UW/3279573</preferredMagnitudeID>
      <type>earthquake</type>
      <creationInfo>
        <agencyID>UW</agencyID>
        <creationTime>2024-05-28T18:10:44.000000Z</creationTime>
        <version>1</version>
      </creationInfo>
      <origin publicID="quakeml:uw.anss.org/Origin/UW/3271763" ns0:datasource="uw" ns0:dataid="uw62008611" ns0:eventsource="uw" ns0:eventid="62008611">
        <time>
          <value>2024-05-24T08:41:59.420000Z</value>
        </time>
        <latitude>
          <value>48.80233333333334</value>
        </latitude>
        <longitude>
          <value>-121.86066666666666</value>
        </longitude>
        <depth>
          <value>15950.0</value>
          <uncertainty>1270.0</uncertainty>
        </depth>
        <depthType>from location</depthType>
        <timeFixed>false</timeFixed>
        <epicenterFixed>false</epicenterFixed>
        <methodID>smi:uw.anss.org/origin/HYP2000</methodID>
        <quality>
          <associatedPhaseCount>6</associatedPhaseCount>
          <usedPhaseCount>6</usedPhaseCount>
          <associatedStationCount>3</associatedStationCount>
          <usedStationCount>3</usedStationCount>
          <standardError>0.04</standardError>
          <azimuthalGap>187.0</azimuthalGap>
          <secondaryAzimuthalGap>531.0</secondaryAzimuthalGap>
          <minimumDistance>0.1315</minimumDistance>
          <maximumDistance>0.2993</maximumDistance>
          <medianDistance>0.2317</medianDistance>
        </quality>
        <type>hypocenter</type>
        <evaluationMode>manual</evaluationMode>
        <evaluationStatus>reviewed</evaluationStatus>
        <creationInfo>
          <agencyID>UW</agencyID>
          <creationTime>2024-05-28T18:08:33.000000Z</creationTime>
        </creationInfo>
        <originUncertainty>
          <preferredDescription>confidence ellipsoid</preferredDescription>
          <horizontalUncertainty>870.0</horizontalUncertainty>
          <confidenceLevel>95.0</confidenceLevel>
          <confidenceEllipsoid>
            <semiMajorAxisLength>3336.0</semiMajorAxisLength>
            <semiMinorAxisLength>624.0</semiMinorAxisLength>
            <semiIntermediateAxisLength>2256.0</semiIntermediateAxisLength>
            <majorAxisPlunge>66.0</majorAxisPlunge>
            <majorAxisAzimuth>341.0</majorAxisAzimuth>
            <majorAxisRotation>345.0</majorAxisRotation>
          </confidenceEllipsoid>
        </originUncertainty>
        <arrival publicID="quakeml:uw.anss.org/AssocArO/UW/17070798">
          <pickID>quakeml:uw.anss.org/Arrival/UW/17070798</pickID>
          <phase>P</phase>
          <timeCorrection>0.07</timeCorrection>
          <azimuth>67.2655557791162</azimuth>
          <distance>0.1315</distance>
          <takeoffAngle>
            <value>134.0</value>
          </takeoffAngle>
          <timeResidual>0.0</timeResidual>
          <timeWeight>0.13</timeWeight>
          <creationInfo>
            <agencyID>UW</agencyID>
            <creationTime>2024-05-28T18:10:44.000000Z</creationTime>
          </creationInfo>
        </arrival>
        <arrival publicID="quakeml:uw.anss.org/AssocArO/UW/17070803">
          <pickID>quakeml:uw.anss.org/Arrival/UW/17070803</pickID>
          <phase>S</phase>
          <timeCorrection>0.12</timeCorrection>
          <azimuth>67.2655557791162</azimuth>
          <distance>0.1315</distance>
          <takeoffAngle>
            <value>134.0</value>
          </takeoffAngle>
          <timeResidual>0.01</timeResidual>
          <timeWeight>0.09</timeWeight>
          <creationInfo>
            <agencyID>UW</agencyID>
            <creationTime>2024-05-28T18:10:44.000000Z</creationTime>
          </creationInfo>
        </arrival>
        <arrival publicID="quakeml:uw.anss.org/AssocArO/UW/17070808">
          <pickID>quakeml:uw.anss.org/Arrival/UW/17070808</pickID>
          <phase>P</phase>
          <timeCorrection>0.1</timeCorrection>
          <azimuth>239.09027462061496</azimuth>
          <distance>0.2317</distance>
          <takeoffAngle>
            <value>116.0</value>
          </takeoffAngle>
          <timeResidual>-0.07</timeResidual>
          <timeWeight>0.09</timeWeight>
          <creationInfo>
            <agencyID>UW</agencyID>
            <creationTime>2024-05-28T18:10:44.000000Z</creationTime>
          </creationInfo>
        </arrival>
        <arrival publicID="quakeml:uw.anss.org/AssocArO/UW/17070813">
          <pickID>quakeml:uw.anss.org/Arrival/UW/17070813</pickID>
          <phase>S</phase>
          <timeCorrection>0.18</timeCorrection>
          <azimuth>239.09027462061496</azimuth>
          <distance>0.2317</distance>
          <takeoffAngle>
            <value>116.0</value>
          </takeoffAngle>
          <timeResidual>0.01</timeResidual>
          <timeWeight>0.13</timeWeight>
          <creationInfo>
            <agencyID>UW</agencyID>
            <creationTime>2024-05-28T18:10:44.000000Z</creationTime>
          </creationInfo>
        </arrival>
        <arrival publicID="quakeml:uw.anss.org/AssocArO/UW/17070818">
          <pickID>quakeml:uw.anss.org/Arrival/UW/17070818</pickID>
          <phase>P</phase>
          <timeCorrection>0.0</timeCorrection>
          <azimuth>206.83145833200504</azimuth>
          <distance>0.2993</distance>
          <takeoffAngle>
            <value>109.0</value>
          </takeoffAngle>
          <timeResidual>0.07</timeResidual>
          <timeWeight>0.09</timeWeight>
          <creationInfo>
            <agencyID>UW</agencyID>
            <creationTime>2024-05-28T18:10:44.000000Z</creationTime>
          </creationInfo>
        </arrival>
        <arrival publicID="quakeml:uw.anss.org/AssocArO/UW/17070823">
          <pickID>quakeml:uw.anss.org/Arrival/UW/17070823</pickID>
          <phase>S</phase>
          <timeCorrection>0.0</timeCorrection>
          <azimuth>206.83145833200504</azimuth>
          <distance>0.2993</distance>
          <takeoffAngle>
            <value>109.0</value>
          </takeoffAngle>
          <timeResidual>-0.06</timeResidual>
          <timeWeight>0.09</timeWeight>
          <creationInfo>
            <agencyID>UW</agencyID>
            <creationTime>2024-05-28T18:10:44.000000Z</creationTime>
          </creationInfo>
        </arrival>
      </origin>
      <magnitude publicID="quakeml:uw.anss.org/Netmag/UW/3279573">
        <mag>
          <value>0.98</value>
          <uncertainty>0.0116303462012195</uncertainty>
        </mag>
        <type>Ml</type>
        <originID>quakeml:uw.anss.org/Origin/UW/3271763</originID>
        <methodID>smi:uw.anss.org/magnitude/RichterMl2</methodID>
        <stationCount>3</stationCount>
        <azimuthalGap>188.17528115850124</azimuthalGap>
        <evaluationMode>manual</evaluationMode>
        <evaluationStatus>reviewed</evaluationStatus>
        <stationMagnitudeContribution>
          <stationMagnitudeID>quakeml:uw.anss.org/AssocAmM/UW/15760898</stationMagnitudeID>
          <weight>1.0</weight>
          <residual>-0.0</residual>
        </stationMagnitudeContribution>
        <stationMagnitudeContribution>
          <stationMagnitudeID>quakeml:uw.anss.org/AssocAmM/UW/15760908</stationMagnitudeID>
          <weight>1.0</weight>
          <residual>0.04</residual>
        </stationMagnitudeContribution>
        <stationMagnitudeContribution>
          <stationMagnitudeID>quakeml:uw.anss.org/AssocAmM/UW/15760918</stationMagnitudeID>
          <weight>1.0</weight>
          <residual>0.1</residual>
        </stationMagnitudeContribution>
        <stationMagnitudeContribution>
          <stationMagnitudeID>quakeml:uw.anss.org/AssocAmM/UW/15760913</stationMagnitudeID>
          <weight>1.0</weight>
          <residual>-0.01</residual>
        </stationMagnitudeContribution>
        <stationMagnitudeContribution>
          <stationMagnitudeID>quakeml:uw.anss.org/AssocAmM/UW/15760893</stationMagnitudeID>
          <weight>0.0</weight>
          <residual>-0.16</residual>
        </stationMagnitudeContribution>
        <stationMagnitudeContribution>
          <stationMagnitudeID>quakeml:uw.anss.org/AssocAmM/UW/15760903</stationMagnitudeID>
          <weight>1.0</weight>
          <residual>-0.01</residual>
        </stationMagnitudeContribution>
        <creationInfo>
          <agencyID>UW</agencyID>
          <creationTime>2024-05-28T18:10:44.000000Z</creationTime>
        </creationInfo>
      </magnitude>
      <stationMagnitude publicID="quakeml:uw.anss.org/AssocAmM/UW/15760893">
        <originID>quakeml:uw.anss.org/Origin/UW/3271763</originID>
        <mag>
          <value>0.82</value>
        </mag>
        <type>ML</type>
        <amplitudeID>quakeml:uw.anss.org/Amp/UW/15760893</amplitudeID>
        <waveformID networkCode="UW" stationCode="SHUK" locationCode="" channelCode="HHN"></waveformID>
      </stationMagnitude>
      <stationMagnitude publicID="quakeml:uw.anss.org/AssocAmM/UW/15760898">
        <originID>quakeml:uw.anss.org/Origin/UW/3271763</originID>
        <mag>
          <value>0.98</value>
        </mag>
        <type>ML</type>
        <amplitudeID>quakeml:uw.anss.org/Amp/UW/15760898</amplitudeID>
        <waveformID networkCode="UW" stationCode="SHUK" locationCode="" channelCode="HHE"></waveformID>
      </stationMagnitude>
      <stationMagnitude publicID="quakeml:uw.anss.org/AssocAmM/UW/15760903">
        <originID>quakeml:uw.anss.org/Origin/UW/3271763</originID>
        <mag>
          <value>0.97</value>
        </mag>
        <type>ML</type>
        <amplitudeID>quakeml:uw.anss.org/Amp/UW/15760903</amplitudeID>
        <waveformID networkCode="UW" stationCode="SAXON" locationCode="" channelCode="HHN"></waveformID>
      </stationMagnitude>
      <stationMagnitude publicID="quakeml:uw.anss.org/AssocAmM/UW/15760908">
        <originID>quakeml:uw.anss.org/Origin/UW/3271763</originID>
        <mag>
          <value>1.02</value>
        </mag>
        <type>ML</type>
        <amplitudeID>quakeml:uw.anss.org/Amp/UW/15760908</amplitudeID>
        <waveformID networkCode="UW" stationCode="SAXON" locationCode="" channelCode="HHE"></waveformID>
      </stationMagnitude>
      <stationMagnitude publicID="quakeml:uw.anss.org/AssocAmM/UW/15760913">
        <originID>quakeml:uw.anss.org/Origin/UW/3271763</originID>
        <mag>
          <value>0.97</value>
        </mag>
        <type>ML</type>
        <amplitudeID>quakeml:uw.anss.org/Amp/UW/15760913</amplitudeID>
        <waveformID networkCode="UW" stationCode="MULN" locationCode="" channelCode="HHN"></waveformID>
      </stationMagnitude>
      <stationMagnitude publicID="quakeml:uw.anss.org/AssocAmM/UW/15760918">
        <originID>quakeml:uw.anss.org/Origin/UW/3271763</originID>
        <mag>
          <value>1.08</value>
        </mag>
        <type>ML</type>
        <amplitudeID>quakeml:uw.anss.org/Amp/UW/15760918</amplitudeID>
        <waveformID networkCode="UW" stationCode="MULN" locationCode="" channelCode="HHE"></waveformID>
      </stationMagnitude>
      <pick publicID="quakeml:uw.anss.org/Arrival/UW/17070798">
        <time>
          <value>2024-05-24T08:42:03.030000Z</value>
          <uncertainty>0.06</uncertainty>
        </time>
        <waveformID networkCode="UW" stationCode="SHUK" locationCode="" channelCode="HHZ"></waveformID>
        <onset>impulsive</onset>
        <polarity>positive</polarity>
        <evaluationMode>manual</evaluationMode>
        <evaluationStatus>reviewed</evaluationStatus>
        <creationInfo>
          <agencyID>UW</agencyID>
          <creationTime>2024-05-28T18:10:44.000000Z</creationTime>
        </creationInfo>
      </pick>
      <pick publicID="quakeml:uw.anss.org/Arrival/UW/17070803">
        <time>
          <value>2024-05-24T08:42:05.860000Z</value>
          <uncertainty>0.15</uncertainty>
        </time>
        <waveformID networkCode="UW" stationCode="SHUK" locationCode="" channelCode="HHN"></waveformID>
        <onset>emergent</onset>
        <polarity>undecidable</polarity>
        <evaluationMode>manual</evaluationMode>
        <evaluationStatus>reviewed</evaluationStatus>
        <creationInfo>
          <agencyID>UW</agencyID>
          <creationTime>2024-05-28T18:10:44.000000Z</creationTime>
        </creationInfo>
      </pick>
      <pick publicID="quakeml:uw.anss.org/Arrival/UW/17070808">
        <time>
          <value>2024-05-24T08:42:04.350000Z</value>
          <uncertainty>0.15</uncertainty>
        </time>
        <waveformID networkCode="UW" stationCode="SAXON" locationCode="" channelCode="HHZ"></waveformID>
        <onset>emergent</onset>
        <polarity>undecidable</polarity>
        <evaluationMode>manual</evaluationMode>
        <evaluationStatus>reviewed</evaluationStatus>
        <creationInfo>
          <agencyID>UW</agencyID>
          <creationTime>2024-05-28T18:10:44.000000Z</creationTime>
        </creationInfo>
      </pick>
      <pick publicID="quakeml:uw.anss.org/Arrival/UW/17070813">
        <time>
          <value>2024-05-24T08:42:08.330000Z</value>
          <uncertainty>0.06</uncertainty>
        </time>
        <waveformID networkCode="UW" stationCode="SAXON" locationCode="" channelCode="HHE"></waveformID>
        <onset>impulsive</onset>
        <polarity>undecidable</polarity>
        <evaluationMode>manual</evaluationMode>
        <evaluationStatus>reviewed</evaluationStatus>
        <creationInfo>
          <agencyID>UW</agencyID>
          <creationTime>2024-05-28T18:10:44.000000Z</creationTime>
        </creationInfo>
      </pick>
      <pick publicID="quakeml:uw.anss.org/Arrival/UW/17070818">
        <time>
          <value>2024-05-24T08:42:05.420000Z</value>
          <uncertainty>0.15</uncertainty>
        </time>
        <waveformID networkCode="UW" stationCode="MULN" locationCode="" channelCode="HHZ"></waveformID>
        <onset>emergent</onset>
        <polarity>undecidable</polarity>
        <evaluationMode>manual</evaluationMode>
        <evaluationStatus>reviewed</evaluationStatus>
        <creationInfo>
          <agencyID>UW</agencyID>
          <creationTime>2024-05-28T18:10:44.000000Z</creationTime>
        </creationInfo>
      </pick>
      <pick publicID="quakeml:uw.anss.org/Arrival/UW/17070823">
        <time>
          <value>2024-05-24T08:42:09.920000Z</value>
          <uncertainty>0.15</uncertainty>
        </time>
        <waveformID networkCode="UW" stationCode="MULN" locationCode="" channelCode="HHE"></waveformID>
        <onset>emergent</onset>
        <polarity>undecidable</polarity>
        <evaluationMode>manual</evaluationMode>
        <evaluationStatus>reviewed</evaluationStatus>
        <creationInfo>
          <agencyID>UW</agencyID>
          <creationTime>2024-05-28T18:10:44.000000Z</creationTime>
        </creationInfo>
      </pick>
      <amplitude publicID="quakeml:uw.anss.org/Amp/UW/15760918">
        <genericAmplitude>
          <value>6.8225e-05</value>
        </genericAmplitude>
        <type>AML</type>
        <category>point</category>
        <unit>m</unit>
        <waveformID networkCode="UW" stationCode="MULN" locationCode="" channelCode="HHE"></waveformID>
        <magnitudeHint>ML</magnitudeHint>
        <evaluationMode>manual</evaluationMode>
        <evaluationStatus>reviewed</evaluationStatus>
      </amplitude>
      <amplitude publicID="quakeml:uw.anss.org/Amp/UW/15760913">
        <genericAmplitude>
          <value>5.3259e-05</value>
        </genericAmplitude>
        <type>AML</type>
        <category>point</category>
        <unit>m</unit>
        <waveformID networkCode="UW" stationCode="MULN" locationCode="" channelCode="HHN"></waveformID>
        <magnitudeHint>ML</magnitudeHint>
        <evaluationMode>manual</evaluationMode>
        <evaluationStatus>reviewed</evaluationStatus>
      </amplitude>
      <amplitude publicID="quakeml:uw.anss.org/Amp/UW/15760908">
        <genericAmplitude>
          <value>3.5927e-05</value>
        </genericAmplitude>
        <type>AML</type>
        <category>point</category>
        <unit>m</unit>
        <waveformID networkCode="UW" stationCode="SAXON" locationCode="" channelCode="HHE"></waveformID>
        <magnitudeHint>ML</magnitudeHint>
        <evaluationMode>manual</evaluationMode>
        <evaluationStatus>reviewed</evaluationStatus>
      </amplitude>
      <amplitude publicID="quakeml:uw.anss.org/Amp/UW/15760903">
        <genericAmplitude>
          <value>3.2433e-05</value>
        </genericAmplitude>
        <type>AML</type>
        <category>point</category>
        <unit>m</unit>
        <waveformID networkCode="UW" stationCode="SAXON" locationCode="" channelCode="HHN"></waveformID>
        <magnitudeHint>ML</magnitudeHint>
        <evaluationMode>manual</evaluationMode>
        <evaluationStatus>reviewed</evaluationStatus>
      </amplitude>
      <amplitude publicID="quakeml:uw.anss.org/Amp/UW/15760898">
        <genericAmplitude>
          <value>5.1489e-05</value>
        </genericAmplitude>
        <type>AML</type>
        <category>point</category>
        <unit>m</unit>
        <waveformID networkCode="UW" stationCode="SHUK" locationCode="" channelCode="HHE"></waveformID>
        <magnitudeHint>ML</magnitudeHint>
        <evaluationMode>manual</evaluationMode>
        <evaluationStatus>reviewed</evaluationStatus>
      </amplitude>
      <amplitude publicID="quakeml:uw.anss.org/Amp/UW/15760893">
        <genericAmplitude>
          <value>3.5939e-05</value>
        </genericAmplitude>
        <type>AML</type>
        <category>point</category>
        <unit>m</unit>
        <waveformID networkCode="UW" stationCode="SHUK" locationCode="" channelCode="HHN"></waveformID>
        <magnitudeHint>ML</magnitudeHint>
        <evaluationMode>manual</evaluationMode>
        <evaluationStatus>reviewed</evaluationStatus>
      </amplitude>
    </event>
  </eventParameters>
</q:quakeml>
