<?xml version='1.0' encoding='utf-8'?>
<q:quakeml xmlns="http://quakeml.org/xmlns/bed/1.2" xmlns:q="http://quakeml.org/xmlns/quakeml/1.2" xmlns:ns0="http://anss.org/xmlns/catalog/0.1">
  <eventParameters publicID="smi:local/e1faf6ec-ed61-440c-985d-c8f0bcb513bc">
    <event publicID="quakeml:uw.anss.org/Event/UW/62037421" ns0:datasource="uw" ns0:dataid="uw62037421" ns0:eventsource="uw" ns0:eventid="62037421">
      <preferredOriginID>quakeml:uw.anss.org/Origin/UW/3284598</preferredOriginID>
      <preferredMagnitudeID>quakeml:uw.anss.org/Netmag/UW/3299823</preferredMagnitudeID>
      <type>earthquake</type>
      <creationInfo>
        <agencyID>UW</agencyID>
        <creationTime>2024-08-18T04:34:53.000000Z</creationTime>
        <version>2</version>
      </creationInfo>
      <origin publicID="quakeml:uw.anss.org/Origin/UW/3284598" ns0:datasource="uw" ns0:dataid="uw62037421" ns0:eventsource="uw" ns0:eventid="62037421">
        <time>
          <value>2024-08-18T01:34:13.480000Z</value>
        </time>
        <latitude>
          <value>48.6555</value>
        </latitude>
        <longitude>
          <value>-122.01383333333334</value>
        </longitude>
        <depth>
          <value>1310.0</value>
          <uncertainty>660.0</uncertainty>
        </depth>
        <depthType>from location</depthType>
        <timeFixed>false</timeFixed>
        <epicenterFixed>false</epicenterFixed>
        <methodID>smi:uw.anss.org/origin/HYP2000</methodID>
        <quality>
          <associatedPhaseCount>85</associatedPhaseCount>
          <usedPhaseCount>26</usedPhaseCount>
          <associatedStationCount>75</associatedStationCount>
          <usedStationCount>18</usedStationCount>
          <standardError>0.19</standardError>
          <azimuthalGap>42.0</azimuthalGap>
          <secondaryAzimuthalGap>374.0</secondaryAzimuthalGap>
          <minimumDistance>0.1013</minimumDistance>
          <maximumDistance>2.643</maximumDistance>
          <medianDistance>1.411</medianDistance>
        </quality>
        <type>hypocenter</type>
        <evaluationMode>manual</evaluationMode>
        <evaluationStatus>final</evaluationStatus>
        <creationInfo>
          <agencyID>UW</agencyID>
          <creationTime>2024-08-18T04:26:52.000000Z</creationTime>
        </creationInfo>
        <originUncertainty>
          <preferredDescription>confidence ellipsoid</preferredDescription>
          <horizontalUncertainty>270.0</horizontalUncertainty>
          <confidenceLevel>95.0</confidenceLevel>
          <confidenceEllipsoid>
            <semiMajorAxisLength>1680.0</semiMajorAxisLength>
            <semiMinorAxisLength>600.0</semiMinorAxisLength>
            <semiIntermediateAxisLength>696.0</semiIntermediateAxisLength>
            <majorAxisPlunge>70.0</majorAxisPlunge>
            <majorAxisAzimuth>284.0</majorAxisAzimuth>
            <majorAxisRotation>18.0</majorAxisRotation>
          </confidenceEllipsoid>
        </originUncertainty>
        <arrival publicID="quakeml:uw.anss.org/AssocArO/UW/17236398">
          <pickID>quakeml:uw.anss.org/Arrival/UW/17236398</pickID>
          <phase>P</phase>
          <timeCorrection>0.1</timeCorrection>
          <azimuth>286.02755659674165</azimuth>
          <distance>0.1013</distance>
          <takeoffAngle>
            <value>98.0</value>
          </takeoffAngle>
          <timeResidual>-0.18</timeResidual>
          <timeWeight>0.14</timeWeight>
          <creationInfo>
            <agencyID>UW</agencyID>
            <creationTime>2024-08-18T04:34:53.000000Z</creationTime>
          </creationInfo>
        </arrival>
        <arrival publicID="quakeml:uw.anss.org/AssocArO/UW/17236403">
          <pickID>quakeml:uw.anss.org/Arrival/UW/17236403</pickID>
          <phase>S</phase>
          <timeCorrection>0.18</timeCorrection>
          <azimuth>286.02755659674165</azimuth>
          <distance>0.1013</distance>
          <takeoffAngle>
            <value>98.0</value>
          </takeoffAngle>
          <timeResidual>-0.39</timeResidual>
          <timeWeight>0.05</timeWeight>
          <creationInfo>
            <agencyID>UW</agencyID>
            <creationTime>2024-08-18T04:34:53.000000Z</creationTime>
          </creationInfo>
        </arrival>
        <arrival publicID="quakeml:uw.anss.org/AssocArO/UW/17236408">
          <pickID>quakeml:uw.anss.org/Arrival/UW/17236408</pickID>
          <phase>P</phase>
          <timeCorrection>0.0</timeCorrection>
          <azimuth>195.5873544867683</azimuth>
          <distance>0.1248</distance>
          <takeoffAngle>
            <value>97.0</value>
          </takeoffAngle>
          <timeResidual>0.02</timeResidual>
          <timeWeight>0.14</timeWeight>
          <creationInfo>
            <agencyID>UW</agencyID>
            <creationTime>2024-08-18T04:34:53.000000Z</creationTime>
          </creationInfo>
        </arrival>
        <arrival publicID="quakeml:uw.anss.org/AssocArO/UW/17236413">
          <pickID>quakeml:uw.anss.org/Arrival/UW/17236413</pickID>
          <phase>S</phase>
          <timeCorrection>0.0</timeCorrection>
          <azimuth>195.5873544867683</azimuth>
          <distance>0.1248</distance>
          <takeoffAngle>
            <value>97.0</value>
          </takeoffAngle>
          <timeResidual>0.07</timeResidual>
          <timeWeight>0.09</timeWeight>
          <creationInfo>
            <agencyID>UW</agencyID>
            <creationTime>2024-08-18T04:34:53.000000Z</creationTime>
          </creationInfo>
        </arrival>
        <arrival publicID="quakeml:uw.anss.org/AssocArO/UW/17236418">
          <pickID>quakeml:uw.anss.org/Arrival/UW/17236418</pickID>
          <phase>P</phase>
          <timeCorrection>0.02</timeCorrection>
          <azimuth>243.80111473699293</azimuth>
          <distance>0.1566</distance>
          <takeoffAngle>
            <value>95.0</value>
          </takeoffAngle>
          <timeResidual>-0.08</timeResidual>
          <timeWeight>0.14</timeWeight>
          <creationInfo>
            <agencyID>UW</agencyID>
            <creationTime>2024-08-18T04:34:53.000000Z</creationTime>
          </creationInfo>
        </arrival>
        <arrival publicID="quakeml:uw.anss.org/AssocArO/UW/17236423">
          <pickID>quakeml:uw.anss.org/Arrival/UW/17236423</pickID>
          <phase>S</phase>
          <timeCorrection>0.04</timeCorrection>
          <azimuth>243.80111473699293</azimuth>
          <distance>0.1566</distance>
          <takeoffAngle>
            <value>95.0</value>
          </takeoffAngle>
          <timeResidual>0.45</timeResidual>
          <timeWeight>0.09</timeWeight>
          <creationInfo>
            <agencyID>UW</agencyID>
            <creationTime>2024-08-18T04:34:53.000000Z</creationTime>
          </creationInfo>
        </arrival>
        <arrival publicID="quakeml:uw.anss.org/AssocArO/UW/17236428">
          <pickID>quakeml:uw.anss.org/Arrival/UW/17236428</pickID>
          <phase>P</phase>
          <timeCorrection>0.17</timeCorrection>
          <azimuth>23.029810911043285</azimuth>
          <distance>0.1581</distance>
          <takeoffAngle>
            <value>95.0</value>
          </takeoffAngle>
          <timeResidual>-0.09</timeResidual>
          <timeWeight>0.14</timeWeight>
          <creationInfo>
            <agencyID>UW</agencyID>
            <creationTime>2024-08-18T04:34:53.000000Z</creationTime>
          </creationInfo>
        </arrival>
        <arrival publicID="quakeml:uw.anss.org/AssocArO/UW/17236433">
          <pickID>quakeml:uw.anss.org/Arrival/UW/17236433</pickID>
          <phase>S</phase>
          <timeCorrection>0.3</timeCorrection>
          <azimuth>23.029810911043285</azimuth>
          <distance>0.1581</distance>
          <takeoffAngle>
            <value>95.0</value>
          </takeoffAngle>
          <timeResidual>0.41</timeResidual>
          <timeWeight>0.09</timeWeight>
          <creationInfo>
            <agencyID>UW</agencyID>
            <creationTime>2024-08-18T04:34:53.000000Z</creationTime>
          </creationInfo>
        </arrival>
        <arrival publicID="quakeml:uw.anss.org/AssocArO/UW/17236438">
          <pickID>quakeml:uw.anss.org/Arrival/UW/17236438</pickID>
          <phase>P</phase>
          <timeCorrection>0.22</timeCorrection>
          <azimuth>121.11769996553028</azimuth>
          <distance>0.209</distance>
          <takeoffAngle>
            <value>57.0</value>
          </takeoffAngle>
          <timeResidual>-0.1</timeResidual>
          <timeWeight>0.09</timeWeight>
          <creationInfo>
            <agencyID>UW</agencyID>
            <creationTime>2024-08-18T04:34:53.000000Z</creationTime>
          </creationInfo>
        </arrival>
        <arrival publicID="quakeml:uw.anss.org/AssocArO/UW/17236443">
          <pickID>quakeml:uw.anss.org/Arrival/UW/17236443</pickID>
          <phase>S</phase>
          <timeCorrection>0.39</timeCorrection>
          <azimuth>121.11769996553028</azimuth>
          <distance>0.209</distance>
          <takeoffAngle>
            <value>57.0</value>
          </takeoffAngle>
          <timeResidual>-0.02</timeResidual>
          <timeWeight>0.09</timeWeight>
          <creationInfo>
            <agencyID>UW</agencyID>
            <creationTime>2024-08-18T04:34:53.000000Z</creationTime>
          </creationInfo>
        </arrival>
        <arrival publicID="quakeml:uw.anss.org/AssocArO/UW/17236448">
          <pickID>quakeml:uw.anss.org/Arrival/UW/17236448</pickID>
          <phase>P</phase>
          <timeCorrection>0.08</timeCorrection>
          <azimuth>90.65010059313602</azimuth>
          <distance>0.216</distance>
          <takeoffAngle>
            <value>57.0</value>
          </takeoffAngle>
          <timeResidual>-0.01</timeResidual>
          <timeWeight>0.09</timeWeight>
          <creationInfo>
            <agencyID>UW</agencyID>
            <creationTime>2024-08-18T04:34:53.000000Z</creationTime>
          </creationInfo>
        </arrival>
        <arrival publicID="quakeml:uw.anss.org/AssocArO/UW/17236453">
          <pickID>quakeml:uw.anss.org/Arrival/UW/17236453</pickID>
          <phase>S</phase>
          <timeCorrection>0.14</timeCorrection>
          <azimuth>90.65010059313602</azimuth>
          <distance>0.216</distance>
          <takeoffAngle>
            <value>57.0</value>
          </takeoffAngle>
          <timeResidual>-0.14</timeResidual>
          <timeWeight>0.09</timeWeight>
          <creationInfo>
            <agencyID>UW</agencyID>
            <creationTime>2024-08-18T04:34:53.000000Z</creationTime>
          </creationInfo>
        </arrival>
        <arrival publicID="quakeml:uw.anss.org/AssocArO/UW/17236458">
          <pickID>quakeml:uw.anss.org/Arrival/UW/17236458</pickID>
          <phase>P</phase>
          <timeCorrection>0.15</timeCorrection>
          <azimuth>322.1674264724151</azimuth>
          <distance>0.2158</distance>
          <takeoffAngle>
            <value>57.0</value>
          </takeoffAngle>
          <timeResidual>0.22</timeResidual>
          <timeWeight>0.09</timeWeight>
          <creationInfo>
            <agencyID>UW</agencyID>
            <creationTime>2024-08-18T04:34:53.000000Z</creationTime>
          </creationInfo>
        </arrival>
        <arrival publicID="quakeml:uw.anss.org/AssocArO/UW/17236463">
          <pickID>quakeml:uw.anss.org/Arrival/UW/17236463</pickID>
          <phase>S</phase>
          <timeCorrection>0.27</timeCorrection>
          <azimuth>322.1674264724151</azimuth>
          <distance>0.2158</distance>
          <takeoffAngle>
            <value>57.0</value>
          </takeoffAngle>
          <timeResidual>1.07</timeResidual>
          <timeWeight>0.0</timeWeight>
          <creationInfo>
            <agencyID>UW</agencyID>
            <creationTime>2024-08-18T04:34:53.000000Z</creationTime>
          </creationInfo>
        </arrival>
        <arrival publicID="quakeml:uw.anss.org/AssocArO/UW/17236468">
          <pickID>quakeml:uw.anss.org/Arrival/UW/17236468</pickID>
          <phase>S</phase>
          <timeCorrection>-0.04</timeCorrection>
          <azimuth>202.2691244420364</azimuth>
          <distance>0.2505</distance>
          <takeoffAngle>
            <value>57.0</value>
          </takeoffAngle>
          <timeResidual>-0.12</timeResidual>
          <timeWeight>0.09</timeWeight>
          <creationInfo>
            <agencyID>UW</agencyID>
            <creationTime>2024-08-18T04:34:53.000000Z</creationTime>
          </creationInfo>
        </arrival>
        <arrival publicID="quakeml:uw.anss.org/AssocArO/UW/17236473">
          <pickID>quakeml:uw.anss.org/Arrival/UW/17236473</pickID>
          <phase>P</phase>
          <timeCorrection>0.07</timeCorrection>
          <azimuth>48.25229384776355</azimuth>
          <distance>0.2978</distance>
          <takeoffAngle>
            <value>57.0</value>
          </takeoffAngle>
          <timeResidual>0.2</timeResidual>
          <timeWeight>0.09</timeWeight>
          <creationInfo>
            <agencyID>UW</agencyID>
            <creationTime>2024-08-18T04:34:53.000000Z</creationTime>
          </creationInfo>
        </arrival>
        <arrival publicID="quakeml:uw.anss.org/AssocArO/UW/17236478">
          <pickID>quakeml:uw.anss.org/Arrival/UW/17236478</pickID>
          <phase>S</phase>
          <timeCorrection>0.12</timeCorrection>
          <azimuth>48.25229384776355</azimuth>
          <distance>0.2978</distance>
          <takeoffAngle>
            <value>57.0</value>
          </takeoffAngle>
          <timeResidual>0.48</timeResidual>
          <timeWeight>0.09</timeWeight>
          <creationInfo>
            <agencyID>UW</agencyID>
            <creationTime>2024-08-18T04:34:53.000000Z</creationTime>
          </creationInfo>
        </arrival>
        <arrival publicID="quakeml:uw.anss.org/AssocArO/UW/17236483">
          <pickID>quakeml:uw.anss.org/Arrival/UW/17236483</pickID>
          <phase>P</phase>
          <timeCorrection>0.3</timeCorrection>
          <azimuth>296.47165778481815</azimuth>
          <distance>0.2981</distance>
          <takeoffAngle>
            <value>57.0</value>
          </takeoffAngle>
          <timeResidual>-0.1</timeResidual>
          <timeWeight>0.14</timeWeight>
          <creationInfo>
            <agencyID>UW</agencyID>
            <creationTime>2024-08-18T04:34:53.000000Z</creationTime>
          </creationInfo>
        </arrival>
        <arrival publicID="quakeml:uw.anss.org/AssocArO/UW/17236488">
          <pickID>quakeml:uw.anss.org/Arrival/UW/17236488</pickID>
          <phase>S</phase>
          <timeCorrection>0.34</timeCorrection>
          <azimuth>334.5634883806642</azimuth>
          <distance>0.3749</distance>
          <takeoffAngle>
            <value>57.0</value>
          </takeoffAngle>
          <timeResidual>1.07</timeResidual>
          <timeWeight>0.0</timeWeight>
          <creationInfo>
            <agencyID>UW</agencyID>
            <creationTime>2024-08-18T04:34:53.000000Z</creationTime>
          </creationInfo>
        </arrival>
        <arrival publicID="quakeml:uw.anss.org/AssocArO/UW/17236493">
          <pickID>quakeml:uw.anss.org/Arrival/UW/17236493</pickID>
          <phase>P</phase>
          <timeCorrection>0.02</timeCorrection>
          <azimuth>227.17444413388438</azimuth>
          <distance>0.3932</distance>
          <takeoffAngle>
            <value>57.0</value>
          </takeoffAngle>
          <timeResidual>1.43</timeResidual>
          <timeWeight>0.0</timeWeight>
          <creationInfo>
            <agencyID>UW</agencyID>
            <creationTime>2024-08-18T04:34:53.000000Z</creationTime>
          </creationInfo>
        </arrival>
        <arrival publicID="quakeml:uw.anss.org/AssocArO/UW/17236498">
          <pickID>quakeml:uw.anss.org/Arrival/UW/17236498</pickID>
          <phase>S</phase>
          <timeCorrection>0.0</timeCorrection>
          <azimuth>355.9606601951898</azimuth>
          <distance>0.4029</distance>
          <timeResidual>0.0</timeResidual>
          <timeWeight>0.0</timeWeight>
          <creationInfo>
            <agencyID>UW</agencyID>
            <creationTime>2024-08-18T04:34:53.000000Z</creationTime>
          </creationInfo>
        </arrival>
        <arrival publicID="quakeml:uw.anss.org/AssocArO/UW/17236503">
          <pickID>quakeml:uw.anss.org/Arrival/UW/17236503</pickID>
          <phase>P</phase>
          <timeCorrection>0.08</timeCorrection>
          <azimuth>318.98572064466356</azimuth>
          <distance>0.4049</distance>
          <takeoffAngle>
            <value>57.0</value>
          </takeoffAngle>
          <timeResidual>0.71</timeResidual>
          <timeWeight>0.0</timeWeight>
          <creationInfo>
            <agencyID>UW</agencyID>
            <creationTime>2024-08-18T04:34:53.000000Z</creationTime>
          </creationInfo>
        </arrival>
        <arrival publicID="quakeml:uw.anss.org/AssocArO/UW/17236508">
          <pickID>quakeml:uw.anss.org/Arrival/UW/17236508</pickID>
          <phase>P</phase>
          <timeCorrection>0.12</timeCorrection>
          <azimuth>146.44726930325692</azimuth>
          <distance>0.4945</distance>
          <takeoffAngle>
            <value>57.0</value>
          </takeoffAngle>
          <timeResidual>-0.14</timeResidual>
          <timeWeight>0.09</timeWeight>
          <creationInfo>
            <agencyID>UW</agencyID>
            <creationTime>2024-08-18T04:34:53.000000Z</creationTime>
          </creationInfo>
        </arrival>
        <arrival publicID="quakeml:uw.anss.org/AssocArO/UW/17236513">
          <pickID>quakeml:uw.anss.org/Arrival/UW/17236513</pickID>
          <phase>P</phase>
          <timeCorrection>0.1</timeCorrection>
          <azimuth>132.4152739849966</azimuth>
          <distance>0.794</distance>
          <takeoffAngle>
            <value>55.0</value>
          </takeoffAngle>
          <timeResidual>-0.46</timeResidual>
          <timeWeight>0.02</timeWeight>
          <creationInfo>
            <agencyID>UW</agencyID>
            <creationTime>2024-08-18T04:34:53.000000Z</creationTime>
          </creationInfo>
        </arrival>
        <arrival publicID="quakeml:uw.anss.org/AssocArO/UW/17236518">
          <pickID>quakeml:uw.anss.org/Arrival/UW/17236518</pickID>
          <phase>P</phase>
          <timeCorrection>0.12</timeCorrection>
          <azimuth>180.89065340372588</azimuth>
          <distance>0.8201</distance>
          <takeoffAngle>
            <value>55.0</value>
          </takeoffAngle>
          <timeResidual>0.75</timeResidual>
          <timeWeight>0.0</timeWeight>
          <creationInfo>
            <agencyID>UW</agencyID>
            <creationTime>2024-08-18T04:34:53.000000Z</creationTime>
          </creationInfo>
        </arrival>
        <arrival publicID="quakeml:uw.anss.org/AssocArO/UW/17236523">
          <pickID>quakeml:uw.anss.org/Arrival/UW/17236523</pickID>
          <phase>P</phase>
          <timeCorrection>-0.18</timeCorrection>
          <azimuth>254.89375161124508</azimuth>
          <distance>0.9047</distance>
          <takeoffAngle>
            <value>55.0</value>
          </takeoffAngle>
          <timeResidual>0.46</timeResidual>
          <timeWeight>0.0</timeWeight>
          <creationInfo>
            <agencyID>UW</agencyID>
            <creationTime>2024-08-18T04:34:53.000000Z</creationTime>
          </creationInfo>
        </arrival>
        <arrival publicID="quakeml:uw.anss.org/AssocArO/UW/17236528">
          <pickID>quakeml:uw.anss.org/Arrival/UW/17236528</pickID>
          <phase>P</phase>
          <timeCorrection>-0.09</timeCorrection>
          <azimuth>270.1961811681528</azimuth>
          <distance>0.9537</distance>
          <takeoffAngle>
            <value>55.0</value>
          </takeoffAngle>
          <timeResidual>0.32</timeResidual>
          <timeWeight>0.0</timeWeight>
