<?xml version='1.0' encoding='utf-8'?>
<q:quakeml xmlns="http://quakeml.org/xmlns/bed/1.2" xmlns:q="http://quakeml.org/xmlns/quakeml/1.2" xmlns:ns0="http://anss.org/xmlns/catalog/0.1">
  <eventParameters publicID="smi:local/d33baf8e-f936-4006-9028-168a8324fdad">
    <event publicID="quakeml:uw.anss.org/Event/UW/62020311" ns0:datasource="uw" ns0:dataid="uw62020311" ns0:eventsource="uw" ns0:eventid="62020311">
      <preferredOriginID>quakeml:uw.anss.org/Origin/UW/3276818</preferredOriginID>
      <preferredMagnitudeID>quakeml:uw.anss.org/Netmag/UW/3287883</preferredMagnitudeID>
      <type>earthquake</type>
      <creationInfo>
        <agencyID>UW</agencyID>
        <creationTime>2024-07-02T18:20:24.000000Z</creationTime>
        <version>2</version>
      </creationInfo>
      <origin publicID="quakeml:uw.anss.org/Origin/UW/3276818" ns0:datasource="uw" ns0:dataid="uw62020311" ns0:eventsource="uw" ns0:eventid="62020311">
        <time>
          <value>2024-07-01T04:52:59.100000Z</value>
        </time>
        <latitude>
          <value>48.75333333333333</value>
        </latitude>
        <longitude>
          <value>-121.8185</value>
        </longitude>
        <depth>
          <value>-700.0</value>
          <uncertainty>2940.0</uncertainty>
        </depth>
        <depthType>from location</depthType>
        <timeFixed>false</timeFixed>
        <epicenterFixed>false</epicenterFixed>
        <methodID>smi:uw.anss.org/origin/HYP2000</methodID>
        <quality>
          <associatedPhaseCount>11</associatedPhaseCount>
          <usedPhaseCount>11</usedPhaseCount>
          <associatedStationCount>6</associatedStationCount>
          <usedStationCount>6</usedStationCount>
          <standardError>0.56</standardError>
          <azimuthalGap>104.0</azimuthalGap>
          <secondaryAzimuthalGap>533.0</secondaryAzimuthalGap>
          <minimumDistance>0.08226</minimumDistance>
          <maximumDistance>0.3645</maximumDistance>
          <medianDistance>0.2548</medianDistance>
        </quality>
        <type>hypocenter</type>
        <evaluationMode>manual</evaluationMode>
        <evaluationStatus>final</evaluationStatus>
        <creationInfo>
          <agencyID>UW</agencyID>
          <creationTime>2024-07-02T18:16:19.000000Z</creationTime>
        </creationInfo>
        <originUncertainty>
          <preferredDescription>confidence ellipsoid</preferredDescription>
          <horizontalUncertainty>1370.0</horizontalUncertainty>
          <confidenceLevel>95.0</confidenceLevel>
          <confidenceEllipsoid>
            <semiMajorAxisLength>7488.0</semiMajorAxisLength>
            <semiMinorAxisLength>2328.0</semiMinorAxisLength>
            <semiIntermediateAxisLength>3384.0</semiIntermediateAxisLength>
            <majorAxisPlunge>70.0</majorAxisPlunge>
            <majorAxisAzimuth>274.0</majorAxisAzimuth>
            <majorAxisRotation>317.0</majorAxisRotation>
          </confidenceEllipsoid>
        </originUncertainty>
        <arrival publicID="quakeml:uw.anss.org/AssocArO/UW/17139503">
          <pickID>quakeml:uw.anss.org/Arrival/UW/17139503</pickID>
          <phase>P</phase>
          <timeCorrection>0.17</timeCorrection>
          <azimuth>305.3554979551422</azimuth>
          <distance>0.08226</distance>
          <takeoffAngle>
            <value>90.0</value>
          </takeoffAngle>
          <timeResidual>-1.0</timeResidual>
          <timeWeight>0.13</timeWeight>
          <creationInfo>
            <agencyID>UW</agencyID>
            <creationTime>2024-07-02T18:20:24.000000Z</creationTime>
          </creationInfo>
        </arrival>
        <arrival publicID="quakeml:uw.anss.org/AssocArO/UW/17139508">
          <pickID>quakeml:uw.anss.org/Arrival/UW/17139508</pickID>
          <phase>S</phase>
          <timeCorrection>0.3</timeCorrection>
          <azimuth>305.3554979551422</azimuth>
          <distance>0.08226</distance>
          <takeoffAngle>
            <value>90.0</value>
          </takeoffAngle>
          <timeResidual>0.29</timeResidual>
          <timeWeight>0.13</timeWeight>
          <creationInfo>
            <agencyID>UW</agencyID>
            <creationTime>2024-07-02T18:20:24.000000Z</creationTime>
          </creationInfo>
        </arrival>
        <arrival publicID="quakeml:uw.anss.org/AssocArO/UW/17139513">
          <pickID>quakeml:uw.anss.org/Arrival/UW/17139513</pickID>
          <phase>P</phase>
          <timeCorrection>0.07</timeCorrection>
          <azimuth>43.082065191192726</azimuth>
          <distance>0.1366</distance>
          <takeoffAngle>
            <value>90.0</value>
          </takeoffAngle>
          <timeResidual>-0.1</timeResidual>
          <timeWeight>0.05</timeWeight>
          <creationInfo>
            <agencyID>UW</agencyID>
            <creationTime>2024-07-02T18:20:24.000000Z</creationTime>
          </creationInfo>
        </arrival>
        <arrival publicID="quakeml:uw.anss.org/AssocArO/UW/17139518">
          <pickID>quakeml:uw.anss.org/Arrival/UW/17139518</pickID>
          <phase>P</phase>
          <timeCorrection>0.1</timeCorrection>
          <azimuth>252.89888752881689</azimuth>
          <distance>0.2373</distance>
          <takeoffAngle>
            <value>90.0</value>
          </takeoffAngle>
          <timeResidual>-0.16</timeResidual>
          <timeWeight>0.13</timeWeight>
          <creationInfo>
            <agencyID>UW</agencyID>
            <creationTime>2024-07-02T18:20:24.000000Z</creationTime>
          </creationInfo>
        </arrival>
        <arrival publicID="quakeml:uw.anss.org/AssocArO/UW/17139523">
          <pickID>quakeml:uw.anss.org/Arrival/UW/17139523</pickID>
          <phase>S</phase>
          <timeCorrection>0.18</timeCorrection>
          <azimuth>252.89888752881689</azimuth>
          <distance>0.2373</distance>
          <takeoffAngle>
            <value>90.0</value>
          </takeoffAngle>
          <timeResidual>-0.36</timeResidual>
          <timeWeight>0.13</timeWeight>
          <creationInfo>
            <agencyID>UW</agencyID>
            <creationTime>2024-07-02T18:20:24.000000Z</creationTime>
          </creationInfo>
        </arrival>
        <arrival publicID="quakeml:uw.anss.org/AssocArO/UW/17139528">
          <pickID>quakeml:uw.anss.org/Arrival/UW/17139528</pickID>
          <phase>P</phase>
          <timeCorrection>0.0</timeCorrection>
          <azimuth>216.80377147893142</azimuth>
          <distance>0.2723</distance>
          <takeoffAngle>
            <value>57.0</value>
          </takeoffAngle>
          <timeResidual>-0.18</timeResidual>
          <timeWeight>0.09</timeWeight>
          <creationInfo>
            <agencyID>UW</agencyID>
            <creationTime>2024-07-02T18:20:24.000000Z</creationTime>
          </creationInfo>
        </arrival>
        <arrival publicID="quakeml:uw.anss.org/AssocArO/UW/17139533">
          <pickID>quakeml:uw.anss.org/Arrival/UW/17139533</pickID>
          <phase>S</phase>
          <timeCorrection>0.0</timeCorrection>
          <azimuth>216.80377147893142</azimuth>
          <distance>0.2723</distance>
          <takeoffAngle>
            <value>57.0</value>
          </takeoffAngle>
          <timeResidual>1.26</timeResidual>
          <timeWeight>0.07</timeWeight>
          <creationInfo>
            <agencyID>UW</agencyID>
            <creationTime>2024-07-02T18:20:24.000000Z</creationTime>
          </creationInfo>
        </arrival>
        <arrival publicID="quakeml:uw.anss.org/AssocArO/UW/17139538">
          <pickID>quakeml:uw.anss.org/Arrival/UW/17139538</pickID>
          <phase>P</phase>
          <timeCorrection>0.27</timeCorrection>
          <azimuth>324.4962630694981</azimuth>
          <distance>0.3019</distance>
          <takeoffAngle>
            <value>57.0</value>
          </takeoffAngle>
          <timeResidual>0.14</timeResidual>
          <timeWeight>0.09</timeWeight>
          <creationInfo>
            <agencyID>UW</agencyID>
            <creationTime>2024-07-02T18:20:24.000000Z</creationTime>
          </creationInfo>
        </arrival>
        <arrival publicID="quakeml:uw.anss.org/AssocArO/UW/17139543">
          <pickID>quakeml:uw.anss.org/Arrival/UW/17139543</pickID>
          <phase>S</phase>
          <timeCorrection>0.48</timeCorrection>
          <azimuth>324.4962630694981</azimuth>
          <distance>0.3019</distance>
          <takeoffAngle>
            <value>57.0</value>
          </takeoffAngle>
          <timeResidual>0.82</timeResidual>
          <timeWeight>0.09</timeWeight>
          <creationInfo>
            <agencyID>UW</agencyID>
            <creationTime>2024-07-02T18:20:24.000000Z</creationTime>
          </creationInfo>
        </arrival>
        <arrival publicID="quakeml:uw.anss.org/AssocArO/UW/17139548">
          <pickID>quakeml:uw.anss.org/Arrival/UW/17139548</pickID>
          <phase>P</phase>
          <timeCorrection>0.14</timeCorrection>
          <azimuth>147.84541619914108</azimuth>
          <distance>0.3645</distance>
          <takeoffAngle>
            <value>57.0</value>
          </takeoffAngle>
          <timeResidual>-0.12</timeResidual>
          <timeWeight>0.09</timeWeight>
          <creationInfo>
            <agencyID>UW</agencyID>
            <creationTime>2024-07-02T18:20:24.000000Z</creationTime>
          </creationInfo>
        </arrival>
        <arrival publicID="quakeml:uw.anss.org/AssocArO/UW/17139553">
          <pickID>quakeml:uw.anss.org/Arrival/UW/17139553</pickID>
          <phase>S</phase>
          <timeCorrection>0.25</timeCorrection>
          <azimuth>147.84541619914108</azimuth>
          <distance>0.3645</distance>
          <takeoffAngle>
            <value>57.0</value>
          </takeoffAngle>
          <timeResidual>0.22</timeResidual>
          <timeWeight>0.09</timeWeight>
          <creationInfo>
            <agencyID>UW</agencyID>
            <creationTime>2024-07-02T18:20:24.000000Z</creationTime>
          </creationInfo>
        </arrival>
      </origin>
      <magnitude publicID="quakeml:uw.anss.org/Netmag/UW/3287883">
        <mag>
          <value>1.61</value>
          <uncertainty>0.0762508632311687</uncertainty>
        </mag>
        <type>Ml</type>
        <originID>quakeml:uw.anss.org/Origin/UW/3276818</originID>
        <methodID>smi:uw.anss.org/magnitude/RichterMl2</methodID>
        <stationCount>5</stationCount>
        <azimuthalGap>104.76335100794836</azimuthalGap>
        <evaluationMode>manual</evaluationMode>
        <evaluationStatus>reviewed</evaluationStatus>
        <stationMagnitudeContribution>
          <stationMagnitudeID>quakeml:uw.anss.org/AssocAmM/UW/15848513</stationMagnitudeID>
          <weight>1.0</weight>
          <residual>-0.01</residual>
        </stationMagnitudeContribution>
        <stationMagnitudeContribution>
          <stationMagnitudeID>quakeml:uw.anss.org/AssocAmM/UW/15848433</stationMagnitudeID>
          <weight>0.0</weight>
          <residual>0.02</residual>
        </stationMagnitudeContribution>
        <stationMagnitudeContribution>
          <stationMagnitudeID>quakeml:uw.anss.org/AssocAmM/UW/15848488</stationMagnitudeID>
          <weight>1.0</weight>
          <residual>0.0</residual>
        </stationMagnitudeContribution>
        <stationMagnitudeContribution>
          <stationMagnitudeID>quakeml:uw.anss.org/AssocAmM/UW/15848478</stationMagnitudeID>
          <weight>1.0</weight>
          <residual>0.13</residual>
        </stationMagnitudeContribution>
        <stationMagnitudeContribution>
          <stationMagnitudeID>quakeml:uw.anss.org/AssocAmM/UW/15848438</stationMagnitudeID>
          <weight>0.0</weight>
          <residual>-0.11</residual>
        </stationMagnitudeContribution>
        <stationMagnitudeContribution>
          <stationMagnitudeID>quakeml:uw.anss.org/AssocAmM/UW/15848508</stationMagnitudeID>
          <weight>1.0</weight>
          <residual>0.04</residual>
        </stationMagnitudeContribution>
        <stationMagnitudeContribution>
          <stationMagnitudeID>quakeml:uw.anss.org/AssocAmM/UW/15848458</stationMagnitudeID>
          <weight>1.0</weight>
          <residual>0.0</residual>
        </stationMagnitudeContribution>
        <stationMagnitudeContribution>
          <stationMagnitudeID>quakeml:uw.anss.org/AssocAmM/UW/15848503</stationMagnitudeID>
          <weight>1.0</weight>
          <residual>-0.05</residual>
        </stationMagnitudeContribution>
        <stationMagnitudeContribution>
          <stationMagnitudeID>quakeml:uw.anss.org/AssocAmM/UW/15848463</stationMagnitudeID>
          <weight>1.0</weight>
          <residual>0.09</residual>
        </stationMagnitudeContribution>
        <stationMagnitudeContribution>
          <stationMagnitudeID>quakeml:uw.anss.org/AssocAmM/UW/15848493</stationMagnitudeID>
          <weight>1.0</weight>
          <residual>-0.02</residual>
        </stationMagnitudeContribution>
        <stationMagnitudeContribution>
          <stationMagnitudeID>quakeml:uw.anss.org/AssocAmM/UW/15848518</stationMagnitudeID>
          <weight>0.0</weight>
          <residual>-0.32</residual>
        </stationMagnitudeContribution>
        <stationMagnitudeContribution>
          <stationMagnitudeID>quakeml:uw.anss.org/AssocAmM/UW/15848468</stationMagnitudeID>
          <weight>1.0</weight>
          <residual>0.0</residual>
        </stationMagnitudeContribution>
        <stationMagnitudeContribution>
          <stationMagnitudeID>quakeml:uw.anss.org/AssocAmM/UW/15848523</stationMagnitudeID>
          <weight>1.0</weight>
          <residual>-0.14</residual>
        </stationMagnitudeContribution>
        <stationMagnitudeContribution>
          <stationMagnitudeID>quakeml:uw.anss.org/AssocAmM/UW/15848428</stationMagnitudeID>
          <weight>0.0</weight>
          <residual>-0.08</residual>
        </stationMagnitudeContribution>
        <stationMagnitudeContribution>
          <stationMagnitudeID>quakeml:uw.anss.org/AssocAmM/UW/15848443</stationMagnitudeID>
          <weight>0.0</weight>
          <residual>0.02</residual>
        </stationMagnitudeContribution>
        <stationMagnitudeContribution>
          <stationMagnitudeID>quakeml:uw.anss.org/AssocAmM/UW/15848498</stationMagnitudeID>
          <weight>1.0</weight>
          <residual>0.09</residual>
        </stationMagnitudeContribution>
        <stationMagnitudeContribution>
          <stationMagnitudeID>quakeml:uw.anss.org/AssocAmM/UW/15848453</stationMagnitudeID>
          <weight>1.0</weight>
          <residual>-0.07</residual>
        </stationMagnitudeContribution>
        <stationMagnitudeContribution>
          <stationMagnitudeID>quakeml:uw.anss.org/AssocAmM/UW/15848473</stationMagnitudeID>
          <weight>1.0</weight>
          <residual>0.15</residual>
        </stationMagnitudeContribution>
        <stationMagnitudeContribution>
          <stationMagnitudeID>quakeml:uw.anss.org/AssocAmM/UW/15848483</stationMagnitudeID>
          <weight>1.0</weight>
          <residual>-0.11</residual>
        </stationMagnitudeContribution>
        <stationMagnitudeContribution>
          <stationMagnitudeID>quakeml:uw.anss.org/AssocAmM/UW/15848448</stationMagnitudeID>
          <weight>1.0</weight>
          <residual>-0.09</residual>
        </stationMagnitudeContribution>
        <creationInfo>
          <agencyID>UW</agencyID>
          <creationTime>2024-07-02T18:20:24.000000Z</creationTime>
        </creationInfo>
      </magnitude>
      <stationMagnitude publicID="quakeml:uw.anss.org/AssocAmM/UW/15848428">
        <originID>quakeml:uw.anss.org/Origin/UW/3276818</originID>
        <mag>
          <value>1.53</value>
        </mag>
        <type>ML</type>
        <amplitudeID>quakeml:uw.anss.org/Amp/UW/15848428</amplitudeID>
        <waveformID networkCode="UW" stationCode="MBW2" locationCode="" channelCode="ENN"></waveformID>
      </stationMagnitude>
      <stationMagnitude publicID="quakeml:uw.anss.org/AssocAmM/UW/15848433">
        <originID>quakeml:uw.anss.org/Origin/UW/3276818</originID>
        <mag>
          <value>1.63</value>
        </mag>
        <type>ML</type>
        <amplitudeID>quakeml:uw.anss.org/Amp/UW/15848433</amplitudeID>
        <waveformID networkCode="UW" stationCode="MBW2" locationCode="" channelCode="ENE"></waveformID>
      </stationMagnitude>
      <stationMagnitude publicID="quakeml:uw.anss.org/AssocAmM/UW/15848438">
        <originID>quakeml:uw.anss.org/Origin/UW/3276818</originID>
        <mag>
          <value>1.5</value>
        </mag>
        <type>ML</type>
        <amplitudeID>quakeml:uw.anss.org/Amp/UW/15848438</amplitudeID>
        <waveformID networkCode="UW" stationCode="MBW2" locationCode="" channelCode="HHN"></waveformID>
      </stationMagnitude>
      <stationMagnitude publicID="quakeml:uw.anss.org/AssocAmM/UW/15848443">
        <originID>quakeml:uw.anss.org/Origin/UW/3276818</originID>
        <mag>
          <value>1.63</value>
        </mag>
        <type>ML</type>
        <amplitudeID>quakeml:uw.anss.org/Amp/UW/15848443</amplitudeID>
        <waveformID networkCode="UW" stationCode="MBW2" locationCode="" channelCode="HHE"></waveformID>
      </stationMagnitude>
      <stationMagnitude publicID="quakeml:uw.anss.org/AssocAmM/UW/15848448">
        <originID>quakeml:uw.anss.org/Origin/UW/3276818</originID>
        <mag>
          <value>1.52</value>
        </mag>
        <type>ML</type>
        <amplitudeID>quakeml:uw.anss.org/Amp/UW/15848448</amplitudeID>
        <waveformID networkCode="UW" stationCode="SHUK" locationCode="" channelCode="ENE"></waveformID>
      </stationMagnitude>
      <stationMagnitude publicID="quakeml:uw.anss.org/AssocAmM/UW/15848453">
        <originID>quakeml:uw.anss.org/Origin/UW/3276818</originID>
        <mag>
          <value>1.54</value>
        </mag>
        <type>ML</type>
        <amplitudeID>quakeml:uw.anss.org/Amp/UW/15848453</amplitudeID>
        <waveformID networkCode="UW" stationCode="SHUK" locationCode="" channelCode="HHN"></waveformID>
      </stationMagnitude>
      <stationMagnitude publicID="quakeml:uw.anss.org/AssocAmM/UW/15848458">
        <originID>quakeml:uw.anss.org/Origin/UW/3276818</originID>
        <mag>
          <value>1.61</value>
        </mag>
        <type>ML</type>
        <amplitudeID>quakeml:uw.anss.org/Amp/UW/15848458</amplitudeID>
        <waveformID networkCode="UW" stationCode="SHUK" locationCode="" channelCode="HHE"></waveformID>
      </stationMagnitude>
      <stationMagnitude publicID="quakeml:uw.anss.org/AssocAmM/UW/15848463">
        <originID>quakeml:uw.anss.org/Origin/UW/3276818</originID>
        <mag>
          <value>1.7</value>
        </mag>
        <type>ML</type>
        <amplitudeID>quakeml:uw.anss.org/Amp/UW/15848463</amplitudeID>
        <waveformID networkCode="UW" stationCode="SAXON" locationCode="" channelCode="ENN"></waveformID>
      </stationMagnitude>
      <stationMagnitude publicID="quakeml:uw.anss.org/AssocAmM/UW/15848468">
        <originID>quakeml:uw.anss.org/Origin/UW/3276818</originID>
        <mag>
          <value>1.61</value>
        </mag>
        <type>ML</type>
        <amplitudeID>quakeml:uw.anss.org/Amp/UW/15848468</amplitudeID>
        <waveformID networkCode="UW" stationCode="SAXON" locationCode="" channelCode="ENE"></waveformID>
      </stationMagnitude>
      <stationMagnitude publicID="quakeml:uw.anss.org/AssocAmM/UW/15848473">
        <originID>quakeml:uw.anss.org/Origin/UW/3276818</originID>
        <mag>
          <value>1.76</value>
        </mag>
        <type>ML</type>
        <amplitudeID>quakeml:uw.anss.org/Amp/UW/15848473</amplitudeID>
        <waveformID networkCode="UW" stationCode="SAXON" locationCode="" channelCode="HHN"></waveformID>
      </stationMagnitude>
      <stationMagnitude publicID="quakeml:uw.anss.org/AssocAmM/UW/15848478">
        <originID>quakeml:uw.anss.org/Origin/UW/3276818</originID>
        <mag>
          <value>1.74</value>
        </mag>
