<?xml version='1.0' encoding='utf-8'?>
<q:quakeml xmlns="http://quakeml.org/xmlns/bed/1.2" xmlns:q="http://quakeml.org/xmlns/quakeml/1.2" xmlns:ns0="http://anss.org/xmlns/catalog/0.1">
  <eventParameters publicID="smi:local/a56cdb81-ff30-47a3-9136-c455be7fcfea">
    <event publicID="quakeml:uw.anss.org/Event/UW/62044186" ns0:datasource="uw" ns0:dataid="uw62044186" ns0:eventsource="uw" ns0:eventid="62044186">
      <preferredOriginID>quakeml:uw.anss.org/Origin/UW/3288118</preferredOriginID>
      <preferredMagnitudeID>quakeml:uw.anss.org/Netmag/UW/3305393</preferredMagnitudeID>
      <type>earthquake</type>
      <creationInfo>
        <agencyID>UW</agencyID>
        <creationTime>2024-09-08T22:58:41.000000Z</creationTime>
        <version>3</version>
      </creationInfo>
      <origin publicID="quakeml:uw.anss.org/Origin/UW/3288118" ns0:datasource="uw" ns0:dataid="uw62044186" ns0:eventsource="uw" ns0:eventid="62044186">
        <time>
          <value>2024-09-07T14:22:34.520000Z</value>
        </time>
        <latitude>
          <value>48.75933333333333</value>
        </latitude>
        <longitude>
          <value>-121.83233333333334</value>
        </longitude>
        <depth>
          <value>-680.0</value>
          <uncertainty>2490.0</uncertainty>
        </depth>
        <depthType>from location</depthType>
        <timeFixed>false</timeFixed>
        <epicenterFixed>false</epicenterFixed>
        <methodID>smi:uw.anss.org/origin/HYP2000</methodID>
        <quality>
          <associatedPhaseCount>10</associatedPhaseCount>
          <usedPhaseCount>10</usedPhaseCount>
          <associatedStationCount>6</associatedStationCount>
          <usedStationCount>6</usedStationCount>
          <standardError>0.32</standardError>
          <azimuthalGap>100.0</azimuthalGap>
          <secondaryAzimuthalGap>526.0</secondaryAzimuthalGap>
          <minimumDistance>0.07132</minimumDistance>
          <maximumDistance>0.3745</maximumDistance>
          <medianDistance>0.2512</medianDistance>
        </quality>
        <type>hypocenter</type>
        <evaluationMode>manual</evaluationMode>
        <evaluationStatus>final</evaluationStatus>
        <creationInfo>
          <agencyID>UW</agencyID>
          <creationTime>2024-09-08T22:49:52.000000Z</creationTime>
        </creationInfo>
        <originUncertainty>
          <preferredDescription>confidence ellipsoid</preferredDescription>
          <horizontalUncertainty>930.0</horizontalUncertainty>
          <confidenceLevel>95.0</confidenceLevel>
          <confidenceEllipsoid>
            <semiMajorAxisLength>6384.0</semiMajorAxisLength>
            <semiMinorAxisLength>1536.0</semiMinorAxisLength>
            <semiIntermediateAxisLength>1752.0</semiIntermediateAxisLength>
            <majorAxisPlunge>69.0</majorAxisPlunge>
            <majorAxisAzimuth>343.0</majorAxisAzimuth>
            <majorAxisRotation>65.0</majorAxisRotation>
          </confidenceEllipsoid>
        </originUncertainty>
        <arrival publicID="quakeml:uw.anss.org/AssocArO/UW/17286708">
          <pickID>quakeml:uw.anss.org/Arrival/UW/17286708</pickID>
          <phase>P</phase>
          <timeCorrection>0.17</timeCorrection>
          <azimuth>305.6534115607035</azimuth>
          <distance>0.07132</distance>
          <takeoffAngle>
            <value>90.0</value>
          </takeoffAngle>
          <timeResidual>-0.27</timeResidual>
          <timeWeight>0.17</timeWeight>
          <creationInfo>
            <agencyID>UW</agencyID>
            <creationTime>2024-09-08T22:58:41.000000Z</creationTime>
          </creationInfo>
        </arrival>
        <arrival publicID="quakeml:uw.anss.org/AssocArO/UW/17286718">
          <pickID>quakeml:uw.anss.org/Arrival/UW/17286718</pickID>
          <phase>P</phase>
          <timeCorrection>0.07</timeCorrection>
          <azimuth>47.50546798871761</azimuth>
          <distance>0.1389</distance>
          <takeoffAngle>
            <value>90.0</value>
          </takeoffAngle>
          <timeResidual>0.31</timeResidual>
          <timeWeight>0.13</timeWeight>
          <creationInfo>
            <agencyID>UW</agencyID>
            <creationTime>2024-09-08T22:58:41.000000Z</creationTime>
          </creationInfo>
        </arrival>
        <arrival publicID="quakeml:uw.anss.org/AssocArO/UW/17286723">
          <pickID>quakeml:uw.anss.org/Arrival/UW/17286723</pickID>
          <phase>P</phase>
          <timeCorrection>0.1</timeCorrection>
          <azimuth>250.7882891180421</azimuth>
          <distance>0.2305</distance>
          <takeoffAngle>
            <value>90.0</value>
          </takeoffAngle>
          <timeResidual>-0.2</timeResidual>
          <timeWeight>0.09</timeWeight>
          <creationInfo>
            <agencyID>UW</agencyID>
            <creationTime>2024-09-08T22:58:41.000000Z</creationTime>
          </creationInfo>
        </arrival>
        <arrival publicID="quakeml:uw.anss.org/AssocArO/UW/17286728">
          <pickID>quakeml:uw.anss.org/Arrival/UW/17286728</pickID>
          <phase>S</phase>
          <timeCorrection>0.18</timeCorrection>
          <azimuth>250.7882891180421</azimuth>
          <distance>0.2305</distance>
          <takeoffAngle>
            <value>90.0</value>
          </takeoffAngle>
          <timeResidual>-0.07</timeResidual>
          <timeWeight>0.09</timeWeight>
          <creationInfo>
            <agencyID>UW</agencyID>
            <creationTime>2024-09-08T22:58:41.000000Z</creationTime>
          </creationInfo>
        </arrival>
        <arrival publicID="quakeml:uw.anss.org/AssocArO/UW/17286743">
          <pickID>quakeml:uw.anss.org/Arrival/UW/17286743</pickID>
          <phase>P</phase>
          <timeCorrection>0.27</timeCorrection>
          <azimuth>325.2610356385768</azimuth>
          <distance>0.2917</distance>
          <takeoffAngle>
            <value>57.0</value>
          </takeoffAngle>
          <timeResidual>0.05</timeResidual>
          <timeWeight>0.09</timeWeight>
          <creationInfo>
            <agencyID>UW</agencyID>
            <creationTime>2024-09-08T22:58:41.000000Z</creationTime>
          </creationInfo>
        </arrival>
        <arrival publicID="quakeml:uw.anss.org/AssocArO/UW/17286753">
          <pickID>quakeml:uw.anss.org/Arrival/UW/17286753</pickID>
          <phase>P</phase>
          <timeCorrection>0.14</timeCorrection>
          <azimuth>147.14125091859967</azimuth>
          <distance>0.3745</distance>
          <takeoffAngle>
            <value>57.0</value>
          </takeoffAngle>
          <timeResidual>-0.43</timeResidual>
          <timeWeight>0.09</timeWeight>
          <creationInfo>
            <agencyID>UW</agencyID>
            <creationTime>2024-09-08T22:58:41.000000Z</creationTime>
          </creationInfo>
        </arrival>
        <arrival publicID="quakeml:uw.anss.org/AssocArO/UW/17287638">
          <pickID>quakeml:uw.anss.org/Arrival/UW/17287638</pickID>
          <phase>S</phase>
          <timeCorrection>0.3</timeCorrection>
          <azimuth>305.6534115607035</azimuth>
          <distance>0.07132</distance>
          <takeoffAngle>
            <value>90.0</value>
          </takeoffAngle>
          <timeResidual>-0.05</timeResidual>
          <timeWeight>0.09</timeWeight>
          <creationInfo>
            <agencyID>UW</agencyID>
            <creationTime>2024-09-08T22:58:41.000000Z</creationTime>
          </creationInfo>
        </arrival>
        <arrival publicID="quakeml:uw.anss.org/AssocArO/UW/17287643">
          <pickID>quakeml:uw.anss.org/Arrival/UW/17287643</pickID>
          <phase>P</phase>
          <timeCorrection>0.0</timeCorrection>
          <azimuth>214.49204723140502</azimuth>
          <distance>0.2718</distance>
          <takeoffAngle>
            <value>57.0</value>
          </takeoffAngle>
          <timeResidual>0.18</timeResidual>
          <timeWeight>0.09</timeWeight>
          <creationInfo>
            <agencyID>UW</agencyID>
            <creationTime>2024-09-08T22:58:41.000000Z</creationTime>
          </creationInfo>
        </arrival>
        <arrival publicID="quakeml:uw.anss.org/AssocArO/UW/17287648">
          <pickID>quakeml:uw.anss.org/Arrival/UW/17287648</pickID>
          <phase>S</phase>
          <timeCorrection>0.0</timeCorrection>
          <azimuth>214.49204723140502</azimuth>
          <distance>0.2718</distance>
          <takeoffAngle>
            <value>57.0</value>
          </takeoffAngle>
          <timeResidual>0.65</timeResidual>
          <timeWeight>0.09</timeWeight>
          <creationInfo>
            <agencyID>UW</agencyID>
            <creationTime>2024-09-08T22:58:41.000000Z</creationTime>
          </creationInfo>
        </arrival>
        <arrival publicID="quakeml:uw.anss.org/AssocArO/UW/17287653">
          <pickID>quakeml:uw.anss.org/Arrival/UW/17287653</pickID>
          <phase>S</phase>
          <timeCorrection>0.25</timeCorrection>
          <azimuth>147.14125091859967</azimuth>
          <distance>0.3745</distance>
          <takeoffAngle>
            <value>57.0</value>
          </takeoffAngle>
          <timeResidual>-0.51</timeResidual>
          <timeWeight>0.09</timeWeight>
          <creationInfo>
            <agencyID>UW</agencyID>
            <creationTime>2024-09-08T22:58:41.000000Z</creationTime>
          </creationInfo>
        </arrival>
      </origin>
      <magnitude publicID="quakeml:uw.anss.org/Netmag/UW/3305393">
        <mag>
          <value>1.09</value>
          <uncertainty>0.05818758023965598</uncertainty>
        </mag>
        <type>Ml</type>
        <originID>quakeml:uw.anss.org/Origin/UW/3288118</originID>
        <methodID>smi:uw.anss.org/magnitude/RichterMl2</methodID>
        <stationCount>5</stationCount>
        <azimuthalGap>99.63578292988205</azimuthalGap>
        <evaluationMode>manual</evaluationMode>
        <evaluationStatus>reviewed</evaluationStatus>
        <stationMagnitudeContribution>
          <stationMagnitudeID>quakeml:uw.anss.org/AssocAmM/UW/16000378</stationMagnitudeID>
          <weight>1.0</weight>
          <residual>0.08</residual>
        </stationMagnitudeContribution>
        <stationMagnitudeContribution>
          <stationMagnitudeID>quakeml:uw.anss.org/AssocAmM/UW/16000418</stationMagnitudeID>
          <weight>1.0</weight>
          <residual>-0.2</residual>
        </stationMagnitudeContribution>
        <stationMagnitudeContribution>
          <stationMagnitudeID>quakeml:uw.anss.org/AssocAmM/UW/16000353</stationMagnitudeID>
          <weight>0.0</weight>
          <residual>-0.38</residual>
        </stationMagnitudeContribution>
        <stationMagnitudeContribution>
          <stationMagnitudeID>quakeml:uw.anss.org/AssocAmM/UW/16000383</stationMagnitudeID>
          <weight>1.0</weight>
          <residual>0.17</residual>
        </stationMagnitudeContribution>
        <stationMagnitudeContribution>
          <stationMagnitudeID>quakeml:uw.anss.org/AssocAmM/UW/16000373</stationMagnitudeID>
          <weight>1.0</weight>
          <residual>-0.16</residual>
        </stationMagnitudeContribution>
        <stationMagnitudeContribution>
          <stationMagnitudeID>quakeml:uw.anss.org/AssocAmM/UW/16000368</stationMagnitudeID>
          <weight>0.0</weight>
          <residual>-0.1</residual>
        </stationMagnitudeContribution>
        <stationMagnitudeContribution>
          <stationMagnitudeID>quakeml:uw.anss.org/AssocAmM/UW/16000413</stationMagnitudeID>
          <weight>1.0</weight>
          <residual>-0.3</residual>
        </stationMagnitudeContribution>
        <stationMagnitudeContribution>
          <stationMagnitudeID>quakeml:uw.anss.org/AssocAmM/UW/16000388</stationMagnitudeID>
          <weight>1.0</weight>
          <residual>0.03</residual>
        </stationMagnitudeContribution>
        <stationMagnitudeContribution>
          <stationMagnitudeID>quakeml:uw.anss.org/AssocAmM/UW/16000403</stationMagnitudeID>
          <weight>1.0</weight>
          <residual>-0.01</residual>
        </stationMagnitudeContribution>
        <stationMagnitudeContribution>
          <stationMagnitudeID>quakeml:uw.anss.org/AssocAmM/UW/16000363</stationMagnitudeID>
          <weight>0.0</weight>
          <residual>-0.44</residual>
        </stationMagnitudeContribution>
        <stationMagnitudeContribution>
          <stationMagnitudeID>quakeml:uw.anss.org/AssocAmM/UW/16000393</stationMagnitudeID>
          <weight>1.0</weight>
          <residual>-0.04</residual>
        </stationMagnitudeContribution>
        <stationMagnitudeContribution>
          <stationMagnitudeID>quakeml:uw.anss.org/AssocAmM/UW/16000358</stationMagnitudeID>
          <weight>0.0</weight>
          <residual>-0.11</residual>
        </stationMagnitudeContribution>
        <stationMagnitudeContribution>
          <stationMagnitudeID>quakeml:uw.anss.org/AssocAmM/UW/16000398</stationMagnitudeID>
          <weight>1.0</weight>
          <residual>0.05</residual>
        </stationMagnitudeContribution>
        <stationMagnitudeContribution>
          <stationMagnitudeID>quakeml:uw.anss.org/AssocAmM/UW/16000408</stationMagnitudeID>
          <weight>1.0</weight>
          <residual>0.01</residual>
        </stationMagnitudeContribution>
        <creationInfo>
          <agencyID>UW</agencyID>
          <creationTime>2024-09-08T22:58:41.000000Z</creationTime>
        </creationInfo>
      </magnitude>
      <stationMagnitude publicID="quakeml:uw.anss.org/AssocAmM/UW/16000353">
        <originID>quakeml:uw.anss.org/Origin/UW/3288118</originID>
        <mag>
          <value>0.71</value>
        </mag>
        <type>ML</type>
        <amplitudeID>quakeml:uw.anss.org/Amp/UW/16000353</amplitudeID>
        <waveformID networkCode="UW" stationCode="MBW2" locationCode="" channelCode="ENN"></waveformID>
      </stationMagnitude>
      <stationMagnitude publicID="quakeml:uw.anss.org/AssocAmM/UW/16000358">
        <originID>quakeml:uw.anss.org/Origin/UW/3288118</originID>
        <mag>
          <value>0.98</value>
        </mag>
        <type>ML</type>
        <amplitudeID>quakeml:uw.anss.org/Amp/UW/16000358</amplitudeID>
        <waveformID networkCode="UW" stationCode="MBW2" locationCode="" channelCode="ENE"></waveformID>
      </stationMagnitude>
      <stationMagnitude publicID="quakeml:uw.anss.org/AssocAmM/UW/16000363">
        <originID>quakeml:uw.anss.org/Origin/UW/3288118</originID>
        <mag>
          <value>0.65</value>
        </mag>
        <type>ML</type>
        <amplitudeID>quakeml:uw.anss.org/Amp/UW/16000363</amplitudeID>
        <waveformID networkCode="UW" stationCode="MBW2" locationCode="" channelCode="HHN"></waveformID>
      </stationMagnitude>
      <stationMagnitude publicID="quakeml:uw.anss.org/AssocAmM/UW/16000368">
        <originID>quakeml:uw.anss.org/Origin/UW/3288118</originID>
        <mag>
          <value>0.99</value>
        </mag>
        <type>ML</type>
        <amplitudeID>quakeml:uw.anss.org/Amp/UW/16000368</amplitudeID>
        <waveformID networkCode="UW" stationCode="MBW2" locationCode="" channelCode="HHE"></waveformID>
      </stationMagnitude>
      <stationMagnitude publicID="quakeml:uw.anss.org/AssocAmM/UW/16000373">
        <originID>quakeml:uw.anss.org/Origin/UW/3288118</originID>
        <mag>
          <value>0.93</value>
        </mag>
        <type>ML</type>
        <amplitudeID>quakeml:uw.anss.org/Amp/UW/16000373</amplitudeID>
        <waveformID networkCode="UW" stationCode="SHUK" locationCode="" channelCode="HHN"></waveformID>
      </stationMagnitude>
      <stationMagnitude publicID="quakeml:uw.anss.org/AssocAmM/UW/16000378">
        <originID>quakeml:uw.anss.org/Origin/UW/3288118</originID>
        <mag>
          <value>1.17</value>
        </mag>
        <type>ML</type>
        <amplitudeID>quakeml:uw.anss.org/Amp/UW/16000378</amplitudeID>
        <waveformID networkCode="UW" stationCode="SHUK" locationCode="" channelCode="HHE"></waveformID>
      </stationMagnitude>
      <stationMagnitude publicID="quakeml:uw.anss.org/AssocAmM/UW/16000383">
        <originID>quakeml:uw.anss.org/Origin/UW/3288118</originID>
        <mag>
          <value>1.26</value>
        </mag>
        <type>ML</type>
        <amplitudeID>quakeml:uw.anss.org/Amp/UW/16000383</amplitudeID>
        <waveformID networkCode="UW" stationCode="SAXON" locationCode="" channelCode="HHN"></waveformID>
      </stationMagnitude>
      <stationMagnitude publicID="quakeml:uw.anss.org/AssocAmM/UW/16000388">
        <originID>quakeml:uw.anss.org/Origin/UW/3288118</originID>
        <mag>
          <value>1.12</value>
        </mag>
        <type>ML</type>
        <amplitudeID>quakeml:uw.anss.org/Amp/UW/16000388</amplitudeID>
        <waveformID networkCode="UW" stationCode="SAXON" locationCode="" channelCode="HHE"></waveformID>
      </stationMagnitude>
      <stationMagnitude publicID="quakeml:uw.anss.org/AssocAmM/UW/16000393">
        <originID>quakeml:uw.anss.org/Origin/UW/3288118</originID>
        <mag>
          <value>1.05</value>
        </mag>
        <type>ML</type>
        <amplitudeID>quakeml:uw.anss.org/Amp/UW/16000393</amplitudeID>
        <waveformID networkCode="UW" stationCode="MULN" locationCode="" channelCode="HHN"></waveformID>
      </stationMagnitude>
      <stationMagnitude publicID="quakeml:uw.anss.org/AssocAmM/UW/16000398">
        <originID>quakeml:uw.anss.org/Origin/UW/3288118</originID>
        <mag>
          <value>1.14</value>
        </mag>
        <type>ML</type>
        <amplitudeID>quakeml:uw.anss.org/Amp/UW/16000398</amplitudeID>
        <waveformID networkCode="UW" stationCode="MULN" locationCode="" channelCode="HHE"></waveformID>
      </stationMagnitude>
      <stationMagnitude publicID="quakeml:uw.anss.org/AssocAmM/UW/16000403">
        <originID>quakeml:uw.anss.org/Origin/UW/3288118</originID>
        <mag>
          <value>1.08</value>
        </mag>
        <type>ML</type>
        <amplitudeID>quakeml:uw.anss.org/Amp/UW/16000403</amplitudeID>
        <waveformID networkCode="UW" stationCode="PASS" locationCode="" channelCode="HHN"></waveformID>
      </stationMagnitude>
      <stationMagnitude publicID="quakeml:uw.anss.org/AssocAmM/UW/16000408">
        <originID>quakeml:uw.anss.org/Origin/UW/3288118</originID>
        <mag>
          <value>1.1</value>
        </mag>
        <type>ML</type>
        <amplitudeID>quakeml:uw.anss.org/Amp/UW/16000408</amplitudeID>
        <waveformID networkCode="UW" stationCode="PASS" locationCode="" channelCode="HHE"></waveformID>
      </stationMagnitude>
      <stationMagnitude publicID="quakeml:uw.anss.org/AssocAmM/UW/16000413">
        <originID>quakeml:uw.anss.org/Origin/UW/3288118</originID>
        <mag>
          <value>0.79</value>
        </mag>
        <type>ML</type>
        <amplitudeID>quakeml:uw.anss.org/Amp/UW/16000413</amplitudeID>
        <waveformID networkCode="UW" stationCode="RPW2" locationCode="" channelCode="HHN"></waveformID>
      </stationMagnitude>
      <stationMagnitude publicID="quakeml:uw.anss.org/AssocAmM/UW/16000418">
        <originID>quakeml:uw.anss.org/Origin/UW/3288118</originID>
        <mag>
          <value>0.89</value>
        </mag>
        <type>ML</type>
        <amplitudeID>quakeml:uw.anss.org/Amp/UW/16000418</amplitudeID>
        <waveformID networkCode="UW" stationCode="RPW2" locationCode="" channelCode="HHE"></waveformID>
      </stationMagnitude>
      <pick publicID="quakeml:uw.anss.org/Arrival/UW/17286708">
        <time>
          <value>2024-09-07T14:22:35.880000Z</value>
          <uncertainty>0.03</uncertainty>
        </time>
        <waveformID networkCode="UW" stationCode="MBW2" locationCode="" channelCode="HHZ"></waveformID>
        <onset>impulsive</onset>
        <polarity>negative</polarity>
        <evaluationMode>manual</evaluationMode>
        <evaluationStatus>reviewed</evaluationStatus>
        <creationInfo>
          <agencyID>UW</agencyID>
