<?xml version='1.0' encoding='utf-8'?>
<q:quakeml xmlns="http://quakeml.org/xmlns/bed/1.2" xmlns:q="http://quakeml.org/xmlns/quakeml/1.2" xmlns:ns0="http://anss.org/xmlns/catalog/0.1">
  <eventParameters publicID="smi:local/5ab1eef6-c7a8-4d08-a4e7-0236e7f7e016">
    <event publicID="quakeml:uw.anss.org/Event/UW/62034471" ns0:datasource="uw" ns0:dataid="uw62034471" ns0:eventsource="uw" ns0:eventid="62034471">
      <preferredOriginID>quakeml:uw.anss.org/Origin/UW/3283873</preferredOriginID>
      <preferredMagnitudeID>quakeml:uw.anss.org/Netmag/UW/3298583</preferredMagnitudeID>
      <type>other event</type>
      <creationInfo>
        <agencyID>UW</agencyID>
        <creationTime>2024-08-14T20:07:14.000000Z</creationTime>
        <version>3</version>
      </creationInfo>
      <origin publicID="quakeml:uw.anss.org/Origin/UW/3283873" ns0:datasource="uw" ns0:dataid="uw62034471" ns0:eventsource="uw" ns0:eventid="62034471">
        <time>
          <value>2024-08-10T10:11:42.110000Z</value>
        </time>
        <latitude>
          <value>48.8008</value>
        </latitude>
        <longitude>
          <value>-121.9201</value>
        </longitude>
        <depth>
          <value>-748.76</value>
        </depth>
        <depthType>operator assigned</depthType>
        <timeFixed>false</timeFixed>
        <epicenterFixed>false</epicenterFixed>
        <methodID>smi:uw.anss.org/origin/HAND</methodID>
        <quality>
          <associatedPhaseCount>0</associatedPhaseCount>
          <usedPhaseCount>0</usedPhaseCount>
          <associatedStationCount>42</associatedStationCount>
          <usedStationCount>0</usedStationCount>
          <secondaryAzimuthalGap>425.0</secondaryAzimuthalGap>
          <minimumDistance>0.1689</minimumDistance>
          <maximumDistance>6.782</maximumDistance>
          <medianDistance>1.6</medianDistance>
        </quality>
        <type>hypocenter</type>
        <evaluationMode>manual</evaluationMode>
        <evaluationStatus>final</evaluationStatus>
        <creationInfo>
          <agencyID>UW</agencyID>
          <creationTime>2024-08-14T20:06:19.000000Z</creationTime>
        </creationInfo>
        <arrival publicID="quakeml:uw.anss.org/AssocArO/UW/17228378">
          <pickID>quakeml:uw.anss.org/Arrival/UW/17228378</pickID>
          <phase>P</phase>
          <distance>5.095e-05</distance>
          <creationInfo>
            <agencyID>UW</agencyID>
            <creationTime>2024-08-14T20:07:14.000000Z</creationTime>
          </creationInfo>
        </arrival>
        <arrival publicID="quakeml:uw.anss.org/AssocArO/UW/17228383">
          <pickID>quakeml:uw.anss.org/Arrival/UW/17228383</pickID>
          <phase>P</phase>
          <distance>0.1689</distance>
          <creationInfo>
            <agencyID>UW</agencyID>
            <creationTime>2024-08-14T20:07:14.000000Z</creationTime>
          </creationInfo>
        </arrival>
        <arrival publicID="quakeml:uw.anss.org/AssocArO/UW/17228388">
          <pickID>quakeml:uw.anss.org/Arrival/UW/17228388</pickID>
          <phase>P</phase>
          <distance>0.1981</distance>
          <creationInfo>
            <agencyID>UW</agencyID>
            <creationTime>2024-08-14T20:07:14.000000Z</creationTime>
          </creationInfo>
        </arrival>
        <arrival publicID="quakeml:uw.anss.org/AssocArO/UW/17228393">
          <pickID>quakeml:uw.anss.org/Arrival/UW/17228393</pickID>
          <phase>P</phase>
          <distance>0.2257</distance>
          <creationInfo>
            <agencyID>UW</agencyID>
            <creationTime>2024-08-14T20:07:14.000000Z</creationTime>
          </creationInfo>
        </arrival>
        <arrival publicID="quakeml:uw.anss.org/AssocArO/UW/17228398">
          <pickID>quakeml:uw.anss.org/Arrival/UW/17228398</pickID>
          <phase>P</phase>
          <distance>0.2719</distance>
          <creationInfo>
            <agencyID>UW</agencyID>
            <creationTime>2024-08-14T20:07:14.000000Z</creationTime>
          </creationInfo>
        </arrival>
        <arrival publicID="quakeml:uw.anss.org/AssocArO/UW/17228403">
          <pickID>quakeml:uw.anss.org/Arrival/UW/17228403</pickID>
          <phase>P</phase>
          <distance>0.2823</distance>
          <creationInfo>
            <agencyID>UW</agencyID>
            <creationTime>2024-08-14T20:07:14.000000Z</creationTime>
          </creationInfo>
        </arrival>
        <arrival publicID="quakeml:uw.anss.org/AssocArO/UW/17228408">
          <pickID>quakeml:uw.anss.org/Arrival/UW/17228408</pickID>
          <phase>P</phase>
          <distance>0.3292</distance>
          <creationInfo>
            <agencyID>UW</agencyID>
            <creationTime>2024-08-14T20:07:14.000000Z</creationTime>
          </creationInfo>
        </arrival>
        <arrival publicID="quakeml:uw.anss.org/AssocArO/UW/17228413">
          <pickID>quakeml:uw.anss.org/Arrival/UW/17228413</pickID>
          <phase>P</phase>
          <distance>0.4086</distance>
          <creationInfo>
            <agencyID>UW</agencyID>
            <creationTime>2024-08-14T20:07:14.000000Z</creationTime>
          </creationInfo>
        </arrival>
        <arrival publicID="quakeml:uw.anss.org/AssocArO/UW/17228418">
          <pickID>quakeml:uw.anss.org/Arrival/UW/17228418</pickID>
          <phase>P</phase>
          <distance>0.4417</distance>
          <creationInfo>
            <agencyID>UW</agencyID>
            <creationTime>2024-08-14T20:07:14.000000Z</creationTime>
          </creationInfo>
        </arrival>
        <arrival publicID="quakeml:uw.anss.org/AssocArO/UW/17228423">
          <pickID>quakeml:uw.anss.org/Arrival/UW/17228423</pickID>
          <phase>P</phase>
          <distance>0.606</distance>
          <creationInfo>
            <agencyID>UW</agencyID>
            <creationTime>2024-08-14T20:07:14.000000Z</creationTime>
          </creationInfo>
        </arrival>
        <arrival publicID="quakeml:uw.anss.org/AssocArO/UW/17228428">
          <pickID>quakeml:uw.anss.org/Arrival/UW/17228428</pickID>
          <phase>P</phase>
          <distance>0.9021</distance>
          <creationInfo>
            <agencyID>UW</agencyID>
            <creationTime>2024-08-14T20:07:14.000000Z</creationTime>
          </creationInfo>
        </arrival>
        <arrival publicID="quakeml:uw.anss.org/AssocArO/UW/17228433">
          <pickID>quakeml:uw.anss.org/Arrival/UW/17228433</pickID>
          <phase>P</phase>
          <distance>0.9935</distance>
          <creationInfo>
            <agencyID>UW</agencyID>
            <creationTime>2024-08-14T20:07:14.000000Z</creationTime>
          </creationInfo>
        </arrival>
        <arrival publicID="quakeml:uw.anss.org/AssocArO/UW/17228438">
          <pickID>quakeml:uw.anss.org/Arrival/UW/17228438</pickID>
          <phase>P</phase>
          <distance>1.01</distance>
          <creationInfo>
            <agencyID>UW</agencyID>
            <creationTime>2024-08-14T20:07:14.000000Z</creationTime>
          </creationInfo>
        </arrival>
        <arrival publicID="quakeml:uw.anss.org/AssocArO/UW/17228443">
          <pickID>quakeml:uw.anss.org/Arrival/UW/17228443</pickID>
          <phase>P</phase>
          <distance>1.023</distance>
          <creationInfo>
            <agencyID>UW</agencyID>
            <creationTime>2024-08-14T20:07:14.000000Z</creationTime>
          </creationInfo>
        </arrival>
        <arrival publicID="quakeml:uw.anss.org/AssocArO/UW/17228448">
          <pickID>quakeml:uw.anss.org/Arrival/UW/17228448</pickID>
          <phase>P</phase>
          <distance>1.136</distance>
          <creationInfo>
            <agencyID>UW</agencyID>
            <creationTime>2024-08-14T20:07:14.000000Z</creationTime>
          </creationInfo>
        </arrival>
        <arrival publicID="quakeml:uw.anss.org/AssocArO/UW/17228453">
          <pickID>quakeml:uw.anss.org/Arrival/UW/17228453</pickID>
          <phase>P</phase>
          <distance>1.181</distance>
          <creationInfo>
            <agencyID>UW</agencyID>
            <creationTime>2024-08-14T20:07:14.000000Z</creationTime>
          </creationInfo>
        </arrival>
        <arrival publicID="quakeml:uw.anss.org/AssocArO/UW/17228458">
          <pickID>quakeml:uw.anss.org/Arrival/UW/17228458</pickID>
          <phase>P</phase>
          <distance>1.242</distance>
          <creationInfo>
            <agencyID>UW</agencyID>
            <creationTime>2024-08-14T20:07:14.000000Z</creationTime>
          </creationInfo>
        </arrival>
        <arrival publicID="quakeml:uw.anss.org/AssocArO/UW/17228463">
          <pickID>quakeml:uw.anss.org/Arrival/UW/17228463</pickID>
          <phase>P</phase>
          <distance>1.292</distance>
          <creationInfo>
            <agencyID>UW</agencyID>
            <creationTime>2024-08-14T20:07:14.000000Z</creationTime>
          </creationInfo>
        </arrival>
        <arrival publicID="quakeml:uw.anss.org/AssocArO/UW/17228468">
          <pickID>quakeml:uw.anss.org/Arrival/UW/17228468</pickID>
          <phase>P</phase>
          <distance>1.378</distance>
          <creationInfo>
            <agencyID>UW</agencyID>
            <creationTime>2024-08-14T20:07:14.000000Z</creationTime>
          </creationInfo>
        </arrival>
        <arrival publicID="quakeml:uw.anss.org/AssocArO/UW/17228473">
          <pickID>quakeml:uw.anss.org/Arrival/UW/17228473</pickID>
          <phase>P</phase>
          <distance>1.381</distance>
          <creationInfo>
            <agencyID>UW</agencyID>
            <creationTime>2024-08-14T20:07:14.000000Z</creationTime>
          </creationInfo>
        </arrival>
        <arrival publicID="quakeml:uw.anss.org/AssocArO/UW/17228478">
          <pickID>quakeml:uw.anss.org/Arrival/UW/17228478</pickID>
          <phase>P</phase>
          <distance>1.597</distance>
          <creationInfo>
            <agencyID>UW</agencyID>
            <creationTime>2024-08-14T20:07:14.000000Z</creationTime>
          </creationInfo>
        </arrival>
        <arrival publicID="quakeml:uw.anss.org/AssocArO/UW/17228483">
          <pickID>quakeml:uw.anss.org/Arrival/UW/17228483</pickID>
          <phase>P</phase>
          <distance>1.6</distance>
          <creationInfo>
            <agencyID>UW</agencyID>
            <creationTime>2024-08-14T20:07:14.000000Z</creationTime>
          </creationInfo>
        </arrival>
        <arrival publicID="quakeml:uw.anss.org/AssocArO/UW/17228488">
          <pickID>quakeml:uw.anss.org/Arrival/UW/17228488</pickID>
          <phase>P</phase>
          <distance>1.6</distance>
          <creationInfo>
            <agencyID>UW</agencyID>
            <creationTime>2024-08-14T20:07:14.000000Z</creationTime>
          </creationInfo>
        </arrival>
        <arrival publicID="quakeml:uw.anss.org/AssocArO/UW/17228493">
          <pickID>quakeml:uw.anss.org/Arrival/UW/17228493</pickID>
          <phase>P</phase>
          <distance>1.841</distance>
          <creationInfo>
            <agencyID>UW</agencyID>
            <creationTime>2024-08-14T20:07:14.000000Z</creationTime>
          </creationInfo>
        </arrival>
        <arrival publicID="quakeml:uw.anss.org/AssocArO/UW/17228498">
          <pickID>quakeml:uw.anss.org/Arrival/UW/17228498</pickID>
          <phase>P</phase>
          <distance>1.97</distance>
          <creationInfo>
            <agencyID>UW</agencyID>
            <creationTime>2024-08-14T20:07:14.000000Z</creationTime>
          </creationInfo>
        </arrival>
        <arrival publicID="quakeml:uw.anss.org/AssocArO/UW/17228503">
          <pickID>quakeml:uw.anss.org/Arrival/UW/17228503</pickID>
          <phase>P</phase>
          <distance>2.004</distance>
          <creationInfo>
            <agencyID>UW</agencyID>
            <creationTime>2024-08-14T20:07:14.000000Z</creationTime>
          </creationInfo>
        </arrival>
        <arrival publicID="quakeml:uw.anss.org/AssocArO/UW/17228508">
          <pickID>quakeml:uw.anss.org/Arrival/UW/17228508</pickID>
          <phase>P</phase>
          <distance>2.036</distance>
          <creationInfo>
            <agencyID>UW</agencyID>
            <creationTime>2024-08-14T20:07:14.000000Z</creationTime>
          </creationInfo>
        </arrival>
        <arrival publicID="quakeml:uw.anss.org/AssocArO/UW/17228513">
          <pickID>quakeml:uw.anss.org/Arrival/UW/17228513</pickID>
          <phase>P</phase>
          <distance>2.094</distance>
          <creationInfo>
            <agencyID>UW</agencyID>
            <creationTime>2024-08-14T20:07:14.000000Z</creationTime>
          </creationInfo>
        </arrival>
        <arrival publicID="quakeml:uw.anss.org/AssocArO/UW/17228518">
          <pickID>quakeml:uw.anss.org/Arrival/UW/17228518</pickID>
          <phase>P</phase>
          <distance>2.098</distance>
          <creationInfo>
            <agencyID>UW</agencyID>
            <creationTime>2024-08-14T20:07:14.000000Z</creationTime>
          </creationInfo>
        </arrival>
        <arrival publicID="quakeml:uw.anss.org/AssocArO/UW/17228523">
          <pickID>quakeml:uw.anss.org/Arrival/UW/17228523</pickID>
          <phase>P</phase>
          <distance>2.537</distance>
          <creationInfo>
            <agencyID>UW</agencyID>
            <creationTime>2024-08-14T20:07:14.000000Z</creationTime>
          </creationInfo>
        </arrival>
        <arrival publicID="quakeml:uw.anss.org/AssocArO/UW/17228528">
          <pickID>quakeml:uw.anss.org/Arrival/UW/17228528</pickID>
          <phase>P</phase>
          <distance>2.563</distance>
          <creationInfo>
            <agencyID>UW</agencyID>
            <creationTime>2024-08-14T20:07:14.000000Z</creationTime>
          </creationInfo>
        </arrival>
        <arrival publicID="quakeml:uw.anss.org/AssocArO/UW/17228533">
          <pickID>quakeml:uw.anss.org/Arrival/UW/17228533</pickID>
          <phase>P</phase>
          <distance>2.59</distance>
          <creationInfo>
            <agencyID>UW</agencyID>
            <creationTime>2024-08-14T20:07:14.000000Z</creationTime>
          </creationInfo>
        </arrival>
        <arrival publicID="quakeml:uw.anss.org/AssocArO/UW/17228538">
          <pickID>quakeml:uw.anss.org/Arrival/UW/17228538</pickID>
          <phase>P</phase>
          <distance>2.612</distance>
          <creationInfo>
            <agencyID>UW</agencyID>
            <creationTime>2024-08-14T20:07:14.000000Z</creationTime>
          </creationInfo>
        </arrival>
        <arrival publicID="quakeml:uw.anss.org/AssocArO/UW/17228543">
          <pickID>quakeml:uw.anss.org/Arrival/UW/17228543</pickID>
          <phase>P</phase>
          <distance>2.609</distance>
          <creationInfo>
            <agencyID>UW</agencyID>
            <creationTime>2024-08-14T20:07:14.000000Z</creationTime>
          </creationInfo>
        </arrival>
        <arrival publicID="quakeml:uw.anss.org/AssocArO/UW/17228548">
          <pickID>quakeml:uw.anss.org/Arrival/UW/17228548</pickID>
          <phase>P</phase>
          <distance>2.672</distance>
          <creationInfo>
            <agencyID>UW</agencyID>
            <creationTime>2024-08-14T20:07:14.000000Z</creationTime>
          </creationInfo>
        </arrival>
        <arrival publicID="quakeml:uw.anss.org/AssocArO/UW/17228553">
          <pickID>quakeml:uw.anss.org/Arrival/UW/17228553</pickID>
          <phase>P</phase>
          <distance>2.888</distance>
          <creationInfo>
            <agencyID>UW</agencyID>
            <creationTime>2024-08-14T20:07:14.000000Z</creationTime>
          </creationInfo>
        </arrival>
        <arrival publicID="quakeml:uw.anss.org/AssocArO/UW/17228558">
          <pickID>quakeml:uw.anss.org/Arrival/UW/17228558</pickID>
          <phase>P</phase>
          <distance>3.069</distance>
          <creationInfo>
            <agencyID>UW</agencyID>
            <creationTime>2024-08-14T20:07:14.000000Z</creationTime>
          </creationInfo>
        </arrival>
        <arrival publicID="quakeml:uw.anss.org/AssocArO/UW/17228563">
          <pickID>quakeml:uw.anss.org/Arrival/UW/17228563</pickID>
          <phase>P</phase>
          <distance>3.447</distance>
          <creationInfo>
            <agencyID>UW</agencyID>
            <creationTime>2024-08-14T20:07:14.000000Z</creationTime>
          </creationInfo>
        </arrival>
        <arrival publicID="quakeml:uw.anss.org/AssocArO/UW/17228568">
          <pickID>quakeml:uw.anss.org/Arrival/UW/17228568</pickID>
          <phase>P</phase>
          <distance>4.316</distance>
          <creationInfo>
            <agencyID>UW</agencyID>
            <creationTime>2024-08-14T20:07:14.000000Z</creationTime>
          </creationInfo>
        </arrival>
        <arrival publicID="quakeml:uw.anss.org/AssocArO/UW/17228573">
          <pickID>quakeml:uw.anss.org/Arrival/UW/17228573</pickID>
          <phase>P</phase>
          <distance>5.056</distance>
          <creationInfo>
            <agencyID>UW</agencyID>
            <creationTime>2024-08-14T20:07:14.000000Z</creationTime>
          </creationInfo>
        </arrival>
        <arrival publicID="quakeml:uw.anss.org/AssocArO/UW/17228578">
          <pickID>quakeml:uw.anss.org/Arrival/UW/17228578</pickID>
          <phase>P</phase>
          <distance>6.74</distance>
          <creationInfo>
            <agencyID>UW</agencyID>
            <creationTime>2024-08-14T20:07:14.000000Z</creationTime>
          </creationInfo>
        </arrival>
        <arrival publicID="quakeml:uw.anss.org/AssocArO/UW/17228583">
          <pickID>quakeml:uw.anss.org/Arrival/UW/17228583</pickID>
          <phase>P</phase>
          <distance>6.782</distance>
          <creationInfo>
            <agencyID>UW</agencyID>
            <creationTime>2024-08-14T20:07:14.000000Z</creationTime>
          </creationInfo>
        </arrival>
      </origin>
      <magnitude publicID="quakeml:uw.anss.org/Netmag/UW/3298583">
        <mag>
          <value>-5.0</value>
        </mag>
        <type>Mh</type>
        <originID>quakeml:uw.anss.org/Origin/UW/3283873</originID>
        <methodID>smi:uw.anss.org/magnitude/HAND</methodID>
        <stationCount>0</stationCount>
        <evaluationMode>manual</evaluationMode>
        <evaluationStatus>reviewed</evaluationStatus>
        <creationInfo>
          <agencyID>UW</agencyID>
          <creationTime>2024-08-14T20:07:14.000000Z</creationTime>
        </creationInfo>
      </magnitude>
      <pick publicID="quakeml:uw.anss.org/Arrival/UW/17228378">
        <time>
          <value>2024-08-10T10:11:43.110000Z</value>
          <uncertainty>0.15</uncertainty>
        </time>
        <waveformID networkCode="UW" stationCode="MBW2" locationCode="" channelCode="HHZ"></waveformID>
        <onset>emergent</onset>
        <polarity>undecidable</polarity>
        <evaluationMode>manual</evaluationMode>
        <evaluationStatus>reviewed</evaluationStatus>
        <creationInfo>
          <agencyID>UW</agencyID>
          <creationTime>2024-08-14T20:07:14.000000Z</creationTime>
        </creationInfo>
      </pick>
      <pick publicID="quakeml:uw.anss.org/Arrival/UW/17228383">
        <time>
          <value>2024-08-10T10:11:45.000000Z</value>
        </time>
        <waveformID networkCode="UW" stationCode="SHUK" locationCode="" channelCode="HHZ"></waveformID>
        <onset>questionable</onset>
        <polarity>undecidable</polarity>
        <evaluationMode>automatic</evaluationMode>
        <evaluationStatus>preliminary</evaluationStatus>
        <creationInfo>
          <agencyID>UW</agencyID>
          <creationTime>2024-08-14T20:07:14.000000Z</creationTime>
        </creationInfo>
      </pick>
      <pick publicID="quakeml:uw.anss.org/Arrival/UW/17228388">
        <time>
          <value>2024-08-10T10:11:47.000000Z</value>
        </time>
