<?xml version='1.0' encoding='utf-8'?>
<q:quakeml xmlns="http://quakeml.org/xmlns/bed/1.2" xmlns:q="http://quakeml.org/xmlns/quakeml/1.2" xmlns:ns0="http://anss.org/xmlns/catalog/0.1">
  <eventParameters publicID="smi:local/8d28cbec-316a-4213-82af-657bc7db743d">
    <event publicID="quakeml:uw.anss.org/Event/UW/10809903" ns0:datasource="uw" ns0:dataid="uw10809903" ns0:eventsource="uw" ns0:eventid="10809903">
      <preferredOriginID>quakeml:uw.anss.org/Origin/UW/1095598</preferredOriginID>
      <preferredMagnitudeID>quakeml:uw.anss.org/Netmag/UW/2528293</preferredMagnitudeID>
      <type>earthquake</type>
      <creationInfo>
        <agencyID>UW</agencyID>
        <creationTime>2016-11-29T00:06:08.000000Z</creationTime>
        <version>4</version>
      </creationInfo>
      <origin publicID="quakeml:uw.anss.org/Origin/UW/1095598" ns0:datasource="uw" ns0:dataid="uw10809903" ns0:eventsource="uw" ns0:eventid="10809903">
        <time>
          <value>2010-10-31T21:27:43.160000Z</value>
          <uncertainty>0.07</uncertainty>
        </time>
        <latitude>
          <value>48.9243333</value>
          <uncertainty>0.51</uncertainty>
        </latitude>
        <longitude>
          <value>-122.0761667</value>
          <uncertainty>0.72</uncertainty>
        </longitude>
        <depth>
          <value>7123.0</value>
          <uncertainty>1190.0</uncertainty>
        </depth>
        <depthType>from location</depthType>
        <timeFixed>false</timeFixed>
        <epicenterFixed>false</epicenterFixed>
        <methodID>smi:uw.anss.org/origin/spong</methodID>
        <quality>
          <associatedPhaseCount>41</associatedPhaseCount>
          <usedPhaseCount>34</usedPhaseCount>
          <associatedStationCount>31</associatedStationCount>
          <usedStationCount>0</usedStationCount>
          <standardError>0.3</standardError>
          <azimuthalGap>140.0</azimuthalGap>
        </quality>
        <type>hypocenter</type>
        <evaluationMode>manual</evaluationMode>
        <evaluationStatus>final</evaluationStatus>
        <creationInfo>
          <agencyID>UW</agencyID>
          <creationTime>2012-03-08T14:38:59.000000Z</creationTime>
        </creationInfo>
        <originUncertainty>
          <preferredDescription>horizontal uncertainty</preferredDescription>
          <horizontalUncertainty>882.0</horizontalUncertainty>
        </originUncertainty>
        <arrival publicID="quakeml:uw.anss.org/AssocArO/UW/10290723">
          <pickID>quakeml:uw.anss.org/Arrival/UW/10290723</pickID>
          <phase>P</phase>
          <azimuth>207.4</azimuth>
          <distance>1.435</distance>
          <timeResidual>0.34</timeResidual>
          <creationInfo>
            <agencyID>UW</agencyID>
            <creationTime>2012-03-08T14:38:59.000000Z</creationTime>
          </creationInfo>
        </arrival>
        <arrival publicID="quakeml:uw.anss.org/AssocArO/UW/10290728">
          <pickID>quakeml:uw.anss.org/Arrival/UW/10290728</pickID>
          <phase>P</phase>
          <azimuth>126.0</azimuth>
          <distance>1.436</distance>
          <timeResidual>0.87</timeResidual>
          <creationInfo>
            <agencyID>UW</agencyID>
            <creationTime>2012-03-08T14:38:59.000000Z</creationTime>
          </creationInfo>
        </arrival>
        <arrival publicID="quakeml:uw.anss.org/AssocArO/UW/10290733">
          <pickID>quakeml:uw.anss.org/Arrival/UW/10290733</pickID>
          <phase>P</phase>
          <azimuth>181.1</azimuth>
          <distance>0.6609</distance>
          <timeResidual>0.1</timeResidual>
          <creationInfo>
            <agencyID>UW</agencyID>
            <creationTime>2012-03-08T14:38:59.000000Z</creationTime>
          </creationInfo>
        </arrival>
        <arrival publicID="quakeml:uw.anss.org/AssocArO/UW/10290738">
          <pickID>quakeml:uw.anss.org/Arrival/UW/10290738</pickID>
          <phase>S</phase>
          <azimuth>181.1</azimuth>
          <distance>0.6609</distance>
          <timeResidual>0.79</timeResidual>
          <creationInfo>
            <agencyID>UW</agencyID>
            <creationTime>2012-03-08T14:38:59.000000Z</creationTime>
          </creationInfo>
        </arrival>
        <arrival publicID="quakeml:uw.anss.org/AssocArO/UW/10290743">
          <pickID>quakeml:uw.anss.org/Arrival/UW/10290743</pickID>
          <phase>P</phase>
          <azimuth>235.2</azimuth>
          <distance>0.2737</distance>
          <timeResidual>0.34</timeResidual>
          <creationInfo>
            <agencyID>UW</agencyID>
            <creationTime>2012-03-08T14:38:59.000000Z</creationTime>
          </creationInfo>
        </arrival>
        <arrival publicID="quakeml:uw.anss.org/AssocArO/UW/10290748">
          <pickID>quakeml:uw.anss.org/Arrival/UW/10290748</pickID>
          <phase>P</phase>
          <azimuth>253.6</azimuth>
          <distance>0.9482</distance>
          <timeResidual>-0.65</timeResidual>
          <creationInfo>
            <agencyID>UW</agencyID>
            <creationTime>2012-03-08T14:38:59.000000Z</creationTime>
          </creationInfo>
        </arrival>
        <arrival publicID="quakeml:uw.anss.org/AssocArO/UW/10290753">
          <pickID>quakeml:uw.anss.org/Arrival/UW/10290753</pickID>
          <phase>S</phase>
          <azimuth>253.6</azimuth>
          <distance>0.9482</distance>
          <timeResidual>-1.55</timeResidual>
          <creationInfo>
            <agencyID>UW</agencyID>
            <creationTime>2012-03-08T14:38:59.000000Z</creationTime>
          </creationInfo>
        </arrival>
        <arrival publicID="quakeml:uw.anss.org/AssocArO/UW/10290758">
          <pickID>quakeml:uw.anss.org/Arrival/UW/10290758</pickID>
          <phase>P</phase>
          <azimuth>206.8</azimuth>
          <distance>1.244</distance>
          <timeResidual>-0.04</timeResidual>
          <creationInfo>
            <agencyID>UW</agencyID>
            <creationTime>2012-03-08T14:38:59.000000Z</creationTime>
          </creationInfo>
        </arrival>
        <arrival publicID="quakeml:uw.anss.org/AssocArO/UW/10290763">
          <pickID>quakeml:uw.anss.org/Arrival/UW/10290763</pickID>
          <phase>P</phase>
          <azimuth>218.8</azimuth>
          <distance>1.127</distance>
          <timeResidual>0.12</timeResidual>
          <creationInfo>
            <agencyID>UW</agencyID>
            <creationTime>2012-03-08T14:38:59.000000Z</creationTime>
          </creationInfo>
        </arrival>
        <arrival publicID="quakeml:uw.anss.org/AssocArO/UW/10290768">
          <pickID>quakeml:uw.anss.org/Arrival/UW/10290768</pickID>
          <phase>P</phase>
          <azimuth>183.3</azimuth>
          <distance>0.5021</distance>
          <timeResidual>-0.16</timeResidual>
          <creationInfo>
            <agencyID>UW</agencyID>
            <creationTime>2012-03-08T14:38:59.000000Z</creationTime>
          </creationInfo>
        </arrival>
        <arrival publicID="quakeml:uw.anss.org/AssocArO/UW/10290773">
          <pickID>quakeml:uw.anss.org/Arrival/UW/10290773</pickID>
          <phase>P</phase>
          <azimuth>135.9</azimuth>
          <distance>0.5645</distance>
          <timeResidual>0.2</timeResidual>
          <creationInfo>
            <agencyID>UW</agencyID>
            <creationTime>2012-03-08T14:38:59.000000Z</creationTime>
          </creationInfo>
        </arrival>
        <arrival publicID="quakeml:uw.anss.org/AssocArO/UW/10290778">
          <pickID>quakeml:uw.anss.org/Arrival/UW/10290778</pickID>
          <phase>S</phase>
          <azimuth>135.9</azimuth>
          <distance>0.5645</distance>
          <timeResidual>0.03</timeResidual>
          <creationInfo>
            <agencyID>UW</agencyID>
            <creationTime>2012-03-08T14:38:59.000000Z</creationTime>
          </creationInfo>
        </arrival>
        <arrival publicID="quakeml:uw.anss.org/AssocArO/UW/10290783">
          <pickID>quakeml:uw.anss.org/Arrival/UW/10290783</pickID>
          <phase>P</phase>
          <azimuth>253.7</azimuth>
          <distance>0.9506</distance>
          <timeResidual>-0.01</timeResidual>
          <creationInfo>
            <agencyID>UW</agencyID>
            <creationTime>2012-03-08T14:38:59.000000Z</creationTime>
          </creationInfo>
        </arrival>
        <arrival publicID="quakeml:uw.anss.org/AssocArO/UW/10290788">
          <pickID>quakeml:uw.anss.org/Arrival/UW/10290788</pickID>
          <phase>S</phase>
          <azimuth>253.7</azimuth>
          <distance>0.9506</distance>
          <timeResidual>-0.43</timeResidual>
          <creationInfo>
            <agencyID>UW</agencyID>
            <creationTime>2012-03-08T14:38:59.000000Z</creationTime>
          </creationInfo>
        </arrival>
        <arrival publicID="quakeml:uw.anss.org/AssocArO/UW/10290793">
          <pickID>quakeml:uw.anss.org/Arrival/UW/10290793</pickID>
          <phase>P</phase>
          <azimuth>141.9</azimuth>
          <distance>0.6045</distance>
          <timeResidual>-0.19</timeResidual>
          <creationInfo>
            <agencyID>UW</agencyID>
            <creationTime>2012-03-08T14:38:59.000000Z</creationTime>
          </creationInfo>
        </arrival>
        <arrival publicID="quakeml:uw.anss.org/AssocArO/UW/10290798">
          <pickID>quakeml:uw.anss.org/Arrival/UW/10290798</pickID>
          <phase>S</phase>
          <azimuth>141.9</azimuth>
          <distance>0.6045</distance>
          <timeResidual>-0.41</timeResidual>
          <creationInfo>
            <agencyID>UW</agencyID>
            <creationTime>2012-03-08T14:38:59.000000Z</creationTime>
          </creationInfo>
        </arrival>
        <arrival publicID="quakeml:uw.anss.org/AssocArO/UW/10290803">
          <pickID>quakeml:uw.anss.org/Arrival/UW/10290803</pickID>
          <phase>P</phase>
          <azimuth>260.6</azimuth>
          <distance>0.04399</distance>
          <timeResidual>-0.19</timeResidual>
          <creationInfo>
            <agencyID>UW</agencyID>
            <creationTime>2012-03-08T14:38:59.000000Z</creationTime>
          </creationInfo>
        </arrival>
        <arrival publicID="quakeml:uw.anss.org/AssocArO/UW/10290808">
          <pickID>quakeml:uw.anss.org/Arrival/UW/10290808</pickID>
          <phase>P</phase>
          <azimuth>228.0</azimuth>
          <distance>1.286</distance>
          <timeResidual>-0.56</timeResidual>
          <creationInfo>
            <agencyID>UW</agencyID>
            <creationTime>2012-03-08T14:38:59.000000Z</creationTime>
          </creationInfo>
        </arrival>
        <arrival publicID="quakeml:uw.anss.org/AssocArO/UW/10290813">
          <pickID>quakeml:uw.anss.org/Arrival/UW/10290813</pickID>
          <phase>P</phase>
          <azimuth>168.0</azimuth>
          <distance>1.257</distance>
          <timeResidual>0.61</timeResidual>
          <creationInfo>
            <agencyID>UW</agencyID>
            <creationTime>2012-03-08T14:38:59.000000Z</creationTime>
          </creationInfo>
        </arrival>
        <arrival publicID="quakeml:uw.anss.org/AssocArO/UW/10290818">
          <pickID>quakeml:uw.anss.org/Arrival/UW/10290818</pickID>
          <phase>P</phase>
          <azimuth>140.6</azimuth>
          <distance>0.1822</distance>
          <timeResidual>-0.16</timeResidual>
          <creationInfo>
            <agencyID>UW</agencyID>
            <creationTime>2012-03-08T14:38:59.000000Z</creationTime>
          </creationInfo>
        </arrival>
        <arrival publicID="quakeml:uw.anss.org/AssocArO/UW/10290823">
          <pickID>quakeml:uw.anss.org/Arrival/UW/10290823</pickID>
          <phase>P</phase>
          <azimuth>224.9</azimuth>
          <distance>1.552</distance>
          <timeResidual>-0.18</timeResidual>
          <creationInfo>
            <agencyID>UW</agencyID>
            <creationTime>2012-03-08T14:38:59.000000Z</creationTime>
          </creationInfo>
        </arrival>
        <arrival publicID="quakeml:uw.anss.org/AssocArO/UW/10290828">
          <pickID>quakeml:uw.anss.org/Arrival/UW/10290828</pickID>
          <phase>P</phase>
          <azimuth>172.3</azimuth>
          <timeResidual>0.25</timeResidual>
          <creationInfo>
            <agencyID>UW</agencyID>
            <creationTime>2012-03-08T14:38:59.000000Z</creationTime>
          </creationInfo>
        </arrival>
        <arrival publicID="quakeml:uw.anss.org/AssocArO/UW/10290833">
          <pickID>quakeml:uw.anss.org/Arrival/UW/10290833</pickID>
          <phase>S</phase>
          <azimuth>172.3</azimuth>
          <timeResidual>0.14</timeResidual>
          <creationInfo>
            <agencyID>UW</agencyID>
            <creationTime>2012-03-08T14:38:59.000000Z</creationTime>
          </creationInfo>
        </arrival>
        <arrival publicID="quakeml:uw.anss.org/AssocArO/UW/10290838">
          <pickID>quakeml:uw.anss.org/Arrival/UW/10290838</pickID>
          <phase>P</phase>
          <azimuth>244.0</azimuth>
          <distance>0.4639</distance>
          <timeResidual>-0.4</timeResidual>
          <creationInfo>
            <agencyID>UW</agencyID>
            <creationTime>2012-03-08T14:38:59.000000Z</creationTime>
          </creationInfo>
        </arrival>
        <arrival publicID="quakeml:uw.anss.org/AssocArO/UW/10290843">
          <pickID>quakeml:uw.anss.org/Arrival/UW/10290843</pickID>
          <phase>P</phase>
          <azimuth>213.3</azimuth>
          <distance>1.095</distance>
          <timeResidual>0.27</timeResidual>
          <creationInfo>
            <agencyID>UW</agencyID>
            <creationTime>2012-03-08T14:38:59.000000Z</creationTime>
          </creationInfo>
        </arrival>
        <arrival publicID="quakeml:uw.anss.org/AssocArO/UW/10290848">
          <pickID>quakeml:uw.anss.org/Arrival/UW/10290848</pickID>
          <phase>P</phase>
          <azimuth>238.7</azimuth>
          <distance>0.9733</distance>
          <timeResidual>0.05</timeResidual>
          <creationInfo>
            <agencyID>UW</agencyID>
            <creationTime>2012-03-08T14:38:59.000000Z</creationTime>
          </creationInfo>
        </arrival>
        <arrival publicID="quakeml:uw.anss.org/AssocArO/UW/10290853">
          <pickID>quakeml:uw.anss.org/Arrival/UW/10290853</pickID>
          <phase>P</phase>
          <azimuth>355.4</azimuth>
          <distance>0.07427</distance>
          <timeResidual>0.1</timeResidual>
          <creationInfo>
            <agencyID>UW</agencyID>
            <creationTime>2012-03-08T14:38:59.000000Z</creationTime>
          </creationInfo>
        </arrival>
        <arrival publicID="quakeml:uw.anss.org/AssocArO/UW/10290858">
          <pickID>quakeml:uw.anss.org/Arrival/UW/10290858</pickID>
          <phase>S</phase>
          <azimuth>355.4</azimuth>
          <distance>0.07427</distance>
          <timeResidual>0.39</timeResidual>
          <creationInfo>
            <agencyID>UW</agencyID>
            <creationTime>2012-03-08T14:38:59.000000Z</creationTime>
          </creationInfo>
        </arrival>
        <arrival publicID="quakeml:uw.anss.org/AssocArO/UW/10290863">
          <pickID>quakeml:uw.anss.org/Arrival/UW/10290863</pickID>
          <phase>P</phase>
          <azimuth>142.0</azimuth>
          <distance>1.02</distance>
          <timeResidual>0.41</timeResidual>
          <creationInfo>
            <agencyID>UW</agencyID>
            <creationTime>2012-03-08T14:38:59.000000Z</creationTime>
          </creationInfo>
        </arrival>
        <arrival publicID="quakeml:uw.anss.org/AssocArO/UW/10290868">
          <pickID>quakeml:uw.anss.org/Arrival/UW/10290868</pickID>
          <phase>S</phase>
          <azimuth>142.0</azimuth>
          <distance>1.02</distance>
          <timeResidual>0.06</timeResidual>
          <creationInfo>
            <agencyID>UW</agencyID>
            <creationTime>2012-03-08T14:38:59.000000Z</creationTime>
          </creationInfo>
        </arrival>
        <arrival publicID="quakeml:uw.anss.org/AssocArO/UW/10290873">
          <pickID>quakeml:uw.anss.org/Arrival/UW/10290873</pickID>
          <phase>P</phase>
          <azimuth>258.7</azimuth>
          <distance>0.7393</distance>
          <timeResidual>0.02</timeResidual>
          <creationInfo>
            <agencyID>UW</agencyID>
            <creationTime>2012-03-08T14:38:59.000000Z</creationTime>
          </creationInfo>
        </arrival>
        <arrival publicID="quakeml:uw.anss.org/AssocArO/UW/10290878">
          <pickID>quakeml:uw.anss.org/Arrival/UW/10290878</pickID>
          <phase>S</phase>
          <azimuth>258.7</azimuth>
          <distance>0.7393</distance>
          <timeResidual>-0.12</timeResidual>
          <creationInfo>
            <agencyID>UW</agencyID>
            <creationTime>2012-03-08T14:38:59.000000Z</creationTime>
          </creationInfo>
        </arrival>
        <arrival publicID="quakeml:uw.anss.org/AssocArO/UW/10290883">
          <pickID>quakeml:uw.anss.org/Arrival/UW/10290883</pickID>
          <phase>P</phase>
          <azimuth>206.8</azimuth>
          <distance>1.244</distance>
          <timeResidual>-0.03</timeResidual>
          <creationInfo>
            <agencyID>UW</agencyID>
            <creationTime>2012-03-08T14:38:59.000000Z</creationTime>
          </creationInfo>
        </arrival>
        <arrival publicID="quakeml:uw.anss.org/AssocArO/UW/10290888">
          <pickID>quakeml:uw.anss.org/Arrival/UW/10290888</pickID>
          <phase>P</phase>
          <azimuth>182.9</azimuth>
          <distance>1.941</distance>
          <timeResidual>-0.34</timeResidual>
          <creationInfo>
            <agencyID>UW</agencyID>
            <creationTime>2012-03-08T14:38:59.000000Z</creationTime>
          </creationInfo>
        </arrival>
        <arrival publicID="quakeml:uw.anss.org/AssocArO/UW/10290893">
          <pickID>quakeml:uw.anss.org/Arrival/UW/10290893</pickID>
          <phase>P</phase>
          <azimuth>169.6</azimuth>
          <distance>1.14</distance>
          <timeResidual>0.58</timeResidual>
          <creationInfo>
            <agencyID>UW</agencyID>
            <creationTime>2012-03-08T14:38:59.000000Z</creationTime>
          </creationInfo>
        </arrival>
        <arrival publicID="quakeml:uw.anss.org/AssocArO/UW/10290898">
          <pickID>quakeml:uw.anss.org/Arrival/UW/10290898</pickID>
          <phase>P</phase>
          <azimuth>350.3</azimuth>
          <distance>0.1034</distance>
          <timeResidual>-0.11</timeResidual>
          <creationInfo>
            <agencyID>UW</agencyID>
            <creationTime>2012-03-08T14:38:59.000000Z</creationTime>
          </creationInfo>
        </arrival>
        <arrival publicID="quakeml:uw.anss.org/AssocArO/UW/10290903">
          <pickID>quakeml:uw.anss.org/Arrival/UW/10290903</pickID>
          <phase>S</phase>
          <azimuth>350.3</azimuth>
          <distance>0.1034</distance>
          <timeResidual>0.05</timeResidual>
          <creationInfo>
            <agencyID>UW</agencyID>
            <creationTime>2012-03-08T14:38:59.000000Z</creationTime>
          </creationInfo>
        </arrival>
        <arrival publicID="quakeml:uw.anss.org/AssocArO/UW/10290908">
          <pickID>quakeml:uw.anss.org/Arrival/UW/10290908</pickID>
          <phase>P</phase>
          <azimuth>217.5</azimuth>
          <distance>1.069</distance>
          <timeResidual>0.49</timeResidual>
          <creationInfo>
            <agencyID>UW</agencyID>
            <creationTime>2012-03-08T14:38:59.000000Z</creationTime>
          </creationInfo>
        </arrival>
        <arrival publicID="quakeml:uw.anss.org/AssocArO/UW/10290913">
          <pickID>quakeml:uw.anss.org/Arrival/UW/10290913</pickID>
          <phase>P</phase>
          <azimuth>244.1</azimuth>
          <distance>0.5572</distance>
          <timeResidual>-0.29</timeResidual>
          <creationInfo>
