<?xml version='1.0' encoding='utf-8'?>
<q:quakeml xmlns="http://quakeml.org/xmlns/bed/1.2" xmlns:q="http://quakeml.org/xmlns/quakeml/1.2" xmlns:ns0="http://anss.org/xmlns/catalog/0.1">
  <eventParameters publicID="smi:local/415c2a46-4ce0-46ed-8931-fafb7afc1c92">
    <event publicID="quakeml:uw.anss.org/Event/UW/10808118" ns0:datasource="uw" ns0:dataid="uw10808118" ns0:eventsource="uw" ns0:eventid="10808118">
      <preferredOriginID>quakeml:uw.anss.org/Origin/UW/1093788</preferredOriginID>
      <preferredMagnitudeID>quakeml:uw.anss.org/Netmag/UW/2527298</preferredMagnitudeID>
      <type>earthquake</type>
      <creationInfo>
        <agencyID>UW</agencyID>
        <creationTime>2016-11-28T23:54:20.000000Z</creationTime>
        <version>4</version>
      </creationInfo>
      <origin publicID="quakeml:uw.anss.org/Origin/UW/1093788" ns0:datasource="uw" ns0:dataid="uw10808118" ns0:eventsource="uw" ns0:eventid="10808118">
        <time>
          <value>2010-11-21T00:47:22.780000Z</value>
          <uncertainty>0.06</uncertainty>
        </time>
        <latitude>
          <value>48.7713333</value>
          <uncertainty>0.2</uncertainty>
        </latitude>
        <longitude>
          <value>-122.4835</value>
          <uncertainty>0.32</uncertainty>
        </longitude>
        <depth>
          <value>18939.0</value>
          <uncertainty>830.0</uncertainty>
        </depth>
        <depthType>from location</depthType>
        <timeFixed>false</timeFixed>
        <epicenterFixed>false</epicenterFixed>
        <methodID>smi:uw.anss.org/origin/spong</methodID>
        <quality>
          <associatedPhaseCount>50</associatedPhaseCount>
          <usedPhaseCount>46</usedPhaseCount>
          <associatedStationCount>36</associatedStationCount>
          <usedStationCount>0</usedStationCount>
          <standardError>0.28</standardError>
          <azimuthalGap>92.0</azimuthalGap>
        </quality>
        <type>hypocenter</type>
        <evaluationMode>manual</evaluationMode>
        <evaluationStatus>final</evaluationStatus>
        <creationInfo>
          <agencyID>UW</agencyID>
          <creationTime>2012-03-08T13:17:18.000000Z</creationTime>
        </creationInfo>
        <originUncertainty>
          <preferredDescription>horizontal uncertainty</preferredDescription>
          <horizontalUncertainty>377.0</horizontalUncertainty>
        </originUncertainty>
        <arrival publicID="quakeml:uw.anss.org/AssocArO/UW/10267298">
          <pickID>quakeml:uw.anss.org/Arrival/UW/10267298</pickID>
          <phase>P</phase>
          <azimuth>153.0</azimuth>
          <distance>0.5693</distance>
          <timeResidual>-0.09</timeResidual>
          <creationInfo>
            <agencyID>UW</agencyID>
            <creationTime>2012-03-08T13:17:18.000000Z</creationTime>
          </creationInfo>
        </arrival>
        <arrival publicID="quakeml:uw.anss.org/AssocArO/UW/10267303">
          <pickID>quakeml:uw.anss.org/Arrival/UW/10267303</pickID>
          <phase>S</phase>
          <azimuth>153.0</azimuth>
          <distance>0.5693</distance>
          <timeResidual>0.26</timeResidual>
          <creationInfo>
            <agencyID>UW</agencyID>
            <creationTime>2012-03-08T13:17:18.000000Z</creationTime>
          </creationInfo>
        </arrival>
        <arrival publicID="quakeml:uw.anss.org/AssocArO/UW/10267308">
          <pickID>quakeml:uw.anss.org/Arrival/UW/10267308</pickID>
          <phase>P</phase>
          <azimuth>94.1</azimuth>
          <distance>0.04455</distance>
          <timeResidual>0.15</timeResidual>
          <creationInfo>
            <agencyID>UW</agencyID>
            <creationTime>2012-03-08T13:17:18.000000Z</creationTime>
          </creationInfo>
        </arrival>
        <arrival publicID="quakeml:uw.anss.org/AssocArO/UW/10267313">
          <pickID>quakeml:uw.anss.org/Arrival/UW/10267313</pickID>
          <phase>P</phase>
          <azimuth>259.5</azimuth>
          <distance>0.6505</distance>
          <timeResidual>-0.22</timeResidual>
          <creationInfo>
            <agencyID>UW</agencyID>
            <creationTime>2012-03-08T13:17:18.000000Z</creationTime>
          </creationInfo>
        </arrival>
        <arrival publicID="quakeml:uw.anss.org/AssocArO/UW/10267318">
          <pickID>quakeml:uw.anss.org/Arrival/UW/10267318</pickID>
          <phase>S</phase>
          <azimuth>259.5</azimuth>
          <distance>0.6505</distance>
          <timeResidual>-0.68</timeResidual>
          <creationInfo>
            <agencyID>UW</agencyID>
            <creationTime>2012-03-08T13:17:18.000000Z</creationTime>
          </creationInfo>
        </arrival>
        <arrival publicID="quakeml:uw.anss.org/AssocArO/UW/10267323">
          <pickID>quakeml:uw.anss.org/Arrival/UW/10267323</pickID>
          <phase>P</phase>
          <azimuth>196.7</azimuth>
          <distance>1.001</distance>
          <timeResidual>-0.03</timeResidual>
          <creationInfo>
            <agencyID>UW</agencyID>
            <creationTime>2012-03-08T13:17:18.000000Z</creationTime>
          </creationInfo>
        </arrival>
        <arrival publicID="quakeml:uw.anss.org/AssocArO/UW/10267328">
          <pickID>quakeml:uw.anss.org/Arrival/UW/10267328</pickID>
          <phase>S</phase>
          <azimuth>196.7</azimuth>
          <distance>1.001</distance>
          <timeResidual>-0.59</timeResidual>
          <creationInfo>
            <agencyID>UW</agencyID>
            <creationTime>2012-03-08T13:17:18.000000Z</creationTime>
          </creationInfo>
        </arrival>
        <arrival publicID="quakeml:uw.anss.org/AssocArO/UW/10267333">
          <pickID>quakeml:uw.anss.org/Arrival/UW/10267333</pickID>
          <phase>P</phase>
          <azimuth>210.8</azimuth>
          <distance>0.8471</distance>
          <timeResidual>0.28</timeResidual>
          <creationInfo>
            <agencyID>UW</agencyID>
            <creationTime>2012-03-08T13:17:18.000000Z</creationTime>
          </creationInfo>
        </arrival>
        <arrival publicID="quakeml:uw.anss.org/AssocArO/UW/10267338">
          <pickID>quakeml:uw.anss.org/Arrival/UW/10267338</pickID>
          <phase>P</phase>
          <azimuth>145.2</azimuth>
          <distance>0.4235</distance>
          <timeResidual>-0.36</timeResidual>
          <creationInfo>
            <agencyID>UW</agencyID>
            <creationTime>2012-03-08T13:17:18.000000Z</creationTime>
          </creationInfo>
        </arrival>
        <arrival publicID="quakeml:uw.anss.org/AssocArO/UW/10267343">
          <pickID>quakeml:uw.anss.org/Arrival/UW/10267343</pickID>
          <phase>P</phase>
          <azimuth>110.6</azimuth>
          <distance>0.7093</distance>
          <timeResidual>-0.1</timeResidual>
          <creationInfo>
            <agencyID>UW</agencyID>
            <creationTime>2012-03-08T13:17:18.000000Z</creationTime>
          </creationInfo>
        </arrival>
        <arrival publicID="quakeml:uw.anss.org/AssocArO/UW/10267348">
          <pickID>quakeml:uw.anss.org/Arrival/UW/10267348</pickID>
          <phase>P</phase>
          <azimuth>259.6</azimuth>
          <distance>0.653</distance>
          <timeResidual>0.42</timeResidual>
          <creationInfo>
            <agencyID>UW</agencyID>
            <creationTime>2012-03-08T13:17:18.000000Z</creationTime>
          </creationInfo>
        </arrival>
        <arrival publicID="quakeml:uw.anss.org/AssocArO/UW/10267353">
          <pickID>quakeml:uw.anss.org/Arrival/UW/10267353</pickID>
          <phase>S</phase>
          <azimuth>259.6</azimuth>
          <distance>0.653</distance>
          <timeResidual>0.4</timeResidual>
          <creationInfo>
            <agencyID>UW</agencyID>
            <creationTime>2012-03-08T13:17:18.000000Z</creationTime>
          </creationInfo>
        </arrival>
        <arrival publicID="quakeml:uw.anss.org/AssocArO/UW/10267358">
          <pickID>quakeml:uw.anss.org/Arrival/UW/10267358</pickID>
          <phase>P</phase>
          <azimuth>116.4</azimuth>
          <distance>0.7196</distance>
          <timeResidual>-0.29</timeResidual>
          <creationInfo>
            <agencyID>UW</agencyID>
            <creationTime>2012-03-08T13:17:18.000000Z</creationTime>
          </creationInfo>
        </arrival>
        <arrival publicID="quakeml:uw.anss.org/AssocArO/UW/10267363">
          <pickID>quakeml:uw.anss.org/Arrival/UW/10267363</pickID>
          <phase>P</phase>
          <azimuth>223.9</azimuth>
          <distance>0.9844</distance>
          <timeResidual>-0.17</timeResidual>
          <creationInfo>
            <agencyID>UW</agencyID>
            <creationTime>2012-03-08T13:17:18.000000Z</creationTime>
          </creationInfo>
        </arrival>
        <arrival publicID="quakeml:uw.anss.org/AssocArO/UW/10267368">
          <pickID>quakeml:uw.anss.org/Arrival/UW/10267368</pickID>
          <phase>S</phase>
          <azimuth>223.9</azimuth>
          <distance>0.9844</distance>
          <timeResidual>-0.57</timeResidual>
          <creationInfo>
            <agencyID>UW</agencyID>
            <creationTime>2012-03-08T13:17:18.000000Z</creationTime>
          </creationInfo>
        </arrival>
        <arrival publicID="quakeml:uw.anss.org/AssocArO/UW/10267373">
          <pickID>quakeml:uw.anss.org/Arrival/UW/10267373</pickID>
          <phase>P</phase>
          <azimuth>223.9</azimuth>
          <distance>0.9862</distance>
          <timeResidual>-0.1</timeResidual>
          <creationInfo>
            <agencyID>UW</agencyID>
            <creationTime>2012-03-08T13:17:18.000000Z</creationTime>
          </creationInfo>
        </arrival>
        <arrival publicID="quakeml:uw.anss.org/AssocArO/UW/10267378">
          <pickID>quakeml:uw.anss.org/Arrival/UW/10267378</pickID>
          <phase>S</phase>
          <azimuth>223.9</azimuth>
          <distance>0.9862</distance>
          <timeResidual>-0.58</timeResidual>
          <creationInfo>
            <agencyID>UW</agencyID>
            <creationTime>2012-03-08T13:17:18.000000Z</creationTime>
          </creationInfo>
        </arrival>
        <arrival publicID="quakeml:uw.anss.org/AssocArO/UW/10267383">
          <pickID>quakeml:uw.anss.org/Arrival/UW/10267383</pickID>
          <phase>P</phase>
          <azimuth>153.5</azimuth>
          <distance>1.201</distance>
          <timeResidual>0.47</timeResidual>
          <creationInfo>
            <agencyID>UW</agencyID>
            <creationTime>2012-03-08T13:17:18.000000Z</creationTime>
          </creationInfo>
        </arrival>
        <arrival publicID="quakeml:uw.anss.org/AssocArO/UW/10267388">
          <pickID>quakeml:uw.anss.org/Arrival/UW/10267388</pickID>
          <phase>S</phase>
          <azimuth>237.4</azimuth>
          <distance>0.4174</distance>
          <timeResidual>-0.33</timeResidual>
          <creationInfo>
            <agencyID>UW</agencyID>
            <creationTime>2012-03-08T13:17:18.000000Z</creationTime>
          </creationInfo>
        </arrival>
        <arrival publicID="quakeml:uw.anss.org/AssocArO/UW/10267393">
          <pickID>quakeml:uw.anss.org/Arrival/UW/10267393</pickID>
          <phase>P</phase>
          <azimuth>87.9</azimuth>
          <distance>0.3856</distance>
          <timeResidual>-0.22</timeResidual>
          <creationInfo>
            <agencyID>UW</agencyID>
            <creationTime>2012-03-08T13:17:18.000000Z</creationTime>
          </creationInfo>
        </arrival>
        <arrival publicID="quakeml:uw.anss.org/AssocArO/UW/10267398">
          <pickID>quakeml:uw.anss.org/Arrival/UW/10267398</pickID>
          <phase>P</phase>
          <azimuth>220.9</azimuth>
          <distance>1.257</distance>
          <timeResidual>0.38</timeResidual>
          <creationInfo>
            <agencyID>UW</agencyID>
            <creationTime>2012-03-08T13:17:18.000000Z</creationTime>
          </creationInfo>
        </arrival>
        <arrival publicID="quakeml:uw.anss.org/AssocArO/UW/10267403">
          <pickID>quakeml:uw.anss.org/Arrival/UW/10267403</pickID>
          <phase>S</phase>
          <azimuth>237.8</azimuth>
          <distance>1.312</distance>
          <timeResidual>-0.64</timeResidual>
          <creationInfo>
            <agencyID>UW</agencyID>
            <creationTime>2012-03-08T13:17:18.000000Z</creationTime>
          </creationInfo>
        </arrival>
        <arrival publicID="quakeml:uw.anss.org/AssocArO/UW/10267408">
          <pickID>quakeml:uw.anss.org/Arrival/UW/10267408</pickID>
          <phase>P</phase>
          <azimuth>147.2</azimuth>
          <timeResidual>0.07</timeResidual>
          <creationInfo>
            <agencyID>UW</agencyID>
            <creationTime>2012-03-08T13:17:18.000000Z</creationTime>
          </creationInfo>
        </arrival>
        <arrival publicID="quakeml:uw.anss.org/AssocArO/UW/10267413">
          <pickID>quakeml:uw.anss.org/Arrival/UW/10267413</pickID>
          <phase>P</phase>
          <azimuth>223.8</azimuth>
          <distance>0.9838</distance>
          <timeResidual>-0.13</timeResidual>
          <creationInfo>
            <agencyID>UW</agencyID>
            <creationTime>2012-03-08T13:17:18.000000Z</creationTime>
          </creationInfo>
        </arrival>
        <arrival publicID="quakeml:uw.anss.org/AssocArO/UW/10267418">
          <pickID>quakeml:uw.anss.org/Arrival/UW/10267418</pickID>
          <phase>S</phase>
          <azimuth>223.8</azimuth>
          <distance>0.9838</distance>
          <timeResidual>-0.57</timeResidual>
          <creationInfo>
            <agencyID>UW</agencyID>
            <creationTime>2012-03-08T13:17:18.000000Z</creationTime>
          </creationInfo>
        </arrival>
        <arrival publicID="quakeml:uw.anss.org/AssocArO/UW/10267423">
          <pickID>quakeml:uw.anss.org/Arrival/UW/10267423</pickID>
          <phase>P</phase>
          <azimuth>223.9</azimuth>
          <distance>0.9862</distance>
          <timeResidual>-0.15</timeResidual>
          <creationInfo>
            <agencyID>UW</agencyID>
            <creationTime>2012-03-08T13:17:18.000000Z</creationTime>
          </creationInfo>
        </arrival>
        <arrival publicID="quakeml:uw.anss.org/AssocArO/UW/10267428">
          <pickID>quakeml:uw.anss.org/Arrival/UW/10267428</pickID>
          <phase>S</phase>
          <azimuth>223.9</azimuth>
          <distance>0.9862</distance>
          <timeResidual>-0.68</timeResidual>
          <creationInfo>
            <agencyID>UW</agencyID>
            <creationTime>2012-03-08T13:17:18.000000Z</creationTime>
          </creationInfo>
        </arrival>
        <arrival publicID="quakeml:uw.anss.org/AssocArO/UW/10267433">
          <pickID>quakeml:uw.anss.org/Arrival/UW/10267433</pickID>
          <phase>P</phase>
          <azimuth>250.9</azimuth>
          <distance>0.1561</distance>
          <timeResidual>-0.28</timeResidual>
          <creationInfo>
            <agencyID>UW</agencyID>
            <creationTime>2012-03-08T13:17:18.000000Z</creationTime>
          </creationInfo>
        </arrival>
        <arrival publicID="quakeml:uw.anss.org/AssocArO/UW/10267438">
          <pickID>quakeml:uw.anss.org/Arrival/UW/10267438</pickID>
          <phase>P</phase>
          <azimuth>130.1</azimuth>
          <distance>1.407</distance>
          <timeResidual>0.55</timeResidual>
          <creationInfo>
            <agencyID>UW</agencyID>
            <creationTime>2012-03-08T13:17:18.000000Z</creationTime>
          </creationInfo>
        </arrival>
        <arrival publicID="quakeml:uw.anss.org/AssocArO/UW/10267443">
          <pickID>quakeml:uw.anss.org/Arrival/UW/10267443</pickID>
          <phase>P</phase>
          <azimuth>312.5</azimuth>
          <distance>1.233</distance>
          <timeResidual>0.37</timeResidual>
          <creationInfo>
            <agencyID>UW</agencyID>
            <creationTime>2012-03-08T13:17:18.000000Z</creationTime>
          </creationInfo>
        </arrival>
        <arrival publicID="quakeml:uw.anss.org/AssocArO/UW/10267448">
          <pickID>quakeml:uw.anss.org/Arrival/UW/10267448</pickID>
          <phase>P</phase>
          <azimuth>203.2</azimuth>
          <distance>0.8319</distance>
          <timeResidual>0.4</timeResidual>
          <creationInfo>
            <agencyID>UW</agencyID>
            <creationTime>2012-03-08T13:17:18.000000Z</creationTime>
          </creationInfo>
        </arrival>
        <arrival publicID="quakeml:uw.anss.org/AssocArO/UW/10267453">
          <pickID>quakeml:uw.anss.org/Arrival/UW/10267453</pickID>
          <phase>P</phase>
          <azimuth>237.6</azimuth>
          <distance>0.6639</distance>
          <timeResidual>0.47</timeResidual>
          <creationInfo>
            <agencyID>UW</agencyID>
            <creationTime>2012-03-08T13:17:18.000000Z</creationTime>
          </creationInfo>
        </arrival>
        <arrival publicID="quakeml:uw.anss.org/AssocArO/UW/10267458">
          <pickID>quakeml:uw.anss.org/Arrival/UW/10267458</pickID>
          <phase>P</phase>
          <azimuth>48.9</azimuth>
          <distance>0.3475</distance>
          <timeResidual>0.11</timeResidual>
          <creationInfo>
            <agencyID>UW</agencyID>
            <creationTime>2012-03-08T13:17:18.000000Z</creationTime>
          </creationInfo>
        </arrival>
        <arrival publicID="quakeml:uw.anss.org/AssocArO/UW/10267463">
          <pickID>quakeml:uw.anss.org/Arrival/UW/10267463</pickID>
          <phase>S</phase>
          <azimuth>48.9</azimuth>
          <distance>0.3475</distance>
          <timeResidual>0.09</timeResidual>
          <creationInfo>
            <agencyID>UW</agencyID>
            <creationTime>2012-03-08T13:17:18.000000Z</creationTime>
          </creationInfo>
        </arrival>
        <arrival publicID="quakeml:uw.anss.org/AssocArO/UW/10267468">
          <pickID>quakeml:uw.anss.org/Arrival/UW/10267468</pickID>
          <phase>P</phase>
          <azimuth>273.2</azimuth>
          <distance>1.091</distance>
          <timeResidual>-0.28</timeResidual>
          <creationInfo>
            <agencyID>UW</agencyID>
            <creationTime>2012-03-08T13:17:18.000000Z</creationTime>
          </creationInfo>
        </arrival>
        <arrival publicID="quakeml:uw.anss.org/AssocArO/UW/10267473">
          <pickID>quakeml:uw.anss.org/Arrival/UW/10267473</pickID>
          <phase>P</phase>
          <azimuth>270.7</azimuth>
          <distance>0.4557</distance>
          <timeResidual>0.29</timeResidual>
          <creationInfo>
            <agencyID>UW</agencyID>
            <creationTime>2012-03-08T13:17:18.000000Z</creationTime>
          </creationInfo>
        </arrival>
        <arrival publicID="quakeml:uw.anss.org/AssocArO/UW/10267478">
          <pickID>quakeml:uw.anss.org/Arrival/UW/10267478</pickID>
          <phase>S</phase>
          <azimuth>270.7</azimuth>
          <distance>0.4557</distance>
          <timeResidual>0.57</timeResidual>
          <creationInfo>
            <agencyID>UW</agencyID>
            <creationTime>2012-03-08T13:17:18.000000Z</creationTime>
          </creationInfo>
        </arrival>
        <arrival publicID="quakeml:uw.anss.org/AssocArO/UW/10267483">
          <pickID>quakeml:uw.anss.org/Arrival/UW/10267483</pickID>
          <phase>P</phase>
          <azimuth>348.3</azimuth>
          <distance>1.386</distance>
          <timeResidual>0.52</timeResidual>
          <creationInfo>
            <agencyID>UW</agencyID>
            <creationTime>2012-03-08T13:17:18.000000Z</creationTime>
          </creationInfo>
        </arrival>
        <arrival publicID="quakeml:uw.anss.org/AssocArO/UW/10267488">
          <pickID>quakeml:uw.anss.org/Arrival/UW/10267488</pickID>
          <phase>P</phase>
          <azimuth>196.7</azimuth>
          <distance>1.001</distance>
          <timeResidual>-0.04</timeResidual>
