<?xml version='1.0' encoding='utf-8'?>
<q:quakeml xmlns="http://quakeml.org/xmlns/bed/1.2" xmlns:q="http://quakeml.org/xmlns/quakeml/1.2" xmlns:ns0="http://anss.org/xmlns/catalog/0.1">
  <eventParameters publicID="smi:local/f1047adf-4ea4-4993-9b14-3c17ae7fccaf">
    <event publicID="quakeml:uw.anss.org/Event/UW/10806393" ns0:datasource="uw" ns0:dataid="uw10806393" ns0:eventsource="uw" ns0:eventid="10806393">
      <preferredOriginID>quakeml:uw.anss.org/Origin/UW/1091988</preferredOriginID>
      <preferredMagnitudeID>quakeml:uw.anss.org/Netmag/UW/844518</preferredMagnitudeID>
      <type>earthquake</type>
      <creationInfo>
        <agencyID>UW</agencyID>
        <creationTime>2012-03-08T12:00:07.000000Z</creationTime>
        <version>3</version>
      </creationInfo>
      <origin publicID="quakeml:uw.anss.org/Origin/UW/1091988" ns0:datasource="uw" ns0:dataid="uw10806393" ns0:eventsource="uw" ns0:eventid="10806393">
        <time>
          <value>2010-11-11T11:19:38.230000Z</value>
          <uncertainty>0.21</uncertainty>
        </time>
        <latitude>
          <value>49.0095</value>
          <uncertainty>0.49</uncertainty>
        </latitude>
        <longitude>
          <value>-122.0811667</value>
          <uncertainty>1.45</uncertainty>
        </longitude>
        <depth>
          <value>9246.0</value>
          <uncertainty>1750.0</uncertainty>
        </depth>
        <depthType>from location</depthType>
        <timeFixed>false</timeFixed>
        <epicenterFixed>false</epicenterFixed>
        <methodID>smi:uw.anss.org/origin/spong</methodID>
        <quality>
          <associatedPhaseCount>32</associatedPhaseCount>
          <usedPhaseCount>22</usedPhaseCount>
          <associatedStationCount>28</associatedStationCount>
          <usedStationCount>0</usedStationCount>
          <standardError>0.27</standardError>
          <azimuthalGap>185.0</azimuthalGap>
        </quality>
        <type>hypocenter</type>
        <evaluationMode>manual</evaluationMode>
        <evaluationStatus>final</evaluationStatus>
        <creationInfo>
          <agencyID>UW</agencyID>
          <creationTime>2012-03-08T12:00:07.000000Z</creationTime>
        </creationInfo>
        <originUncertainty>
          <preferredDescription>horizontal uncertainty</preferredDescription>
          <horizontalUncertainty>1531.0</horizontalUncertainty>
        </originUncertainty>
        <arrival publicID="quakeml:uw.anss.org/AssocArO/UW/10246188">
          <pickID>quakeml:uw.anss.org/Arrival/UW/10246188</pickID>
          <phase>P</phase>
          <azimuth>128.5</azimuth>
          <distance>1.49</distance>
          <timeResidual>0.63</timeResidual>
          <creationInfo>
            <agencyID>UW</agencyID>
            <creationTime>2012-03-08T12:00:07.000000Z</creationTime>
          </creationInfo>
        </arrival>
        <arrival publicID="quakeml:uw.anss.org/AssocArO/UW/10246193">
          <pickID>quakeml:uw.anss.org/Arrival/UW/10246193</pickID>
          <phase>P</phase>
          <azimuth>180.8</azimuth>
          <distance>0.7461</distance>
          <timeResidual>0.3</timeResidual>
          <creationInfo>
            <agencyID>UW</agencyID>
            <creationTime>2012-03-08T12:00:07.000000Z</creationTime>
          </creationInfo>
        </arrival>
        <arrival publicID="quakeml:uw.anss.org/AssocArO/UW/10246198">
          <pickID>quakeml:uw.anss.org/Arrival/UW/10246198</pickID>
          <phase>P</phase>
          <azimuth>222.5</azimuth>
          <distance>0.3276</distance>
          <timeResidual>0.53</timeResidual>
          <creationInfo>
            <agencyID>UW</agencyID>
            <creationTime>2012-03-08T12:00:07.000000Z</creationTime>
          </creationInfo>
        </arrival>
        <arrival publicID="quakeml:uw.anss.org/AssocArO/UW/10246203">
          <pickID>quakeml:uw.anss.org/Arrival/UW/10246203</pickID>
          <phase>P</phase>
          <azimuth>248.7</azimuth>
          <distance>0.9725</distance>
          <timeResidual>-0.57</timeResidual>
          <creationInfo>
            <agencyID>UW</agencyID>
            <creationTime>2012-03-08T12:00:07.000000Z</creationTime>
          </creationInfo>
        </arrival>
        <arrival publicID="quakeml:uw.anss.org/AssocArO/UW/10246208">
          <pickID>quakeml:uw.anss.org/Arrival/UW/10246208</pickID>
          <phase>S</phase>
          <azimuth>248.7</azimuth>
          <distance>0.9725</distance>
          <timeResidual>-1.42</timeResidual>
          <creationInfo>
            <agencyID>UW</agencyID>
            <creationTime>2012-03-08T12:00:07.000000Z</creationTime>
          </creationInfo>
        </arrival>
        <arrival publicID="quakeml:uw.anss.org/AssocArO/UW/10246213">
          <pickID>quakeml:uw.anss.org/Arrival/UW/10246213</pickID>
          <phase>P</phase>
          <azimuth>205.0</azimuth>
          <distance>1.319</distance>
          <timeResidual>-0.07</timeResidual>
          <creationInfo>
            <agencyID>UW</agencyID>
            <creationTime>2012-03-08T12:00:07.000000Z</creationTime>
          </creationInfo>
        </arrival>
        <arrival publicID="quakeml:uw.anss.org/AssocArO/UW/10246218">
          <pickID>quakeml:uw.anss.org/Arrival/UW/10246218</pickID>
          <phase>P</phase>
          <azimuth>216.1</azimuth>
          <distance>1.193</distance>
          <timeResidual>0.21</timeResidual>
          <creationInfo>
            <agencyID>UW</agencyID>
            <creationTime>2012-03-08T12:00:07.000000Z</creationTime>
          </creationInfo>
        </arrival>
        <arrival publicID="quakeml:uw.anss.org/AssocArO/UW/10246223">
          <pickID>quakeml:uw.anss.org/Arrival/UW/10246223</pickID>
          <phase>P</phase>
          <azimuth>182.5</azimuth>
          <distance>0.587</distance>
          <timeResidual>-0.09</timeResidual>
          <creationInfo>
            <agencyID>UW</agencyID>
            <creationTime>2012-03-08T12:00:07.000000Z</creationTime>
          </creationInfo>
        </arrival>
        <arrival publicID="quakeml:uw.anss.org/AssocArO/UW/10246228">
          <pickID>quakeml:uw.anss.org/Arrival/UW/10246228</pickID>
          <phase>P</phase>
          <azimuth>248.8</azimuth>
          <distance>0.9748</distance>
          <timeResidual>0.12</timeResidual>
          <creationInfo>
            <agencyID>UW</agencyID>
            <creationTime>2012-03-08T12:00:08.000000Z</creationTime>
          </creationInfo>
        </arrival>
        <arrival publicID="quakeml:uw.anss.org/AssocArO/UW/10246233">
          <pickID>quakeml:uw.anss.org/Arrival/UW/10246233</pickID>
          <phase>S</phase>
          <azimuth>248.8</azimuth>
          <distance>0.9748</distance>
          <timeResidual>-0.34</timeResidual>
          <creationInfo>
            <agencyID>UW</agencyID>
            <creationTime>2012-03-08T12:00:08.000000Z</creationTime>
          </creationInfo>
        </arrival>
        <arrival publicID="quakeml:uw.anss.org/AssocArO/UW/10246238">
          <pickID>quakeml:uw.anss.org/Arrival/UW/10246238</pickID>
          <phase>P</phase>
          <azimuth>146.1</azimuth>
          <distance>0.6754</distance>
          <timeResidual>-0.1</timeResidual>
          <creationInfo>
            <agencyID>UW</agencyID>
            <creationTime>2012-03-08T12:00:08.000000Z</creationTime>
          </creationInfo>
        </arrival>
        <arrival publicID="quakeml:uw.anss.org/AssocArO/UW/10246243">
          <pickID>quakeml:uw.anss.org/Arrival/UW/10246243</pickID>
          <phase>P</phase>
          <azimuth>225.3</azimuth>
          <distance>1.341</distance>
          <timeResidual>-0.59</timeResidual>
          <creationInfo>
            <agencyID>UW</agencyID>
            <creationTime>2012-03-08T12:00:08.000000Z</creationTime>
          </creationInfo>
        </arrival>
        <arrival publicID="quakeml:uw.anss.org/AssocArO/UW/10246248">
          <pickID>quakeml:uw.anss.org/Arrival/UW/10246248</pickID>
          <phase>P</phase>
          <azimuth>203.2</azimuth>
          <distance>0.1014</distance>
          <timeResidual>-0.06</timeResidual>
          <creationInfo>
            <agencyID>UW</agencyID>
            <creationTime>2012-03-08T12:00:08.000000Z</creationTime>
          </creationInfo>
        </arrival>
        <arrival publicID="quakeml:uw.anss.org/AssocArO/UW/10246253">
          <pickID>quakeml:uw.anss.org/Arrival/UW/10246253</pickID>
          <phase>P</phase>
          <azimuth>225.2</azimuth>
          <distance>1.342</distance>
          <timeResidual>-0.52</timeResidual>
          <creationInfo>
            <agencyID>UW</agencyID>
            <creationTime>2012-03-08T12:00:08.000000Z</creationTime>
          </creationInfo>
        </arrival>
        <arrival publicID="quakeml:uw.anss.org/AssocArO/UW/10246258">
          <pickID>quakeml:uw.anss.org/Arrival/UW/10246258</pickID>
          <phase>P</phase>
          <azimuth>168.7</azimuth>
          <distance>1.341</distance>
          <timeResidual>0.68</timeResidual>
          <creationInfo>
            <agencyID>UW</agencyID>
            <creationTime>2012-03-08T12:00:08.000000Z</creationTime>
          </creationInfo>
        </arrival>
        <arrival publicID="quakeml:uw.anss.org/AssocArO/UW/10246263">
          <pickID>quakeml:uw.anss.org/Arrival/UW/10246263</pickID>
          <phase>P</phase>
          <azimuth>152.2</azimuth>
          <distance>0.2553</distance>
          <timeResidual>-0.18</timeResidual>
          <creationInfo>
            <agencyID>UW</agencyID>
            <creationTime>2012-03-08T12:00:08.000000Z</creationTime>
          </creationInfo>
        </arrival>
        <arrival publicID="quakeml:uw.anss.org/AssocArO/UW/10246268">
          <pickID>quakeml:uw.anss.org/Arrival/UW/10246268</pickID>
          <phase>P</phase>
          <azimuth>172.8</azimuth>
          <timeResidual>0.38</timeResidual>
          <creationInfo>
            <agencyID>UW</agencyID>
            <creationTime>2012-03-08T12:00:08.000000Z</creationTime>
          </creationInfo>
        </arrival>
        <arrival publicID="quakeml:uw.anss.org/AssocArO/UW/10246273">
          <pickID>quakeml:uw.anss.org/Arrival/UW/10246273</pickID>
          <phase>P</phase>
          <azimuth>225.2</azimuth>
          <distance>1.34</distance>
          <timeResidual>-0.57</timeResidual>
          <creationInfo>
            <agencyID>UW</agencyID>
            <creationTime>2012-03-08T12:00:08.000000Z</creationTime>
          </creationInfo>
        </arrival>
        <arrival publicID="quakeml:uw.anss.org/AssocArO/UW/10246278">
          <pickID>quakeml:uw.anss.org/Arrival/UW/10246278</pickID>
          <phase>P</phase>
          <azimuth>225.2</azimuth>
          <distance>1.342</distance>
          <timeResidual>-0.61</timeResidual>
          <creationInfo>
            <agencyID>UW</agencyID>
            <creationTime>2012-03-08T12:00:08.000000Z</creationTime>
          </creationInfo>
        </arrival>
        <arrival publicID="quakeml:uw.anss.org/AssocArO/UW/10246283">
          <pickID>quakeml:uw.anss.org/Arrival/UW/10246283</pickID>
          <phase>P</phase>
          <azimuth>235.1</azimuth>
          <distance>0.5043</distance>
          <timeResidual>-0.18</timeResidual>
          <creationInfo>
            <agencyID>UW</agencyID>
            <creationTime>2012-03-08T12:00:08.000000Z</creationTime>
          </creationInfo>
        </arrival>
        <arrival publicID="quakeml:uw.anss.org/AssocArO/UW/10246288">
          <pickID>quakeml:uw.anss.org/Arrival/UW/10246288</pickID>
          <phase>S</phase>
          <azimuth>235.1</azimuth>
          <distance>0.5043</distance>
          <timeResidual>-0.08</timeResidual>
          <creationInfo>
            <agencyID>UW</agencyID>
            <creationTime>2012-03-08T12:00:08.000000Z</creationTime>
          </creationInfo>
        </arrival>
        <arrival publicID="quakeml:uw.anss.org/AssocArO/UW/10246293">
          <pickID>quakeml:uw.anss.org/Arrival/UW/10246293</pickID>
          <phase>P</phase>
          <azimuth>210.9</azimuth>
          <distance>1.166</distance>
          <timeResidual>0.35</timeResidual>
          <creationInfo>
            <agencyID>UW</agencyID>
            <creationTime>2012-03-08T12:00:08.000000Z</creationTime>
          </creationInfo>
        </arrival>
        <arrival publicID="quakeml:uw.anss.org/AssocArO/UW/10246298">
          <pickID>quakeml:uw.anss.org/Arrival/UW/10246298</pickID>
          <phase>P</phase>
          <azimuth>234.5</azimuth>
          <distance>1.017</distance>
          <timeResidual>0.11</timeResidual>
          <creationInfo>
            <agencyID>UW</agencyID>
            <creationTime>2012-03-08T12:00:08.000000Z</creationTime>
          </creationInfo>
        </arrival>
        <arrival publicID="quakeml:uw.anss.org/AssocArO/UW/10246303">
          <pickID>quakeml:uw.anss.org/Arrival/UW/10246303</pickID>
          <phase>S</phase>
          <azimuth>234.5</azimuth>
          <distance>1.017</distance>
          <timeResidual>-0.18</timeResidual>
          <creationInfo>
            <agencyID>UW</agencyID>
            <creationTime>2012-03-08T12:00:08.000000Z</creationTime>
          </creationInfo>
        </arrival>
        <arrival publicID="quakeml:uw.anss.org/AssocArO/UW/10246308">
          <pickID>quakeml:uw.anss.org/Arrival/UW/10246308</pickID>
          <phase>P</phase>
          <azimuth>144.6</azimuth>
          <distance>1.09</distance>
          <timeResidual>0.38</timeResidual>
          <creationInfo>
            <agencyID>UW</agencyID>
            <creationTime>2012-03-08T12:00:08.000000Z</creationTime>
          </creationInfo>
        </arrival>
        <arrival publicID="quakeml:uw.anss.org/AssocArO/UW/10246313">
          <pickID>quakeml:uw.anss.org/Arrival/UW/10246313</pickID>
          <phase>P</phase>
          <azimuth>252.3</azimuth>
          <distance>0.7574</distance>
          <timeResidual>-0.03</timeResidual>
          <creationInfo>
            <agencyID>UW</agencyID>
            <creationTime>2012-03-08T12:00:08.000000Z</creationTime>
          </creationInfo>
        </arrival>
        <arrival publicID="quakeml:uw.anss.org/AssocArO/UW/10246318">
          <pickID>quakeml:uw.anss.org/Arrival/UW/10246318</pickID>
          <phase>P</phase>
          <azimuth>205.0</azimuth>
          <distance>1.319</distance>
          <timeResidual>-0.1</timeResidual>
          <creationInfo>
            <agencyID>UW</agencyID>
            <creationTime>2012-03-08T12:00:08.000000Z</creationTime>
          </creationInfo>
        </arrival>
        <arrival publicID="quakeml:uw.anss.org/AssocArO/UW/10246323">
          <pickID>quakeml:uw.anss.org/Arrival/UW/10246323</pickID>
          <phase>P</phase>
          <azimuth>170.1</azimuth>
          <distance>1.224</distance>
          <timeResidual>0.81</timeResidual>
          <creationInfo>
            <agencyID>UW</agencyID>
            <creationTime>2012-03-08T12:00:08.000000Z</creationTime>
          </creationInfo>
        </arrival>
        <arrival publicID="quakeml:uw.anss.org/AssocArO/UW/10246328">
          <pickID>quakeml:uw.anss.org/Arrival/UW/10246328</pickID>
          <phase>P</phase>
          <azimuth>319.5</azimuth>
          <distance>0.02188</distance>
          <timeResidual>0.03</timeResidual>
          <creationInfo>
            <agencyID>UW</agencyID>
            <creationTime>2012-03-08T12:00:08.000000Z</creationTime>
          </creationInfo>
        </arrival>
        <arrival publicID="quakeml:uw.anss.org/AssocArO/UW/10246333">
          <pickID>quakeml:uw.anss.org/Arrival/UW/10246333</pickID>
          <phase>P</phase>
          <azimuth>214.7</azimuth>
          <distance>1.136</distance>
          <timeResidual>0.52</timeResidual>
          <creationInfo>
            <agencyID>UW</agencyID>
            <creationTime>2012-03-08T12:00:08.000000Z</creationTime>
          </creationInfo>
        </arrival>
        <arrival publicID="quakeml:uw.anss.org/AssocArO/UW/10246338">
          <pickID>quakeml:uw.anss.org/Arrival/UW/10246338</pickID>
          <phase>P</phase>
          <azimuth>236.5</azimuth>
          <distance>0.5965</distance>
          <timeResidual>-0.09</timeResidual>
          <creationInfo>
            <agencyID>UW</agencyID>
            <creationTime>2012-03-08T12:00:08.000000Z</creationTime>
          </creationInfo>
        </arrival>
        <arrival publicID="quakeml:uw.anss.org/AssocArO/UW/10246343">
          <pickID>quakeml:uw.anss.org/Arrival/UW/10246343</pickID>
          <phase>P</phase>
          <azimuth>178.4</azimuth>
          <distance>1.175</distance>
          <timeResidual>0.85</timeResidual>
          <creationInfo>
            <agencyID>UW</agencyID>
            <creationTime>2012-03-08T12:00:08.000000Z</creationTime>
          </creationInfo>
        </arrival>
      </origin>
      <magnitude publicID="quakeml:uw.anss.org/Netmag/UW/844518">
        <mag>
          <value>2.1</value>
          <uncertainty>0.03</uncertainty>
        </mag>
        <type>Md</type>
        <originID>quakeml:uw.anss.org/Origin/UW/1091988</originID>
        <methodID>smi:uw.anss.org/magnitude/Crosson</methodID>
        <stationCount>6</stationCount>
        <evaluationMode>manual</evaluationMode>
        <evaluationStatus>final</evaluationStatus>
        <stationMagnitudeContribution>
          <stationMagnitudeID>quakeml:uw.anss.org/AssocCoM/UW/2337718</stationMagnitudeID>
          <weight>1.0</weight>
          <residual>-0.35</residual>
        </stationMagnitudeContribution>
        <stationMagnitudeContribution>
          <stationMagnitudeID>quakeml:uw.anss.org/AssocCoM/UW/2337723</stationMagnitudeID>
          <weight>1.0</weight>
          <residual>-0.01</residual>
        </stationMagnitudeContribution>
        <stationMagnitudeContribution>
          <stationMagnitudeID>quakeml:uw.anss.org/AssocCoM/UW/2337733</stationMagnitudeID>
          <weight>1.0</weight>
          <residual>0.1</residual>
        </stationMagnitudeContribution>
        <stationMagnitudeContribution>
          <stationMagnitudeID>quakeml:uw.anss.org/AssocCoM/UW/2337728</stationMagnitudeID>
          <weight>1.0</weight>
          <residual>-0.01</residual>
        </stationMagnitudeContribution>
        <stationMagnitudeContribution>
          <stationMagnitudeID>quakeml:uw.anss.org/AssocCoM/UW/2337713</stationMagnitudeID>
          <weight>1.0</weight>
          <residual>-0.07</residual>
        </stationMagnitudeContribution>
        <stationMagnitudeContribution>
          <stationMagnitudeID>quakeml:uw.anss.org/AssocCoM/UW/2337738</stationMagnitudeID>
          <weight>1.0</weight>
          <residual>0.26</residual>
        </stationMagnitudeContribution>
        <creationInfo>
          <agencyID>UW</agencyID>
          <creationTime>2012-03-08T12:00:07.000000Z</creationTime>
        </creationInfo>
      </magnitude>
      <stationMagnitude publicID="quakeml:uw.anss.org/AssocCoM/UW/2337713">
        <originID>quakeml:uw.anss.org/Origin/UW/1091988</originID>
        <mag>
          <value>2.03</value>
        </mag>
        <type>MD</type>
        <amplitudeID>quakeml:uw.anss.org/Coda/UW/2337713</amplitudeID>
        <waveformID networkCode="PB" stationCode="B011" locationCode="" channelCode="EHZ"></waveformID>
      </stationMagnitude>
      <stationMagnitude publicID="quakeml:uw.anss.org/AssocCoM/UW/2337718">
        <originID>quakeml:uw.anss.org/Origin/UW/1091988</originID>
        <mag>
          <value>1.75</value>
        </mag>
        <type>MD</type>
        <amplitudeID>quakeml:uw.anss.org/Coda/UW/2337718</amplitudeID>
        <waveformID networkCode="UW" stationCode="CMW" locationCode="" channelCode="EHZ"></waveformID>
      </stationMagnitude>
      <stationMagnitude publicID="quakeml:uw.anss.org/AssocCoM/UW/2337723">
