<?xml version='1.0' encoding='utf-8'?>
<q:quakeml xmlns="http://quakeml.org/xmlns/bed/1.2" xmlns:q="http://quakeml.org/xmlns/quakeml/1.2" xmlns:ns0="http://anss.org/xmlns/catalog/0.1">
  <eventParameters publicID="smi:local/65a98918-680c-4407-8955-b74884fa37b4">
    <event publicID="quakeml:uw.anss.org/Event/UW/10806473" ns0:datasource="uw" ns0:dataid="uw10806473" ns0:eventsource="uw" ns0:eventid="10806473">
      <preferredOriginID>quakeml:uw.anss.org/Origin/UW/1092083</preferredOriginID>
      <preferredMagnitudeID>quakeml:uw.anss.org/Netmag/UW/844668</preferredMagnitudeID>
      <type>earthquake</type>
      <creationInfo>
        <agencyID>UW</agencyID>
        <creationTime>2012-03-08T12:06:27.000000Z</creationTime>
        <version>3</version>
      </creationInfo>
      <origin publicID="quakeml:uw.anss.org/Origin/UW/1092083" ns0:datasource="uw" ns0:dataid="uw10806473" ns0:eventsource="uw" ns0:eventid="10806473">
        <time>
          <value>2010-09-06T18:54:51.810000Z</value>
          <uncertainty>0.01</uncertainty>
        </time>
        <latitude>
          <value>48.8378333</value>
          <uncertainty>0.1</uncertainty>
        </latitude>
        <longitude>
          <value>-122.0453333</value>
          <uncertainty>0.06</uncertainty>
        </longitude>
        <depth>
          <value>2888.0</value>
        </depth>
        <depthType>from location</depthType>
        <timeFixed>false</timeFixed>
        <epicenterFixed>false</epicenterFixed>
        <methodID>smi:uw.anss.org/origin/spong</methodID>
        <quality>
          <associatedPhaseCount>4</associatedPhaseCount>
          <usedPhaseCount>4</usedPhaseCount>
          <associatedStationCount>3</associatedStationCount>
          <usedStationCount>0</usedStationCount>
          <standardError>0.01</standardError>
          <azimuthalGap>231.0</azimuthalGap>
          <secondaryAzimuthalGap>624.0</secondaryAzimuthalGap>
          <minimumDistance>0.1097</minimumDistance>
          <maximumDistance>0.2438</maximumDistance>
          <medianDistance>0.1627</medianDistance>
        </quality>
        <type>hypocenter</type>
        <evaluationMode>manual</evaluationMode>
        <evaluationStatus>final</evaluationStatus>
        <creationInfo>
          <agencyID>UW</agencyID>
          <creationTime>2012-03-08T12:06:27.000000Z</creationTime>
        </creationInfo>
        <originUncertainty>
          <preferredDescription>horizontal uncertainty</preferredDescription>
          <horizontalUncertainty>117.0</horizontalUncertainty>
        </originUncertainty>
        <arrival publicID="quakeml:uw.anss.org/AssocArO/UW/10247203">
          <pickID>quakeml:uw.anss.org/Arrival/UW/10247203</pickID>
          <phase>P</phase>
          <azimuth>119.5</azimuth>
          <distance>0.1097</distance>
          <timeResidual>0.0</timeResidual>
          <creationInfo>
            <agencyID>UW</agencyID>
            <creationTime>2012-03-08T12:06:27.000000Z</creationTime>
          </creationInfo>
        </arrival>
        <arrival publicID="quakeml:uw.anss.org/AssocArO/UW/10247208">
          <pickID>quakeml:uw.anss.org/Arrival/UW/10247208</pickID>
          <phase>P</phase>
          <azimuth>86.3</azimuth>
          <distance>0.2438</distance>
          <timeResidual>0.01</timeResidual>
          <creationInfo>
            <agencyID>UW</agencyID>
            <creationTime>2012-03-08T12:06:27.000000Z</creationTime>
          </creationInfo>
        </arrival>
        <arrival publicID="quakeml:uw.anss.org/AssocArO/UW/10247213">
          <pickID>quakeml:uw.anss.org/Arrival/UW/10247213</pickID>
          <phase>P</phase>
          <azimuth>350.7</azimuth>
          <distance>0.1627</distance>
          <timeResidual>0.01</timeResidual>
          <creationInfo>
            <agencyID>UW</agencyID>
            <creationTime>2012-03-08T12:06:27.000000Z</creationTime>
          </creationInfo>
        </arrival>
        <arrival publicID="quakeml:uw.anss.org/AssocArO/UW/10247218">
          <pickID>quakeml:uw.anss.org/Arrival/UW/10247218</pickID>
          <phase>S</phase>
          <azimuth>350.7</azimuth>
          <distance>0.1627</distance>
          <timeResidual>-0.01</timeResidual>
          <creationInfo>
            <agencyID>UW</agencyID>
            <creationTime>2012-03-08T12:06:27.000000Z</creationTime>
          </creationInfo>
        </arrival>
      </origin>
      <magnitude publicID="quakeml:uw.anss.org/Netmag/UW/844668">
        <mag>
          <value>0.9</value>
          <uncertainty>0.04</uncertainty>
        </mag>
        <type>Md</type>
        <originID>quakeml:uw.anss.org/Origin/UW/1092083</originID>
        <methodID>smi:uw.anss.org/magnitude/Crosson</methodID>
        <stationCount>1</stationCount>
        <evaluationMode>manual</evaluationMode>
        <evaluationStatus>final</evaluationStatus>
        <stationMagnitudeContribution>
          <stationMagnitudeID>quakeml:uw.anss.org/AssocCoM/UW/2338013</stationMagnitudeID>
          <weight>1.0</weight>
          <residual>0.04</residual>
        </stationMagnitudeContribution>
        <creationInfo>
          <agencyID>UW</agencyID>
          <creationTime>2012-03-08T12:06:27.000000Z</creationTime>
        </creationInfo>
      </magnitude>
      <stationMagnitude publicID="quakeml:uw.anss.org/AssocCoM/UW/2338013">
        <originID>quakeml:uw.anss.org/Origin/UW/1092083</originID>
        <mag>
          <value>0.94</value>
        </mag>
        <type>MD</type>
        <amplitudeID>quakeml:uw.anss.org/Coda/UW/2338013</amplitudeID>
        <waveformID networkCode="UW" stationCode="MBW" locationCode="" channelCode="EHZ"></waveformID>
      </stationMagnitude>
      <pick publicID="quakeml:uw.anss.org/Arrival/UW/10247203">
        <time>
          <value>2010-09-06T18:54:54.440000Z</value>
          <uncertainty>0.01</uncertainty>
        </time>
        <waveformID networkCode="UW" stationCode="MBW" locationCode="" channelCode="EHZ"></waveformID>
        <polarity>negative</polarity>
        <evaluationMode>manual</evaluationMode>
        <evaluationStatus>final</evaluationStatus>
        <creationInfo>
          <agencyID>UW</agencyID>
          <creationTime>2012-03-08T12:06:27.000000Z</creationTime>
        </creationInfo>
      </pick>
      <pick publicID="quakeml:uw.anss.org/Arrival/UW/10247208">
        <time>
          <value>2010-09-06T18:54:56.460000Z</value>
          <uncertainty>0.04</uncertainty>
        </time>
        <waveformID networkCode="UW" stationCode="SHUK" locationCode="" channelCode="BHZ"></waveformID>
        <polarity>undecidable</polarity>
        <evaluationMode>manual</evaluationMode>
        <evaluationStatus>final</evaluationStatus>
        <creationInfo>
          <agencyID>UW</agencyID>
          <creationTime>2012-03-08T12:06:27.000000Z</creationTime>
        </creationInfo>
      </pick>
      <pick publicID="quakeml:uw.anss.org/Arrival/UW/10247213">
        <time>
          <value>2010-09-06T18:54:55.050000Z</value>
          <uncertainty>0.05</uncertainty>
        </time>
        <waveformID networkCode="UW" stationCode="PASS" locationCode="" channelCode="BHZ"></waveformID>
        <polarity>undecidable</polarity>
        <evaluationMode>manual</evaluationMode>
        <evaluationStatus>final</evaluationStatus>
        <creationInfo>
          <agencyID>UW</agencyID>
          <creationTime>2012-03-08T12:06:27.000000Z</creationTime>
        </creationInfo>
      </pick>
      <pick publicID="quakeml:uw.anss.org/Arrival/UW/10247218">
        <time>
          <value>2010-09-06T18:54:57.550000Z</value>
          <uncertainty>0.05</uncertainty>
        </time>
        <waveformID networkCode="UW" stationCode="PASS" locationCode="" channelCode="BHE"></waveformID>
        <polarity>undecidable</polarity>
        <evaluationMode>manual</evaluationMode>
        <evaluationStatus>final</evaluationStatus>
        <creationInfo>
          <agencyID>UW</agencyID>
          <creationTime>2012-03-08T12:06:27.000000Z</creationTime>
        </creationInfo>
      </pick>
      <amplitude publicID="quakeml:uw.anss.org/Coda/UW/2338013">
        <genericAmplitude>
          <value>16.0</value>
        </genericAmplitude>
        <type>END</type>
        <category>duration</category>
        <unit>s</unit>
        <waveformID networkCode="UW" stationCode="MBW" locationCode="" channelCode="EHZ"></waveformID>
        <magnitudeHint>MD</magnitudeHint>
        <evaluationMode>manual</evaluationMode>
        <evaluationStatus>final</evaluationStatus>
      </amplitude>
    </event>
  </eventParameters>
</q:quakeml>
