<?xml version='1.0' encoding='utf-8'?>
<q:quakeml xmlns="http://quakeml.org/xmlns/bed/1.2" xmlns:q="http://quakeml.org/xmlns/quakeml/1.2" xmlns:ns0="http://anss.org/xmlns/catalog/0.1">
  <eventParameters publicID="smi:local/90118d57-4ad3-49f2-a1d9-344a7b4ad23e">
    <event publicID="quakeml:uw.anss.org/Event/UW/10796903" ns0:datasource="uw" ns0:dataid="uw10796903" ns0:eventsource="uw" ns0:eventid="10796903">
      <preferredOriginID>quakeml:uw.anss.org/Origin/UW/1081313</preferredOriginID>
      <preferredMagnitudeID>quakeml:uw.anss.org/Netmag/UW/836543</preferredMagnitudeID>
      <type>earthquake</type>
      <creationInfo>
        <agencyID>UW</agencyID>
        <creationTime>2012-03-07T19:02:35.000000Z</creationTime>
        <version>3</version>
      </creationInfo>
      <origin publicID="quakeml:uw.anss.org/Origin/UW/1081313" ns0:datasource="uw" ns0:dataid="uw10796903" ns0:eventsource="uw" ns0:eventid="10796903">
        <time>
          <value>2010-07-13T03:49:32.190000Z</value>
          <uncertainty>0.14</uncertainty>
        </time>
        <latitude>
          <value>49.0236667</value>
          <uncertainty>0.3</uncertainty>
        </latitude>
        <longitude>
          <value>-122.2496667</value>
          <uncertainty>1.2</uncertainty>
        </longitude>
        <depth>
          <value>11324.0</value>
          <uncertainty>900.0</uncertainty>
        </depth>
        <depthType>from location</depthType>
        <timeFixed>false</timeFixed>
        <epicenterFixed>false</epicenterFixed>
        <methodID>smi:uw.anss.org/origin/spong</methodID>
        <quality>
          <associatedPhaseCount>28</associatedPhaseCount>
          <usedPhaseCount>25</usedPhaseCount>
          <associatedStationCount>20</associatedStationCount>
          <usedStationCount>0</usedStationCount>
          <standardError>0.24</standardError>
          <azimuthalGap>200.0</azimuthalGap>
        </quality>
        <type>hypocenter</type>
        <evaluationMode>manual</evaluationMode>
        <evaluationStatus>final</evaluationStatus>
        <creationInfo>
          <agencyID>UW</agencyID>
          <creationTime>2012-03-07T19:02:35.000000Z</creationTime>
        </creationInfo>
        <originUncertainty>
          <preferredDescription>horizontal uncertainty</preferredDescription>
          <horizontalUncertainty>1237.0</horizontalUncertainty>
        </originUncertainty>
        <arrival publicID="quakeml:uw.anss.org/AssocArO/UW/10139573">
          <pickID>quakeml:uw.anss.org/Arrival/UW/10139573</pickID>
          <phase>P</phase>
          <azimuth>221.2</azimuth>
          <distance>1.277</distance>
          <timeResidual>-0.26</timeResidual>
          <creationInfo>
            <agencyID>UW</agencyID>
            <creationTime>2012-03-07T19:02:35.000000Z</creationTime>
          </creationInfo>
        </arrival>
        <arrival publicID="quakeml:uw.anss.org/AssocArO/UW/10139578">
          <pickID>quakeml:uw.anss.org/Arrival/UW/10139578</pickID>
          <phase>P</phase>
          <azimuth>165.5</azimuth>
          <timeResidual>0.42</timeResidual>
          <creationInfo>
            <agencyID>UW</agencyID>
            <creationTime>2012-03-07T19:02:35.000000Z</creationTime>
          </creationInfo>
        </arrival>
        <arrival publicID="quakeml:uw.anss.org/AssocArO/UW/10139583">
          <pickID>quakeml:uw.anss.org/Arrival/UW/10139583</pickID>
          <phase>P</phase>
          <azimuth>248.1</azimuth>
          <distance>0.6577</distance>
          <timeResidual>0.22</timeResidual>
          <creationInfo>
            <agencyID>UW</agencyID>
            <creationTime>2012-03-07T19:02:35.000000Z</creationTime>
          </creationInfo>
        </arrival>
        <arrival publicID="quakeml:uw.anss.org/AssocArO/UW/10139588">
          <pickID>quakeml:uw.anss.org/Arrival/UW/10139588</pickID>
          <phase>S</phase>
          <azimuth>248.1</azimuth>
          <distance>0.6577</distance>
          <timeResidual>0.09</timeResidual>
          <creationInfo>
            <agencyID>UW</agencyID>
            <creationTime>2012-03-07T19:02:35.000000Z</creationTime>
          </creationInfo>
        </arrival>
        <arrival publicID="quakeml:uw.anss.org/AssocArO/UW/10139593">
          <pickID>quakeml:uw.anss.org/Arrival/UW/10139593</pickID>
          <phase>P</phase>
          <azimuth>245.2</azimuth>
          <distance>0.8782</distance>
          <timeResidual>0.14</timeResidual>
          <creationInfo>
            <agencyID>UW</agencyID>
            <creationTime>2012-03-07T19:02:35.000000Z</creationTime>
          </creationInfo>
        </arrival>
        <arrival publicID="quakeml:uw.anss.org/AssocArO/UW/10139598">
          <pickID>quakeml:uw.anss.org/Arrival/UW/10139598</pickID>
          <phase>S</phase>
          <azimuth>245.2</azimuth>
          <distance>0.8782</distance>
          <timeResidual>-0.21</timeResidual>
          <creationInfo>
            <agencyID>UW</agencyID>
            <creationTime>2012-03-07T19:02:35.000000Z</creationTime>
          </creationInfo>
        </arrival>
        <arrival publicID="quakeml:uw.anss.org/AssocArO/UW/10139603">
          <pickID>quakeml:uw.anss.org/Arrival/UW/10139603</pickID>
          <phase>P</phase>
          <azimuth>139.6</azimuth>
          <distance>0.7539</distance>
          <timeResidual>-0.08</timeResidual>
          <creationInfo>
            <agencyID>UW</agencyID>
            <creationTime>2012-03-07T19:02:35.000000Z</creationTime>
          </creationInfo>
        </arrival>
        <arrival publicID="quakeml:uw.anss.org/AssocArO/UW/10139608">
          <pickID>quakeml:uw.anss.org/Arrival/UW/10139608</pickID>
          <phase>S</phase>
          <azimuth>139.6</azimuth>
          <distance>0.7539</distance>
          <timeResidual>-0.38</timeResidual>
          <creationInfo>
            <agencyID>UW</agencyID>
            <creationTime>2012-03-07T19:02:35.000000Z</creationTime>
          </creationInfo>
        </arrival>
        <arrival publicID="quakeml:uw.anss.org/AssocArO/UW/10139613">
          <pickID>quakeml:uw.anss.org/Arrival/UW/10139613</pickID>
          <phase>P</phase>
          <azimuth>221.2</azimuth>
          <distance>1.275</distance>
          <timeResidual>-0.35</timeResidual>
          <creationInfo>
            <agencyID>UW</agencyID>
            <creationTime>2012-03-07T19:02:35.000000Z</creationTime>
          </creationInfo>
        </arrival>
        <arrival publicID="quakeml:uw.anss.org/AssocArO/UW/10139618">
          <pickID>quakeml:uw.anss.org/Arrival/UW/10139618</pickID>
          <phase>P</phase>
          <azimuth>245.1</azimuth>
          <distance>0.8759</distance>
          <timeResidual>-0.47</timeResidual>
          <creationInfo>
            <agencyID>UW</agencyID>
            <creationTime>2012-03-07T19:02:35.000000Z</creationTime>
          </creationInfo>
        </arrival>
        <arrival publicID="quakeml:uw.anss.org/AssocArO/UW/10139623">
          <pickID>quakeml:uw.anss.org/Arrival/UW/10139623</pickID>
          <phase>P</phase>
          <azimuth>146.2</azimuth>
          <distance>0.1288</distance>
          <timeResidual>-0.13</timeResidual>
          <creationInfo>
            <agencyID>UW</agencyID>
            <creationTime>2012-03-07T19:02:35.000000Z</creationTime>
          </creationInfo>
        </arrival>
        <arrival publicID="quakeml:uw.anss.org/AssocArO/UW/10139628">
          <pickID>quakeml:uw.anss.org/Arrival/UW/10139628</pickID>
          <phase>P</phase>
          <azimuth>261.4</azimuth>
          <distance>1.258</distance>
          <timeResidual>-0.86</timeResidual>
          <creationInfo>
            <agencyID>UW</agencyID>
            <creationTime>2012-03-07T19:02:35.000000Z</creationTime>
          </creationInfo>
        </arrival>
        <arrival publicID="quakeml:uw.anss.org/AssocArO/UW/10139633">
          <pickID>quakeml:uw.anss.org/Arrival/UW/10139633</pickID>
          <phase>P</phase>
          <azimuth>171.9</azimuth>
          <distance>0.6067</distance>
          <timeResidual>0.05</timeResidual>
          <creationInfo>
            <agencyID>UW</agencyID>
            <creationTime>2012-03-07T19:02:35.000000Z</creationTime>
          </creationInfo>
        </arrival>
        <arrival publicID="quakeml:uw.anss.org/AssocArO/UW/10139638">
          <pickID>quakeml:uw.anss.org/Arrival/UW/10139638</pickID>
          <phase>P</phase>
          <azimuth>221.2</azimuth>
          <distance>1.277</distance>
          <timeResidual>-0.33</timeResidual>
          <creationInfo>
            <agencyID>UW</agencyID>
            <creationTime>2012-03-07T19:02:35.000000Z</creationTime>
          </creationInfo>
        </arrival>
        <arrival publicID="quakeml:uw.anss.org/AssocArO/UW/10139643">
          <pickID>quakeml:uw.anss.org/Arrival/UW/10139643</pickID>
          <phase>S</phase>
          <azimuth>221.2</azimuth>
          <distance>1.277</distance>
          <timeResidual>-1.14</timeResidual>
          <creationInfo>
            <agencyID>UW</agencyID>
            <creationTime>2012-03-07T19:02:35.000000Z</creationTime>
          </creationInfo>
        </arrival>
        <arrival publicID="quakeml:uw.anss.org/AssocArO/UW/10139648">
          <pickID>quakeml:uw.anss.org/Arrival/UW/10139648</pickID>
          <phase>P</phase>
          <azimuth>88.5</azimuth>
          <distance>0.0967</distance>
          <timeResidual>-0.13</timeResidual>
          <creationInfo>
            <agencyID>UW</agencyID>
            <creationTime>2012-03-07T19:02:35.000000Z</creationTime>
          </creationInfo>
        </arrival>
        <arrival publicID="quakeml:uw.anss.org/AssocArO/UW/10139653">
          <pickID>quakeml:uw.anss.org/Arrival/UW/10139653</pickID>
          <phase>P</phase>
          <azimuth>211.1</azimuth>
          <distance>1.143</distance>
          <timeResidual>0.37</timeResidual>
          <creationInfo>
            <agencyID>UW</agencyID>
            <creationTime>2012-03-07T19:02:35.000000Z</creationTime>
          </creationInfo>
        </arrival>
        <arrival publicID="quakeml:uw.anss.org/AssocArO/UW/10139658">
          <pickID>quakeml:uw.anss.org/Arrival/UW/10139658</pickID>
          <phase>P</phase>
          <azimuth>103.2</azimuth>
          <distance>0.1112</distance>
          <timeResidual>-0.05</timeResidual>
          <creationInfo>
            <agencyID>UW</agencyID>
            <creationTime>2012-03-07T19:02:35.000000Z</creationTime>
          </creationInfo>
        </arrival>
        <arrival publicID="quakeml:uw.anss.org/AssocArO/UW/10139663">
          <pickID>quakeml:uw.anss.org/Arrival/UW/10139663</pickID>
          <phase>S</phase>
          <azimuth>103.2</azimuth>
          <distance>0.1112</distance>
          <timeResidual>0.17</timeResidual>
          <creationInfo>
            <agencyID>UW</agencyID>
            <creationTime>2012-03-07T19:02:35.000000Z</creationTime>
          </creationInfo>
        </arrival>
        <arrival publicID="quakeml:uw.anss.org/AssocArO/UW/10139668">
          <pickID>quakeml:uw.anss.org/Arrival/UW/10139668</pickID>
          <phase>P</phase>
          <azimuth>228.3</azimuth>
          <distance>0.517</distance>
          <timeResidual>0.09</timeResidual>
          <creationInfo>
            <agencyID>UW</agencyID>
            <creationTime>2012-03-07T19:02:35.000000Z</creationTime>
          </creationInfo>
        </arrival>
        <arrival publicID="quakeml:uw.anss.org/AssocArO/UW/10139673">
          <pickID>quakeml:uw.anss.org/Arrival/UW/10139673</pickID>
          <phase>P</phase>
          <azimuth>221.1</azimuth>
          <distance>1.274</distance>
          <timeResidual>-0.31</timeResidual>
          <creationInfo>
            <agencyID>UW</agencyID>
            <creationTime>2012-03-07T19:02:35.000000Z</creationTime>
          </creationInfo>
        </arrival>
        <arrival publicID="quakeml:uw.anss.org/AssocArO/UW/10139678">
          <pickID>quakeml:uw.anss.org/Arrival/UW/10139678</pickID>
          <phase>S</phase>
          <azimuth>221.1</azimuth>
          <distance>1.274</distance>
          <timeResidual>-1.25</timeResidual>
          <creationInfo>
            <agencyID>UW</agencyID>
            <creationTime>2012-03-07T19:02:35.000000Z</creationTime>
          </creationInfo>
        </arrival>
        <arrival publicID="quakeml:uw.anss.org/AssocArO/UW/10139683">
          <pickID>quakeml:uw.anss.org/Arrival/UW/10139683</pickID>
          <phase>P</phase>
          <azimuth>205.5</azimuth>
          <distance>1.126</distance>
          <timeResidual>0.45</timeResidual>
          <creationInfo>
            <agencyID>UW</agencyID>
            <creationTime>2012-03-07T19:02:35.000000Z</creationTime>
          </creationInfo>
        </arrival>
        <arrival publicID="quakeml:uw.anss.org/AssocArO/UW/10139688">
          <pickID>quakeml:uw.anss.org/Arrival/UW/10139688</pickID>
          <phase>P</phase>
          <azimuth>136.2</azimuth>
          <distance>0.3326</distance>
          <timeResidual>-0.2</timeResidual>
          <creationInfo>
            <agencyID>UW</agencyID>
            <creationTime>2012-03-07T19:02:35.000000Z</creationTime>
          </creationInfo>
        </arrival>
        <arrival publicID="quakeml:uw.anss.org/AssocArO/UW/10139693">
          <pickID>quakeml:uw.anss.org/Arrival/UW/10139693</pickID>
          <phase>P</phase>
          <azimuth>114.2</azimuth>
          <distance>0.4145</distance>
          <timeResidual>0.16</timeResidual>
          <creationInfo>
            <agencyID>UW</agencyID>
            <creationTime>2012-03-07T19:02:35.000000Z</creationTime>
          </creationInfo>
        </arrival>
        <arrival publicID="quakeml:uw.anss.org/AssocArO/UW/10139698">
          <pickID>quakeml:uw.anss.org/Arrival/UW/10139698</pickID>
          <phase>S</phase>
          <azimuth>114.2</azimuth>
          <distance>0.4145</distance>
          <timeResidual>-0.03</timeResidual>
          <creationInfo>
            <agencyID>UW</agencyID>
            <creationTime>2012-03-07T19:02:35.000000Z</creationTime>
          </creationInfo>
        </arrival>
        <arrival publicID="quakeml:uw.anss.org/AssocArO/UW/10139703">
          <pickID>quakeml:uw.anss.org/Arrival/UW/10139703</pickID>
          <phase>P</phase>
          <azimuth>134.8</azimuth>
          <distance>0.7156</distance>
          <timeResidual>0.1</timeResidual>
          <creationInfo>
            <agencyID>UW</agencyID>
            <creationTime>2012-03-07T19:02:35.000000Z</creationTime>
          </creationInfo>
        </arrival>
        <arrival publicID="quakeml:uw.anss.org/AssocArO/UW/10139708">
          <pickID>quakeml:uw.anss.org/Arrival/UW/10139708</pickID>
          <phase>S</phase>
          <azimuth>134.8</azimuth>
          <distance>0.7156</distance>
          <timeResidual>-0.11</timeResidual>
          <creationInfo>
            <agencyID>UW</agencyID>
            <creationTime>2012-03-07T19:02:35.000000Z</creationTime>
          </creationInfo>
        </arrival>
      </origin>
      <magnitude publicID="quakeml:uw.anss.org/Netmag/UW/836543">
        <mag>
          <value>1.6</value>
          <uncertainty>0.03</uncertainty>
        </mag>
        <type>Md</type>
        <originID>quakeml:uw.anss.org/Origin/UW/1081313</originID>
        <methodID>smi:uw.anss.org/magnitude/Crosson</methodID>
        <stationCount>4</stationCount>
        <evaluationMode>manual</evaluationMode>
        <evaluationStatus>final</evaluationStatus>
        <stationMagnitudeContribution>
          <stationMagnitudeID>quakeml:uw.anss.org/AssocCoM/UW/2314188</stationMagnitudeID>
          <weight>1.0</weight>
          <residual>-0.17</residual>
        </stationMagnitudeContribution>
        <stationMagnitudeContribution>
          <stationMagnitudeID>quakeml:uw.anss.org/AssocCoM/UW/2314178</stationMagnitudeID>
          <weight>1.0</weight>
          <residual>0.18</residual>
        </stationMagnitudeContribution>
        <stationMagnitudeContribution>
          <stationMagnitudeID>quakeml:uw.anss.org/AssocCoM/UW/2314183</stationMagnitudeID>
          <weight>1.0</weight>
          <residual>0.11</residual>
        </stationMagnitudeContribution>
        <stationMagnitudeContribution>
          <stationMagnitudeID>quakeml:uw.anss.org/AssocCoM/UW/2314193</stationMagnitudeID>
          <weight>1.0</weight>
          <residual>-0.12</residual>
        </stationMagnitudeContribution>
        <creationInfo>
          <agencyID>UW</agencyID>
          <creationTime>2012-03-07T19:02:35.000000Z</creationTime>
        </creationInfo>
      </magnitude>
      <stationMagnitude publicID="quakeml:uw.anss.org/AssocCoM/UW/2314178">
        <originID>quakeml:uw.anss.org/Origin/UW/1081313</originID>
        <mag>
          <value>1.78</value>
        </mag>
        <type>MD</type>
        <amplitudeID>quakeml:uw.anss.org/Coda/UW/2314178</amplitudeID>
        <waveformID networkCode="UW" stationCode="JCW" locationCode="" channelCode="EHZ"></waveformID>
      </stationMagnitude>
      <stationMagnitude publicID="quakeml:uw.anss.org/AssocCoM/UW/2314183">
        <originID>quakeml:uw.anss.org/Origin/UW/1081313</originID>
        <mag>
          <value>1.71</value>
        </mag>
        <type>MD</type>
        <amplitudeID>quakeml:uw.anss.org/Coda/UW/2314183</amplitudeID>
        <waveformID networkCode="UW" stationCode="RPW" locationCode="" channelCode="EHZ"></waveformID>
      </stationMagnitude>
      <stationMagnitude publicID="quakeml:uw.anss.org/AssocCoM/UW/2314188">
        <originID>quakeml:uw.anss.org/Origin/UW/1081313</originID>
        <mag>
          <value>1.43</value>
        </mag>
        <type>MD</type>
        <amplitudeID>quakeml:uw.anss.org/Coda/UW/2314188</amplitudeID>
        <waveformID networkCode="CN" stationCode="VDB" locationCode="" channelCode="EHZ"></waveformID>
      </stationMagnitude>
      <stationMagnitude publicID="quakeml:uw.anss.org/AssocCoM/UW/2314193">
        <originID>quakeml:uw.anss.org/Origin/UW/1081313</originID>
        <mag>
          <value>1.48</value>
        </mag>
        <type>MD</type>
        <amplitudeID>quakeml:uw.anss.org/Coda/UW/2314193</amplitudeID>
        <waveformID networkCode="UW" stationCode="MBW" locationCode="" channelCode="EHZ"></waveformID>
      </stationMagnitude>
      <pick publicID="quakeml:uw.anss.org/Arrival/UW/10139573">
        <time>
          <value>2010-07-13T03:49:54.030000Z</value>
          <uncertainty>0.03</uncertainty>
        </time>
        <waveformID networkCode="UW" stationCode="LRIV" locationCode="" channelCode="BHZ"></waveformID>
        <polarity>undecidable</polarity>
        <evaluationMode>manual</evaluationMode>
        <evaluationStatus>final</evaluationStatus>
        <creationInfo>
          <agencyID>UW</agencyID>
          <creationTime>2012-03-07T19:02:35.000000Z</creationTime>
        </creationInfo>
      </pick>
      <pick publicID="quakeml:uw.anss.org/Arrival/UW/10139578">
        <time>
          <value>2010-07-13T03:49:47.620000Z</value>
          <uncertainty>0.04</uncertainty>
        </time>
        <waveformID networkCode="UW" stationCode="JCW" locationCode="" channelCode="EHZ"></waveformID>
        <polarity>undecidable</polarity>
        <evaluationMode>manual</evaluationMode>
        <evaluationStatus>final</evaluationStatus>
        <creationInfo>
          <agencyID>UW</agencyID>
          <creationTime>2012-03-07T19:02:35.000000Z</creationTime>
        </creationInfo>
      </pick>
      <pick publicID="quakeml:uw.anss.org/Arrival/UW/10139583">
        <time>
          <value>2010-07-13T03:49:44.180000Z</value>
          <uncertainty>0.05</uncertainty>
        </time>
        <waveformID networkCode="CN" stationCode="SNB" locationCode="" channelCode="BHZ"></waveformID>
        <polarity>undecidable</polarity>
