<?xml version='1.0' encoding='utf-8'?>
<q:quakeml xmlns="http://quakeml.org/xmlns/bed/1.2" xmlns:q="http://quakeml.org/xmlns/quakeml/1.2" xmlns:ns0="http://anss.org/xmlns/catalog/0.1">
  <eventParameters publicID="smi:local/746bd6ec-55ab-45b2-a591-df391a158e11">
    <event publicID="quakeml:uw.anss.org/Event/UW/10796898" ns0:datasource="uw" ns0:dataid="uw10796898" ns0:eventsource="uw" ns0:eventid="10796898">
      <preferredOriginID>quakeml:uw.anss.org/Origin/UW/1081308</preferredOriginID>
      <preferredMagnitudeID>quakeml:uw.anss.org/Netmag/UW/2521653</preferredMagnitudeID>
      <type>earthquake</type>
      <creationInfo>
        <agencyID>UW</agencyID>
        <creationTime>2016-11-28T22:45:04.000000Z</creationTime>
        <version>4</version>
      </creationInfo>
      <origin publicID="quakeml:uw.anss.org/Origin/UW/1081308" ns0:datasource="uw" ns0:dataid="uw10796898" ns0:eventsource="uw" ns0:eventid="10796898">
        <time>
          <value>2010-04-15T11:12:19.460000Z</value>
          <uncertainty>0.06</uncertainty>
        </time>
        <latitude>
          <value>48.7093333</value>
          <uncertainty>0.35</uncertainty>
        </latitude>
        <longitude>
          <value>-122.3298333</value>
          <uncertainty>0.43</uncertainty>
        </longitude>
        <depth>
          <value>14736.0</value>
          <uncertainty>760.0</uncertainty>
        </depth>
        <depthType>from location</depthType>
        <timeFixed>false</timeFixed>
        <epicenterFixed>false</epicenterFixed>
        <methodID>smi:uw.anss.org/origin/spong</methodID>
        <quality>
          <associatedPhaseCount>37</associatedPhaseCount>
          <usedPhaseCount>35</usedPhaseCount>
          <associatedStationCount>26</associatedStationCount>
          <usedStationCount>0</usedStationCount>
          <standardError>0.27</standardError>
          <azimuthalGap>69.0</azimuthalGap>
        </quality>
        <type>hypocenter</type>
        <evaluationMode>manual</evaluationMode>
        <evaluationStatus>final</evaluationStatus>
        <creationInfo>
          <agencyID>UW</agencyID>
          <creationTime>2012-03-07T19:02:34.000000Z</creationTime>
        </creationInfo>
        <originUncertainty>
          <preferredDescription>horizontal uncertainty</preferredDescription>
          <horizontalUncertainty>554.0</horizontalUncertainty>
        </originUncertainty>
        <arrival publicID="quakeml:uw.anss.org/AssocArO/UW/10139388">
          <pickID>quakeml:uw.anss.org/Arrival/UW/10139388</pickID>
          <phase>P</phase>
          <azimuth>204.8</azimuth>
          <distance>1.168</distance>
          <timeResidual>0.0</timeResidual>
          <creationInfo>
            <agencyID>UW</agencyID>
            <creationTime>2012-03-07T19:02:34.000000Z</creationTime>
          </creationInfo>
        </arrival>
        <arrival publicID="quakeml:uw.anss.org/AssocArO/UW/10139393">
          <pickID>quakeml:uw.anss.org/Arrival/UW/10139393</pickID>
          <phase>P</phase>
          <azimuth>315.9</azimuth>
          <distance>0.08211</distance>
          <timeResidual>0.47</timeResidual>
          <creationInfo>
            <agencyID>UW</agencyID>
            <creationTime>2012-03-07T19:02:34.000000Z</creationTime>
          </creationInfo>
        </arrival>
        <arrival publicID="quakeml:uw.anss.org/AssocArO/UW/10139398">
          <pickID>quakeml:uw.anss.org/Arrival/UW/10139398</pickID>
          <phase>S</phase>
          <azimuth>315.9</azimuth>
          <distance>0.08211</distance>
          <timeResidual>-0.25</timeResidual>
          <creationInfo>
            <agencyID>UW</agencyID>
            <creationTime>2012-03-07T19:02:34.000000Z</creationTime>
          </creationInfo>
        </arrival>
        <arrival publicID="quakeml:uw.anss.org/AssocArO/UW/10139403">
          <pickID>quakeml:uw.anss.org/Arrival/UW/10139403</pickID>
          <phase>S</phase>
          <azimuth>265.8</azimuth>
          <distance>0.7436</distance>
          <timeResidual>-1.2</timeResidual>
          <creationInfo>
            <agencyID>UW</agencyID>
            <creationTime>2012-03-07T19:02:34.000000Z</creationTime>
          </creationInfo>
        </arrival>
        <arrival publicID="quakeml:uw.anss.org/AssocArO/UW/10139408">
          <pickID>quakeml:uw.anss.org/Arrival/UW/10139408</pickID>
          <phase>P</phase>
          <azimuth>265.8</azimuth>
          <distance>0.7436</distance>
          <timeResidual>-0.44</timeResidual>
          <creationInfo>
            <agencyID>UW</agencyID>
            <creationTime>2012-03-07T19:02:34.000000Z</creationTime>
          </creationInfo>
        </arrival>
        <arrival publicID="quakeml:uw.anss.org/AssocArO/UW/10139413">
          <pickID>quakeml:uw.anss.org/Arrival/UW/10139413</pickID>
          <phase>P</phase>
          <azimuth>203.6</azimuth>
          <distance>0.9774</distance>
          <timeResidual>-0.14</timeResidual>
          <creationInfo>
            <agencyID>UW</agencyID>
            <creationTime>2012-03-07T19:02:34.000000Z</creationTime>
          </creationInfo>
        </arrival>
        <arrival publicID="quakeml:uw.anss.org/AssocArO/UW/10139418">
          <pickID>quakeml:uw.anss.org/Arrival/UW/10139418</pickID>
          <phase>P</phase>
          <azimuth>218.9</azimuth>
          <distance>0.8545</distance>
          <timeResidual>0.23</timeResidual>
          <creationInfo>
            <agencyID>UW</agencyID>
            <creationTime>2012-03-07T19:02:34.000000Z</creationTime>
          </creationInfo>
        </arrival>
        <arrival publicID="quakeml:uw.anss.org/AssocArO/UW/10139423">
          <pickID>quakeml:uw.anss.org/Arrival/UW/10139423</pickID>
          <phase>P</phase>
          <azimuth>154.0</azimuth>
          <distance>0.3181</distance>
          <timeResidual>-0.39</timeResidual>
          <creationInfo>
            <agencyID>UW</agencyID>
            <creationTime>2012-03-07T19:02:34.000000Z</creationTime>
          </creationInfo>
        </arrival>
        <arrival publicID="quakeml:uw.anss.org/AssocArO/UW/10139428">
          <pickID>quakeml:uw.anss.org/Arrival/UW/10139428</pickID>
          <phase>S</phase>
          <azimuth>154.0</azimuth>
          <distance>0.3181</distance>
          <timeResidual>-0.09</timeResidual>
          <creationInfo>
            <agencyID>UW</agencyID>
            <creationTime>2012-03-07T19:02:34.000000Z</creationTime>
          </creationInfo>
        </arrival>
        <arrival publicID="quakeml:uw.anss.org/AssocArO/UW/10139433">
          <pickID>quakeml:uw.anss.org/Arrival/UW/10139433</pickID>
          <phase>P</phase>
          <azimuth>71.3</azimuth>
          <distance>0.4551</distance>
          <timeResidual>0.16</timeResidual>
          <creationInfo>
            <agencyID>UW</agencyID>
            <creationTime>2012-03-07T19:02:34.000000Z</creationTime>
          </creationInfo>
        </arrival>
        <arrival publicID="quakeml:uw.anss.org/AssocArO/UW/10139438">
          <pickID>quakeml:uw.anss.org/Arrival/UW/10139438</pickID>
          <phase>S</phase>
          <azimuth>71.3</azimuth>
          <distance>0.4551</distance>
          <timeResidual>-0.04</timeResidual>
          <creationInfo>
            <agencyID>UW</agencyID>
            <creationTime>2012-03-07T19:02:34.000000Z</creationTime>
          </creationInfo>
        </arrival>
        <arrival publicID="quakeml:uw.anss.org/AssocArO/UW/10139443">
          <pickID>quakeml:uw.anss.org/Arrival/UW/10139443</pickID>
          <phase>P</phase>
          <azimuth>265.8</azimuth>
          <distance>0.7462</distance>
          <timeResidual>0.15</timeResidual>
          <creationInfo>
            <agencyID>UW</agencyID>
            <creationTime>2012-03-07T19:02:34.000000Z</creationTime>
          </creationInfo>
        </arrival>
        <arrival publicID="quakeml:uw.anss.org/AssocArO/UW/10139448">
          <pickID>quakeml:uw.anss.org/Arrival/UW/10139448</pickID>
          <phase>S</phase>
          <azimuth>265.8</azimuth>
          <distance>0.7462</distance>
          <timeResidual>-0.1</timeResidual>
          <creationInfo>
            <agencyID>UW</agencyID>
            <creationTime>2012-03-07T19:02:34.000000Z</creationTime>
          </creationInfo>
        </arrival>
        <arrival publicID="quakeml:uw.anss.org/AssocArO/UW/10139453">
          <pickID>quakeml:uw.anss.org/Arrival/UW/10139453</pickID>
          <phase>P</phase>
          <azimuth>30.8</azimuth>
          <distance>0.2417</distance>
          <timeResidual>0.03</timeResidual>
          <creationInfo>
            <agencyID>UW</agencyID>
            <creationTime>2012-03-07T19:02:34.000000Z</creationTime>
          </creationInfo>
        </arrival>
        <arrival publicID="quakeml:uw.anss.org/AssocArO/UW/10139458">
          <pickID>quakeml:uw.anss.org/Arrival/UW/10139458</pickID>
          <phase>S</phase>
          <azimuth>30.8</azimuth>
          <distance>0.2417</distance>
          <timeResidual>0.6</timeResidual>
          <creationInfo>
            <agencyID>UW</agencyID>
            <creationTime>2012-03-07T19:02:34.000000Z</creationTime>
          </creationInfo>
        </arrival>
        <arrival publicID="quakeml:uw.anss.org/AssocArO/UW/10139463">
          <pickID>quakeml:uw.anss.org/Arrival/UW/10139463</pickID>
          <phase>P</phase>
          <azimuth>230.5</azimuth>
          <distance>1.019</distance>
          <timeResidual>-0.2</timeResidual>
          <creationInfo>
            <agencyID>UW</agencyID>
            <creationTime>2012-03-07T19:02:34.000000Z</creationTime>
          </creationInfo>
        </arrival>
        <arrival publicID="quakeml:uw.anss.org/AssocArO/UW/10139468">
          <pickID>quakeml:uw.anss.org/Arrival/UW/10139468</pickID>
          <phase>P</phase>
          <azimuth>156.9</azimuth>
          <distance>1.102</distance>
          <timeResidual>0.43</timeResidual>
          <creationInfo>
            <agencyID>UW</agencyID>
            <creationTime>2012-03-07T19:02:34.000000Z</creationTime>
          </creationInfo>
        </arrival>
        <arrival publicID="quakeml:uw.anss.org/AssocArO/UW/10139473">
          <pickID>quakeml:uw.anss.org/Arrival/UW/10139473</pickID>
          <phase>P</phase>
          <azimuth>75.1</azimuth>
          <distance>0.2935</distance>
          <timeResidual>-0.2</timeResidual>
          <creationInfo>
            <agencyID>UW</agencyID>
            <creationTime>2012-03-07T19:02:34.000000Z</creationTime>
          </creationInfo>
        </arrival>
        <arrival publicID="quakeml:uw.anss.org/AssocArO/UW/10139478">
          <pickID>quakeml:uw.anss.org/Arrival/UW/10139478</pickID>
          <phase>P</phase>
          <azimuth>152.4</azimuth>
          <timeResidual>0.09</timeResidual>
          <creationInfo>
            <agencyID>UW</agencyID>
            <creationTime>2012-03-07T19:02:34.000000Z</creationTime>
          </creationInfo>
        </arrival>
        <arrival publicID="quakeml:uw.anss.org/AssocArO/UW/10139483">
          <pickID>quakeml:uw.anss.org/Arrival/UW/10139483</pickID>
          <phase>S</phase>
          <azimuth>152.4</azimuth>
          <timeResidual>0.21</timeResidual>
          <creationInfo>
            <agencyID>UW</agencyID>
            <creationTime>2012-03-07T19:02:34.000000Z</creationTime>
          </creationInfo>
        </arrival>
        <arrival publicID="quakeml:uw.anss.org/AssocArO/UW/10139488">
          <pickID>quakeml:uw.anss.org/Arrival/UW/10139488</pickID>
          <phase>P</phase>
          <azimuth>230.5</azimuth>
          <distance>1.016</distance>
          <timeResidual>-0.26</timeResidual>
          <creationInfo>
            <agencyID>UW</agencyID>
            <creationTime>2012-03-07T19:02:34.000000Z</creationTime>
          </creationInfo>
        </arrival>
        <arrival publicID="quakeml:uw.anss.org/AssocArO/UW/10139493">
          <pickID>quakeml:uw.anss.org/Arrival/UW/10139493</pickID>
          <phase>P</phase>
          <azimuth>230.6</azimuth>
          <distance>1.019</distance>
          <timeResidual>-0.27</timeResidual>
          <creationInfo>
            <agencyID>UW</agencyID>
            <creationTime>2012-03-07T19:02:34.000000Z</creationTime>
          </creationInfo>
        </arrival>
        <arrival publicID="quakeml:uw.anss.org/AssocArO/UW/10139498">
          <pickID>quakeml:uw.anss.org/Arrival/UW/10139498</pickID>
          <phase>P</phase>
          <azimuth>230.6</azimuth>
          <distance>1.017</distance>
          <timeResidual>-0.27</timeResidual>
          <creationInfo>
            <agencyID>UW</agencyID>
            <creationTime>2012-03-07T19:02:34.000000Z</creationTime>
          </creationInfo>
        </arrival>
        <arrival publicID="quakeml:uw.anss.org/AssocArO/UW/10139503">
          <pickID>quakeml:uw.anss.org/Arrival/UW/10139503</pickID>
          <phase>P</phase>
          <azimuth>211.6</azimuth>
          <distance>0.8236</distance>
          <timeResidual>0.06</timeResidual>
          <creationInfo>
            <agencyID>UW</agencyID>
            <creationTime>2012-03-07T19:02:34.000000Z</creationTime>
          </creationInfo>
        </arrival>
        <arrival publicID="quakeml:uw.anss.org/AssocArO/UW/10139508">
          <pickID>quakeml:uw.anss.org/Arrival/UW/10139508</pickID>
          <phase>P</phase>
          <azimuth>246.2</azimuth>
          <distance>0.7246</distance>
          <timeResidual>0.34</timeResidual>
          <creationInfo>
            <agencyID>UW</agencyID>
            <creationTime>2012-03-07T19:02:34.000000Z</creationTime>
          </creationInfo>
        </arrival>
        <arrival publicID="quakeml:uw.anss.org/AssocArO/UW/10139513">
          <pickID>quakeml:uw.anss.org/Arrival/UW/10139513</pickID>
          <phase>S</phase>
          <azimuth>246.2</azimuth>
          <distance>0.7246</distance>
          <timeResidual>0.99</timeResidual>
          <creationInfo>
            <agencyID>UW</agencyID>
            <creationTime>2012-03-07T19:02:34.000000Z</creationTime>
          </creationInfo>
        </arrival>
        <arrival publicID="quakeml:uw.anss.org/AssocArO/UW/10139518">
          <pickID>quakeml:uw.anss.org/Arrival/UW/10139518</pickID>
          <phase>P</phase>
          <azimuth>29.0</azimuth>
          <distance>0.3313</distance>
          <timeResidual>-0.05</timeResidual>
          <creationInfo>
            <agencyID>UW</agencyID>
            <creationTime>2012-03-07T19:02:34.000000Z</creationTime>
          </creationInfo>
        </arrival>
        <arrival publicID="quakeml:uw.anss.org/AssocArO/UW/10139523">
          <pickID>quakeml:uw.anss.org/Arrival/UW/10139523</pickID>
          <phase>P</phase>
          <azimuth>126.3</azimuth>
          <distance>0.9904</distance>
          <timeResidual>0.61</timeResidual>
          <creationInfo>
            <agencyID>UW</agencyID>
            <creationTime>2012-03-07T19:02:34.000000Z</creationTime>
          </creationInfo>
        </arrival>
        <arrival publicID="quakeml:uw.anss.org/AssocArO/UW/10139528">
          <pickID>quakeml:uw.anss.org/Arrival/UW/10139528</pickID>
          <phase>P</phase>
          <azimuth>277.1</azimuth>
          <distance>0.5615</distance>
          <timeResidual>0.36</timeResidual>
          <creationInfo>
            <agencyID>UW</agencyID>
            <creationTime>2012-03-07T19:02:34.000000Z</creationTime>
          </creationInfo>
        </arrival>
        <arrival publicID="quakeml:uw.anss.org/AssocArO/UW/10139533">
          <pickID>quakeml:uw.anss.org/Arrival/UW/10139533</pickID>
          <phase>P</phase>
          <azimuth>203.6</azimuth>
          <distance>0.9773</distance>
          <timeResidual>-0.12</timeResidual>
          <creationInfo>
            <agencyID>UW</agencyID>
            <creationTime>2012-03-07T19:02:34.000000Z</creationTime>
          </creationInfo>
        </arrival>
        <arrival publicID="quakeml:uw.anss.org/AssocArO/UW/10139538">
          <pickID>quakeml:uw.anss.org/Arrival/UW/10139538</pickID>
          <phase>S</phase>
          <azimuth>203.6</azimuth>
          <distance>0.9773</distance>
          <timeResidual>-0.31</timeResidual>
          <creationInfo>
            <agencyID>UW</agencyID>
            <creationTime>2012-03-07T19:02:34.000000Z</creationTime>
          </creationInfo>
        </arrival>
        <arrival publicID="quakeml:uw.anss.org/AssocArO/UW/10139543">
          <pickID>quakeml:uw.anss.org/Arrival/UW/10139543</pickID>
          <phase>P</phase>
          <azimuth>157.4</azimuth>
          <distance>0.9807</distance>
          <timeResidual>0.4</timeResidual>
          <creationInfo>
            <agencyID>UW</agencyID>
            <creationTime>2012-03-07T19:02:34.000000Z</creationTime>
          </creationInfo>
        </arrival>
        <arrival publicID="quakeml:uw.anss.org/AssocArO/UW/10139548">
          <pickID>quakeml:uw.anss.org/Arrival/UW/10139548</pickID>
          <phase>P</phase>
          <azimuth>25.2</azimuth>
          <distance>0.3507</distance>
          <timeResidual>-0.23</timeResidual>
          <creationInfo>
            <agencyID>UW</agencyID>
            <creationTime>2012-03-07T19:02:34.000000Z</creationTime>
          </creationInfo>
        </arrival>
        <arrival publicID="quakeml:uw.anss.org/AssocArO/UW/10139553">
          <pickID>quakeml:uw.anss.org/Arrival/UW/10139553</pickID>
          <phase>S</phase>
          <azimuth>25.2</azimuth>
          <distance>0.3507</distance>
          <timeResidual>-0.27</timeResidual>
          <creationInfo>
            <agencyID>UW</agencyID>
            <creationTime>2012-03-07T19:02:34.000000Z</creationTime>
          </creationInfo>
        </arrival>
        <arrival publicID="quakeml:uw.anss.org/AssocArO/UW/10139558">
          <pickID>quakeml:uw.anss.org/Arrival/UW/10139558</pickID>
          <phase>P</phase>
          <azimuth>217.1</azimuth>
          <distance>0.7961</distance>
          <timeResidual>0.52</timeResidual>
          <creationInfo>
            <agencyID>UW</agencyID>
            <creationTime>2012-03-07T19:02:34.000000Z</creationTime>
          </creationInfo>
        </arrival>
        <arrival publicID="quakeml:uw.anss.org/AssocArO/UW/10139563">
          <pickID>quakeml:uw.anss.org/Arrival/UW/10139563</pickID>
          <phase>P</phase>
          <azimuth>265.0</azimuth>
          <distance>0.3345</distance>
          <timeResidual>0.0</timeResidual>
          <creationInfo>
            <agencyID>UW</agencyID>
            <creationTime>2012-03-07T19:02:35.000000Z</creationTime>
          </creationInfo>
        </arrival>
        <arrival publicID="quakeml:uw.anss.org/AssocArO/UW/10139568">
          <pickID>quakeml:uw.anss.org/Arrival/UW/10139568</pickID>
          <phase>S</phase>
          <azimuth>265.0</azimuth>
          <distance>0.3345</distance>
          <timeResidual>-0.04</timeResidual>
          <creationInfo>
            <agencyID>UW</agencyID>
            <creationTime>2012-03-07T19:02:35.000000Z</creationTime>
          </creationInfo>
        </arrival>
      </origin>
      <magnitude publicID="quakeml:uw.anss.org/Netmag/UW/2521653">
        <mag>
          <value>1.79</value>
          <uncertainty>0.142</uncertainty>
        </mag>
        <type>Ml</type>
        <originID>quakeml:uw.anss.org/Origin/UW/1081308</originID>
        <methodID>smi:uw.anss.org/magnitude/RichterMl2</methodID>
        <stationCount>20</stationCount>
        <azimuthalGap>112.0</azimuthalGap>
        <evaluationMode>automatic</evaluationMode>
        <evaluationStatus>preliminary</evaluationStatus>
        <stationMagnitudeContribution>
          <stationMagnitudeID>quakeml:uw.anss.org/AssocAmM/UW/9252848</stationMagnitudeID>
          <weight>1.0</weight>
          <residual>-0.14</residual>
        </stationMagnitudeContribution>
