<?xml version='1.0' encoding='utf-8'?>
<q:quakeml xmlns="http://quakeml.org/xmlns/bed/1.2" xmlns:q="http://quakeml.org/xmlns/quakeml/1.2" xmlns:ns0="http://anss.org/xmlns/catalog/0.1">
  <eventParameters publicID="smi:local/4d708f41-8813-46a6-8aa0-26999cdbe65e">
    <event publicID="quakeml:uw.anss.org/Event/UW/10810718" ns0:datasource="uw" ns0:dataid="uw10810718" ns0:eventsource="uw" ns0:eventid="10810718">
      <preferredOriginID>quakeml:uw.anss.org/Origin/UW/1096453</preferredOriginID>
      <preferredMagnitudeID>quakeml:uw.anss.org/Netmag/UW/2528538</preferredMagnitudeID>
      <type>earthquake</type>
      <creationInfo>
        <agencyID>UW</agencyID>
        <creationTime>2016-11-29T00:09:23.000000Z</creationTime>
        <version>4</version>
      </creationInfo>
      <origin publicID="quakeml:uw.anss.org/Origin/UW/1096453" ns0:datasource="uw" ns0:dataid="uw10810718" ns0:eventsource="uw" ns0:eventid="10810718">
        <time>
          <value>2010-12-11T19:10:36.860000Z</value>
          <uncertainty>0.03</uncertainty>
        </time>
        <latitude>
          <value>48.4765</value>
          <uncertainty>0.2</uncertainty>
        </latitude>
        <longitude>
          <value>-121.644</value>
          <uncertainty>0.18</uncertainty>
        </longitude>
        <depth>
          <value>3883.0</value>
          <uncertainty>390.0</uncertainty>
        </depth>
        <depthType>from location</depthType>
        <timeFixed>false</timeFixed>
        <epicenterFixed>false</epicenterFixed>
        <methodID>smi:uw.anss.org/origin/spong</methodID>
        <quality>
          <associatedPhaseCount>37</associatedPhaseCount>
          <usedPhaseCount>23</usedPhaseCount>
          <associatedStationCount>30</associatedStationCount>
          <usedStationCount>0</usedStationCount>
          <standardError>0.19</standardError>
          <azimuthalGap>97.0</azimuthalGap>
        </quality>
        <type>hypocenter</type>
        <evaluationMode>manual</evaluationMode>
        <evaluationStatus>final</evaluationStatus>
        <creationInfo>
          <agencyID>UW</agencyID>
          <creationTime>2012-03-08T15:15:47.000000Z</creationTime>
        </creationInfo>
        <originUncertainty>
          <preferredDescription>horizontal uncertainty</preferredDescription>
          <horizontalUncertainty>269.0</horizontalUncertainty>
        </originUncertainty>
        <arrival publicID="quakeml:uw.anss.org/AssocArO/UW/10301033">
          <pickID>quakeml:uw.anss.org/Arrival/UW/10301033</pickID>
          <phase>P</phase>
          <azimuth>229.2</azimuth>
          <distance>1.258</distance>
          <timeResidual>0.32</timeResidual>
          <creationInfo>
            <agencyID>UW</agencyID>
            <creationTime>2012-03-08T15:15:47.000000Z</creationTime>
          </creationInfo>
        </arrival>
        <arrival publicID="quakeml:uw.anss.org/AssocArO/UW/10301048">
          <pickID>quakeml:uw.anss.org/Arrival/UW/10301048</pickID>
          <phase>P</phase>
          <azimuth>114.6</azimuth>
          <distance>0.9606</distance>
          <timeResidual>0.12</timeResidual>
          <creationInfo>
            <agencyID>UW</agencyID>
            <creationTime>2012-03-08T15:15:47.000000Z</creationTime>
          </creationInfo>
        </arrival>
        <arrival publicID="quakeml:uw.anss.org/AssocArO/UW/10301053">
          <pickID>quakeml:uw.anss.org/Arrival/UW/10301053</pickID>
          <phase>P</phase>
          <azimuth>185.8</azimuth>
          <distance>1.057</distance>
          <timeResidual>0.25</timeResidual>
          <creationInfo>
            <agencyID>UW</agencyID>
            <creationTime>2012-03-08T15:15:47.000000Z</creationTime>
          </creationInfo>
        </arrival>
        <arrival publicID="quakeml:uw.anss.org/AssocArO/UW/10301058">
          <pickID>quakeml:uw.anss.org/Arrival/UW/10301058</pickID>
          <phase>P</phase>
          <azimuth>234.9</azimuth>
          <distance>0.3688</distance>
          <timeResidual>-0.02</timeResidual>
          <creationInfo>
            <agencyID>UW</agencyID>
            <creationTime>2012-03-08T15:15:47.000000Z</creationTime>
          </creationInfo>
        </arrival>
        <arrival publicID="quakeml:uw.anss.org/AssocArO/UW/10301063">
          <pickID>quakeml:uw.anss.org/Arrival/UW/10301063</pickID>
          <phase>P</phase>
          <azimuth>234.9</azimuth>
          <distance>0.3688</distance>
          <timeResidual>0.03</timeResidual>
          <creationInfo>
            <agencyID>UW</agencyID>
            <creationTime>2012-03-08T15:15:47.000000Z</creationTime>
          </creationInfo>
        </arrival>
        <arrival publicID="quakeml:uw.anss.org/AssocArO/UW/10301068">
          <pickID>quakeml:uw.anss.org/Arrival/UW/10301068</pickID>
          <phase>P</phase>
          <azimuth>278.9</azimuth>
          <distance>1.211</distance>
          <timeResidual>0.1</timeResidual>
          <creationInfo>
            <agencyID>UW</agencyID>
            <creationTime>2012-03-08T15:15:47.000000Z</creationTime>
          </creationInfo>
        </arrival>
        <arrival publicID="quakeml:uw.anss.org/AssocArO/UW/10301073">
          <pickID>quakeml:uw.anss.org/Arrival/UW/10301073</pickID>
          <phase>P</phase>
          <azimuth>232.3</azimuth>
          <distance>1.077</distance>
          <timeResidual>0.42</timeResidual>
          <creationInfo>
            <agencyID>UW</agencyID>
            <creationTime>2012-03-08T15:15:47.000000Z</creationTime>
          </creationInfo>
        </arrival>
        <arrival publicID="quakeml:uw.anss.org/AssocArO/UW/10301078">
          <pickID>quakeml:uw.anss.org/Arrival/UW/10301078</pickID>
          <phase>S</phase>
          <azimuth>232.3</azimuth>
          <distance>1.077</distance>
          <timeResidual>0.85</timeResidual>
          <creationInfo>
            <agencyID>UW</agencyID>
            <creationTime>2012-03-08T15:15:47.000000Z</creationTime>
          </creationInfo>
        </arrival>
        <arrival publicID="quakeml:uw.anss.org/AssocArO/UW/10301083">
          <pickID>quakeml:uw.anss.org/Arrival/UW/10301083</pickID>
          <phase>P</phase>
          <azimuth>182.2</azimuth>
          <distance>1.608</distance>
          <timeResidual>0.64</timeResidual>
          <creationInfo>
            <agencyID>UW</agencyID>
            <creationTime>2012-03-08T15:15:47.000000Z</creationTime>
          </creationInfo>
        </arrival>
        <arrival publicID="quakeml:uw.anss.org/AssocArO/UW/10301088">
          <pickID>quakeml:uw.anss.org/Arrival/UW/10301088</pickID>
          <phase>P</phase>
          <azimuth>331.3</azimuth>
          <distance>0.6283</distance>
          <timeResidual>-0.19</timeResidual>
          <creationInfo>
            <agencyID>UW</agencyID>
            <creationTime>2012-03-08T15:15:47.000000Z</creationTime>
          </creationInfo>
        </arrival>
        <arrival publicID="quakeml:uw.anss.org/AssocArO/UW/10301093">
          <pickID>quakeml:uw.anss.org/Arrival/UW/10301093</pickID>
          <phase>P</phase>
          <azimuth>260.7</azimuth>
          <distance>0.3215</distance>
          <timeResidual>-0.08</timeResidual>
          <creationInfo>
            <agencyID>UW</agencyID>
            <creationTime>2012-03-08T15:15:47.000000Z</creationTime>
          </creationInfo>
        </arrival>
        <arrival publicID="quakeml:uw.anss.org/AssocArO/UW/10301098">
          <pickID>quakeml:uw.anss.org/Arrival/UW/10301098</pickID>
          <phase>P</phase>
          <azimuth>252.0</azimuth>
          <distance>1.309</distance>
          <timeResidual>0.38</timeResidual>
          <creationInfo>
            <agencyID>UW</agencyID>
            <creationTime>2012-03-08T15:15:47.000000Z</creationTime>
          </creationInfo>
        </arrival>
        <arrival publicID="quakeml:uw.anss.org/AssocArO/UW/10301103">
          <pickID>quakeml:uw.anss.org/Arrival/UW/10301103</pickID>
          <phase>P</phase>
          <azimuth>221.3</azimuth>
          <distance>1.209</distance>
          <timeResidual>0.26</timeResidual>
          <creationInfo>
            <agencyID>UW</agencyID>
            <creationTime>2012-03-08T15:15:47.000000Z</creationTime>
          </creationInfo>
        </arrival>
        <arrival publicID="quakeml:uw.anss.org/AssocArO/UW/10301108">
          <pickID>quakeml:uw.anss.org/Arrival/UW/10301108</pickID>
          <phase>S</phase>
          <azimuth>221.3</azimuth>
          <distance>1.209</distance>
          <timeResidual>-0.01</timeResidual>
          <creationInfo>
            <agencyID>UW</agencyID>
            <creationTime>2012-03-08T15:15:47.000000Z</creationTime>
          </creationInfo>
        </arrival>
        <arrival publicID="quakeml:uw.anss.org/AssocArO/UW/10301113">
          <pickID>quakeml:uw.anss.org/Arrival/UW/10301113</pickID>
          <phase>P</phase>
          <azimuth>124.0</azimuth>
          <distance>1.374</distance>
          <timeResidual>0.19</timeResidual>
          <creationInfo>
            <agencyID>UW</agencyID>
            <creationTime>2012-03-08T15:15:47.000000Z</creationTime>
          </creationInfo>
        </arrival>
        <arrival publicID="quakeml:uw.anss.org/AssocArO/UW/10301118">
          <pickID>quakeml:uw.anss.org/Arrival/UW/10301118</pickID>
          <phase>P</phase>
          <azimuth>108.3</azimuth>
          <distance>0.09052</distance>
          <timeResidual>-0.3</timeResidual>
          <creationInfo>
            <agencyID>UW</agencyID>
            <creationTime>2012-03-08T15:15:47.000000Z</creationTime>
          </creationInfo>
        </arrival>
        <arrival publicID="quakeml:uw.anss.org/AssocArO/UW/10301123">
          <pickID>quakeml:uw.anss.org/Arrival/UW/10301123</pickID>
          <phase>P</phase>
          <azimuth>93.5</azimuth>
          <distance>1.544</distance>
          <timeResidual>1.66</timeResidual>
          <creationInfo>
            <agencyID>UW</agencyID>
            <creationTime>2012-03-08T15:15:47.000000Z</creationTime>
          </creationInfo>
        </arrival>
        <arrival publicID="quakeml:uw.anss.org/AssocArO/UW/10301128">
          <pickID>quakeml:uw.anss.org/Arrival/UW/10301128</pickID>
          <phase>P</phase>
          <azimuth>182.2</azimuth>
          <distance>0.7829</distance>
          <timeResidual>0.0</timeResidual>
          <creationInfo>
            <agencyID>UW</agencyID>
            <creationTime>2012-03-08T15:15:47.000000Z</creationTime>
          </creationInfo>
        </arrival>
        <arrival publicID="quakeml:uw.anss.org/AssocArO/UW/10301133">
          <pickID>quakeml:uw.anss.org/Arrival/UW/10301133</pickID>
          <phase>S</phase>
          <azimuth>182.2</azimuth>
          <distance>0.7829</distance>
          <timeResidual>-0.25</timeResidual>
          <creationInfo>
            <agencyID>UW</agencyID>
            <creationTime>2012-03-08T15:15:47.000000Z</creationTime>
          </creationInfo>
        </arrival>
        <arrival publicID="quakeml:uw.anss.org/AssocArO/UW/10301138">
          <pickID>quakeml:uw.anss.org/Arrival/UW/10301138</pickID>
          <phase>P</phase>
          <azimuth>331.2</azimuth>
          <distance>0.3516</distance>
          <timeResidual>-0.84</timeResidual>
          <creationInfo>
            <agencyID>UW</agencyID>
            <creationTime>2012-03-08T15:15:47.000000Z</creationTime>
          </creationInfo>
        </arrival>
        <arrival publicID="quakeml:uw.anss.org/AssocArO/UW/10301143">
          <pickID>quakeml:uw.anss.org/Arrival/UW/10301143</pickID>
          <phase>S</phase>
          <azimuth>331.2</azimuth>
          <distance>0.3516</distance>
          <timeResidual>-1.11</timeResidual>
          <creationInfo>
            <agencyID>UW</agencyID>
            <creationTime>2012-03-08T15:15:47.000000Z</creationTime>
          </creationInfo>
        </arrival>
        <arrival publicID="quakeml:uw.anss.org/AssocArO/UW/10301148">
          <pickID>quakeml:uw.anss.org/Arrival/UW/10301148</pickID>
          <phase>P</phase>
          <azimuth>116.5</azimuth>
          <distance>1.692</distance>
          <timeResidual>1.48</timeResidual>
          <creationInfo>
            <agencyID>UW</agencyID>
            <creationTime>2012-03-08T15:15:47.000000Z</creationTime>
          </creationInfo>
        </arrival>
        <arrival publicID="quakeml:uw.anss.org/AssocArO/UW/10301153">
          <pickID>quakeml:uw.anss.org/Arrival/UW/10301153</pickID>
          <phase>P</phase>
          <azimuth>192.5</azimuth>
          <distance>2.223</distance>
          <timeResidual>0.81</timeResidual>
          <creationInfo>
            <agencyID>UW</agencyID>
            <creationTime>2012-03-08T15:15:47.000000Z</creationTime>
          </creationInfo>
        </arrival>
        <arrival publicID="quakeml:uw.anss.org/AssocArO/UW/10301158">
          <pickID>quakeml:uw.anss.org/Arrival/UW/10301158</pickID>
          <phase>P</phase>
          <azimuth>213.9</azimuth>
          <timeResidual>0.02</timeResidual>
          <creationInfo>
            <agencyID>UW</agencyID>
            <creationTime>2012-03-08T15:15:47.000000Z</creationTime>
          </creationInfo>
        </arrival>
        <arrival publicID="quakeml:uw.anss.org/AssocArO/UW/10301163">
          <pickID>quakeml:uw.anss.org/Arrival/UW/10301163</pickID>
          <phase>P</phase>
          <azimuth>134.4</azimuth>
          <distance>1.239</distance>
          <timeResidual>0.09</timeResidual>
          <creationInfo>
            <agencyID>UW</agencyID>
            <creationTime>2012-03-08T15:15:47.000000Z</creationTime>
          </creationInfo>
        </arrival>
        <arrival publicID="quakeml:uw.anss.org/AssocArO/UW/10301168">
          <pickID>quakeml:uw.anss.org/Arrival/UW/10301168</pickID>
          <phase>P</phase>
          <azimuth>252.0</azimuth>
          <distance>1.312</distance>
          <timeResidual>0.64</timeResidual>
          <creationInfo>
            <agencyID>UW</agencyID>
            <creationTime>2012-03-08T15:15:47.000000Z</creationTime>
          </creationInfo>
        </arrival>
        <arrival publicID="quakeml:uw.anss.org/AssocArO/UW/10301173">
          <pickID>quakeml:uw.anss.org/Arrival/UW/10301173</pickID>
          <phase>P</phase>
          <azimuth>183.8</azimuth>
          <timeResidual>0.55</timeResidual>
          <creationInfo>
            <agencyID>UW</agencyID>
            <creationTime>2012-03-08T15:15:47.000000Z</creationTime>
          </creationInfo>
        </arrival>
        <arrival publicID="quakeml:uw.anss.org/AssocArO/UW/10301178">
          <pickID>quakeml:uw.anss.org/Arrival/UW/10301178</pickID>
          <phase>P</phase>
          <azimuth>242.6</azimuth>
          <distance>1.005</distance>
          <timeResidual>1.17</timeResidual>
          <creationInfo>
            <agencyID>UW</agencyID>
            <creationTime>2012-03-08T15:15:47.000000Z</creationTime>
          </creationInfo>
        </arrival>
        <arrival publicID="quakeml:uw.anss.org/AssocArO/UW/10301183">
          <pickID>quakeml:uw.anss.org/Arrival/UW/10301183</pickID>
          <phase>P</phase>
          <azimuth>226.3</azimuth>
          <distance>1.353</distance>
          <timeResidual>0.13</timeResidual>
          <creationInfo>
            <agencyID>UW</agencyID>
            <creationTime>2012-03-08T15:15:47.000000Z</creationTime>
          </creationInfo>
        </arrival>
        <arrival publicID="quakeml:uw.anss.org/AssocArO/UW/10301188">
          <pickID>quakeml:uw.anss.org/Arrival/UW/10301188</pickID>
          <phase>P</phase>
          <azimuth>136.6</azimuth>
          <distance>0.4929</distance>
          <timeResidual>-0.17</timeResidual>
          <creationInfo>
            <agencyID>UW</agencyID>
            <creationTime>2012-03-08T15:15:47.000000Z</creationTime>
          </creationInfo>
        </arrival>
        <arrival publicID="quakeml:uw.anss.org/AssocArO/UW/10301193">
          <pickID>quakeml:uw.anss.org/Arrival/UW/10301193</pickID>
          <phase>P</phase>
          <azimuth>68.4</azimuth>
          <distance>0.114</distance>
          <timeResidual>-0.13</timeResidual>
          <creationInfo>
            <agencyID>UW</agencyID>
            <creationTime>2012-03-08T15:15:47.000000Z</creationTime>
          </creationInfo>
        </arrival>
        <arrival publicID="quakeml:uw.anss.org/AssocArO/UW/10301198">
          <pickID>quakeml:uw.anss.org/Arrival/UW/10301198</pickID>
          <phase>S</phase>
          <azimuth>68.4</azimuth>
          <distance>0.114</distance>
          <timeResidual>0.14</timeResidual>
          <creationInfo>
            <agencyID>UW</agencyID>
            <creationTime>2012-03-08T15:15:47.000000Z</creationTime>
          </creationInfo>
        </arrival>
        <arrival publicID="quakeml:uw.anss.org/AssocArO/UW/10301203">
          <pickID>quakeml:uw.anss.org/Arrival/UW/10301203</pickID>
          <phase>S</phase>
          <azimuth>232.4</azimuth>
          <distance>1.077</distance>
          <timeResidual>0.81</timeResidual>
          <creationInfo>
            <agencyID>UW</agencyID>
            <creationTime>2012-03-08T15:15:47.000000Z</creationTime>
          </creationInfo>
        </arrival>
        <arrival publicID="quakeml:uw.anss.org/AssocArO/UW/10301208">
          <pickID>quakeml:uw.anss.org/Arrival/UW/10301208</pickID>
          <phase>P</phase>
          <azimuth>232.4</azimuth>
          <distance>1.077</distance>
          <timeResidual>0.63</timeResidual>
          <creationInfo>
            <agencyID>UW</agencyID>
            <creationTime>2012-03-08T15:15:47.000000Z</creationTime>
          </creationInfo>
        </arrival>
        <arrival publicID="quakeml:uw.anss.org/AssocArO/UW/10301213">
          <pickID>quakeml:uw.anss.org/Arrival/UW/10301213</pickID>
          <phase>P</phase>
          <azimuth>194.8</azimuth>
          <distance>1.54</distance>
          <timeResidual>0.19</timeResidual>
          <creationInfo>
            <agencyID>UW</agencyID>
            <creationTime>2012-03-08T15:15:47.000000Z</creationTime>
          </creationInfo>
        </arrival>
        <arrival publicID="quakeml:uw.anss.org/AssocArO/UW/10301218">
          <pickID>quakeml:uw.anss.org/Arrival/UW/10301218</pickID>
          <phase>P</phase>
          <azimuth>187.1</azimuth>
          <distance>0.6784</distance>
          <timeResidual>0.16</timeResidual>
          <creationInfo>
            <agencyID>UW</agencyID>
            <creationTime>2012-03-08T15:15:47.000000Z</creationTime>
          </creationInfo>
        </arrival>
        <arrival publicID="quakeml:uw.anss.org/AssocArO/UW/10301223">
          <pickID>quakeml:uw.anss.org/Arrival/UW/10301223</pickID>
          <phase>P</phase>
          <azimuth>202.2</azimuth>
          <distance>0.6917</distance>
          <timeResidual>0.65</timeResidual>
          <creationInfo>
            <agencyID>UW</agencyID>
            <creationTime>2012-03-08T15:15:47.000000Z</creationTime>
          </creationInfo>
        </arrival>
      </origin>
      <magnitude publicID="quakeml:uw.anss.org/Netmag/UW/2528538">
        <mag>
          <value>2.14</value>
          <uncertainty>0.121</uncertainty>
        </mag>
        <type>Ml</type>
        <originID>quakeml:uw.anss.org/Origin/UW/1096453</originID>
        <methodID>smi:uw.anss.org/magnitude/RichterMl2</methodID>
        <stationCount>22</stationCount>
        <azimuthalGap>149.4</azimuthalGap>
        <evaluationMode>automatic</evaluationMode>
        <evaluationStatus>preliminary</evaluationStatus>
        <stationMagnitudeContribution>
          <stationMagnitudeID>quakeml:uw.anss.org/AssocAmM/UW/9340408</stationMagnitudeID>
          <weight>0.0</weight>
          <residual>-0.74</residual>
        </stationMagnitudeContribution>
        <stationMagnitudeContribution>
