<?xml version='1.0' encoding='utf-8'?>
<q:quakeml xmlns="http://quakeml.org/xmlns/bed/1.2" xmlns:q="http://quakeml.org/xmlns/quakeml/1.2" xmlns:ns0="http://anss.org/xmlns/catalog/0.1">
  <eventParameters publicID="smi:local/82b06b38-589b-4d87-a3e1-44f29af57762">
    <event publicID="quakeml:uw.anss.org/Event/UW/10806463" ns0:datasource="uw" ns0:dataid="uw10806463" ns0:eventsource="uw" ns0:eventid="10806463">
      <preferredOriginID>quakeml:uw.anss.org/Origin/UW/1092073</preferredOriginID>
      <preferredMagnitudeID>quakeml:uw.anss.org/Netmag/UW/2526448</preferredMagnitudeID>
      <type>earthquake</type>
      <creationInfo>
        <agencyID>UW</agencyID>
        <creationTime>2016-11-28T23:43:49.000000Z</creationTime>
        <version>4</version>
      </creationInfo>
      <origin publicID="quakeml:uw.anss.org/Origin/UW/1092073" ns0:datasource="uw" ns0:dataid="uw10806463" ns0:eventsource="uw" ns0:eventid="10806463">
        <time>
          <value>2010-09-06T18:54:06.680000Z</value>
          <uncertainty>0.07</uncertainty>
        </time>
        <latitude>
          <value>48.8775</value>
          <uncertainty>0.5</uncertainty>
        </latitude>
        <longitude>
          <value>-121.9808333</value>
          <uncertainty>0.65</uncertainty>
        </longitude>
        <depth>
          <value>1129.0</value>
          <uncertainty>910.0</uncertainty>
        </depth>
        <depthType>from location</depthType>
        <timeFixed>false</timeFixed>
        <epicenterFixed>false</epicenterFixed>
        <methodID>smi:uw.anss.org/origin/spong</methodID>
        <quality>
          <associatedPhaseCount>36</associatedPhaseCount>
          <usedPhaseCount>27</usedPhaseCount>
          <associatedStationCount>28</associatedStationCount>
          <usedStationCount>0</usedStationCount>
          <standardError>0.25</standardError>
          <azimuthalGap>165.0</azimuthalGap>
        </quality>
        <type>hypocenter</type>
        <evaluationMode>manual</evaluationMode>
        <evaluationStatus>final</evaluationStatus>
        <creationInfo>
          <agencyID>UW</agencyID>
          <creationTime>2012-03-08T12:04:39.000000Z</creationTime>
        </creationInfo>
        <originUncertainty>
          <preferredDescription>horizontal uncertainty</preferredDescription>
          <horizontalUncertainty>820.0</horizontalUncertainty>
        </originUncertainty>
        <arrival publicID="quakeml:uw.anss.org/AssocArO/UW/10246943">
          <pickID>quakeml:uw.anss.org/Arrival/UW/10246943</pickID>
          <phase>P</phase>
          <azimuth>257.3</azimuth>
          <distance>0.9973</distance>
          <timeResidual>-0.26</timeResidual>
          <creationInfo>
            <agencyID>UW</agencyID>
            <creationTime>2012-03-08T12:04:39.000000Z</creationTime>
          </creationInfo>
        </arrival>
        <arrival publicID="quakeml:uw.anss.org/AssocArO/UW/10246948">
          <pickID>quakeml:uw.anss.org/Arrival/UW/10246948</pickID>
          <phase>S</phase>
          <azimuth>210.5</azimuth>
          <distance>1.233</distance>
          <timeResidual>-0.47</timeResidual>
          <creationInfo>
            <agencyID>UW</agencyID>
            <creationTime>2012-03-08T12:04:39.000000Z</creationTime>
          </creationInfo>
        </arrival>
        <arrival publicID="quakeml:uw.anss.org/AssocArO/UW/10246953">
          <pickID>quakeml:uw.anss.org/Arrival/UW/10246953</pickID>
          <phase>P</phase>
          <azimuth>222.9</azimuth>
          <distance>1.133</distance>
          <timeResidual>0.52</timeResidual>
          <creationInfo>
            <agencyID>UW</agencyID>
            <creationTime>2012-03-08T12:04:39.000000Z</creationTime>
          </creationInfo>
        </arrival>
        <arrival publicID="quakeml:uw.anss.org/AssocArO/UW/10246958">
          <pickID>quakeml:uw.anss.org/Arrival/UW/10246958</pickID>
          <phase>P</phase>
          <azimuth>191.5</azimuth>
          <distance>0.4637</distance>
          <timeResidual>-0.21</timeResidual>
          <creationInfo>
            <agencyID>UW</agencyID>
            <creationTime>2012-03-08T12:04:39.000000Z</creationTime>
          </creationInfo>
        </arrival>
        <arrival publicID="quakeml:uw.anss.org/AssocArO/UW/10246963">
          <pickID>quakeml:uw.anss.org/Arrival/UW/10246963</pickID>
          <phase>P</phase>
          <azimuth>137.4</azimuth>
          <distance>0.4872</distance>
          <timeResidual>0.09</timeResidual>
          <creationInfo>
            <agencyID>UW</agencyID>
            <creationTime>2012-03-08T12:04:39.000000Z</creationTime>
          </creationInfo>
        </arrival>
        <arrival publicID="quakeml:uw.anss.org/AssocArO/UW/10246968">
          <pickID>quakeml:uw.anss.org/Arrival/UW/10246968</pickID>
          <phase>S</phase>
          <azimuth>137.4</azimuth>
          <distance>0.4872</distance>
          <timeResidual>0.09</timeResidual>
          <creationInfo>
            <agencyID>UW</agencyID>
            <creationTime>2012-03-08T12:04:39.000000Z</creationTime>
          </creationInfo>
        </arrival>
        <arrival publicID="quakeml:uw.anss.org/AssocArO/UW/10246973">
          <pickID>quakeml:uw.anss.org/Arrival/UW/10246973</pickID>
          <phase>P</phase>
          <azimuth>257.3</azimuth>
          <distance>0.9998</distance>
          <timeResidual>0.36</timeResidual>
          <creationInfo>
            <agencyID>UW</agencyID>
            <creationTime>2012-03-08T12:04:39.000000Z</creationTime>
          </creationInfo>
        </arrival>
        <arrival publicID="quakeml:uw.anss.org/AssocArO/UW/10246978">
          <pickID>quakeml:uw.anss.org/Arrival/UW/10246978</pickID>
          <phase>P</phase>
          <azimuth>144.2</azimuth>
          <distance>0.5292</distance>
          <timeResidual>-0.17</timeResidual>
          <creationInfo>
            <agencyID>UW</agencyID>
            <creationTime>2012-03-08T12:04:39.000000Z</creationTime>
          </creationInfo>
        </arrival>
        <arrival publicID="quakeml:uw.anss.org/AssocArO/UW/10246983">
          <pickID>quakeml:uw.anss.org/Arrival/UW/10246983</pickID>
          <phase>S</phase>
          <azimuth>144.2</azimuth>
          <distance>0.5292</distance>
          <timeResidual>-0.43</timeResidual>
          <creationInfo>
            <agencyID>UW</agencyID>
            <creationTime>2012-03-08T12:04:39.000000Z</creationTime>
          </creationInfo>
        </arrival>
        <arrival publicID="quakeml:uw.anss.org/AssocArO/UW/10246988">
          <pickID>quakeml:uw.anss.org/Arrival/UW/10246988</pickID>
          <phase>P</phase>
          <azimuth>290.7</azimuth>
          <distance>0.1131</distance>
          <timeResidual>-0.29</timeResidual>
          <creationInfo>
            <agencyID>UW</agencyID>
            <creationTime>2012-03-08T12:04:40.000000Z</creationTime>
          </creationInfo>
        </arrival>
        <arrival publicID="quakeml:uw.anss.org/AssocArO/UW/10246993">
          <pickID>quakeml:uw.anss.org/Arrival/UW/10246993</pickID>
          <phase>P</phase>
          <azimuth>231.5</azimuth>
          <distance>1.304</distance>
          <timeResidual>-0.15</timeResidual>
          <creationInfo>
            <agencyID>UW</agencyID>
            <creationTime>2012-03-08T12:04:40.000000Z</creationTime>
          </creationInfo>
        </arrival>
        <arrival publicID="quakeml:uw.anss.org/AssocArO/UW/10246998">
          <pickID>quakeml:uw.anss.org/Arrival/UW/10246998</pickID>
          <phase>S</phase>
          <azimuth>231.5</azimuth>
          <distance>1.304</distance>
          <timeResidual>-1.08</timeResidual>
          <creationInfo>
            <agencyID>UW</agencyID>
            <creationTime>2012-03-08T12:04:40.000000Z</creationTime>
          </creationInfo>
        </arrival>
        <arrival publicID="quakeml:uw.anss.org/AssocArO/UW/10247003">
          <pickID>quakeml:uw.anss.org/Arrival/UW/10247003</pickID>
          <phase>P</phase>
          <azimuth>150.7</azimuth>
          <distance>0.1076</distance>
          <timeResidual>0.05</timeResidual>
          <creationInfo>
            <agencyID>UW</agencyID>
            <creationTime>2012-03-08T12:04:40.000000Z</creationTime>
          </creationInfo>
        </arrival>
        <arrival publicID="quakeml:uw.anss.org/AssocArO/UW/10247008">
          <pickID>quakeml:uw.anss.org/Arrival/UW/10247008</pickID>
          <phase>P</phase>
          <azimuth>177.0</azimuth>
          <timeResidual>0.27</timeResidual>
          <creationInfo>
            <agencyID>UW</agencyID>
            <creationTime>2012-03-08T12:04:40.000000Z</creationTime>
          </creationInfo>
        </arrival>
        <arrival publicID="quakeml:uw.anss.org/AssocArO/UW/10247013">
          <pickID>quakeml:uw.anss.org/Arrival/UW/10247013</pickID>
          <phase>S</phase>
          <azimuth>177.0</azimuth>
          <timeResidual>0.15</timeResidual>
          <creationInfo>
            <agencyID>UW</agencyID>
            <creationTime>2012-03-08T12:04:40.000000Z</creationTime>
          </creationInfo>
        </arrival>
        <arrival publicID="quakeml:uw.anss.org/AssocArO/UW/10247018">
          <pickID>quakeml:uw.anss.org/Arrival/UW/10247018</pickID>
          <phase>S</phase>
          <azimuth>231.5</azimuth>
          <distance>1.302</distance>
          <timeResidual>-1.14</timeResidual>
          <creationInfo>
            <agencyID>UW</agencyID>
            <creationTime>2012-03-08T12:04:40.000000Z</creationTime>
          </creationInfo>
        </arrival>
        <arrival publicID="quakeml:uw.anss.org/AssocArO/UW/10247023">
          <pickID>quakeml:uw.anss.org/Arrival/UW/10247023</pickID>
          <phase>P</phase>
          <azimuth>231.5</azimuth>
          <distance>1.302</distance>
          <timeResidual>-0.18</timeResidual>
          <creationInfo>
            <agencyID>UW</agencyID>
            <creationTime>2012-03-08T12:04:40.000000Z</creationTime>
          </creationInfo>
        </arrival>
        <arrival publicID="quakeml:uw.anss.org/AssocArO/UW/10247028">
          <pickID>quakeml:uw.anss.org/Arrival/UW/10247028</pickID>
          <phase>S</phase>
          <azimuth>231.5</azimuth>
          <distance>1.304</distance>
          <timeResidual>-1.2</timeResidual>
          <creationInfo>
            <agencyID>UW</agencyID>
            <creationTime>2012-03-08T12:04:40.000000Z</creationTime>
          </creationInfo>
        </arrival>
        <arrival publicID="quakeml:uw.anss.org/AssocArO/UW/10247033">
          <pickID>quakeml:uw.anss.org/Arrival/UW/10247033</pickID>
          <phase>P</phase>
          <azimuth>231.5</azimuth>
          <distance>1.304</distance>
          <timeResidual>-0.2</timeResidual>
          <creationInfo>
            <agencyID>UW</agencyID>
            <creationTime>2012-03-08T12:04:40.000000Z</creationTime>
          </creationInfo>
        </arrival>
        <arrival publicID="quakeml:uw.anss.org/AssocArO/UW/10247038">
          <pickID>quakeml:uw.anss.org/Arrival/UW/10247038</pickID>
          <phase>P</phase>
          <azimuth>231.6</azimuth>
          <distance>1.303</distance>
          <timeResidual>-0.18</timeResidual>
          <creationInfo>
            <agencyID>UW</agencyID>
            <creationTime>2012-03-08T12:04:40.000000Z</creationTime>
          </creationInfo>
        </arrival>
        <arrival publicID="quakeml:uw.anss.org/AssocArO/UW/10247043">
          <pickID>quakeml:uw.anss.org/Arrival/UW/10247043</pickID>
          <phase>S</phase>
          <azimuth>231.6</azimuth>
          <distance>1.303</distance>
          <timeResidual>-1.19</timeResidual>
          <creationInfo>
            <agencyID>UW</agencyID>
            <creationTime>2012-03-08T12:04:40.000000Z</creationTime>
          </creationInfo>
        </arrival>
        <arrival publicID="quakeml:uw.anss.org/AssocArO/UW/10247048">
          <pickID>quakeml:uw.anss.org/Arrival/UW/10247048</pickID>
          <phase>P</phase>
          <azimuth>144.0</azimuth>
          <distance>1.257</distance>
          <timeResidual>0.19</timeResidual>
          <creationInfo>
            <agencyID>UW</agencyID>
            <creationTime>2012-03-08T12:04:40.000000Z</creationTime>
          </creationInfo>
        </arrival>
        <arrival publicID="quakeml:uw.anss.org/AssocArO/UW/10247053">
          <pickID>quakeml:uw.anss.org/Arrival/UW/10247053</pickID>
          <phase>P</phase>
          <azimuth>300.7</azimuth>
          <distance>1.437</distance>
          <timeResidual>-0.13</timeResidual>
          <creationInfo>
            <agencyID>UW</agencyID>
            <creationTime>2012-03-08T12:04:40.000000Z</creationTime>
          </creationInfo>
        </arrival>
        <arrival publicID="quakeml:uw.anss.org/AssocArO/UW/10247058">
          <pickID>quakeml:uw.anss.org/Arrival/UW/10247058</pickID>
          <phase>P</phase>
          <azimuth>217.5</azimuth>
          <distance>1.093</distance>
          <timeResidual>0.54</timeResidual>
          <creationInfo>
            <agencyID>UW</agencyID>
            <creationTime>2012-03-08T12:04:40.000000Z</creationTime>
          </creationInfo>
        </arrival>
        <arrival publicID="quakeml:uw.anss.org/AssocArO/UW/10247063">
          <pickID>quakeml:uw.anss.org/Arrival/UW/10247063</pickID>
          <phase>P</phase>
          <azimuth>242.9</azimuth>
          <distance>1.005</distance>
          <timeResidual>0.41</timeResidual>
          <creationInfo>
            <agencyID>UW</agencyID>
            <creationTime>2012-03-08T12:04:40.000000Z</creationTime>
          </creationInfo>
        </arrival>
        <arrival publicID="quakeml:uw.anss.org/AssocArO/UW/10247068">
          <pickID>quakeml:uw.anss.org/Arrival/UW/10247068</pickID>
          <phase>P</phase>
          <azimuth>330.5</azimuth>
          <distance>0.1391</distance>
          <timeResidual>0.16</timeResidual>
          <creationInfo>
            <agencyID>UW</agencyID>
            <creationTime>2012-03-08T12:04:40.000000Z</creationTime>
          </creationInfo>
        </arrival>
        <arrival publicID="quakeml:uw.anss.org/AssocArO/UW/10247073">
          <pickID>quakeml:uw.anss.org/Arrival/UW/10247073</pickID>
          <phase>P</phase>
          <azimuth>143.4</azimuth>
          <distance>0.9446</distance>
          <timeResidual>0.14</timeResidual>
          <creationInfo>
            <agencyID>UW</agencyID>
            <creationTime>2012-03-08T12:04:40.000000Z</creationTime>
          </creationInfo>
        </arrival>
        <arrival publicID="quakeml:uw.anss.org/AssocArO/UW/10247078">
          <pickID>quakeml:uw.anss.org/Arrival/UW/10247078</pickID>
          <phase>P</phase>
          <azimuth>263.0</azimuth>
          <distance>0.794</distance>
          <timeResidual>0.19</timeResidual>
          <creationInfo>
            <agencyID>UW</agencyID>
            <creationTime>2012-03-08T12:04:40.000000Z</creationTime>
          </creationInfo>
        </arrival>
        <arrival publicID="quakeml:uw.anss.org/AssocArO/UW/10247083">
          <pickID>quakeml:uw.anss.org/Arrival/UW/10247083</pickID>
          <phase>S</phase>
          <azimuth>263.0</azimuth>
          <distance>0.794</distance>
          <timeResidual>-0.33</timeResidual>
          <creationInfo>
            <agencyID>UW</agencyID>
            <creationTime>2012-03-08T12:04:40.000000Z</creationTime>
          </creationInfo>
        </arrival>
        <arrival publicID="quakeml:uw.anss.org/AssocArO/UW/10247088">
          <pickID>quakeml:uw.anss.org/Arrival/UW/10247088</pickID>
          <phase>P</phase>
          <azimuth>210.5</azimuth>
          <distance>1.233</distance>
          <timeResidual>0.2</timeResidual>
          <creationInfo>
            <agencyID>UW</agencyID>
            <creationTime>2012-03-08T12:04:40.000000Z</creationTime>
          </creationInfo>
        </arrival>
        <arrival publicID="quakeml:uw.anss.org/AssocArO/UW/10247093">
          <pickID>quakeml:uw.anss.org/Arrival/UW/10247093</pickID>
          <phase>P</phase>
          <azimuth>172.4</azimuth>
          <distance>1.084</distance>
          <timeResidual>0.72</timeResidual>
          <creationInfo>
            <agencyID>UW</agencyID>
            <creationTime>2012-03-08T12:04:40.000000Z</creationTime>
          </creationInfo>
        </arrival>
        <arrival publicID="quakeml:uw.anss.org/AssocArO/UW/10247098">
          <pickID>quakeml:uw.anss.org/Arrival/UW/10247098</pickID>
          <phase>P</phase>
          <azimuth>331.7</azimuth>
          <distance>0.1691</distance>
          <timeResidual>-0.05</timeResidual>
          <creationInfo>
            <agencyID>UW</agencyID>
            <creationTime>2012-03-08T12:04:40.000000Z</creationTime>
          </creationInfo>
        </arrival>
        <arrival publicID="quakeml:uw.anss.org/AssocArO/UW/10247103">
          <pickID>quakeml:uw.anss.org/Arrival/UW/10247103</pickID>
          <phase>P</phase>
          <azimuth>221.8</azimuth>
          <distance>1.073</distance>
          <timeResidual>1.08</timeResidual>
          <creationInfo>
            <agencyID>UW</agencyID>
            <creationTime>2012-03-08T12:04:40.000000Z</creationTime>
          </creationInfo>
        </arrival>
        <arrival publicID="quakeml:uw.anss.org/AssocArO/UW/10247108">
          <pickID>quakeml:uw.anss.org/Arrival/UW/10247108</pickID>
          <phase>P</phase>
          <azimuth>250.8</azimuth>
          <distance>0.5974</distance>
          <timeResidual>0.09</timeResidual>
          <creationInfo>
            <agencyID>UW</agencyID>
            <creationTime>2012-03-08T12:04:40.000000Z</creationTime>
          </creationInfo>
        </arrival>
        <arrival publicID="quakeml:uw.anss.org/AssocArO/UW/10247113">
          <pickID>quakeml:uw.anss.org/Arrival/UW/10247113</pickID>
          <phase>P</phase>
          <azimuth>334.3</azimuth>
          <distance>1.393</distance>
          <timeResidual>-0.06</timeResidual>
          <creationInfo>
            <agencyID>UW</agencyID>
            <creationTime>2012-03-08T12:04:40.000000Z</creationTime>
          </creationInfo>
        </arrival>
        <arrival publicID="quakeml:uw.anss.org/AssocArO/UW/10247118">
          <pickID>quakeml:uw.anss.org/Arrival/UW/10247118</pickID>
          <phase>P</phase>
          <azimuth>181.9</azimuth>
          <distance>1.043</distance>
          <timeResidual>0.76</timeResidual>
          <creationInfo>
            <agencyID>UW</agencyID>
            <creationTime>2012-03-08T12:04:40.000000Z</creationTime>
          </creationInfo>
        </arrival>
      </origin>
      <magnitude publicID="quakeml:uw.anss.org/Netmag/UW/2526448">
        <mag>
          <value>2.46</value>
          <uncertainty>0.131</uncertainty>
        </mag>
        <type>Ml</type>
        <originID>quakeml:uw.anss.org/Origin/UW/1092073</originID>
        <methodID>smi:uw.anss.org/magnitude/RichterMl2</methodID>
        <stationCount>20</stationCount>
        <azimuthalGap>167.0</azimuthalGap>
        <evaluationMode>automatic</evaluationMode>
        <evaluationStatus>preliminary</evaluationStatus>
        <stationMagnitudeContribution>
          <stationMagnitudeID>quakeml:uw.anss.org/AssocAmM/UW/9309708</stationMagnitudeID>
          <weight>1.0</weight>
          <residual>-0.18</residual>
        </stationMagnitudeContribution>
        <stationMagnitudeContribution>
          <stationMagnitudeID>quakeml:uw.anss.org/AssocAmM/UW/9309833</stationMagnitudeID>
          <weight>1.0</weight>
          <residual>-0.15</residual>
        </stationMagnitudeContribution>
        <stationMagnitudeContribution>
          <stationMagnitudeID>quakeml:uw.anss.org/AssocAmM/UW/9309748</stationMagnitudeID>
          <weight>1.0</weight>
          <residual>-0.54</residual>
        </stationMagnitudeContribution>
