<?xml version='1.0' encoding='utf-8'?>
<q:quakeml xmlns="http://quakeml.org/xmlns/bed/1.2" xmlns:q="http://quakeml.org/xmlns/quakeml/1.2" xmlns:ns0="http://anss.org/xmlns/catalog/0.1">
  <eventParameters publicID="smi:local/b0ba17f1-6868-4797-b8a6-6807695b81c4">
    <event publicID="quakeml:uw.anss.org/Event/UW/10798463" ns0:datasource="uw" ns0:dataid="uw10798463" ns0:eventsource="uw" ns0:eventid="10798463">
      <preferredOriginID>quakeml:uw.anss.org/Origin/UW/1082873</preferredOriginID>
      <preferredMagnitudeID>quakeml:uw.anss.org/Netmag/UW/837638</preferredMagnitudeID>
      <type>earthquake</type>
      <creationInfo>
        <agencyID>UW</agencyID>
        <creationTime>2012-03-07T19:13:23.000000Z</creationTime>
        <version>3</version>
      </creationInfo>
      <origin publicID="quakeml:uw.anss.org/Origin/UW/1082873" ns0:datasource="uw" ns0:dataid="uw10798463" ns0:eventsource="uw" ns0:eventid="10798463">
        <time>
          <value>2010-06-06T01:16:36.360000Z</value>
          <uncertainty>0.16</uncertainty>
        </time>
        <latitude>
          <value>49.0558333</value>
          <uncertainty>0.84</uncertainty>
        </latitude>
        <longitude>
          <value>-122.247</value>
          <uncertainty>1.04</uncertainty>
        </longitude>
        <depth>
          <value>9106.0</value>
          <uncertainty>1560.0</uncertainty>
        </depth>
        <depthType>from location</depthType>
        <timeFixed>false</timeFixed>
        <epicenterFixed>false</epicenterFixed>
        <methodID>smi:uw.anss.org/origin/spong</methodID>
        <quality>
          <associatedPhaseCount>16</associatedPhaseCount>
          <usedPhaseCount>13</usedPhaseCount>
          <associatedStationCount>11</associatedStationCount>
          <usedStationCount>0</usedStationCount>
          <standardError>0.25</standardError>
          <azimuthalGap>252.0</azimuthalGap>
        </quality>
        <type>hypocenter</type>
        <evaluationMode>manual</evaluationMode>
        <evaluationStatus>final</evaluationStatus>
        <creationInfo>
          <agencyID>UW</agencyID>
          <creationTime>2012-03-07T19:13:23.000000Z</creationTime>
        </creationInfo>
        <originUncertainty>
          <preferredDescription>horizontal uncertainty</preferredDescription>
          <horizontalUncertainty>1337.0</horizontalUncertainty>
        </originUncertainty>
        <arrival publicID="quakeml:uw.anss.org/AssocArO/UW/10156388">
          <pickID>quakeml:uw.anss.org/Arrival/UW/10156388</pickID>
          <phase>P</phase>
          <azimuth>166.1</azimuth>
          <timeResidual>0.52</timeResidual>
          <creationInfo>
            <agencyID>UW</agencyID>
            <creationTime>2012-03-07T19:13:23.000000Z</creationTime>
          </creationInfo>
        </arrival>
        <arrival publicID="quakeml:uw.anss.org/AssocArO/UW/10156393">
          <pickID>quakeml:uw.anss.org/Arrival/UW/10156393</pickID>
          <phase>S</phase>
          <azimuth>220.2</azimuth>
          <distance>1.3</distance>
          <timeResidual>-1.03</timeResidual>
          <creationInfo>
            <agencyID>UW</agencyID>
            <creationTime>2012-03-07T19:13:23.000000Z</creationTime>
          </creationInfo>
        </arrival>
        <arrival publicID="quakeml:uw.anss.org/AssocArO/UW/10156398">
          <pickID>quakeml:uw.anss.org/Arrival/UW/10156398</pickID>
          <phase>P</phase>
          <azimuth>220.2</azimuth>
          <distance>1.3</distance>
          <timeResidual>-0.32</timeResidual>
          <creationInfo>
            <agencyID>UW</agencyID>
            <creationTime>2012-03-07T19:13:23.000000Z</creationTime>
          </creationInfo>
        </arrival>
        <arrival publicID="quakeml:uw.anss.org/AssocArO/UW/10156403">
          <pickID>quakeml:uw.anss.org/Arrival/UW/10156403</pickID>
          <phase>P</phase>
          <azimuth>220.3</azimuth>
          <distance>1.3</distance>
          <timeResidual>-0.36</timeResidual>
          <creationInfo>
            <agencyID>UW</agencyID>
            <creationTime>2012-03-07T19:13:23.000000Z</creationTime>
          </creationInfo>
        </arrival>
        <arrival publicID="quakeml:uw.anss.org/AssocArO/UW/10156408">
          <pickID>quakeml:uw.anss.org/Arrival/UW/10156408</pickID>
          <phase>S</phase>
          <azimuth>220.3</azimuth>
          <distance>1.3</distance>
          <timeResidual>-1.07</timeResidual>
          <creationInfo>
            <agencyID>UW</agencyID>
            <creationTime>2012-03-07T19:13:23.000000Z</creationTime>
          </creationInfo>
        </arrival>
        <arrival publicID="quakeml:uw.anss.org/AssocArO/UW/10156413">
          <pickID>quakeml:uw.anss.org/Arrival/UW/10156413</pickID>
          <phase>P</phase>
          <azimuth>153.4</azimuth>
          <distance>0.1559</distance>
          <timeResidual>-0.09</timeResidual>
          <creationInfo>
            <agencyID>UW</agencyID>
            <creationTime>2012-03-07T19:13:23.000000Z</creationTime>
          </creationInfo>
        </arrival>
        <arrival publicID="quakeml:uw.anss.org/AssocArO/UW/10156418">
          <pickID>quakeml:uw.anss.org/Arrival/UW/10156418</pickID>
          <phase>S</phase>
          <azimuth>153.4</azimuth>
          <distance>0.1559</distance>
          <timeResidual>0.07</timeResidual>
          <creationInfo>
            <agencyID>UW</agencyID>
            <creationTime>2012-03-07T19:13:23.000000Z</creationTime>
          </creationInfo>
        </arrival>
        <arrival publicID="quakeml:uw.anss.org/AssocArO/UW/10156423">
          <pickID>quakeml:uw.anss.org/Arrival/UW/10156423</pickID>
          <phase>P</phase>
          <azimuth>165.6</azimuth>
          <distance>1.293</distance>
          <timeResidual>1.1</timeResidual>
          <creationInfo>
            <agencyID>UW</agencyID>
            <creationTime>2012-03-07T19:13:23.000000Z</creationTime>
          </creationInfo>
        </arrival>
        <arrival publicID="quakeml:uw.anss.org/AssocArO/UW/10156428">
          <pickID>quakeml:uw.anss.org/Arrival/UW/10156428</pickID>
          <phase>P</phase>
          <azimuth>172.4</azimuth>
          <distance>0.6384</distance>
          <timeResidual>0.09</timeResidual>
          <creationInfo>
            <agencyID>UW</agencyID>
            <creationTime>2012-03-07T19:13:23.000000Z</creationTime>
          </creationInfo>
        </arrival>
        <arrival publicID="quakeml:uw.anss.org/AssocArO/UW/10156433">
          <pickID>quakeml:uw.anss.org/Arrival/UW/10156433</pickID>
          <phase>P</phase>
          <azimuth>210.4</azimuth>
          <distance>1.172</distance>
          <timeResidual>0.38</timeResidual>
          <creationInfo>
            <agencyID>UW</agencyID>
            <creationTime>2012-03-07T19:13:23.000000Z</creationTime>
          </creationInfo>
        </arrival>
        <arrival publicID="quakeml:uw.anss.org/AssocArO/UW/10156438">
          <pickID>quakeml:uw.anss.org/Arrival/UW/10156438</pickID>
          <phase>P</phase>
          <azimuth>118.4</azimuth>
          <distance>0.1211</distance>
          <timeResidual>-0.01</timeResidual>
          <creationInfo>
            <agencyID>UW</agencyID>
            <creationTime>2012-03-07T19:13:23.000000Z</creationTime>
          </creationInfo>
        </arrival>
        <arrival publicID="quakeml:uw.anss.org/AssocArO/UW/10156443">
          <pickID>quakeml:uw.anss.org/Arrival/UW/10156443</pickID>
          <phase>S</phase>
          <azimuth>118.4</azimuth>
          <distance>0.1211</distance>
          <timeResidual>0.0</timeResidual>
          <creationInfo>
            <agencyID>UW</agencyID>
            <creationTime>2012-03-07T19:13:23.000000Z</creationTime>
          </creationInfo>
        </arrival>
        <arrival publicID="quakeml:uw.anss.org/AssocArO/UW/10156448">
          <pickID>quakeml:uw.anss.org/Arrival/UW/10156448</pickID>
          <phase>P</phase>
          <azimuth>225.9</azimuth>
          <distance>0.5402</distance>
          <timeResidual>0.1</timeResidual>
          <creationInfo>
            <agencyID>UW</agencyID>
            <creationTime>2012-03-07T19:13:23.000000Z</creationTime>
          </creationInfo>
        </arrival>
        <arrival publicID="quakeml:uw.anss.org/AssocArO/UW/10156453">
          <pickID>quakeml:uw.anss.org/Arrival/UW/10156453</pickID>
          <phase>P</phase>
          <azimuth>140.0</azimuth>
          <distance>0.3553</distance>
          <timeResidual>-0.26</timeResidual>
          <creationInfo>
            <agencyID>UW</agencyID>
            <creationTime>2012-03-07T19:13:23.000000Z</creationTime>
          </creationInfo>
        </arrival>
        <arrival publicID="quakeml:uw.anss.org/AssocArO/UW/10156458">
          <pickID>quakeml:uw.anss.org/Arrival/UW/10156458</pickID>
          <phase>P</phase>
          <azimuth>118.3</azimuth>
          <distance>0.4272</distance>
          <timeResidual>0.21</timeResidual>
          <creationInfo>
            <agencyID>UW</agencyID>
            <creationTime>2012-03-07T19:13:23.000000Z</creationTime>
          </creationInfo>
        </arrival>
        <arrival publicID="quakeml:uw.anss.org/AssocArO/UW/10156463">
          <pickID>quakeml:uw.anss.org/Arrival/UW/10156463</pickID>
          <phase>S</phase>
          <azimuth>118.3</azimuth>
          <distance>0.4272</distance>
          <timeResidual>-0.1</timeResidual>
          <creationInfo>
            <agencyID>UW</agencyID>
            <creationTime>2012-03-07T19:13:23.000000Z</creationTime>
          </creationInfo>
        </arrival>
      </origin>
      <magnitude publicID="quakeml:uw.anss.org/Netmag/UW/837638">
        <mag>
          <value>1.2</value>
          <uncertainty>0.04</uncertainty>
        </mag>
        <type>Md</type>
        <originID>quakeml:uw.anss.org/Origin/UW/1082873</originID>
        <methodID>smi:uw.anss.org/magnitude/Crosson</methodID>
        <stationCount>4</stationCount>
        <evaluationMode>manual</evaluationMode>
        <evaluationStatus>final</evaluationStatus>
        <stationMagnitudeContribution>
          <stationMagnitudeID>quakeml:uw.anss.org/AssocCoM/UW/2317493</stationMagnitudeID>
          <weight>1.0</weight>
          <residual>0.18</residual>
        </stationMagnitudeContribution>
        <stationMagnitudeContribution>
          <stationMagnitudeID>quakeml:uw.anss.org/AssocCoM/UW/2317503</stationMagnitudeID>
          <weight>1.0</weight>
          <residual>-0.05</residual>
        </stationMagnitudeContribution>
        <stationMagnitudeContribution>
          <stationMagnitudeID>quakeml:uw.anss.org/AssocCoM/UW/2317508</stationMagnitudeID>
          <weight>1.0</weight>
          <residual>0.13</residual>
        </stationMagnitudeContribution>
        <stationMagnitudeContribution>
          <stationMagnitudeID>quakeml:uw.anss.org/AssocCoM/UW/2317498</stationMagnitudeID>
          <weight>1.0</weight>
          <residual>-0.43</residual>
        </stationMagnitudeContribution>
        <creationInfo>
          <agencyID>UW</agencyID>
          <creationTime>2012-03-07T19:13:23.000000Z</creationTime>
        </creationInfo>
      </magnitude>
      <stationMagnitude publicID="quakeml:uw.anss.org/AssocCoM/UW/2317493">
        <originID>quakeml:uw.anss.org/Origin/UW/1082873</originID>
        <mag>
          <value>1.38</value>
        </mag>
        <type>MD</type>
        <amplitudeID>quakeml:uw.anss.org/Coda/UW/2317493</amplitudeID>
        <waveformID networkCode="UW" stationCode="JCW" locationCode="" channelCode="EHZ"></waveformID>
      </stationMagnitude>
      <stationMagnitude publicID="quakeml:uw.anss.org/AssocCoM/UW/2317498">
        <originID>quakeml:uw.anss.org/Origin/UW/1082873</originID>
        <mag>
          <value>0.77</value>
        </mag>
        <type>MD</type>
        <amplitudeID>quakeml:uw.anss.org/Coda/UW/2317498</amplitudeID>
        <waveformID networkCode="UW" stationCode="PASS" locationCode="" channelCode="BHZ"></waveformID>
      </stationMagnitude>
      <stationMagnitude publicID="quakeml:uw.anss.org/AssocCoM/UW/2317503">
        <originID>quakeml:uw.anss.org/Origin/UW/1082873</originID>
        <mag>
          <value>1.15</value>
        </mag>
        <type>MD</type>
        <amplitudeID>quakeml:uw.anss.org/Coda/UW/2317503</amplitudeID>
        <waveformID networkCode="UW" stationCode="MBW" locationCode="" channelCode="EHZ"></waveformID>
      </stationMagnitude>
      <stationMagnitude publicID="quakeml:uw.anss.org/AssocCoM/UW/2317508">
        <originID>quakeml:uw.anss.org/Origin/UW/1082873</originID>
        <mag>
          <value>1.33</value>
        </mag>
        <type>MD</type>
        <amplitudeID>quakeml:uw.anss.org/Coda/UW/2317508</amplitudeID>
        <waveformID networkCode="UW" stationCode="SHUK" locationCode="" channelCode="BHZ"></waveformID>
      </stationMagnitude>
      <pick publicID="quakeml:uw.anss.org/Arrival/UW/10156388">
        <time>
          <value>2010-06-06T01:16:52.390000Z</value>
          <uncertainty>0.06</uncertainty>
        </time>
        <waveformID networkCode="UW" stationCode="JCW" locationCode="" channelCode="EHZ"></waveformID>
        <polarity>undecidable</polarity>
        <evaluationMode>manual</evaluationMode>
        <evaluationStatus>final</evaluationStatus>
        <creationInfo>
          <agencyID>UW</agencyID>
          <creationTime>2012-03-07T19:13:23.000000Z</creationTime>
        </creationInfo>
      </pick>
      <pick publicID="quakeml:uw.anss.org/Arrival/UW/10156393">
        <time>
          <value>2010-06-06T01:17:15.420000Z</value>
          <uncertainty>0.02</uncertainty>
        </time>
        <waveformID networkCode="PB" stationCode="B006" locationCode="" channelCode="EH2"></waveformID>
        <polarity>undecidable</polarity>
        <evaluationMode>manual</evaluationMode>
        <evaluationStatus>final</evaluationStatus>
        <creationInfo>
          <agencyID>UW</agencyID>
          <creationTime>2012-03-07T19:13:23.000000Z</creationTime>
        </creationInfo>
      </pick>
      <pick publicID="quakeml:uw.anss.org/Arrival/UW/10156398">
        <time>
          <value>2010-06-06T01:16:58.560000Z</value>
          <uncertainty>0.03</uncertainty>
        </time>
        <waveformID networkCode="PB" stationCode="B006" locationCode="" channelCode="EHZ"></waveformID>
        <polarity>undecidable</polarity>
        <evaluationMode>manual</evaluationMode>
        <evaluationStatus>final</evaluationStatus>
        <creationInfo>
          <agencyID>UW</agencyID>
          <creationTime>2012-03-07T19:13:23.000000Z</creationTime>
        </creationInfo>
      </pick>
      <pick publicID="quakeml:uw.anss.org/Arrival/UW/10156403">
        <time>
          <value>2010-06-06T01:16:58.550000Z</value>
          <uncertainty>0.02</uncertainty>
        </time>
        <waveformID networkCode="PB" stationCode="B005" locationCode="" channelCode="EHZ"></waveformID>
        <polarity>undecidable</polarity>
        <evaluationMode>manual</evaluationMode>
        <evaluationStatus>final</evaluationStatus>
        <creationInfo>
          <agencyID>UW</agencyID>
          <creationTime>2012-03-07T19:13:23.000000Z</creationTime>
        </creationInfo>
      </pick>
      <pick publicID="quakeml:uw.anss.org/Arrival/UW/10156408">
        <time>
          <value>2010-06-06T01:17:15.430000Z</value>
          <uncertainty>0.02</uncertainty>
        </time>
        <waveformID networkCode="PB" stationCode="B005" locationCode="" channelCode="EH1"></waveformID>
        <polarity>undecidable</polarity>
        <evaluationMode>manual</evaluationMode>
        <evaluationStatus>final</evaluationStatus>
        <creationInfo>
          <agencyID>UW</agencyID>
          <creationTime>2012-03-07T19:13:23.000000Z</creationTime>
        </creationInfo>
      </pick>
      <pick publicID="quakeml:uw.anss.org/Arrival/UW/10156413">
        <time>
          <value>2010-06-06T01:16:39.580000Z</value>
          <uncertainty>0.03</uncertainty>
        </time>
        <waveformID networkCode="UW" stationCode="MBKE" locationCode="" channelCode="ENZ"></waveformID>
        <polarity>undecidable</polarity>
        <evaluationMode>manual</evaluationMode>
        <evaluationStatus>final</evaluationStatus>
        <creationInfo>
          <agencyID>UW</agencyID>
          <creationTime>2012-03-07T19:13:23.000000Z</creationTime>
        </creationInfo>
      </pick>
      <pick publicID="quakeml:uw.anss.org/Arrival/UW/10156418">
        <time>
          <value>2010-06-06T01:16:42.330000Z</value>
          <uncertainty>0.02</uncertainty>
        </time>
        <waveformID networkCode="UW" stationCode="MBKE" locationCode="" channelCode="ENE"></waveformID>
        <polarity>undecidable</polarity>
        <evaluationMode>manual</evaluationMode>
        <evaluationStatus>final</evaluationStatus>
        <creationInfo>
          <agencyID>UW</agencyID>
          <creationTime>2012-03-07T19:13:23.000000Z</creationTime>
        </creationInfo>
      </pick>
      <pick publicID="quakeml:uw.anss.org/Arrival/UW/10156423">
        <time>
          <value>2010-06-06T01:16:59.880000Z</value>
          <uncertainty>0.05</uncertainty>
        </time>
        <waveformID networkCode="UW" stationCode="HTW" locationCode="" channelCode="EHZ"></waveformID>
        <polarity>undecidable</polarity>
        <evaluationMode>manual</evaluationMode>
        <evaluationStatus>final</evaluationStatus>
        <creationInfo>
          <agencyID>UW</agencyID>
          <creationTime>2012-03-07T19:13:23.000000Z</creationTime>
        </creationInfo>
      </pick>
      <pick publicID="quakeml:uw.anss.org/Arrival/UW/10156428">
        <time>
          <value>2010-06-06T01:16:48.130000Z</value>
          <uncertainty>0.09</uncertainty>
        </time>
        <waveformID networkCode="UW" stationCode="CMW" locationCode="" channelCode="EHZ"></waveformID>
        <polarity>undecidable</polarity>
        <evaluationMode>manual</evaluationMode>
        <evaluationStatus>final</evaluationStatus>
        <creationInfo>
          <agencyID>UW</agencyID>
          <creationTime>2012-03-07T19:13:23.000000Z</creationTime>
        </creationInfo>
      </pick>
      <pick publicID="quakeml:uw.anss.org/Arrival/UW/10156433">
        <time>
          <value>2010-06-06T01:16:57.110000Z</value>
          <uncertainty>0.04</uncertainty>
        </time>
        <waveformID networkCode="PB" stationCode="B001" locationCode="" channelCode="EHZ"></waveformID>
        <polarity>undecidable</polarity>
        <evaluationMode>manual</evaluationMode>
        <evaluationStatus>final</evaluationStatus>
        <creationInfo>
          <agencyID>UW</agencyID>
          <creationTime>2012-03-07T19:13:23.000000Z</creationTime>
        </creationInfo>
      </pick>
      <pick publicID="quakeml:uw.anss.org/Arrival/UW/10156438">
        <time>
          <value>2010-06-06T01:16:39.150000Z</value>
          <uncertainty>0.03</uncertainty>
        </time>
        <waveformID networkCode="UW" stationCode="PASS" locationCode="" channelCode="BHZ"></waveformID>
        <polarity>positive</polarity>
        <evaluationMode>manual</evaluationMode>
        <evaluationStatus>final</evaluationStatus>
        <creationInfo>
          <agencyID>UW</agencyID>
          <creationTime>2012-03-07T19:13:23.000000Z</creationTime>
        </creationInfo>
      </pick>
      <pick publicID="quakeml:uw.anss.org/Arrival/UW/10156443">
        <time>
          <value>2010-06-06T01:16:41.350000Z</value>
          <uncertainty>0.04</uncertainty>
        </time>
        <waveformID networkCode="UW" stationCode="PASS" locationCode="" channelCode="BHE"></waveformID>
        <polarity>undecidable</polarity>
        <evaluationMode>manual</evaluationMode>
        <evaluationStatus>final</evaluationStatus>
        <creationInfo>
          <agencyID>UW</agencyID>
