<?xml version='1.0' encoding='utf-8'?>
<q:quakeml xmlns="http://quakeml.org/xmlns/bed/1.2" xmlns:q="http://quakeml.org/xmlns/quakeml/1.2" xmlns:ns0="http://anss.org/xmlns/catalog/0.1">
  <eventParameters publicID="smi:local/23b9a337-2e62-4fce-881c-79776ed6818e">
    <event publicID="quakeml:uw.anss.org/Event/UW/60738461" ns0:datasource="uw" ns0:dataid="uw60738461" ns0:eventsource="uw" ns0:eventid="60738461">
      <preferredOriginID>quakeml:uw.anss.org/Origin/UW/1669948</preferredOriginID>
      <preferredMagnitudeID>quakeml:uw.anss.org/Netmag/UW/1415188</preferredMagnitudeID>
      <type>earthquake</type>
      <creationInfo>
        <agencyID>UW</agencyID>
        <creationTime>2014-04-08T16:05:05.000000Z</creationTime>
        <version>6</version>
      </creationInfo>
      <origin publicID="quakeml:uw.anss.org/Origin/UW/1669948" ns0:datasource="uw" ns0:dataid="uw60738461" ns0:eventsource="uw" ns0:eventid="60738461">
        <time>
          <value>2014-04-08T12:10:56.630000Z</value>
        </time>
        <latitude>
          <value>48.8403333</value>
        </latitude>
        <longitude>
          <value>-121.9665</value>
        </longitude>
        <depth>
          <value>13649.0</value>
          <uncertainty>2180.0</uncertainty>
        </depth>
        <depthType>operator assigned</depthType>
        <timeFixed>false</timeFixed>
        <epicenterFixed>false</epicenterFixed>
        <methodID>smi:uw.anss.org/origin/HYP2000</methodID>
        <quality>
          <associatedPhaseCount>5</associatedPhaseCount>
          <usedPhaseCount>5</usedPhaseCount>
          <associatedStationCount>3</associatedStationCount>
          <usedStationCount>3</usedStationCount>
          <standardError>0.15</standardError>
          <azimuthalGap>192.0</azimuthalGap>
          <secondaryAzimuthalGap>359.0</secondaryAzimuthalGap>
          <minimumDistance>0.07129</minimumDistance>
          <maximumDistance>0.2065</maximumDistance>
          <medianDistance>0.1764</medianDistance>
        </quality>
        <type>hypocenter</type>
        <evaluationMode>manual</evaluationMode>
        <evaluationStatus>final</evaluationStatus>
        <creationInfo>
          <agencyID>UW</agencyID>
          <creationTime>2014-04-08T16:05:03.000000Z</creationTime>
        </creationInfo>
        <originUncertainty>
          <preferredDescription>confidence ellipsoid</preferredDescription>
          <horizontalUncertainty>14380.0</horizontalUncertainty>
          <confidenceLevel>95.0</confidenceLevel>
          <confidenceEllipsoid>
            <semiMajorAxisLength>34704.0</semiMajorAxisLength>
            <semiMinorAxisLength>1392.0</semiMinorAxisLength>
            <semiIntermediateAxisLength>5616.0</semiIntermediateAxisLength>
            <majorAxisPlunge>6.0</majorAxisPlunge>
            <majorAxisAzimuth>62.0</majorAxisAzimuth>
            <majorAxisRotation>339.0</majorAxisRotation>
          </confidenceEllipsoid>
        </originUncertainty>
        <arrival publicID="quakeml:uw.anss.org/AssocArO/UW/12103533">
          <pickID>quakeml:uw.anss.org/Arrival/UW/12103533</pickID>
          <phase>P</phase>
          <timeCorrection>0.32</timeCorrection>
          <azimuth>142.6</azimuth>
          <distance>0.07129</distance>
          <takeoffAngle>
            <value>149.0</value>
          </takeoffAngle>
          <timeResidual>0.11</timeResidual>
          <timeWeight>0.12</timeWeight>
          <creationInfo>
            <agencyID>UW</agencyID>
            <creationTime>2014-04-08T16:05:05.000000Z</creationTime>
          </creationInfo>
        </arrival>
        <arrival publicID="quakeml:uw.anss.org/AssocArO/UW/12103538">
          <pickID>quakeml:uw.anss.org/Arrival/UW/12103538</pickID>
          <phase>S</phase>
          <timeCorrection>0.57</timeCorrection>
          <azimuth>142.6</azimuth>
          <distance>0.07129</distance>
          <takeoffAngle>
            <value>149.0</value>
          </takeoffAngle>
          <timeResidual>-0.14</timeResidual>
          <timeWeight>0.09</timeWeight>
          <creationInfo>
            <agencyID>UW</agencyID>
            <creationTime>2014-04-08T16:05:05.000000Z</creationTime>
          </creationInfo>
        </arrival>
        <arrival publicID="quakeml:uw.anss.org/AssocArO/UW/12103543">
          <pickID>quakeml:uw.anss.org/Arrival/UW/12103543</pickID>
          <phase>P</phase>
          <timeCorrection>0.0</timeCorrection>
          <azimuth>333.8</azimuth>
          <distance>0.1764</distance>
          <takeoffAngle>
            <value>122.0</value>
          </takeoffAngle>
          <timeResidual>0.09</timeResidual>
          <timeWeight>0.09</timeWeight>
          <creationInfo>
            <agencyID>UW</agencyID>
            <creationTime>2014-04-08T16:05:05.000000Z</creationTime>
          </creationInfo>
        </arrival>
        <arrival publicID="quakeml:uw.anss.org/AssocArO/UW/12103548">
          <pickID>quakeml:uw.anss.org/Arrival/UW/12103548</pickID>
          <phase>P</phase>
          <timeCorrection>0.0</timeCorrection>
          <azimuth>334.3</azimuth>
          <distance>0.2065</distance>
          <takeoffAngle>
            <value>117.0</value>
          </takeoffAngle>
          <timeResidual>-0.17</timeResidual>
          <timeWeight>0.12</timeWeight>
          <creationInfo>
            <agencyID>UW</agencyID>
            <creationTime>2014-04-08T16:05:05.000000Z</creationTime>
          </creationInfo>
        </arrival>
        <arrival publicID="quakeml:uw.anss.org/AssocArO/UW/12103553">
          <pickID>quakeml:uw.anss.org/Arrival/UW/12103553</pickID>
          <phase>S</phase>
          <timeCorrection>0.0</timeCorrection>
          <azimuth>334.3</azimuth>
          <distance>0.2065</distance>
          <takeoffAngle>
            <value>117.0</value>
          </takeoffAngle>
          <timeResidual>0.26</timeResidual>
          <timeWeight>0.06</timeWeight>
          <creationInfo>
            <agencyID>UW</agencyID>
            <creationTime>2014-04-08T16:05:05.000000Z</creationTime>
          </creationInfo>
        </arrival>
      </origin>
      <magnitude publicID="quakeml:uw.anss.org/Netmag/UW/1415188">
        <mag>
          <value>-0.15</value>
        </mag>
        <type>Md</type>
        <originID>quakeml:uw.anss.org/Origin/UW/1669948</originID>
        <methodID>smi:uw.anss.org/magnitude/HypoinvMd</methodID>
        <stationCount>1</stationCount>
        <azimuthalGap>360.0</azimuthalGap>
        <evaluationMode>manual</evaluationMode>
        <evaluationStatus>reviewed</evaluationStatus>
        <stationMagnitudeContribution>
          <stationMagnitudeID>quakeml:uw.anss.org/AssocCoM/UW/3389538</stationMagnitudeID>
          <weight>1.0</weight>
          <residual>0.0</residual>
        </stationMagnitudeContribution>
        <creationInfo>
          <agencyID>UW</agencyID>
          <creationTime>2014-04-08T16:05:05.000000Z</creationTime>
        </creationInfo>
      </magnitude>
      <stationMagnitude publicID="quakeml:uw.anss.org/AssocCoM/UW/3389538">
        <originID>quakeml:uw.anss.org/Origin/UW/1669948</originID>
        <mag>
          <value>-0.15</value>
        </mag>
        <type>MD</type>
        <amplitudeID>quakeml:uw.anss.org/Coda/UW/3389538</amplitudeID>
        <waveformID networkCode="UW" stationCode="MBW" locationCode="" channelCode="EHZ"></waveformID>
      </stationMagnitude>
      <pick publicID="quakeml:uw.anss.org/Arrival/UW/12103533">
        <time>
          <value>2014-04-08T12:10:59.730000Z</value>
          <uncertainty>0.03</uncertainty>
        </time>
        <waveformID networkCode="UW" stationCode="MBW" locationCode="" channelCode="EHZ"></waveformID>
        <onset>impulsive</onset>
        <polarity>positive</polarity>
        <evaluationMode>manual</evaluationMode>
        <evaluationStatus>reviewed</evaluationStatus>
        <creationInfo>
          <agencyID>UW</agencyID>
          <creationTime>2014-04-08T16:05:05.000000Z</creationTime>
        </creationInfo>
      </pick>
      <pick publicID="quakeml:uw.anss.org/Arrival/UW/12103538">
        <time>
          <value>2014-04-08T12:11:01.810000Z</value>
          <uncertainty>0.06</uncertainty>
        </time>
        <waveformID networkCode="UW" stationCode="MBW" locationCode="" channelCode="EHZ"></waveformID>
        <onset>impulsive</onset>
        <polarity>undecidable</polarity>
        <evaluationMode>manual</evaluationMode>
        <evaluationStatus>reviewed</evaluationStatus>
        <creationInfo>
          <agencyID>UW</agencyID>
          <creationTime>2014-04-08T16:05:05.000000Z</creationTime>
        </creationInfo>
      </pick>
      <pick publicID="quakeml:uw.anss.org/Arrival/UW/12103543">
        <time>
          <value>2014-04-08T12:11:00.650000Z</value>
          <uncertainty>0.06</uncertainty>
        </time>
        <waveformID networkCode="UW" stationCode="PASS" locationCode="" channelCode="ENZ"></waveformID>
        <onset>impulsive</onset>
        <polarity>undecidable</polarity>
        <evaluationMode>manual</evaluationMode>
        <evaluationStatus>reviewed</evaluationStatus>
        <creationInfo>
          <agencyID>UW</agencyID>
          <creationTime>2014-04-08T16:05:05.000000Z</creationTime>
        </creationInfo>
      </pick>
      <pick publicID="quakeml:uw.anss.org/Arrival/UW/12103548">
        <time>
          <value>2014-04-08T12:11:00.830000Z</value>
          <uncertainty>0.03</uncertainty>
        </time>
        <waveformID networkCode="CN" stationCode="VDB" locationCode="" channelCode="EHZ"></waveformID>
        <onset>impulsive</onset>
        <polarity>negative</polarity>
        <evaluationMode>manual</evaluationMode>
        <evaluationStatus>reviewed</evaluationStatus>
        <creationInfo>
          <agencyID>UW</agencyID>
          <creationTime>2014-04-08T16:05:05.000000Z</creationTime>
        </creationInfo>
      </pick>
      <pick publicID="quakeml:uw.anss.org/Arrival/UW/12103553">
        <time>
          <value>2014-04-08T12:11:04.670000Z</value>
          <uncertainty>0.15</uncertainty>
        </time>
        <waveformID networkCode="CN" stationCode="VDB" locationCode="" channelCode="EHZ"></waveformID>
        <onset>emergent</onset>
        <polarity>undecidable</polarity>
        <evaluationMode>manual</evaluationMode>
        <evaluationStatus>reviewed</evaluationStatus>
        <creationInfo>
          <agencyID>UW</agencyID>
          <creationTime>2014-04-08T16:05:05.000000Z</creationTime>
        </creationInfo>
      </pick>
      <amplitude publicID="quakeml:uw.anss.org/Coda/UW/3389538">
        <genericAmplitude>
          <value>3.2886</value>
        </genericAmplitude>
        <type>END</type>
        <category>duration</category>
        <unit>s</unit>
        <timeWindow>
          <reference>2014-04-08T12:10:59.730000Z</reference>
          <begin>0.0</begin>
          <end>2.0</end>
        </timeWindow>
        <waveformID networkCode="UW" stationCode="MBW" locationCode="" channelCode="EHZ"></waveformID>
        <magnitudeHint>MD</magnitudeHint>
        <evaluationMode>automatic</evaluationMode>
        <evaluationStatus>preliminary</evaluationStatus>
      </amplitude>
    </event>
  </eventParameters>
</q:quakeml>
