<?xml version='1.0' encoding='utf-8'?>
<q:quakeml xmlns="http://quakeml.org/xmlns/bed/1.2" xmlns:q="http://quakeml.org/xmlns/quakeml/1.2" xmlns:ns0="http://anss.org/xmlns/catalog/0.1">
  <eventParameters publicID="smi:local/d14eb322-a531-4634-964d-cb70de925948">
    <event publicID="quakeml:uw.anss.org/Event/UW/10240638" ns0:datasource="uw" ns0:dataid="uw10240638" ns0:eventsource="uw" ns0:eventid="10240638">
      <preferredOriginID>quakeml:uw.anss.org/Origin/UW/517583</preferredOriginID>
      <preferredMagnitudeID>quakeml:uw.anss.org/Netmag/UW/431303</preferredMagnitudeID>
      <type>earthquake</type>
      <creationInfo>
        <agencyID>UW</agencyID>
        <creationTime>2012-02-27T16:07:25.000000Z</creationTime>
        <version>2</version>
      </creationInfo>
      <origin publicID="quakeml:uw.anss.org/Origin/UW/517583" ns0:datasource="uw" ns0:dataid="uw10240638" ns0:eventsource="uw" ns0:eventid="10240638">
        <time>
          <value>1989-02-15T01:11:29.750000Z</value>
          <uncertainty>0.13</uncertainty>
        </time>
        <latitude>
          <value>48.4168333</value>
          <uncertainty>0.49</uncertainty>
        </latitude>
        <longitude>
          <value>-122.2186667</value>
          <uncertainty>0.66</uncertainty>
        </longitude>
        <depth>
          <value>-998.0</value>
          <uncertainty>1370.0</uncertainty>
        </depth>
        <depthType>from location</depthType>
        <timeFixed>false</timeFixed>
        <epicenterFixed>false</epicenterFixed>
        <methodID>smi:uw.anss.org/origin/spong</methodID>
        <quality>
          <associatedPhaseCount>83</associatedPhaseCount>
          <usedPhaseCount>28</usedPhaseCount>
          <associatedStationCount>58</associatedStationCount>
          <usedStationCount>0</usedStationCount>
          <standardError>0.38</standardError>
          <azimuthalGap>54.0</azimuthalGap>
        </quality>
        <type>hypocenter</type>
        <evaluationMode>manual</evaluationMode>
        <evaluationStatus>final</evaluationStatus>
        <creationInfo>
          <agencyID>UW</agencyID>
          <creationTime>2012-02-27T16:07:25.000000Z</creationTime>
        </creationInfo>
        <originUncertainty>
          <preferredDescription>horizontal uncertainty</preferredDescription>
          <horizontalUncertainty>822.0</horizontalUncertainty>
        </originUncertainty>
        <arrival publicID="quakeml:uw.anss.org/AssocArO/UW/3466508">
          <pickID>quakeml:uw.anss.org/Arrival/UW/3466508</pickID>
          <phase>P</phase>
          <azimuth>216.4</azimuth>
          <distance>0.9523</distance>
          <timeResidual>-0.41</timeResidual>
          <creationInfo>
            <agencyID>UW</agencyID>
            <creationTime>2012-02-27T16:07:25.000000Z</creationTime>
          </creationInfo>
        </arrival>
        <arrival publicID="quakeml:uw.anss.org/AssocArO/UW/3466513">
          <pickID>quakeml:uw.anss.org/Arrival/UW/3466513</pickID>
          <phase>S</phase>
          <azimuth>216.4</azimuth>
          <distance>0.9523</distance>
          <timeResidual>-0.37</timeResidual>
          <creationInfo>
            <agencyID>UW</agencyID>
            <creationTime>2012-02-27T16:07:25.000000Z</creationTime>
          </creationInfo>
        </arrival>
        <arrival publicID="quakeml:uw.anss.org/AssocArO/UW/3466518">
          <pickID>quakeml:uw.anss.org/Arrival/UW/3466518</pickID>
          <phase>P</phase>
          <azimuth>305.1</azimuth>
          <timeResidual>-0.62</timeResidual>
          <creationInfo>
            <agencyID>UW</agencyID>
            <creationTime>2012-02-27T16:07:25.000000Z</creationTime>
          </creationInfo>
        </arrival>
        <arrival publicID="quakeml:uw.anss.org/AssocArO/UW/3466523">
          <pickID>quakeml:uw.anss.org/Arrival/UW/3466523</pickID>
          <phase>S</phase>
          <azimuth>305.1</azimuth>
          <timeResidual>-1.86</timeResidual>
          <creationInfo>
            <agencyID>UW</agencyID>
            <creationTime>2012-02-27T16:07:25.000000Z</creationTime>
          </creationInfo>
        </arrival>
        <arrival publicID="quakeml:uw.anss.org/AssocArO/UW/3466533">
          <pickID>quakeml:uw.anss.org/Arrival/UW/3466533</pickID>
          <phase>P</phase>
          <azimuth>104.8</azimuth>
          <distance>1.302</distance>
          <timeResidual>1.24</timeResidual>
          <creationInfo>
            <agencyID>UW</agencyID>
            <creationTime>2012-02-27T16:07:25.000000Z</creationTime>
          </creationInfo>
        </arrival>
        <arrival publicID="quakeml:uw.anss.org/AssocArO/UW/3466543">
          <pickID>quakeml:uw.anss.org/Arrival/UW/3466543</pickID>
          <phase>P</phase>
          <azimuth>344.7</azimuth>
          <timeResidual>-0.06</timeResidual>
          <creationInfo>
            <agencyID>UW</agencyID>
            <creationTime>2012-02-27T16:07:25.000000Z</creationTime>
          </creationInfo>
        </arrival>
        <arrival publicID="quakeml:uw.anss.org/AssocArO/UW/3466548">
          <pickID>quakeml:uw.anss.org/Arrival/UW/3466548</pickID>
          <phase>P</phase>
          <azimuth>175.8</azimuth>
          <distance>1.932</distance>
          <timeResidual>0.19</timeResidual>
          <creationInfo>
            <agencyID>UW</agencyID>
            <creationTime>2012-02-27T16:07:25.000000Z</creationTime>
          </creationInfo>
        </arrival>
        <arrival publicID="quakeml:uw.anss.org/AssocArO/UW/3466558">
          <pickID>quakeml:uw.anss.org/Arrival/UW/3466558</pickID>
          <phase>P</phase>
          <azimuth>150.3</azimuth>
          <distance>1.931</distance>
          <timeResidual>0.62</timeResidual>
          <creationInfo>
            <agencyID>UW</agencyID>
            <creationTime>2012-02-27T16:07:25.000000Z</creationTime>
          </creationInfo>
        </arrival>
        <arrival publicID="quakeml:uw.anss.org/AssocArO/UW/3466568">
          <pickID>quakeml:uw.anss.org/Arrival/UW/3466568</pickID>
          <phase>S</phase>
          <azimuth>150.3</azimuth>
          <distance>1.931</distance>
          <timeResidual>0.36</timeResidual>
          <creationInfo>
            <agencyID>UW</agencyID>
            <creationTime>2012-02-27T16:07:25.000000Z</creationTime>
          </creationInfo>
        </arrival>
        <arrival publicID="quakeml:uw.anss.org/AssocArO/UW/3466578">
          <pickID>quakeml:uw.anss.org/Arrival/UW/3466578</pickID>
          <phase>P</phase>
          <azimuth>199.8</azimuth>
          <distance>2.061</distance>
          <timeResidual>0.78</timeResidual>
          <creationInfo>
            <agencyID>UW</agencyID>
            <creationTime>2012-02-27T16:07:25.000000Z</creationTime>
          </creationInfo>
        </arrival>
        <arrival publicID="quakeml:uw.anss.org/AssocArO/UW/3466583">
          <pickID>quakeml:uw.anss.org/Arrival/UW/3466583</pickID>
          <phase>P</phase>
          <timeResidual>0.18</timeResidual>
          <creationInfo>
            <agencyID>UW</agencyID>
            <creationTime>2012-02-27T16:07:25.000000Z</creationTime>
          </creationInfo>
        </arrival>
        <arrival publicID="quakeml:uw.anss.org/AssocArO/UW/3466588">
          <pickID>quakeml:uw.anss.org/Arrival/UW/3466588</pickID>
          <phase>P</phase>
          <azimuth>120.1</azimuth>
          <distance>2.059</distance>
          <timeResidual>2.22</timeResidual>
          <creationInfo>
            <agencyID>UW</agencyID>
            <creationTime>2012-02-27T16:07:25.000000Z</creationTime>
          </creationInfo>
        </arrival>
        <arrival publicID="quakeml:uw.anss.org/AssocArO/UW/3466593">
          <pickID>quakeml:uw.anss.org/Arrival/UW/3466593</pickID>
          <phase>P</phase>
          <azimuth>84.1</azimuth>
          <distance>0.06589</distance>
          <timeResidual>0.0</timeResidual>
          <creationInfo>
            <agencyID>UW</agencyID>
            <creationTime>2012-02-27T16:07:25.000000Z</creationTime>
          </creationInfo>
        </arrival>
        <arrival publicID="quakeml:uw.anss.org/AssocArO/UW/3466598">
          <pickID>quakeml:uw.anss.org/Arrival/UW/3466598</pickID>
          <phase>P</phase>
          <azimuth>179.5</azimuth>
          <distance>1.955</distance>
          <timeResidual>0.57</timeResidual>
          <creationInfo>
            <agencyID>UW</agencyID>
            <creationTime>2012-02-27T16:07:26.000000Z</creationTime>
          </creationInfo>
        </arrival>
        <arrival publicID="quakeml:uw.anss.org/AssocArO/UW/3466603">
          <pickID>quakeml:uw.anss.org/Arrival/UW/3466603</pickID>
          <phase>P</phase>
          <azimuth>166.7</azimuth>
          <timeResidual>0.22</timeResidual>
          <creationInfo>
            <agencyID>UW</agencyID>
            <creationTime>2012-02-27T16:07:26.000000Z</creationTime>
          </creationInfo>
        </arrival>
        <arrival publicID="quakeml:uw.anss.org/AssocArO/UW/3466608">
          <pickID>quakeml:uw.anss.org/Arrival/UW/3466608</pickID>
          <phase>P</phase>
          <timeResidual>-0.54</timeResidual>
          <creationInfo>
            <agencyID>UW</agencyID>
            <creationTime>2012-02-27T16:07:26.000000Z</creationTime>
          </creationInfo>
        </arrival>
        <arrival publicID="quakeml:uw.anss.org/AssocArO/UW/3466613">
          <pickID>quakeml:uw.anss.org/Arrival/UW/3466613</pickID>
          <phase>P</phase>
          <azimuth>173.5</azimuth>
          <distance>1.483</distance>
          <timeResidual>0.61</timeResidual>
          <creationInfo>
            <agencyID>UW</agencyID>
            <creationTime>2012-02-27T16:07:26.000000Z</creationTime>
          </creationInfo>
        </arrival>
        <arrival publicID="quakeml:uw.anss.org/AssocArO/UW/3466618">
          <pickID>quakeml:uw.anss.org/Arrival/UW/3466618</pickID>
          <phase>P</phase>
          <azimuth>170.4</azimuth>
          <distance>1.69</distance>
          <timeResidual>0.13</timeResidual>
          <creationInfo>
            <agencyID>UW</agencyID>
            <creationTime>2012-02-27T16:07:26.000000Z</creationTime>
          </creationInfo>
        </arrival>
        <arrival publicID="quakeml:uw.anss.org/AssocArO/UW/3466623">
          <pickID>quakeml:uw.anss.org/Arrival/UW/3466623</pickID>
          <phase>S</phase>
          <azimuth>170.4</azimuth>
          <distance>1.69</distance>
          <timeResidual>-0.96</timeResidual>
          <creationInfo>
            <agencyID>UW</agencyID>
            <creationTime>2012-02-27T16:07:26.000000Z</creationTime>
          </creationInfo>
        </arrival>
        <arrival publicID="quakeml:uw.anss.org/AssocArO/UW/3466628">
          <pickID>quakeml:uw.anss.org/Arrival/UW/3466628</pickID>
          <phase>P</phase>
          <timeResidual>0.27</timeResidual>
          <creationInfo>
            <agencyID>UW</agencyID>
            <creationTime>2012-02-27T16:07:26.000000Z</creationTime>
          </creationInfo>
        </arrival>
        <arrival publicID="quakeml:uw.anss.org/AssocArO/UW/3466633">
          <pickID>quakeml:uw.anss.org/Arrival/UW/3466633</pickID>
          <phase>P</phase>
          <azimuth>85.9</azimuth>
          <distance>0.4698</distance>
          <timeResidual>-0.24</timeResidual>
          <creationInfo>
            <agencyID>UW</agencyID>
            <creationTime>2012-02-27T16:07:26.000000Z</creationTime>
          </creationInfo>
        </arrival>
        <arrival publicID="quakeml:uw.anss.org/AssocArO/UW/3466638">
          <pickID>quakeml:uw.anss.org/Arrival/UW/3466638</pickID>
          <phase>S</phase>
          <azimuth>85.9</azimuth>
          <distance>0.4698</distance>
          <timeResidual>1.05</timeResidual>
          <creationInfo>
            <agencyID>UW</agencyID>
            <creationTime>2012-02-27T16:07:26.000000Z</creationTime>
          </creationInfo>
        </arrival>
        <arrival publicID="quakeml:uw.anss.org/AssocArO/UW/3466643">
          <pickID>quakeml:uw.anss.org/Arrival/UW/3466643</pickID>
          <phase>P</phase>
          <azimuth>167.3</azimuth>
          <distance>1.905</distance>
          <timeResidual>0.5</timeResidual>
          <creationInfo>
            <agencyID>UW</agencyID>
            <creationTime>2012-02-27T16:07:26.000000Z</creationTime>
          </creationInfo>
        </arrival>
        <arrival publicID="quakeml:uw.anss.org/AssocArO/UW/3466648">
          <pickID>quakeml:uw.anss.org/Arrival/UW/3466648</pickID>
          <phase>P</phase>
          <azimuth>164.8</azimuth>
          <distance>1.78</distance>
          <timeResidual>0.35</timeResidual>
          <creationInfo>
            <agencyID>UW</agencyID>
            <creationTime>2012-02-27T16:07:26.000000Z</creationTime>
          </creationInfo>
        </arrival>
        <arrival publicID="quakeml:uw.anss.org/AssocArO/UW/3466653">
          <pickID>quakeml:uw.anss.org/Arrival/UW/3466653</pickID>
          <phase>S</phase>
          <azimuth>164.8</azimuth>
          <distance>1.78</distance>
          <timeResidual>-0.72</timeResidual>
          <creationInfo>
            <agencyID>UW</agencyID>
            <creationTime>2012-02-27T16:07:26.000000Z</creationTime>
          </creationInfo>
        </arrival>
        <arrival publicID="quakeml:uw.anss.org/AssocArO/UW/3466658">
          <pickID>quakeml:uw.anss.org/Arrival/UW/3466658</pickID>
          <phase>P</phase>
          <azimuth>324.7</azimuth>
          <timeResidual>-0.66</timeResidual>
          <creationInfo>
            <agencyID>UW</agencyID>
            <creationTime>2012-02-27T16:07:26.000000Z</creationTime>
          </creationInfo>
        </arrival>
        <arrival publicID="quakeml:uw.anss.org/AssocArO/UW/3466663">
          <pickID>quakeml:uw.anss.org/Arrival/UW/3466663</pickID>
          <phase>P</phase>
          <azimuth>181.3</azimuth>
          <distance>0.8641</distance>
          <timeResidual>0.59</timeResidual>
          <creationInfo>
            <agencyID>UW</agencyID>
            <creationTime>2012-02-27T16:07:26.000000Z</creationTime>
          </creationInfo>
        </arrival>
        <arrival publicID="quakeml:uw.anss.org/AssocArO/UW/3466668">
          <pickID>quakeml:uw.anss.org/Arrival/UW/3466668</pickID>
          <phase>P</phase>
          <azimuth>178.5</azimuth>
          <distance>2.175</distance>
          <timeResidual>0.24</timeResidual>
          <creationInfo>
            <agencyID>UW</agencyID>
            <creationTime>2012-02-27T16:07:26.000000Z</creationTime>
          </creationInfo>
        </arrival>
        <arrival publicID="quakeml:uw.anss.org/AssocArO/UW/3466673">
          <pickID>quakeml:uw.anss.org/Arrival/UW/3466673</pickID>
          <phase>P</phase>
          <azimuth>143.0</azimuth>
          <distance>1.876</distance>
          <timeResidual>0.78</timeResidual>
          <creationInfo>
            <agencyID>UW</agencyID>
            <creationTime>2012-02-27T16:07:26.000000Z</creationTime>
          </creationInfo>
        </arrival>
        <arrival publicID="quakeml:uw.anss.org/AssocArO/UW/3466678">
          <pickID>quakeml:uw.anss.org/Arrival/UW/3466678</pickID>
          <phase>S</phase>
          <azimuth>143.0</azimuth>
          <distance>1.876</distance>
          <timeResidual>0.56</timeResidual>
          <creationInfo>
            <agencyID>UW</agencyID>
            <creationTime>2012-02-27T16:07:26.000000Z</creationTime>
          </creationInfo>
        </arrival>
        <arrival publicID="quakeml:uw.anss.org/AssocArO/UW/3466683">
          <pickID>quakeml:uw.anss.org/Arrival/UW/3466683</pickID>
          <phase>S</phase>
          <azimuth>184.6</azimuth>
          <timeResidual>4.76</timeResidual>
          <creationInfo>
            <agencyID>UW</agencyID>
            <creationTime>2012-02-27T16:07:26.000000Z</creationTime>
          </creationInfo>
        </arrival>
        <arrival publicID="quakeml:uw.anss.org/AssocArO/UW/3466688">
          <pickID>quakeml:uw.anss.org/Arrival/UW/3466688</pickID>
          <phase>S</phase>
          <azimuth>184.6</azimuth>
          <timeResidual>4.01</timeResidual>
          <creationInfo>
            <agencyID>UW</agencyID>
            <creationTime>2012-02-27T16:07:26.000000Z</creationTime>
          </creationInfo>
        </arrival>
        <arrival publicID="quakeml:uw.anss.org/AssocArO/UW/3466693">
          <pickID>quakeml:uw.anss.org/Arrival/UW/3466693</pickID>
          <phase>S</phase>
          <azimuth>184.6</azimuth>
          <timeResidual>2.6</timeResidual>
          <creationInfo>
            <agencyID>UW</agencyID>
            <creationTime>2012-02-27T16:07:26.000000Z</creationTime>
          </creationInfo>
        </arrival>
        <arrival publicID="quakeml:uw.anss.org/AssocArO/UW/3466698">
          <pickID>quakeml:uw.anss.org/Arrival/UW/3466698</pickID>
          <phase>P</phase>
          <azimuth>246.0</azimuth>
          <distance>0.2297</distance>
          <timeResidual>-0.22</timeResidual>
          <creationInfo>
            <agencyID>UW</agencyID>
            <creationTime>2012-02-27T16:07:26.000000Z</creationTime>
          </creationInfo>
        </arrival>
        <arrival publicID="quakeml:uw.anss.org/AssocArO/UW/3466703">
          <pickID>quakeml:uw.anss.org/Arrival/UW/3466703</pickID>
          <phase>S</phase>
          <azimuth>246.0</azimuth>
          <distance>0.2297</distance>
          <timeResidual>0.37</timeResidual>
          <creationInfo>
            <agencyID>UW</agencyID>
            <creationTime>2012-02-27T16:07:26.000000Z</creationTime>
          </creationInfo>
        </arrival>
        <arrival publicID="quakeml:uw.anss.org/AssocArO/UW/3466708">
          <pickID>quakeml:uw.anss.org/Arrival/UW/3466708</pickID>
          <phase>P</phase>
          <azimuth>239.4</azimuth>
          <distance>1.163</distance>
          <timeResidual>0.15</timeResidual>
          <creationInfo>
            <agencyID>UW</agencyID>
            <creationTime>2012-02-27T16:07:26.000000Z</creationTime>
          </creationInfo>
        </arrival>
        <arrival publicID="quakeml:uw.anss.org/AssocArO/UW/3466713">
          <pickID>quakeml:uw.anss.org/Arrival/UW/3466713</pickID>
          <phase>P</phase>
          <azimuth>332.6</azimuth>
          <timeResidual>-0.42</timeResidual>
          <creationInfo>
            <agencyID>UW</agencyID>
            <creationTime>2012-02-27T16:07:26.000000Z</creationTime>
          </creationInfo>
        </arrival>
        <arrival publicID="quakeml:uw.anss.org/AssocArO/UW/3466718">
          <pickID>quakeml:uw.anss.org/Arrival/UW/3466718</pickID>
          <phase>P</phase>
          <azimuth>180.1</azimuth>
          <distance>2.18</distance>
          <timeResidual>0.18</timeResidual>
          <creationInfo>
            <agencyID>UW</agencyID>
            <creationTime>2012-02-27T16:07:26.000000Z</creationTime>
          </creationInfo>
        </arrival>
        <arrival publicID="quakeml:uw.anss.org/AssocArO/UW/3466723">
          <pickID>quakeml:uw.anss.org/Arrival/UW/3466723</pickID>
          <phase>P</phase>
          <azimuth>182.3</azimuth>
          <distance>2.114</distance>
          <timeResidual>-0.23</timeResidual>
          <creationInfo>
            <agencyID>UW</agencyID>
            <creationTime>2012-02-27T16:07:26.000000Z</creationTime>
          </creationInfo>
        </arrival>
        <arrival publicID="quakeml:uw.anss.org/AssocArO/UW/3466728">
          <pickID>quakeml:uw.anss.org/Arrival/UW/3466728</pickID>
          <phase>P</phase>
          <azimuth>138.7</azimuth>
          <timeResidual>-0.33</timeResidual>
          <creationInfo>
            <agencyID>UW</agencyID>
            <creationTime>2012-02-27T16:07:26.000000Z</creationTime>
          </creationInfo>
        </arrival>
