<?xml version='1.0' encoding='utf-8'?>
<q:quakeml xmlns="http://quakeml.org/xmlns/bed/1.2" xmlns:q="http://quakeml.org/xmlns/quakeml/1.2" xmlns:ns0="http://anss.org/xmlns/catalog/0.1">
  <eventParameters publicID="smi:local/e4019902-af1a-467c-b54a-dd70662a632a">
    <event publicID="quakeml:uw.anss.org/Event/UW/10239713" ns0:datasource="uw" ns0:dataid="uw10239713" ns0:eventsource="uw" ns0:eventid="10239713">
      <preferredOriginID>quakeml:uw.anss.org/Origin/UW/516658</preferredOriginID>
      <preferredMagnitudeID>quakeml:uw.anss.org/Netmag/UW/430403</preferredMagnitudeID>
      <type>earthquake</type>
      <creationInfo>
        <agencyID>UW</agencyID>
        <creationTime>2012-02-27T16:05:44.000000Z</creationTime>
        <version>2</version>
      </creationInfo>
      <origin publicID="quakeml:uw.anss.org/Origin/UW/516658" ns0:datasource="uw" ns0:dataid="uw10239713" ns0:eventsource="uw" ns0:eventid="10239713">
        <time>
          <value>1989-03-06T07:57:06.740000Z</value>
          <uncertainty>0.11</uncertainty>
        </time>
        <latitude>
          <value>48.4258333</value>
          <uncertainty>0.47</uncertainty>
        </latitude>
        <longitude>
          <value>-122.225</value>
          <uncertainty>0.53</uncertainty>
        </longitude>
        <depth>
          <value>208.0</value>
          <uncertainty>1120.0</uncertainty>
        </depth>
        <depthType>from location</depthType>
        <timeFixed>false</timeFixed>
        <epicenterFixed>false</epicenterFixed>
        <methodID>smi:uw.anss.org/origin/spong</methodID>
        <quality>
          <associatedPhaseCount>49</associatedPhaseCount>
          <usedPhaseCount>24</usedPhaseCount>
          <associatedStationCount>34</associatedStationCount>
          <usedStationCount>0</usedStationCount>
          <standardError>0.27</standardError>
          <azimuthalGap>56.0</azimuthalGap>
        </quality>
        <type>hypocenter</type>
        <evaluationMode>manual</evaluationMode>
        <evaluationStatus>final</evaluationStatus>
        <creationInfo>
          <agencyID>UW</agencyID>
          <creationTime>2012-02-27T16:05:44.000000Z</creationTime>
        </creationInfo>
        <originUncertainty>
          <preferredDescription>horizontal uncertainty</preferredDescription>
          <horizontalUncertainty>708.0</horizontalUncertainty>
        </originUncertainty>
        <arrival publicID="quakeml:uw.anss.org/AssocArO/UW/3445043">
          <pickID>quakeml:uw.anss.org/Arrival/UW/3445043</pickID>
          <phase>P</phase>
          <azimuth>215.8</azimuth>
          <distance>0.9571</distance>
          <timeResidual>-0.43</timeResidual>
          <creationInfo>
            <agencyID>UW</agencyID>
            <creationTime>2012-02-27T16:05:44.000000Z</creationTime>
          </creationInfo>
        </arrival>
        <arrival publicID="quakeml:uw.anss.org/AssocArO/UW/3445053">
          <pickID>quakeml:uw.anss.org/Arrival/UW/3445053</pickID>
          <phase>S</phase>
          <azimuth>215.8</azimuth>
          <distance>0.9571</distance>
          <timeResidual>-0.64</timeResidual>
          <creationInfo>
            <agencyID>UW</agencyID>
            <creationTime>2012-02-27T16:05:44.000000Z</creationTime>
          </creationInfo>
        </arrival>
        <arrival publicID="quakeml:uw.anss.org/AssocArO/UW/3445063">
          <pickID>quakeml:uw.anss.org/Arrival/UW/3445063</pickID>
          <phase>P</phase>
          <azimuth>304.9</azimuth>
          <timeResidual>-0.83</timeResidual>
          <creationInfo>
            <agencyID>UW</agencyID>
            <creationTime>2012-02-27T16:05:44.000000Z</creationTime>
          </creationInfo>
        </arrival>
        <arrival publicID="quakeml:uw.anss.org/AssocArO/UW/3445068">
          <pickID>quakeml:uw.anss.org/Arrival/UW/3445068</pickID>
          <phase>S</phase>
          <azimuth>304.9</azimuth>
          <timeResidual>-1.76</timeResidual>
          <creationInfo>
            <agencyID>UW</agencyID>
            <creationTime>2012-02-27T16:05:44.000000Z</creationTime>
          </creationInfo>
        </arrival>
        <arrival publicID="quakeml:uw.anss.org/AssocArO/UW/3445073">
          <pickID>quakeml:uw.anss.org/Arrival/UW/3445073</pickID>
          <phase>P</phase>
          <azimuth>105.1</azimuth>
          <distance>1.308</distance>
          <timeResidual>1.34</timeResidual>
          <creationInfo>
            <agencyID>UW</agencyID>
            <creationTime>2012-02-27T16:05:44.000000Z</creationTime>
          </creationInfo>
        </arrival>
        <arrival publicID="quakeml:uw.anss.org/AssocArO/UW/3445078">
          <pickID>quakeml:uw.anss.org/Arrival/UW/3445078</pickID>
          <phase>P</phase>
          <azimuth>344.8</azimuth>
          <timeResidual>-0.1</timeResidual>
          <creationInfo>
            <agencyID>UW</agencyID>
            <creationTime>2012-02-27T16:05:44.000000Z</creationTime>
          </creationInfo>
        </arrival>
        <arrival publicID="quakeml:uw.anss.org/AssocArO/UW/3445083">
          <pickID>quakeml:uw.anss.org/Arrival/UW/3445083</pickID>
          <phase>S</phase>
          <azimuth>344.8</azimuth>
          <timeResidual>-0.72</timeResidual>
          <creationInfo>
            <agencyID>UW</agencyID>
            <creationTime>2012-02-27T16:05:44.000000Z</creationTime>
          </creationInfo>
        </arrival>
        <arrival publicID="quakeml:uw.anss.org/AssocArO/UW/3445088">
          <pickID>quakeml:uw.anss.org/Arrival/UW/3445088</pickID>
          <phase>P</phase>
          <timeResidual>0.33</timeResidual>
          <creationInfo>
            <agencyID>UW</agencyID>
            <creationTime>2012-02-27T16:05:44.000000Z</creationTime>
          </creationInfo>
        </arrival>
        <arrival publicID="quakeml:uw.anss.org/AssocArO/UW/3445093">
          <pickID>quakeml:uw.anss.org/Arrival/UW/3445093</pickID>
          <phase>P</phase>
          <azimuth>91.9</azimuth>
          <distance>0.0698</distance>
          <timeResidual>-0.09</timeResidual>
          <creationInfo>
            <agencyID>UW</agencyID>
            <creationTime>2012-02-27T16:05:44.000000Z</creationTime>
          </creationInfo>
        </arrival>
        <arrival publicID="quakeml:uw.anss.org/AssocArO/UW/3445098">
          <pickID>quakeml:uw.anss.org/Arrival/UW/3445098</pickID>
          <phase>S</phase>
          <azimuth>91.9</azimuth>
          <distance>0.0698</distance>
          <timeResidual>0.27</timeResidual>
          <creationInfo>
            <agencyID>UW</agencyID>
            <creationTime>2012-02-27T16:05:44.000000Z</creationTime>
          </creationInfo>
        </arrival>
        <arrival publicID="quakeml:uw.anss.org/AssocArO/UW/3445103">
          <pickID>quakeml:uw.anss.org/Arrival/UW/3445103</pickID>
          <phase>S</phase>
          <azimuth>166.6</azimuth>
          <timeResidual>0.68</timeResidual>
          <creationInfo>
            <agencyID>UW</agencyID>
            <creationTime>2012-02-27T16:05:44.000000Z</creationTime>
          </creationInfo>
        </arrival>
        <arrival publicID="quakeml:uw.anss.org/AssocArO/UW/3445108">
          <pickID>quakeml:uw.anss.org/Arrival/UW/3445108</pickID>
          <phase>P</phase>
          <azimuth>173.4</azimuth>
          <distance>1.492</distance>
          <timeResidual>0.16</timeResidual>
          <creationInfo>
            <agencyID>UW</agencyID>
            <creationTime>2012-02-27T16:05:44.000000Z</creationTime>
          </creationInfo>
        </arrival>
        <arrival publicID="quakeml:uw.anss.org/AssocArO/UW/3445113">
          <pickID>quakeml:uw.anss.org/Arrival/UW/3445113</pickID>
          <phase>P</phase>
          <timeResidual>0.16</timeResidual>
          <creationInfo>
            <agencyID>UW</agencyID>
            <creationTime>2012-02-27T16:05:44.000000Z</creationTime>
          </creationInfo>
        </arrival>
        <arrival publicID="quakeml:uw.anss.org/AssocArO/UW/3445118">
          <pickID>quakeml:uw.anss.org/Arrival/UW/3445118</pickID>
          <phase>S</phase>
          <timeResidual>-0.31</timeResidual>
          <creationInfo>
            <agencyID>UW</agencyID>
            <creationTime>2012-02-27T16:05:44.000000Z</creationTime>
          </creationInfo>
        </arrival>
        <arrival publicID="quakeml:uw.anss.org/AssocArO/UW/3445123">
          <pickID>quakeml:uw.anss.org/Arrival/UW/3445123</pickID>
          <phase>P</phase>
          <azimuth>87.0</azimuth>
          <distance>0.4734</distance>
          <timeResidual>-0.01</timeResidual>
          <creationInfo>
            <agencyID>UW</agencyID>
            <creationTime>2012-02-27T16:05:44.000000Z</creationTime>
          </creationInfo>
        </arrival>
        <arrival publicID="quakeml:uw.anss.org/AssocArO/UW/3445128">
          <pickID>quakeml:uw.anss.org/Arrival/UW/3445128</pickID>
          <phase>S</phase>
          <azimuth>87.0</azimuth>
          <distance>0.4734</distance>
          <timeResidual>0.51</timeResidual>
          <creationInfo>
            <agencyID>UW</agencyID>
            <creationTime>2012-02-27T16:05:44.000000Z</creationTime>
          </creationInfo>
        </arrival>
        <arrival publicID="quakeml:uw.anss.org/AssocArO/UW/3445133">
          <pickID>quakeml:uw.anss.org/Arrival/UW/3445133</pickID>
          <phase>P</phase>
          <azimuth>30.8</azimuth>
          <distance>0.4179</distance>
          <timeResidual>0.12</timeResidual>
          <creationInfo>
            <agencyID>UW</agencyID>
            <creationTime>2012-02-27T16:05:44.000000Z</creationTime>
          </creationInfo>
        </arrival>
        <arrival publicID="quakeml:uw.anss.org/AssocArO/UW/3445138">
          <pickID>quakeml:uw.anss.org/Arrival/UW/3445138</pickID>
          <phase>S</phase>
          <azimuth>30.8</azimuth>
          <distance>0.4179</distance>
          <timeResidual>1.12</timeResidual>
          <creationInfo>
            <agencyID>UW</agencyID>
            <creationTime>2012-02-27T16:05:44.000000Z</creationTime>
          </creationInfo>
        </arrival>
        <arrival publicID="quakeml:uw.anss.org/AssocArO/UW/3445143">
          <pickID>quakeml:uw.anss.org/Arrival/UW/3445143</pickID>
          <phase>P</phase>
          <azimuth>238.9</azimuth>
          <distance>1.164</distance>
          <timeResidual>0.64</timeResidual>
          <creationInfo>
            <agencyID>UW</agencyID>
            <creationTime>2012-02-27T16:05:44.000000Z</creationTime>
          </creationInfo>
        </arrival>
        <arrival publicID="quakeml:uw.anss.org/AssocArO/UW/3445148">
          <pickID>quakeml:uw.anss.org/Arrival/UW/3445148</pickID>
          <phase>P</phase>
          <azimuth>332.6</azimuth>
          <timeResidual>-0.39</timeResidual>
          <creationInfo>
            <agencyID>UW</agencyID>
            <creationTime>2012-02-27T16:05:44.000000Z</creationTime>
          </creationInfo>
        </arrival>
        <arrival publicID="quakeml:uw.anss.org/AssocArO/UW/3445153">
          <pickID>quakeml:uw.anss.org/Arrival/UW/3445153</pickID>
          <phase>P</phase>
          <azimuth>182.2</azimuth>
          <distance>2.122</distance>
          <timeResidual>0.23</timeResidual>
          <creationInfo>
            <agencyID>UW</agencyID>
            <creationTime>2012-02-27T16:05:44.000000Z</creationTime>
          </creationInfo>
        </arrival>
        <arrival publicID="quakeml:uw.anss.org/AssocArO/UW/3445158">
          <pickID>quakeml:uw.anss.org/Arrival/UW/3445158</pickID>
          <phase>P</phase>
          <azimuth>139.2</azimuth>
          <timeResidual>-0.39</timeResidual>
          <creationInfo>
            <agencyID>UW</agencyID>
            <creationTime>2012-02-27T16:05:44.000000Z</creationTime>
          </creationInfo>
        </arrival>
        <arrival publicID="quakeml:uw.anss.org/AssocArO/UW/3445163">
          <pickID>quakeml:uw.anss.org/Arrival/UW/3445163</pickID>
          <phase>S</phase>
          <azimuth>139.2</azimuth>
          <timeResidual>0.2</timeResidual>
          <creationInfo>
            <agencyID>UW</agencyID>
            <creationTime>2012-02-27T16:05:44.000000Z</creationTime>
          </creationInfo>
        </arrival>
        <arrival publicID="quakeml:uw.anss.org/AssocArO/UW/3445168">
          <pickID>quakeml:uw.anss.org/Arrival/UW/3445168</pickID>
          <phase>P</phase>
          <azimuth>143.0</azimuth>
          <distance>1.886</distance>
          <timeResidual>0.71</timeResidual>
          <creationInfo>
            <agencyID>UW</agencyID>
            <creationTime>2012-02-27T16:05:44.000000Z</creationTime>
          </creationInfo>
        </arrival>
        <arrival publicID="quakeml:uw.anss.org/AssocArO/UW/3445173">
          <pickID>quakeml:uw.anss.org/Arrival/UW/3445173</pickID>
          <phase>P</phase>
          <azimuth>165.7</azimuth>
          <timeResidual>0.12</timeResidual>
          <creationInfo>
            <agencyID>UW</agencyID>
            <creationTime>2012-02-27T16:05:44.000000Z</creationTime>
          </creationInfo>
        </arrival>
        <arrival publicID="quakeml:uw.anss.org/AssocArO/UW/3445178">
          <pickID>quakeml:uw.anss.org/Arrival/UW/3445178</pickID>
          <phase>S</phase>
          <azimuth>165.7</azimuth>
          <timeResidual>-0.14</timeResidual>
          <creationInfo>
            <agencyID>UW</agencyID>
            <creationTime>2012-02-27T16:05:44.000000Z</creationTime>
          </creationInfo>
        </arrival>
        <arrival publicID="quakeml:uw.anss.org/AssocArO/UW/3445183">
          <pickID>quakeml:uw.anss.org/Arrival/UW/3445183</pickID>
          <phase>P</phase>
          <azimuth>104.2</azimuth>
          <distance>1.699</distance>
          <timeResidual>1.39</timeResidual>
          <creationInfo>
            <agencyID>UW</agencyID>
            <creationTime>2012-02-27T16:05:44.000000Z</creationTime>
          </creationInfo>
        </arrival>
        <arrival publicID="quakeml:uw.anss.org/AssocArO/UW/3445188">
          <pickID>quakeml:uw.anss.org/Arrival/UW/3445188</pickID>
          <phase>P</phase>
          <timeResidual>-0.21</timeResidual>
          <creationInfo>
            <agencyID>UW</agencyID>
            <creationTime>2012-02-27T16:05:44.000000Z</creationTime>
          </creationInfo>
        </arrival>
        <arrival publicID="quakeml:uw.anss.org/AssocArO/UW/3445193">
          <pickID>quakeml:uw.anss.org/Arrival/UW/3445193</pickID>
          <phase>S</phase>
          <timeResidual>-0.74</timeResidual>
          <creationInfo>
            <agencyID>UW</agencyID>
            <creationTime>2012-02-27T16:05:44.000000Z</creationTime>
          </creationInfo>
        </arrival>
        <arrival publicID="quakeml:uw.anss.org/AssocArO/UW/3445198">
          <pickID>quakeml:uw.anss.org/Arrival/UW/3445198</pickID>
          <phase>P</phase>
          <azimuth>254.6</azimuth>
          <timeResidual>-0.3</timeResidual>
          <creationInfo>
            <agencyID>UW</agencyID>
            <creationTime>2012-02-27T16:05:44.000000Z</creationTime>
          </creationInfo>
        </arrival>
        <arrival publicID="quakeml:uw.anss.org/AssocArO/UW/3445203">
          <pickID>quakeml:uw.anss.org/Arrival/UW/3445203</pickID>
          <phase>S</phase>
          <azimuth>254.6</azimuth>
          <timeResidual>-1.1</timeResidual>
          <creationInfo>
            <agencyID>UW</agencyID>
            <creationTime>2012-02-27T16:05:44.000000Z</creationTime>
          </creationInfo>
        </arrival>
        <arrival publicID="quakeml:uw.anss.org/AssocArO/UW/3445208">
          <pickID>quakeml:uw.anss.org/Arrival/UW/3445208</pickID>
          <phase>P</phase>
          <timeResidual>-0.14</timeResidual>
          <creationInfo>
            <agencyID>UW</agencyID>
            <creationTime>2012-02-27T16:05:44.000000Z</creationTime>
          </creationInfo>
        </arrival>
        <arrival publicID="quakeml:uw.anss.org/AssocArO/UW/3445213">
          <pickID>quakeml:uw.anss.org/Arrival/UW/3445213</pickID>
          <phase>P</phase>
          <azimuth>114.8</azimuth>
          <distance>1.688</distance>
          <timeResidual>0.95</timeResidual>
          <creationInfo>
            <agencyID>UW</agencyID>
            <creationTime>2012-02-27T16:05:44.000000Z</creationTime>
          </creationInfo>
        </arrival>
        <arrival publicID="quakeml:uw.anss.org/AssocArO/UW/3445218">
          <pickID>quakeml:uw.anss.org/Arrival/UW/3445218</pickID>
          <phase>P</phase>
          <azimuth>203.4</azimuth>
          <distance>0.9565</distance>
          <timeResidual>-0.06</timeResidual>
          <creationInfo>
            <agencyID>UW</agencyID>
            <creationTime>2012-02-27T16:05:44.000000Z</creationTime>
          </creationInfo>
        </arrival>
        <arrival publicID="quakeml:uw.anss.org/AssocArO/UW/3445223">
          <pickID>quakeml:uw.anss.org/Arrival/UW/3445223</pickID>
          <phase>P</phase>
          <azimuth>163.7</azimuth>
          <distance>1.007</distance>
          <timeResidual>0.31</timeResidual>
          <creationInfo>
            <agencyID>UW</agencyID>
            <creationTime>2012-02-27T16:05:44.000000Z</creationTime>
          </creationInfo>
        </arrival>
        <arrival publicID="quakeml:uw.anss.org/AssocArO/UW/3445228">
          <pickID>quakeml:uw.anss.org/Arrival/UW/3445228</pickID>
          <phase>P</phase>
          <azimuth>243.5</azimuth>
          <distance>0.2297</distance>
          <timeResidual>-0.36</timeResidual>
          <creationInfo>
            <agencyID>UW</agencyID>
            <creationTime>2012-02-27T16:05:44.000000Z</creationTime>
          </creationInfo>
        </arrival>
        <arrival publicID="quakeml:uw.anss.org/AssocArO/UW/3445233">
          <pickID>quakeml:uw.anss.org/Arrival/UW/3445233</pickID>
          <phase>S</phase>
          <azimuth>243.5</azimuth>
          <distance>0.2297</distance>
          <timeResidual>0.05</timeResidual>
          <creationInfo>
            <agencyID>UW</agencyID>
            <creationTime>2012-02-27T16:05:44.000000Z</creationTime>
          </creationInfo>
        </arrival>
        <arrival publicID="quakeml:uw.anss.org/AssocArO/UW/3445238">
          <pickID>quakeml:uw.anss.org/Arrival/UW/3445238</pickID>
          <phase>P</phase>
          <timeResidual>0.26</timeResidual>
          <creationInfo>
            <agencyID>UW</agencyID>
            <creationTime>2012-02-27T16:05:44.000000Z</creationTime>
          </creationInfo>
        </arrival>
        <arrival publicID="quakeml:uw.anss.org/AssocArO/UW/3445243">
          <pickID>quakeml:uw.anss.org/Arrival/UW/3445243</pickID>
          <phase>P</phase>
          <azimuth>181.5</azimuth>
          <distance>1.76</distance>
          <timeResidual>0.17</timeResidual>
          <creationInfo>
            <agencyID>UW</agencyID>
            <creationTime>2012-02-27T16:05:44.000000Z</creationTime>
          </creationInfo>
        </arrival>
        <arrival publicID="quakeml:uw.anss.org/AssocArO/UW/3445248">
          <pickID>quakeml:uw.anss.org/Arrival/UW/3445248</pickID>
          <phase>P</phase>
          <azimuth>153.7</azimuth>
          <distance>0.6935</distance>
          <timeResidual>-0.09</timeResidual>
          <creationInfo>
            <agencyID>UW</agencyID>
            <creationTime>2012-02-27T16:05:44.000000Z</creationTime>
          </creationInfo>
        </arrival>
        <arrival publicID="quakeml:uw.anss.org/AssocArO/UW/3445253">
          <pickID>quakeml:uw.anss.org/Arrival/UW/3445253</pickID>
          <phase>S</phase>
          <azimuth>153.7</azimuth>
          <distance>0.6935</distance>
          <timeResidual>0.15</timeResidual>
          <creationInfo>
            <agencyID>UW</agencyID>
