<?xml version='1.0' encoding='utf-8'?>
<q:quakeml xmlns="http://quakeml.org/xmlns/bed/1.2" xmlns:q="http://quakeml.org/xmlns/quakeml/1.2" xmlns:ns0="http://anss.org/xmlns/catalog/0.1">
  <eventParameters publicID="smi:local/4e6b9601-007c-4306-adee-a28f67616a17">
    <event publicID="quakeml:uw.anss.org/Event/UW/10240998" ns0:datasource="uw" ns0:dataid="uw10240998" ns0:eventsource="uw" ns0:eventid="10240998">
      <preferredOriginID>quakeml:uw.anss.org/Origin/UW/517943</preferredOriginID>
      <preferredMagnitudeID>quakeml:uw.anss.org/Netmag/UW/431658</preferredMagnitudeID>
      <type>earthquake</type>
      <creationInfo>
        <agencyID>UW</agencyID>
        <creationTime>2012-02-27T16:08:13.000000Z</creationTime>
        <version>2</version>
      </creationInfo>
      <origin publicID="quakeml:uw.anss.org/Origin/UW/517943" ns0:datasource="uw" ns0:dataid="uw10240998" ns0:eventsource="uw" ns0:eventid="10240998">
        <time>
          <value>1989-02-16T20:59:30.750000Z</value>
          <uncertainty>0.01</uncertainty>
        </time>
        <latitude>
          <value>48.423</value>
          <uncertainty>0.04</uncertainty>
        </latitude>
        <longitude>
          <value>-122.2203333</value>
          <uncertainty>0.06</uncertainty>
        </longitude>
        <depth>
          <value>-882.0</value>
          <uncertainty>120.0</uncertainty>
        </depth>
        <depthType>operator assigned</depthType>
        <timeFixed>false</timeFixed>
        <epicenterFixed>false</epicenterFixed>
        <methodID>smi:uw.anss.org/origin/spong</methodID>
        <quality>
          <associatedPhaseCount>72</associatedPhaseCount>
          <usedPhaseCount>25</usedPhaseCount>
          <associatedStationCount>50</associatedStationCount>
          <usedStationCount>0</usedStationCount>
          <standardError>0.27</standardError>
          <azimuthalGap>56.0</azimuthalGap>
        </quality>
        <type>hypocenter</type>
        <evaluationMode>manual</evaluationMode>
        <evaluationStatus>final</evaluationStatus>
        <creationInfo>
          <agencyID>UW</agencyID>
          <creationTime>2012-02-27T16:08:13.000000Z</creationTime>
        </creationInfo>
        <originUncertainty>
          <preferredDescription>horizontal uncertainty</preferredDescription>
          <horizontalUncertainty>72.0</horizontalUncertainty>
        </originUncertainty>
        <arrival publicID="quakeml:uw.anss.org/AssocArO/UW/3476408">
          <pickID>quakeml:uw.anss.org/Arrival/UW/3476408</pickID>
          <phase>P</phase>
          <azimuth>216.1</azimuth>
          <distance>0.9566</distance>
          <timeResidual>-0.36</timeResidual>
          <creationInfo>
            <agencyID>UW</agencyID>
            <creationTime>2012-02-27T16:08:13.000000Z</creationTime>
          </creationInfo>
        </arrival>
        <arrival publicID="quakeml:uw.anss.org/AssocArO/UW/3476413">
          <pickID>quakeml:uw.anss.org/Arrival/UW/3476413</pickID>
          <phase>S</phase>
          <azimuth>216.1</azimuth>
          <distance>0.9566</distance>
          <timeResidual>-0.16</timeResidual>
          <creationInfo>
            <agencyID>UW</agencyID>
            <creationTime>2012-02-27T16:08:13.000000Z</creationTime>
          </creationInfo>
        </arrival>
        <arrival publicID="quakeml:uw.anss.org/AssocArO/UW/3476423">
          <pickID>quakeml:uw.anss.org/Arrival/UW/3476423</pickID>
          <phase>P</phase>
          <azimuth>304.9</azimuth>
          <timeResidual>-0.46</timeResidual>
          <creationInfo>
            <agencyID>UW</agencyID>
            <creationTime>2012-02-27T16:08:13.000000Z</creationTime>
          </creationInfo>
        </arrival>
        <arrival publicID="quakeml:uw.anss.org/AssocArO/UW/3476433">
          <pickID>quakeml:uw.anss.org/Arrival/UW/3476433</pickID>
          <phase>S</phase>
          <azimuth>304.9</azimuth>
          <timeResidual>-1.71</timeResidual>
          <creationInfo>
            <agencyID>UW</agencyID>
            <creationTime>2012-02-27T16:08:13.000000Z</creationTime>
          </creationInfo>
        </arrival>
        <arrival publicID="quakeml:uw.anss.org/AssocArO/UW/3476443">
          <pickID>quakeml:uw.anss.org/Arrival/UW/3476443</pickID>
          <phase>P</phase>
          <azimuth>105.1</azimuth>
          <distance>1.305</distance>
          <timeResidual>1.43</timeResidual>
          <creationInfo>
            <agencyID>UW</agencyID>
            <creationTime>2012-02-27T16:08:13.000000Z</creationTime>
          </creationInfo>
        </arrival>
        <arrival publicID="quakeml:uw.anss.org/AssocArO/UW/3476448">
          <pickID>quakeml:uw.anss.org/Arrival/UW/3476448</pickID>
          <phase>S</phase>
          <azimuth>105.1</azimuth>
          <distance>1.305</distance>
          <timeResidual>1.12</timeResidual>
          <creationInfo>
            <agencyID>UW</agencyID>
            <creationTime>2012-02-27T16:08:13.000000Z</creationTime>
          </creationInfo>
        </arrival>
        <arrival publicID="quakeml:uw.anss.org/AssocArO/UW/3476453">
          <pickID>quakeml:uw.anss.org/Arrival/UW/3476453</pickID>
          <phase>P</phase>
          <azimuth>344.6</azimuth>
          <timeResidual>0.15</timeResidual>
          <creationInfo>
            <agencyID>UW</agencyID>
            <creationTime>2012-02-27T16:08:13.000000Z</creationTime>
          </creationInfo>
        </arrival>
        <arrival publicID="quakeml:uw.anss.org/AssocArO/UW/3476458">
          <pickID>quakeml:uw.anss.org/Arrival/UW/3476458</pickID>
          <phase>S</phase>
          <azimuth>344.6</azimuth>
          <timeResidual>0.16</timeResidual>
          <creationInfo>
            <agencyID>UW</agencyID>
            <creationTime>2012-02-27T16:08:13.000000Z</creationTime>
          </creationInfo>
        </arrival>
        <arrival publicID="quakeml:uw.anss.org/AssocArO/UW/3476463">
          <pickID>quakeml:uw.anss.org/Arrival/UW/3476463</pickID>
          <phase>P</phase>
          <azimuth>175.8</azimuth>
          <distance>1.938</distance>
          <timeResidual>0.61</timeResidual>
          <creationInfo>
            <agencyID>UW</agencyID>
            <creationTime>2012-02-27T16:08:13.000000Z</creationTime>
          </creationInfo>
        </arrival>
        <arrival publicID="quakeml:uw.anss.org/AssocArO/UW/3476468">
          <pickID>quakeml:uw.anss.org/Arrival/UW/3476468</pickID>
          <phase>P</phase>
          <azimuth>150.4</azimuth>
          <distance>1.937</distance>
          <timeResidual>0.98</timeResidual>
          <creationInfo>
            <agencyID>UW</agencyID>
            <creationTime>2012-02-27T16:08:13.000000Z</creationTime>
          </creationInfo>
        </arrival>
        <arrival publicID="quakeml:uw.anss.org/AssocArO/UW/3476473">
          <pickID>quakeml:uw.anss.org/Arrival/UW/3476473</pickID>
          <phase>P</phase>
          <azimuth>214.8</azimuth>
          <distance>1.339</distance>
          <timeResidual>2.09</timeResidual>
          <creationInfo>
            <agencyID>UW</agencyID>
            <creationTime>2012-02-27T16:08:13.000000Z</creationTime>
          </creationInfo>
        </arrival>
        <arrival publicID="quakeml:uw.anss.org/AssocArO/UW/3476478">
          <pickID>quakeml:uw.anss.org/Arrival/UW/3476478</pickID>
          <phase>P</phase>
          <azimuth>185.7</azimuth>
          <distance>1.998</distance>
          <timeResidual>1.14</timeResidual>
          <creationInfo>
            <agencyID>UW</agencyID>
            <creationTime>2012-02-27T16:08:13.000000Z</creationTime>
          </creationInfo>
        </arrival>
        <arrival publicID="quakeml:uw.anss.org/AssocArO/UW/3476483">
          <pickID>quakeml:uw.anss.org/Arrival/UW/3476483</pickID>
          <phase>P</phase>
          <timeResidual>0.35</timeResidual>
          <creationInfo>
            <agencyID>UW</agencyID>
            <creationTime>2012-02-27T16:08:13.000000Z</creationTime>
          </creationInfo>
        </arrival>
        <arrival publicID="quakeml:uw.anss.org/AssocArO/UW/3476488">
          <pickID>quakeml:uw.anss.org/Arrival/UW/3476488</pickID>
          <phase>P</phase>
          <azimuth>144.3</azimuth>
          <distance>1.576</distance>
          <timeResidual>1.32</timeResidual>
          <creationInfo>
            <agencyID>UW</agencyID>
            <creationTime>2012-02-27T16:08:13.000000Z</creationTime>
          </creationInfo>
        </arrival>
        <arrival publicID="quakeml:uw.anss.org/AssocArO/UW/3476493">
          <pickID>quakeml:uw.anss.org/Arrival/UW/3476493</pickID>
          <phase>P</phase>
          <azimuth>120.3</azimuth>
          <distance>2.063</distance>
          <timeResidual>2.15</timeResidual>
          <creationInfo>
            <agencyID>UW</agencyID>
            <creationTime>2012-02-27T16:08:13.000000Z</creationTime>
          </creationInfo>
        </arrival>
        <arrival publicID="quakeml:uw.anss.org/AssocArO/UW/3476498">
          <pickID>quakeml:uw.anss.org/Arrival/UW/3476498</pickID>
          <phase>P</phase>
          <azimuth>89.5</azimuth>
          <distance>0.06666</distance>
          <timeResidual>0.12</timeResidual>
          <creationInfo>
            <agencyID>UW</agencyID>
            <creationTime>2012-02-27T16:08:13.000000Z</creationTime>
          </creationInfo>
        </arrival>
        <arrival publicID="quakeml:uw.anss.org/AssocArO/UW/3476503">
          <pickID>quakeml:uw.anss.org/Arrival/UW/3476503</pickID>
          <phase>P</phase>
          <azimuth>166.7</azimuth>
          <timeResidual>0.39</timeResidual>
          <creationInfo>
            <agencyID>UW</agencyID>
            <creationTime>2012-02-27T16:08:13.000000Z</creationTime>
          </creationInfo>
        </arrival>
        <arrival publicID="quakeml:uw.anss.org/AssocArO/UW/3476563">
          <pickID>quakeml:uw.anss.org/Arrival/UW/3476563</pickID>
          <phase>S</phase>
          <azimuth>166.7</azimuth>
          <timeResidual>-0.35</timeResidual>
          <creationInfo>
            <agencyID>UW</agencyID>
            <creationTime>2012-02-27T16:08:13.000000Z</creationTime>
          </creationInfo>
        </arrival>
        <arrival publicID="quakeml:uw.anss.org/AssocArO/UW/3476593">
          <pickID>quakeml:uw.anss.org/Arrival/UW/3476593</pickID>
          <phase>P</phase>
          <timeResidual>-1.14</timeResidual>
          <creationInfo>
            <agencyID>UW</agencyID>
            <creationTime>2012-02-27T16:08:13.000000Z</creationTime>
          </creationInfo>
        </arrival>
        <arrival publicID="quakeml:uw.anss.org/AssocArO/UW/3476598">
          <pickID>quakeml:uw.anss.org/Arrival/UW/3476598</pickID>
          <phase>P</phase>
          <azimuth>170.4</azimuth>
          <distance>1.696</distance>
          <timeResidual>0.08</timeResidual>
          <creationInfo>
            <agencyID>UW</agencyID>
            <creationTime>2012-02-27T16:08:13.000000Z</creationTime>
          </creationInfo>
        </arrival>
        <arrival publicID="quakeml:uw.anss.org/AssocArO/UW/3476608">
          <pickID>quakeml:uw.anss.org/Arrival/UW/3476608</pickID>
          <phase>S</phase>
          <azimuth>170.4</azimuth>
          <distance>1.696</distance>
          <timeResidual>-0.97</timeResidual>
          <creationInfo>
            <agencyID>UW</agencyID>
            <creationTime>2012-02-27T16:08:13.000000Z</creationTime>
          </creationInfo>
        </arrival>
        <arrival publicID="quakeml:uw.anss.org/AssocArO/UW/3476618">
          <pickID>quakeml:uw.anss.org/Arrival/UW/3476618</pickID>
          <phase>P</phase>
          <timeResidual>0.12</timeResidual>
          <creationInfo>
            <agencyID>UW</agencyID>
            <creationTime>2012-02-27T16:08:13.000000Z</creationTime>
          </creationInfo>
        </arrival>
        <arrival publicID="quakeml:uw.anss.org/AssocArO/UW/3476623">
          <pickID>quakeml:uw.anss.org/Arrival/UW/3476623</pickID>
          <phase>S</phase>
          <timeResidual>-0.15</timeResidual>
          <creationInfo>
            <agencyID>UW</agencyID>
            <creationTime>2012-02-27T16:08:13.000000Z</creationTime>
          </creationInfo>
        </arrival>
        <arrival publicID="quakeml:uw.anss.org/AssocArO/UW/3476633">
          <pickID>quakeml:uw.anss.org/Arrival/UW/3476633</pickID>
          <phase>P</phase>
          <azimuth>86.7</azimuth>
          <distance>0.4705</distance>
          <timeResidual>-0.15</timeResidual>
          <creationInfo>
            <agencyID>UW</agencyID>
            <creationTime>2012-02-27T16:08:13.000000Z</creationTime>
          </creationInfo>
        </arrival>
        <arrival publicID="quakeml:uw.anss.org/AssocArO/UW/3476643">
          <pickID>quakeml:uw.anss.org/Arrival/UW/3476643</pickID>
          <phase>S</phase>
          <azimuth>86.7</azimuth>
          <distance>0.4705</distance>
          <timeResidual>1.12</timeResidual>
          <creationInfo>
            <agencyID>UW</agencyID>
            <creationTime>2012-02-27T16:08:13.000000Z</creationTime>
          </creationInfo>
        </arrival>
        <arrival publicID="quakeml:uw.anss.org/AssocArO/UW/3476673">
          <pickID>quakeml:uw.anss.org/Arrival/UW/3476673</pickID>
          <phase>P</phase>
          <azimuth>167.3</azimuth>
          <distance>1.912</distance>
          <timeResidual>0.51</timeResidual>
          <creationInfo>
            <agencyID>UW</agencyID>
            <creationTime>2012-02-27T16:08:13.000000Z</creationTime>
          </creationInfo>
        </arrival>
        <arrival publicID="quakeml:uw.anss.org/AssocArO/UW/3476688">
          <pickID>quakeml:uw.anss.org/Arrival/UW/3476688</pickID>
          <phase>P</phase>
          <azimuth>164.8</azimuth>
          <distance>1.786</distance>
          <timeResidual>0.16</timeResidual>
          <creationInfo>
            <agencyID>UW</agencyID>
            <creationTime>2012-02-27T16:08:13.000000Z</creationTime>
          </creationInfo>
        </arrival>
        <arrival publicID="quakeml:uw.anss.org/AssocArO/UW/3476698">
          <pickID>quakeml:uw.anss.org/Arrival/UW/3476698</pickID>
          <phase>S</phase>
          <azimuth>164.8</azimuth>
          <distance>1.786</distance>
          <timeResidual>-0.76</timeResidual>
          <creationInfo>
            <agencyID>UW</agencyID>
            <creationTime>2012-02-27T16:08:13.000000Z</creationTime>
          </creationInfo>
        </arrival>
        <arrival publicID="quakeml:uw.anss.org/AssocArO/UW/3476713">
          <pickID>quakeml:uw.anss.org/Arrival/UW/3476713</pickID>
          <phase>P</phase>
          <azimuth>324.5</azimuth>
          <timeResidual>-0.42</timeResidual>
          <creationInfo>
            <agencyID>UW</agencyID>
            <creationTime>2012-02-27T16:08:13.000000Z</creationTime>
          </creationInfo>
        </arrival>
        <arrival publicID="quakeml:uw.anss.org/AssocArO/UW/3476718">
          <pickID>quakeml:uw.anss.org/Arrival/UW/3476718</pickID>
          <phase>P</phase>
          <azimuth>181.2</azimuth>
          <distance>0.8703</distance>
          <timeResidual>1.16</timeResidual>
          <creationInfo>
            <agencyID>UW</agencyID>
            <creationTime>2012-02-27T16:08:13.000000Z</creationTime>
          </creationInfo>
        </arrival>
        <arrival publicID="quakeml:uw.anss.org/AssocArO/UW/3476723">
          <pickID>quakeml:uw.anss.org/Arrival/UW/3476723</pickID>
          <phase>S</phase>
          <azimuth>181.2</azimuth>
          <distance>0.8703</distance>
          <timeResidual>-0.97</timeResidual>
          <creationInfo>
            <agencyID>UW</agencyID>
            <creationTime>2012-02-27T16:08:13.000000Z</creationTime>
          </creationInfo>
        </arrival>
        <arrival publicID="quakeml:uw.anss.org/AssocArO/UW/3476733">
          <pickID>quakeml:uw.anss.org/Arrival/UW/3476733</pickID>
          <phase>P</phase>
          <azimuth>178.5</azimuth>
          <distance>2.181</distance>
          <timeResidual>0.14</timeResidual>
          <creationInfo>
            <agencyID>UW</agencyID>
            <creationTime>2012-02-27T16:08:13.000000Z</creationTime>
          </creationInfo>
        </arrival>
        <arrival publicID="quakeml:uw.anss.org/AssocArO/UW/3476743">
          <pickID>quakeml:uw.anss.org/Arrival/UW/3476743</pickID>
          <phase>P</phase>
          <azimuth>143.1</azimuth>
          <distance>1.882</distance>
          <timeResidual>0.79</timeResidual>
          <creationInfo>
            <agencyID>UW</agencyID>
            <creationTime>2012-02-27T16:08:13.000000Z</creationTime>
          </creationInfo>
        </arrival>
        <arrival publicID="quakeml:uw.anss.org/AssocArO/UW/3476758">
          <pickID>quakeml:uw.anss.org/Arrival/UW/3476758</pickID>
          <phase>S</phase>
          <azimuth>143.1</azimuth>
          <distance>1.882</distance>
          <timeResidual>0.01</timeResidual>
          <creationInfo>
            <agencyID>UW</agencyID>
            <creationTime>2012-02-27T16:08:13.000000Z</creationTime>
          </creationInfo>
        </arrival>
        <arrival publicID="quakeml:uw.anss.org/AssocArO/UW/3476773">
          <pickID>quakeml:uw.anss.org/Arrival/UW/3476773</pickID>
          <phase>P</phase>
          <azimuth>30.2</azimuth>
          <distance>0.4187</distance>
          <timeResidual>0.04</timeResidual>
          <creationInfo>
            <agencyID>UW</agencyID>
            <creationTime>2012-02-27T16:08:13.000000Z</creationTime>
          </creationInfo>
        </arrival>
        <arrival publicID="quakeml:uw.anss.org/AssocArO/UW/3476783">
          <pickID>quakeml:uw.anss.org/Arrival/UW/3476783</pickID>
          <phase>S</phase>
          <azimuth>30.2</azimuth>
          <distance>0.4187</distance>
          <timeResidual>1.47</timeResidual>
          <creationInfo>
            <agencyID>UW</agencyID>
            <creationTime>2012-02-27T16:08:13.000000Z</creationTime>
          </creationInfo>
        </arrival>
        <arrival publicID="quakeml:uw.anss.org/AssocArO/UW/3476793">
          <pickID>quakeml:uw.anss.org/Arrival/UW/3476793</pickID>
          <phase>P</phase>
          <azimuth>239.1</azimuth>
          <distance>1.166</distance>
          <timeResidual>0.81</timeResidual>
          <creationInfo>
            <agencyID>UW</agencyID>
            <creationTime>2012-02-27T16:08:13.000000Z</creationTime>
          </creationInfo>
        </arrival>
        <arrival publicID="quakeml:uw.anss.org/AssocArO/UW/3476808">
          <pickID>quakeml:uw.anss.org/Arrival/UW/3476808</pickID>
          <phase>P</phase>
          <azimuth>332.5</azimuth>
          <timeResidual>-0.39</timeResidual>
          <creationInfo>
            <agencyID>UW</agencyID>
            <creationTime>2012-02-27T16:08:13.000000Z</creationTime>
          </creationInfo>
        </arrival>
        <arrival publicID="quakeml:uw.anss.org/AssocArO/UW/3476813">
          <pickID>quakeml:uw.anss.org/Arrival/UW/3476813</pickID>
          <phase>P</phase>
          <azimuth>182.3</azimuth>
          <distance>2.12</distance>
          <timeResidual>0.18</timeResidual>
          <creationInfo>
            <agencyID>UW</agencyID>
            <creationTime>2012-02-27T16:08:13.000000Z</creationTime>
          </creationInfo>
        </arrival>
        <arrival publicID="quakeml:uw.anss.org/AssocArO/UW/3476823">
          <pickID>quakeml:uw.anss.org/Arrival/UW/3476823</pickID>
          <phase>P</phase>
          <azimuth>139.3</azimuth>
          <timeResidual>-0.24</timeResidual>
          <creationInfo>
            <agencyID>UW</agencyID>
            <creationTime>2012-02-27T16:08:13.000000Z</creationTime>
          </creationInfo>
        </arrival>
        <arrival publicID="quakeml:uw.anss.org/AssocArO/UW/3476833">
