<?xml version='1.0' encoding='utf-8'?>
<q:quakeml xmlns="http://quakeml.org/xmlns/bed/1.2" xmlns:q="http://quakeml.org/xmlns/quakeml/1.2" xmlns:ns0="http://anss.org/xmlns/catalog/0.1">
  <eventParameters publicID="smi:local/bfa08d98-f4a2-4265-bade-5f208b3c739f">
    <event publicID="quakeml:uw.anss.org/Event/UW/10239653" ns0:datasource="uw" ns0:dataid="uw10239653" ns0:eventsource="uw" ns0:eventid="10239653">
      <preferredOriginID>quakeml:uw.anss.org/Origin/UW/516598</preferredOriginID>
      <preferredMagnitudeID>quakeml:uw.anss.org/Netmag/UW/430358</preferredMagnitudeID>
      <type>earthquake</type>
      <creationInfo>
        <agencyID>UW</agencyID>
        <creationTime>2012-02-27T16:05:38.000000Z</creationTime>
        <version>2</version>
      </creationInfo>
      <origin publicID="quakeml:uw.anss.org/Origin/UW/516598" ns0:datasource="uw" ns0:dataid="uw10239653" ns0:eventsource="uw" ns0:eventid="10239653">
        <time>
          <value>1989-04-05T12:01:18.620000Z</value>
          <uncertainty>0.32</uncertainty>
        </time>
        <latitude>
          <value>48.8176667</value>
          <uncertainty>0.62</uncertainty>
        </latitude>
        <longitude>
          <value>-122.0793333</value>
          <uncertainty>0.68</uncertainty>
        </longitude>
        <depth>
          <value>2392.0</value>
          <uncertainty>2610.0</uncertainty>
        </depth>
        <depthType>from location</depthType>
        <timeFixed>false</timeFixed>
        <epicenterFixed>false</epicenterFixed>
        <methodID>smi:uw.anss.org/origin/spong</methodID>
        <quality>
          <associatedPhaseCount>113</associatedPhaseCount>
          <usedPhaseCount>33</usedPhaseCount>
          <associatedStationCount>72</associatedStationCount>
          <usedStationCount>0</usedStationCount>
          <standardError>0.41</standardError>
          <azimuthalGap>110.0</azimuthalGap>
        </quality>
        <type>hypocenter</type>
        <evaluationMode>manual</evaluationMode>
        <evaluationStatus>final</evaluationStatus>
        <creationInfo>
          <agencyID>UW</agencyID>
          <creationTime>2012-02-27T16:05:38.000000Z</creationTime>
        </creationInfo>
        <originUncertainty>
          <preferredDescription>horizontal uncertainty</preferredDescription>
          <horizontalUncertainty>920.0</horizontalUncertainty>
        </originUncertainty>
        <arrival publicID="quakeml:uw.anss.org/AssocArO/UW/3443908">
          <pickID>quakeml:uw.anss.org/Arrival/UW/3443908</pickID>
          <phase>P</phase>
          <azimuth>288.5</azimuth>
          <timeResidual>-0.63</timeResidual>
          <creationInfo>
            <agencyID>UW</agencyID>
            <creationTime>2012-02-27T16:05:38.000000Z</creationTime>
          </creationInfo>
        </arrival>
        <arrival publicID="quakeml:uw.anss.org/AssocArO/UW/3443913">
          <pickID>quakeml:uw.anss.org/Arrival/UW/3443913</pickID>
          <phase>S</phase>
          <azimuth>288.5</azimuth>
          <timeResidual>-1.47</timeResidual>
          <creationInfo>
            <agencyID>UW</agencyID>
            <creationTime>2012-02-27T16:05:38.000000Z</creationTime>
          </creationInfo>
        </arrival>
        <arrival publicID="quakeml:uw.anss.org/AssocArO/UW/3443923">
          <pickID>quakeml:uw.anss.org/Arrival/UW/3443923</pickID>
          <phase>P</phase>
          <azimuth>209.4</azimuth>
          <distance>1.34</distance>
          <timeResidual>-0.03</timeResidual>
          <creationInfo>
            <agencyID>UW</agencyID>
            <creationTime>2012-02-27T16:05:38.000000Z</creationTime>
          </creationInfo>
        </arrival>
        <arrival publicID="quakeml:uw.anss.org/AssocArO/UW/3443933">
          <pickID>quakeml:uw.anss.org/Arrival/UW/3443933</pickID>
          <phase>S</phase>
          <azimuth>209.4</azimuth>
          <distance>1.34</distance>
          <timeResidual>0.11</timeResidual>
          <creationInfo>
            <agencyID>UW</agencyID>
            <creationTime>2012-02-27T16:05:38.000000Z</creationTime>
          </creationInfo>
        </arrival>
        <arrival publicID="quakeml:uw.anss.org/AssocArO/UW/3443943">
          <pickID>quakeml:uw.anss.org/Arrival/UW/3443943</pickID>
          <phase>P</phase>
          <azimuth>122.3</azimuth>
          <distance>1.378</distance>
          <timeResidual>0.5</timeResidual>
          <creationInfo>
            <agencyID>UW</agencyID>
            <creationTime>2012-02-27T16:05:38.000000Z</creationTime>
          </creationInfo>
        </arrival>
        <arrival publicID="quakeml:uw.anss.org/AssocArO/UW/3443953">
          <pickID>quakeml:uw.anss.org/Arrival/UW/3443953</pickID>
          <phase>S</phase>
          <azimuth>122.3</azimuth>
          <distance>1.378</distance>
          <timeResidual>-0.36</timeResidual>
          <creationInfo>
            <agencyID>UW</agencyID>
            <creationTime>2012-02-27T16:05:38.000000Z</creationTime>
          </creationInfo>
        </arrival>
        <arrival publicID="quakeml:uw.anss.org/AssocArO/UW/3443963">
          <pickID>quakeml:uw.anss.org/Arrival/UW/3443963</pickID>
          <phase>P</phase>
          <azimuth>324.5</azimuth>
          <timeResidual>-0.14</timeResidual>
          <creationInfo>
            <agencyID>UW</agencyID>
            <creationTime>2012-02-27T16:05:39.000000Z</creationTime>
          </creationInfo>
        </arrival>
        <arrival publicID="quakeml:uw.anss.org/AssocArO/UW/3443973">
          <pickID>quakeml:uw.anss.org/Arrival/UW/3443973</pickID>
          <phase>S</phase>
          <azimuth>324.5</azimuth>
          <timeResidual>-0.58</timeResidual>
          <creationInfo>
            <agencyID>UW</agencyID>
            <creationTime>2012-02-27T16:05:39.000000Z</creationTime>
          </creationInfo>
        </arrival>
        <arrival publicID="quakeml:uw.anss.org/AssocArO/UW/3443983">
          <pickID>quakeml:uw.anss.org/Arrival/UW/3443983</pickID>
          <phase>P</phase>
          <azimuth>154.8</azimuth>
          <distance>2.521</distance>
          <timeResidual>1.75</timeResidual>
          <creationInfo>
            <agencyID>UW</agencyID>
            <creationTime>2012-02-27T16:05:39.000000Z</creationTime>
          </creationInfo>
        </arrival>
        <arrival publicID="quakeml:uw.anss.org/AssocArO/UW/3443988">
          <pickID>quakeml:uw.anss.org/Arrival/UW/3443988</pickID>
          <phase>S</phase>
          <azimuth>154.8</azimuth>
          <distance>2.521</distance>
          <timeResidual>0.67</timeResidual>
          <creationInfo>
            <agencyID>UW</agencyID>
            <creationTime>2012-02-27T16:05:39.000000Z</creationTime>
          </creationInfo>
        </arrival>
        <arrival publicID="quakeml:uw.anss.org/AssocArO/UW/3444003">
          <pickID>quakeml:uw.anss.org/Arrival/UW/3444003</pickID>
          <phase>P</phase>
          <azimuth>178.9</azimuth>
          <distance>2.329</distance>
          <timeResidual>0.18</timeResidual>
          <creationInfo>
            <agencyID>UW</agencyID>
            <creationTime>2012-02-27T16:05:39.000000Z</creationTime>
          </creationInfo>
        </arrival>
        <arrival publicID="quakeml:uw.anss.org/AssocArO/UW/3444018">
          <pickID>quakeml:uw.anss.org/Arrival/UW/3444018</pickID>
          <phase>S</phase>
          <azimuth>178.9</azimuth>
          <distance>2.329</distance>
          <timeResidual>-1.23</timeResidual>
          <creationInfo>
            <agencyID>UW</agencyID>
            <creationTime>2012-02-27T16:05:39.000000Z</creationTime>
          </creationInfo>
        </arrival>
        <arrival publicID="quakeml:uw.anss.org/AssocArO/UW/3444023">
          <pickID>quakeml:uw.anss.org/Arrival/UW/3444023</pickID>
          <phase>P</phase>
          <azimuth>157.5</azimuth>
          <distance>2.251</distance>
          <timeResidual>0.95</timeResidual>
          <creationInfo>
            <agencyID>UW</agencyID>
            <creationTime>2012-02-27T16:05:39.000000Z</creationTime>
          </creationInfo>
        </arrival>
        <arrival publicID="quakeml:uw.anss.org/AssocArO/UW/3444028">
          <pickID>quakeml:uw.anss.org/Arrival/UW/3444028</pickID>
          <phase>S</phase>
          <azimuth>157.5</azimuth>
          <distance>2.251</distance>
          <timeResidual>0.77</timeResidual>
          <creationInfo>
            <agencyID>UW</agencyID>
            <creationTime>2012-02-27T16:05:39.000000Z</creationTime>
          </creationInfo>
        </arrival>
        <arrival publicID="quakeml:uw.anss.org/AssocArO/UW/3444033">
          <pickID>quakeml:uw.anss.org/Arrival/UW/3444033</pickID>
          <phase>P</phase>
          <azimuth>209.9</azimuth>
          <distance>1.723</distance>
          <timeResidual>0.88</timeResidual>
          <creationInfo>
            <agencyID>UW</agencyID>
            <creationTime>2012-02-27T16:05:39.000000Z</creationTime>
          </creationInfo>
        </arrival>
        <arrival publicID="quakeml:uw.anss.org/AssocArO/UW/3444038">
          <pickID>quakeml:uw.anss.org/Arrival/UW/3444038</pickID>
          <phase>P</phase>
          <azimuth>122.9</azimuth>
          <distance>2.699</distance>
          <timeResidual>4.03</timeResidual>
          <creationInfo>
            <agencyID>UW</agencyID>
            <creationTime>2012-02-27T16:05:39.000000Z</creationTime>
          </creationInfo>
        </arrival>
        <arrival publicID="quakeml:uw.anss.org/AssocArO/UW/3444043">
          <pickID>quakeml:uw.anss.org/Arrival/UW/3444043</pickID>
          <phase>S</phase>
          <azimuth>122.9</azimuth>
          <distance>2.699</distance>
          <timeResidual>4.43</timeResidual>
          <creationInfo>
            <agencyID>UW</agencyID>
            <creationTime>2012-02-27T16:05:39.000000Z</creationTime>
          </creationInfo>
        </arrival>
        <arrival publicID="quakeml:uw.anss.org/AssocArO/UW/3444048">
          <pickID>quakeml:uw.anss.org/Arrival/UW/3444048</pickID>
          <phase>P</phase>
          <azimuth>140.6</azimuth>
          <distance>2.839</distance>
          <timeResidual>4.76</timeResidual>
          <creationInfo>
            <agencyID>UW</agencyID>
            <creationTime>2012-02-27T16:05:39.000000Z</creationTime>
          </creationInfo>
        </arrival>
        <arrival publicID="quakeml:uw.anss.org/AssocArO/UW/3444053">
          <pickID>quakeml:uw.anss.org/Arrival/UW/3444053</pickID>
          <phase>P</phase>
          <azimuth>187.1</azimuth>
          <distance>2.401</distance>
          <timeResidual>0.47</timeResidual>
          <creationInfo>
            <agencyID>UW</agencyID>
            <creationTime>2012-02-27T16:05:39.000000Z</creationTime>
          </creationInfo>
        </arrival>
        <arrival publicID="quakeml:uw.anss.org/AssocArO/UW/3444063">
          <pickID>quakeml:uw.anss.org/Arrival/UW/3444063</pickID>
          <phase>S</phase>
          <azimuth>187.1</azimuth>
          <distance>2.401</distance>
          <timeResidual>-0.99</timeResidual>
          <creationInfo>
            <agencyID>UW</agencyID>
            <creationTime>2012-02-27T16:05:39.000000Z</creationTime>
          </creationInfo>
        </arrival>
        <arrival publicID="quakeml:uw.anss.org/AssocArO/UW/3444083">
          <pickID>quakeml:uw.anss.org/Arrival/UW/3444083</pickID>
          <phase>P</phase>
          <azimuth>198.7</azimuth>
          <distance>2.47</distance>
          <timeResidual>-0.38</timeResidual>
          <creationInfo>
            <agencyID>UW</agencyID>
            <creationTime>2012-02-27T16:05:39.000000Z</creationTime>
          </creationInfo>
        </arrival>
        <arrival publicID="quakeml:uw.anss.org/AssocArO/UW/3444093">
          <pickID>quakeml:uw.anss.org/Arrival/UW/3444093</pickID>
          <phase>P</phase>
          <azimuth>108.7</azimuth>
          <distance>2.753</distance>
          <timeResidual>2.43</timeResidual>
          <creationInfo>
            <agencyID>UW</agencyID>
            <creationTime>2012-02-27T16:05:39.000000Z</creationTime>
          </creationInfo>
        </arrival>
        <arrival publicID="quakeml:uw.anss.org/AssocArO/UW/3444103">
          <pickID>quakeml:uw.anss.org/Arrival/UW/3444103</pickID>
          <phase>P</phase>
          <timeResidual>0.4</timeResidual>
          <creationInfo>
            <agencyID>UW</agencyID>
            <creationTime>2012-02-27T16:05:39.000000Z</creationTime>
          </creationInfo>
        </arrival>
        <arrival publicID="quakeml:uw.anss.org/AssocArO/UW/3444148">
          <pickID>quakeml:uw.anss.org/Arrival/UW/3444148</pickID>
          <phase>S</phase>
          <timeResidual>0.72</timeResidual>
          <creationInfo>
            <agencyID>UW</agencyID>
            <creationTime>2012-02-27T16:05:39.000000Z</creationTime>
          </creationInfo>
        </arrival>
        <arrival publicID="quakeml:uw.anss.org/AssocArO/UW/3444163">
          <pickID>quakeml:uw.anss.org/Arrival/UW/3444163</pickID>
          <phase>P</phase>
          <azimuth>136.8</azimuth>
          <distance>2.695</distance>
          <timeResidual>4.56</timeResidual>
          <creationInfo>
            <agencyID>UW</agencyID>
            <creationTime>2012-02-27T16:05:39.000000Z</creationTime>
          </creationInfo>
        </arrival>
        <arrival publicID="quakeml:uw.anss.org/AssocArO/UW/3444173">
          <pickID>quakeml:uw.anss.org/Arrival/UW/3444173</pickID>
          <phase>P</phase>
          <azimuth>139.8</azimuth>
          <distance>2.67</distance>
          <timeResidual>3.35</timeResidual>
          <creationInfo>
            <agencyID>UW</agencyID>
            <creationTime>2012-02-27T16:05:39.000000Z</creationTime>
          </creationInfo>
        </arrival>
        <arrival publicID="quakeml:uw.anss.org/AssocArO/UW/3444183">
          <pickID>quakeml:uw.anss.org/Arrival/UW/3444183</pickID>
          <phase>P</phase>
          <azimuth>130.5</azimuth>
          <distance>2.215</distance>
          <timeResidual>2.22</timeResidual>
          <creationInfo>
            <agencyID>UW</agencyID>
            <creationTime>2012-02-27T16:05:39.000000Z</creationTime>
          </creationInfo>
        </arrival>
        <arrival publicID="quakeml:uw.anss.org/AssocArO/UW/3444188">
          <pickID>quakeml:uw.anss.org/Arrival/UW/3444188</pickID>
          <phase>P</phase>
          <azimuth>183.9</azimuth>
          <distance>0.3954</distance>
          <timeResidual>-0.42</timeResidual>
          <creationInfo>
            <agencyID>UW</agencyID>
            <creationTime>2012-02-27T16:05:39.000000Z</creationTime>
          </creationInfo>
        </arrival>
        <arrival publicID="quakeml:uw.anss.org/AssocArO/UW/3444193">
          <pickID>quakeml:uw.anss.org/Arrival/UW/3444193</pickID>
          <phase>P</phase>
          <azimuth>182.0</azimuth>
          <distance>2.358</distance>
          <timeResidual>0.38</timeResidual>
          <creationInfo>
            <agencyID>UW</agencyID>
            <creationTime>2012-02-27T16:05:39.000000Z</creationTime>
          </creationInfo>
        </arrival>
        <arrival publicID="quakeml:uw.anss.org/AssocArO/UW/3444198">
          <pickID>quakeml:uw.anss.org/Arrival/UW/3444198</pickID>
          <phase>S</phase>
          <azimuth>182.0</azimuth>
          <distance>2.358</distance>
          <timeResidual>0.23</timeResidual>
          <creationInfo>
            <agencyID>UW</agencyID>
            <creationTime>2012-02-27T16:05:39.000000Z</creationTime>
          </creationInfo>
        </arrival>
        <arrival publicID="quakeml:uw.anss.org/AssocArO/UW/3444203">
          <pickID>quakeml:uw.anss.org/Arrival/UW/3444203</pickID>
          <phase>S</phase>
          <azimuth>181.1</azimuth>
          <distance>2.622</distance>
          <timeResidual>0.29</timeResidual>
          <creationInfo>
            <agencyID>UW</agencyID>
            <creationTime>2012-02-27T16:05:39.000000Z</creationTime>
          </creationInfo>
        </arrival>
        <arrival publicID="quakeml:uw.anss.org/AssocArO/UW/3444208">
          <pickID>quakeml:uw.anss.org/Arrival/UW/3444208</pickID>
          <phase>S</phase>
          <azimuth>173.2</azimuth>
          <timeResidual>-0.65</timeResidual>
          <creationInfo>
            <agencyID>UW</agencyID>
            <creationTime>2012-02-27T16:05:39.000000Z</creationTime>
          </creationInfo>
        </arrival>
        <arrival publicID="quakeml:uw.anss.org/AssocArO/UW/3444213">
          <pickID>quakeml:uw.anss.org/Arrival/UW/3444213</pickID>
          <phase>P</phase>
          <timeResidual>-0.86</timeResidual>
          <creationInfo>
            <agencyID>UW</agencyID>
            <creationTime>2012-02-27T16:05:39.000000Z</creationTime>
          </creationInfo>
        </arrival>
        <arrival publicID="quakeml:uw.anss.org/AssocArO/UW/3444218">
          <pickID>quakeml:uw.anss.org/Arrival/UW/3444218</pickID>
          <phase>P</phase>
          <azimuth>177.8</azimuth>
          <distance>1.876</distance>
          <timeResidual>-0.33</timeResidual>
          <creationInfo>
            <agencyID>UW</agencyID>
            <creationTime>2012-02-27T16:05:39.000000Z</creationTime>
          </creationInfo>
        </arrival>
        <arrival publicID="quakeml:uw.anss.org/AssocArO/UW/3444223">
          <pickID>quakeml:uw.anss.org/Arrival/UW/3444223</pickID>
          <phase>S</phase>
          <azimuth>177.8</azimuth>
          <distance>1.876</distance>
          <timeResidual>-0.7</timeResidual>
          <creationInfo>
            <agencyID>UW</agencyID>
            <creationTime>2012-02-27T16:05:39.000000Z</creationTime>
          </creationInfo>
        </arrival>
        <arrival publicID="quakeml:uw.anss.org/AssocArO/UW/3444228">
          <pickID>quakeml:uw.anss.org/Arrival/UW/3444228</pickID>
          <phase>P</phase>
          <azimuth>174.9</azimuth>
          <distance>2.076</distance>
          <timeResidual>-0.35</timeResidual>
          <creationInfo>
            <agencyID>UW</agencyID>
            <creationTime>2012-02-27T16:05:39.000000Z</creationTime>
          </creationInfo>
        </arrival>
        <arrival publicID="quakeml:uw.anss.org/AssocArO/UW/3444233">
          <pickID>quakeml:uw.anss.org/Arrival/UW/3444233</pickID>
          <phase>S</phase>
          <azimuth>174.9</azimuth>
          <distance>2.076</distance>
          <timeResidual>-1.97</timeResidual>
          <creationInfo>
            <agencyID>UW</agencyID>
            <creationTime>2012-02-27T16:05:39.000000Z</creationTime>
          </creationInfo>
        </arrival>
        <arrival publicID="quakeml:uw.anss.org/AssocArO/UW/3444238">
          <pickID>quakeml:uw.anss.org/Arrival/UW/3444238</pickID>
          <phase>P</phase>
          <timeResidual>0.24</timeResidual>
          <creationInfo>
            <agencyID>UW</agencyID>
            <creationTime>2012-02-27T16:05:39.000000Z</creationTime>
          </creationInfo>
        </arrival>
        <arrival publicID="quakeml:uw.anss.org/AssocArO/UW/3444243">
          <pickID>quakeml:uw.anss.org/Arrival/UW/3444243</pickID>
          <phase>S</phase>
          <timeResidual>-0.03</timeResidual>
          <creationInfo>
            <agencyID>UW</agencyID>
            <creationTime>2012-02-27T16:05:39.000000Z</creationTime>
          </creationInfo>
        </arrival>
        <arrival publicID="quakeml:uw.anss.org/AssocArO/UW/3444248">
          <pickID>quakeml:uw.anss.org/Arrival/UW/3444248</pickID>
          <phase>P</phase>
          <azimuth>134.5</azimuth>
          <distance>0.5263</distance>
          <timeResidual>-0.3</timeResidual>
          <creationInfo>
            <agencyID>UW</agencyID>
            <creationTime>2012-02-27T16:05:39.000000Z</creationTime>
          </creationInfo>
        </arrival>
