<?xml version='1.0' encoding='utf-8'?>
<q:quakeml xmlns="http://quakeml.org/xmlns/bed/1.2" xmlns:q="http://quakeml.org/xmlns/quakeml/1.2" xmlns:ns0="http://anss.org/xmlns/catalog/0.1">
  <eventParameters publicID="smi:local/ef9608ac-348c-4ac9-b2a4-dda1edd1e8ac">
    <event publicID="quakeml:uw.anss.org/Event/UW/10243923" ns0:datasource="uw" ns0:dataid="uw10243923" ns0:eventsource="uw" ns0:eventid="10243923">
      <preferredOriginID>quakeml:uw.anss.org/Origin/UW/520868</preferredOriginID>
      <preferredMagnitudeID>quakeml:uw.anss.org/Netmag/UW/434463</preferredMagnitudeID>
      <type>earthquake</type>
      <creationInfo>
        <agencyID>UW</agencyID>
        <creationTime>2012-02-27T16:13:39.000000Z</creationTime>
        <version>3</version>
      </creationInfo>
      <origin publicID="quakeml:uw.anss.org/Origin/UW/520868" ns0:datasource="uw" ns0:dataid="uw10243923" ns0:eventsource="uw" ns0:eventid="10243923">
        <time>
          <value>1989-05-22T13:49:09.690000Z</value>
          <uncertainty>0.24</uncertainty>
        </time>
        <latitude>
          <value>49.1803333</value>
          <uncertainty>1.15</uncertainty>
        </latitude>
        <longitude>
          <value>-122.0073333</value>
          <uncertainty>1.17</uncertainty>
        </longitude>
        <depth>
          <value>3322.0</value>
          <uncertainty>4040.0</uncertainty>
        </depth>
        <depthType>from location</depthType>
        <timeFixed>false</timeFixed>
        <epicenterFixed>false</epicenterFixed>
        <methodID>smi:uw.anss.org/origin/spong</methodID>
        <quality>
          <associatedPhaseCount>48</associatedPhaseCount>
          <usedPhaseCount>28</usedPhaseCount>
          <associatedStationCount>29</associatedStationCount>
          <usedStationCount>0</usedStationCount>
          <standardError>0.43</standardError>
          <azimuthalGap>188.0</azimuthalGap>
        </quality>
        <type>hypocenter</type>
        <evaluationMode>manual</evaluationMode>
        <evaluationStatus>final</evaluationStatus>
        <creationInfo>
          <agencyID>UW</agencyID>
          <creationTime>2012-02-27T16:13:39.000000Z</creationTime>
        </creationInfo>
        <originUncertainty>
          <preferredDescription>horizontal uncertainty</preferredDescription>
          <horizontalUncertainty>1641.0</horizontalUncertainty>
        </originUncertainty>
        <arrival publicID="quakeml:uw.anss.org/AssocArO/UW/3546218">
          <pickID>quakeml:uw.anss.org/Arrival/UW/3546218</pickID>
          <phase>P</phase>
          <azimuth>204.8</azimuth>
          <distance>1.685</distance>
          <timeResidual>-0.31</timeResidual>
          <creationInfo>
            <agencyID>UW</agencyID>
            <creationTime>2012-02-27T16:13:39.000000Z</creationTime>
          </creationInfo>
        </arrival>
        <arrival publicID="quakeml:uw.anss.org/AssocArO/UW/3546223">
          <pickID>quakeml:uw.anss.org/Arrival/UW/3546223</pickID>
          <phase>S</phase>
          <azimuth>204.8</azimuth>
          <distance>1.685</distance>
          <timeResidual>-0.78</timeResidual>
          <creationInfo>
            <agencyID>UW</agencyID>
            <creationTime>2012-02-27T16:13:39.000000Z</creationTime>
          </creationInfo>
        </arrival>
        <arrival publicID="quakeml:uw.anss.org/AssocArO/UW/3546228">
          <pickID>quakeml:uw.anss.org/Arrival/UW/3546228</pickID>
          <phase>P</phase>
          <azimuth>272.6</azimuth>
          <timeResidual>-0.04</timeResidual>
          <creationInfo>
            <agencyID>UW</agencyID>
            <creationTime>2012-02-27T16:13:39.000000Z</creationTime>
          </creationInfo>
        </arrival>
        <arrival publicID="quakeml:uw.anss.org/AssocArO/UW/3546233">
          <pickID>quakeml:uw.anss.org/Arrival/UW/3546233</pickID>
          <phase>S</phase>
          <azimuth>272.6</azimuth>
          <timeResidual>-0.94</timeResidual>
          <creationInfo>
            <agencyID>UW</agencyID>
            <creationTime>2012-02-27T16:13:39.000000Z</creationTime>
          </creationInfo>
        </arrival>
        <arrival publicID="quakeml:uw.anss.org/AssocArO/UW/3546238">
          <pickID>quakeml:uw.anss.org/Arrival/UW/3546238</pickID>
          <phase>P</phase>
          <azimuth>134.6</azimuth>
          <distance>1.567</distance>
          <timeResidual>1.18</timeResidual>
          <creationInfo>
            <agencyID>UW</agencyID>
            <creationTime>2012-02-27T16:13:39.000000Z</creationTime>
          </creationInfo>
        </arrival>
        <arrival publicID="quakeml:uw.anss.org/AssocArO/UW/3546243">
          <pickID>quakeml:uw.anss.org/Arrival/UW/3546243</pickID>
          <phase>S</phase>
          <azimuth>134.6</azimuth>
          <distance>1.567</distance>
          <timeResidual>-0.34</timeResidual>
          <creationInfo>
            <agencyID>UW</agencyID>
            <creationTime>2012-02-27T16:13:39.000000Z</creationTime>
          </creationInfo>
        </arrival>
        <arrival publicID="quakeml:uw.anss.org/AssocArO/UW/3546248">
          <pickID>quakeml:uw.anss.org/Arrival/UW/3546248</pickID>
          <phase>P</phase>
          <azimuth>284.4</azimuth>
          <timeResidual>0.3</timeResidual>
          <creationInfo>
            <agencyID>UW</agencyID>
            <creationTime>2012-02-27T16:13:39.000000Z</creationTime>
          </creationInfo>
        </arrival>
        <arrival publicID="quakeml:uw.anss.org/AssocArO/UW/3546253">
          <pickID>quakeml:uw.anss.org/Arrival/UW/3546253</pickID>
          <phase>S</phase>
          <azimuth>284.4</azimuth>
          <timeResidual>0.01</timeResidual>
          <creationInfo>
            <agencyID>UW</agencyID>
            <creationTime>2012-02-27T16:13:39.000000Z</creationTime>
          </creationInfo>
        </arrival>
        <arrival publicID="quakeml:uw.anss.org/AssocArO/UW/3546258">
          <pickID>quakeml:uw.anss.org/Arrival/UW/3546258</pickID>
          <phase>P</phase>
          <timeResidual>0.28</timeResidual>
          <creationInfo>
            <agencyID>UW</agencyID>
            <creationTime>2012-02-27T16:13:39.000000Z</creationTime>
          </creationInfo>
        </arrival>
        <arrival publicID="quakeml:uw.anss.org/AssocArO/UW/3546263">
          <pickID>quakeml:uw.anss.org/Arrival/UW/3546263</pickID>
          <phase>S</phase>
          <timeResidual>0.13</timeResidual>
          <creationInfo>
            <agencyID>UW</agencyID>
            <creationTime>2012-02-27T16:13:39.000000Z</creationTime>
          </creationInfo>
        </arrival>
        <arrival publicID="quakeml:uw.anss.org/AssocArO/UW/3546268">
          <pickID>quakeml:uw.anss.org/Arrival/UW/3546268</pickID>
          <phase>P</phase>
          <azimuth>185.7</azimuth>
          <distance>0.7611</distance>
          <timeResidual>0.08</timeResidual>
          <creationInfo>
            <agencyID>UW</agencyID>
            <creationTime>2012-02-27T16:13:39.000000Z</creationTime>
          </creationInfo>
        </arrival>
        <arrival publicID="quakeml:uw.anss.org/AssocArO/UW/3546273">
          <pickID>quakeml:uw.anss.org/Arrival/UW/3546273</pickID>
          <phase>P</phase>
          <azimuth>175.8</azimuth>
          <timeResidual>0.43</timeResidual>
          <creationInfo>
            <agencyID>UW</agencyID>
            <creationTime>2012-02-27T16:13:39.000000Z</creationTime>
          </creationInfo>
        </arrival>
        <arrival publicID="quakeml:uw.anss.org/AssocArO/UW/3546278">
          <pickID>quakeml:uw.anss.org/Arrival/UW/3546278</pickID>
          <phase>P</phase>
          <timeResidual>0.59</timeResidual>
          <creationInfo>
            <agencyID>UW</agencyID>
            <creationTime>2012-02-27T16:13:39.000000Z</creationTime>
          </creationInfo>
        </arrival>
        <arrival publicID="quakeml:uw.anss.org/AssocArO/UW/3546283">
          <pickID>quakeml:uw.anss.org/Arrival/UW/3546283</pickID>
          <phase>P</phase>
          <azimuth>327.4</azimuth>
          <distance>1.131</distance>
          <timeResidual>0.32</timeResidual>
          <creationInfo>
            <agencyID>UW</agencyID>
            <creationTime>2012-02-27T16:13:39.000000Z</creationTime>
          </creationInfo>
        </arrival>
        <arrival publicID="quakeml:uw.anss.org/AssocArO/UW/3546288">
          <pickID>quakeml:uw.anss.org/Arrival/UW/3546288</pickID>
          <phase>S</phase>
          <azimuth>327.4</azimuth>
          <distance>1.131</distance>
          <timeResidual>-0.88</timeResidual>
          <creationInfo>
            <agencyID>UW</agencyID>
            <creationTime>2012-02-27T16:13:39.000000Z</creationTime>
          </creationInfo>
        </arrival>
        <arrival publicID="quakeml:uw.anss.org/AssocArO/UW/3546293">
          <pickID>quakeml:uw.anss.org/Arrival/UW/3546293</pickID>
          <phase>P</phase>
          <azimuth>285.6</azimuth>
          <timeResidual>-0.01</timeResidual>
          <creationInfo>
            <agencyID>UW</agencyID>
            <creationTime>2012-02-27T16:13:39.000000Z</creationTime>
          </creationInfo>
        </arrival>
        <arrival publicID="quakeml:uw.anss.org/AssocArO/UW/3546298">
          <pickID>quakeml:uw.anss.org/Arrival/UW/3546298</pickID>
          <phase>S</phase>
          <azimuth>285.6</azimuth>
          <timeResidual>-0.82</timeResidual>
          <creationInfo>
            <agencyID>UW</agencyID>
            <creationTime>2012-02-27T16:13:39.000000Z</creationTime>
          </creationInfo>
        </arrival>
        <arrival publicID="quakeml:uw.anss.org/AssocArO/UW/3546303">
          <pickID>quakeml:uw.anss.org/Arrival/UW/3546303</pickID>
          <phase>P</phase>
          <azimuth>202.2</azimuth>
          <distance>0.9258</distance>
          <timeResidual>0.72</timeResidual>
          <creationInfo>
            <agencyID>UW</agencyID>
            <creationTime>2012-02-27T16:13:39.000000Z</creationTime>
          </creationInfo>
        </arrival>
        <arrival publicID="quakeml:uw.anss.org/AssocArO/UW/3546308">
          <pickID>quakeml:uw.anss.org/Arrival/UW/3546308</pickID>
          <phase>S</phase>
          <azimuth>202.2</azimuth>
          <distance>0.9258</distance>
          <timeResidual>0.41</timeResidual>
          <creationInfo>
            <agencyID>UW</agencyID>
            <creationTime>2012-02-27T16:13:39.000000Z</creationTime>
          </creationInfo>
        </arrival>
        <arrival publicID="quakeml:uw.anss.org/AssocArO/UW/3546313">
          <pickID>quakeml:uw.anss.org/Arrival/UW/3546313</pickID>
          <phase>S</phase>
          <azimuth>220.2</azimuth>
          <distance>1.772</distance>
          <timeResidual>-0.38</timeResidual>
          <creationInfo>
            <agencyID>UW</agencyID>
            <creationTime>2012-02-27T16:13:39.000000Z</creationTime>
          </creationInfo>
        </arrival>
        <arrival publicID="quakeml:uw.anss.org/AssocArO/UW/3546318">
          <pickID>quakeml:uw.anss.org/Arrival/UW/3546318</pickID>
          <phase>P</phase>
          <azimuth>301.4</azimuth>
          <timeResidual>0.15</timeResidual>
          <creationInfo>
            <agencyID>UW</agencyID>
            <creationTime>2012-02-27T16:13:39.000000Z</creationTime>
          </creationInfo>
        </arrival>
        <arrival publicID="quakeml:uw.anss.org/AssocArO/UW/3546323">
          <pickID>quakeml:uw.anss.org/Arrival/UW/3546323</pickID>
          <phase>S</phase>
          <azimuth>301.4</azimuth>
          <timeResidual>-0.81</timeResidual>
          <creationInfo>
            <agencyID>UW</agencyID>
            <creationTime>2012-02-27T16:13:39.000000Z</creationTime>
          </creationInfo>
        </arrival>
        <arrival publicID="quakeml:uw.anss.org/AssocArO/UW/3546328">
          <pickID>quakeml:uw.anss.org/Arrival/UW/3546328</pickID>
          <phase>P</phase>
          <azimuth>176.9</azimuth>
          <timeResidual>0.53</timeResidual>
          <creationInfo>
            <agencyID>UW</agencyID>
            <creationTime>2012-02-27T16:13:39.000000Z</creationTime>
          </creationInfo>
        </arrival>
        <arrival publicID="quakeml:uw.anss.org/AssocArO/UW/3546333">
          <pickID>quakeml:uw.anss.org/Arrival/UW/3546333</pickID>
          <phase>P</phase>
          <azimuth>156.5</azimuth>
          <distance>2.469</distance>
          <timeResidual>2.38</timeResidual>
          <creationInfo>
            <agencyID>UW</agencyID>
            <creationTime>2012-02-27T16:13:39.000000Z</creationTime>
          </creationInfo>
        </arrival>
        <arrival publicID="quakeml:uw.anss.org/AssocArO/UW/3546338">
          <pickID>quakeml:uw.anss.org/Arrival/UW/3546338</pickID>
          <phase>P</phase>
          <azimuth>174.1</azimuth>
          <timeResidual>0.47</timeResidual>
          <creationInfo>
            <agencyID>UW</agencyID>
            <creationTime>2012-02-27T16:13:39.000000Z</creationTime>
          </creationInfo>
        </arrival>
        <arrival publicID="quakeml:uw.anss.org/AssocArO/UW/3546343">
          <pickID>quakeml:uw.anss.org/Arrival/UW/3546343</pickID>
          <phase>P</phase>
          <azimuth>128.1</azimuth>
          <distance>1.906</distance>
          <timeResidual>1.67</timeResidual>
          <creationInfo>
            <agencyID>UW</agencyID>
            <creationTime>2012-02-27T16:13:39.000000Z</creationTime>
          </creationInfo>
        </arrival>
        <arrival publicID="quakeml:uw.anss.org/AssocArO/UW/3546348">
          <pickID>quakeml:uw.anss.org/Arrival/UW/3546348</pickID>
          <phase>S</phase>
          <azimuth>128.1</azimuth>
          <distance>1.906</distance>
          <timeResidual>1.5</timeResidual>
          <creationInfo>
            <agencyID>UW</agencyID>
            <creationTime>2012-02-27T16:13:39.000000Z</creationTime>
          </creationInfo>
        </arrival>
        <arrival publicID="quakeml:uw.anss.org/AssocArO/UW/3546353">
          <pickID>quakeml:uw.anss.org/Arrival/UW/3546353</pickID>
          <phase>P</phase>
          <timeResidual>0.31</timeResidual>
          <creationInfo>
            <agencyID>UW</agencyID>
            <creationTime>2012-02-27T16:13:39.000000Z</creationTime>
          </creationInfo>
        </arrival>
        <arrival publicID="quakeml:uw.anss.org/AssocArO/UW/3546358">
          <pickID>quakeml:uw.anss.org/Arrival/UW/3546358</pickID>
          <phase>S</phase>
          <timeResidual>-0.28</timeResidual>
          <creationInfo>
            <agencyID>UW</agencyID>
            <creationTime>2012-02-27T16:13:39.000000Z</creationTime>
          </creationInfo>
        </arrival>
        <arrival publicID="quakeml:uw.anss.org/AssocArO/UW/3546363">
          <pickID>quakeml:uw.anss.org/Arrival/UW/3546363</pickID>
          <phase>P</phase>
          <azimuth>227.5</azimuth>
          <timeResidual>0.35</timeResidual>
          <creationInfo>
            <agencyID>UW</agencyID>
            <creationTime>2012-02-27T16:13:39.000000Z</creationTime>
          </creationInfo>
        </arrival>
        <arrival publicID="quakeml:uw.anss.org/AssocArO/UW/3546368">
          <pickID>quakeml:uw.anss.org/Arrival/UW/3546368</pickID>
          <phase>S</phase>
          <azimuth>227.5</azimuth>
          <timeResidual>-0.86</timeResidual>
          <creationInfo>
            <agencyID>UW</agencyID>
            <creationTime>2012-02-27T16:13:39.000000Z</creationTime>
          </creationInfo>
        </arrival>
        <arrival publicID="quakeml:uw.anss.org/AssocArO/UW/3546373">
          <pickID>quakeml:uw.anss.org/Arrival/UW/3546373</pickID>
          <phase>P</phase>
          <timeResidual>0.48</timeResidual>
          <creationInfo>
            <agencyID>UW</agencyID>
            <creationTime>2012-02-27T16:13:39.000000Z</creationTime>
          </creationInfo>
        </arrival>
        <arrival publicID="quakeml:uw.anss.org/AssocArO/UW/3546378">
          <pickID>quakeml:uw.anss.org/Arrival/UW/3546378</pickID>
          <phase>P</phase>
          <azimuth>197.9</azimuth>
          <distance>1.715</distance>
          <timeResidual>0.11</timeResidual>
          <creationInfo>
            <agencyID>UW</agencyID>
            <creationTime>2012-02-27T16:13:39.000000Z</creationTime>
          </creationInfo>
        </arrival>
        <arrival publicID="quakeml:uw.anss.org/AssocArO/UW/3546383">
          <pickID>quakeml:uw.anss.org/Arrival/UW/3546383</pickID>
          <phase>S</phase>
          <azimuth>197.9</azimuth>
          <distance>1.715</distance>
          <timeResidual>-0.59</timeResidual>
          <creationInfo>
            <agencyID>UW</agencyID>
            <creationTime>2012-02-27T16:13:39.000000Z</creationTime>
          </creationInfo>
        </arrival>
        <arrival publicID="quakeml:uw.anss.org/AssocArO/UW/3546388">
          <pickID>quakeml:uw.anss.org/Arrival/UW/3546388</pickID>
          <phase>P</phase>
          <azimuth>170.0</azimuth>
          <distance>0.403</distance>
          <timeResidual>-0.08</timeResidual>
          <creationInfo>
            <agencyID>UW</agencyID>
            <creationTime>2012-02-27T16:13:39.000000Z</creationTime>
          </creationInfo>
        </arrival>
        <arrival publicID="quakeml:uw.anss.org/AssocArO/UW/3546393">
          <pickID>quakeml:uw.anss.org/Arrival/UW/3546393</pickID>
          <phase>S</phase>
          <azimuth>170.0</azimuth>
          <distance>0.403</distance>
          <timeResidual>-0.81</timeResidual>
          <creationInfo>
            <agencyID>UW</agencyID>
            <creationTime>2012-02-27T16:13:39.000000Z</creationTime>
          </creationInfo>
        </arrival>
        <arrival publicID="quakeml:uw.anss.org/AssocArO/UW/3546398">
          <pickID>quakeml:uw.anss.org/Arrival/UW/3546398</pickID>
          <phase>P</phase>
          <timeResidual>0.45</timeResidual>
          <creationInfo>
            <agencyID>UW</agencyID>
            <creationTime>2012-02-27T16:13:39.000000Z</creationTime>
          </creationInfo>
        </arrival>
        <arrival publicID="quakeml:uw.anss.org/AssocArO/UW/3546403">
          <pickID>quakeml:uw.anss.org/Arrival/UW/3546403</pickID>
          <phase>P</phase>
          <azimuth>155.9</azimuth>
          <distance>0.8018</distance>
          <timeResidual>-0.03</timeResidual>
          <creationInfo>
            <agencyID>UW</agencyID>
            <creationTime>2012-02-27T16:13:39.000000Z</creationTime>
          </creationInfo>
        </arrival>
        <arrival publicID="quakeml:uw.anss.org/AssocArO/UW/3546408">
          <pickID>quakeml:uw.anss.org/Arrival/UW/3546408</pickID>
          <phase>S</phase>
          <azimuth>155.9</azimuth>
          <distance>0.8018</distance>
          <timeResidual>-0.63</timeResidual>
          <creationInfo>
            <agencyID>UW</agencyID>
            <creationTime>2012-02-27T16:13:39.000000Z</creationTime>
          </creationInfo>
        </arrival>
        <arrival publicID="quakeml:uw.anss.org/AssocArO/UW/3546413">
          <pickID>quakeml:uw.anss.org/Arrival/UW/3546413</pickID>
          <phase>P</phase>
          <azimuth>173.4</azimuth>
          <distance>1.387</distance>
          <timeResidual>0.69</timeResidual>
          <creationInfo>
            <agencyID>UW</agencyID>
            <creationTime>2012-02-27T16:13:39.000000Z</creationTime>
          </creationInfo>
        </arrival>
        <arrival publicID="quakeml:uw.anss.org/AssocArO/UW/3546418">
          <pickID>quakeml:uw.anss.org/Arrival/UW/3546418</pickID>
          <phase>S</phase>
          <azimuth>173.4</azimuth>
          <distance>1.387</distance>
          <timeResidual>1.31</timeResidual>
          <creationInfo>
            <agencyID>UW</agencyID>
            <creationTime>2012-02-27T16:13:39.000000Z</creationTime>
