<?xml version='1.0' encoding='utf-8'?>
<q:quakeml xmlns="http://quakeml.org/xmlns/bed/1.2" xmlns:q="http://quakeml.org/xmlns/quakeml/1.2" xmlns:ns0="http://anss.org/xmlns/catalog/0.1">
  <eventParameters publicID="smi:local/a72767a4-f944-4bae-b98d-6739c1c4d792">
    <event publicID="quakeml:uw.anss.org/Event/UW/10240538" ns0:datasource="uw" ns0:dataid="uw10240538" ns0:eventsource="uw" ns0:eventid="10240538">
      <preferredOriginID>quakeml:uw.anss.org/Origin/UW/517483</preferredOriginID>
      <preferredMagnitudeID>quakeml:uw.anss.org/Netmag/UW/431208</preferredMagnitudeID>
      <type>earthquake</type>
      <creationInfo>
        <agencyID>UW</agencyID>
        <creationTime>2012-02-27T16:07:14.000000Z</creationTime>
        <version>2</version>
      </creationInfo>
      <origin publicID="quakeml:uw.anss.org/Origin/UW/517483" ns0:datasource="uw" ns0:dataid="uw10240538" ns0:eventsource="uw" ns0:eventid="10240538">
        <time>
          <value>1989-02-14T21:41:10.550000Z</value>
          <uncertainty>0.01</uncertainty>
        </time>
        <latitude>
          <value>48.427</value>
          <uncertainty>0.03</uncertainty>
        </latitude>
        <longitude>
          <value>-122.2271667</value>
          <uncertainty>0.03</uncertainty>
        </longitude>
        <depth>
          <value>-841.0</value>
          <uncertainty>70.0</uncertainty>
        </depth>
        <depthType>operator assigned</depthType>
        <timeFixed>false</timeFixed>
        <epicenterFixed>false</epicenterFixed>
        <methodID>smi:uw.anss.org/origin/spong</methodID>
        <quality>
          <associatedPhaseCount>119</associatedPhaseCount>
          <usedPhaseCount>30</usedPhaseCount>
          <associatedStationCount>85</associatedStationCount>
          <usedStationCount>0</usedStationCount>
          <standardError>0.22</standardError>
          <azimuthalGap>56.0</azimuthalGap>
        </quality>
        <type>hypocenter</type>
        <evaluationMode>manual</evaluationMode>
        <evaluationStatus>final</evaluationStatus>
        <creationInfo>
          <agencyID>UW</agencyID>
          <creationTime>2012-02-27T16:07:14.000000Z</creationTime>
        </creationInfo>
        <originUncertainty>
          <preferredDescription>horizontal uncertainty</preferredDescription>
          <horizontalUncertainty>42.0</horizontalUncertainty>
        </originUncertainty>
        <arrival publicID="quakeml:uw.anss.org/AssocArO/UW/3464298">
          <pickID>quakeml:uw.anss.org/Arrival/UW/3464298</pickID>
          <phase>P</phase>
          <azimuth>215.7</azimuth>
          <distance>0.9572</distance>
          <timeResidual>-0.29</timeResidual>
          <creationInfo>
            <agencyID>UW</agencyID>
            <creationTime>2012-02-27T16:07:14.000000Z</creationTime>
          </creationInfo>
        </arrival>
        <arrival publicID="quakeml:uw.anss.org/AssocArO/UW/3464303">
          <pickID>quakeml:uw.anss.org/Arrival/UW/3464303</pickID>
          <phase>P</phase>
          <azimuth>304.9</azimuth>
          <timeResidual>-0.65</timeResidual>
          <creationInfo>
            <agencyID>UW</agencyID>
            <creationTime>2012-02-27T16:07:14.000000Z</creationTime>
          </creationInfo>
        </arrival>
        <arrival publicID="quakeml:uw.anss.org/AssocArO/UW/3464308">
          <pickID>quakeml:uw.anss.org/Arrival/UW/3464308</pickID>
          <phase>S</phase>
          <azimuth>304.9</azimuth>
          <timeResidual>-1.48</timeResidual>
          <creationInfo>
            <agencyID>UW</agencyID>
            <creationTime>2012-02-27T16:07:14.000000Z</creationTime>
          </creationInfo>
        </arrival>
        <arrival publicID="quakeml:uw.anss.org/AssocArO/UW/3464313">
          <pickID>quakeml:uw.anss.org/Arrival/UW/3464313</pickID>
          <phase>P</phase>
          <azimuth>105.2</azimuth>
          <distance>1.31</distance>
          <timeResidual>0.64</timeResidual>
          <creationInfo>
            <agencyID>UW</agencyID>
            <creationTime>2012-02-27T16:07:14.000000Z</creationTime>
          </creationInfo>
        </arrival>
        <arrival publicID="quakeml:uw.anss.org/AssocArO/UW/3464318">
          <pickID>quakeml:uw.anss.org/Arrival/UW/3464318</pickID>
          <phase>S</phase>
          <azimuth>105.2</azimuth>
          <distance>1.31</distance>
          <timeResidual>0.92</timeResidual>
          <creationInfo>
            <agencyID>UW</agencyID>
            <creationTime>2012-02-27T16:07:14.000000Z</creationTime>
          </creationInfo>
        </arrival>
        <arrival publicID="quakeml:uw.anss.org/AssocArO/UW/3464323">
          <pickID>quakeml:uw.anss.org/Arrival/UW/3464323</pickID>
          <phase>P</phase>
          <azimuth>344.8</azimuth>
          <timeResidual>0.03</timeResidual>
          <creationInfo>
            <agencyID>UW</agencyID>
            <creationTime>2012-02-27T16:07:14.000000Z</creationTime>
          </creationInfo>
        </arrival>
        <arrival publicID="quakeml:uw.anss.org/AssocArO/UW/3464328">
          <pickID>quakeml:uw.anss.org/Arrival/UW/3464328</pickID>
          <phase>P</phase>
          <azimuth>148.1</azimuth>
          <distance>2.224</distance>
          <timeResidual>-0.86</timeResidual>
          <creationInfo>
            <agencyID>UW</agencyID>
            <creationTime>2012-02-27T16:07:14.000000Z</creationTime>
          </creationInfo>
        </arrival>
        <arrival publicID="quakeml:uw.anss.org/AssocArO/UW/3464333">
          <pickID>quakeml:uw.anss.org/Arrival/UW/3464333</pickID>
          <phase>P</phase>
          <azimuth>175.7</azimuth>
          <distance>1.943</distance>
          <timeResidual>-0.08</timeResidual>
          <creationInfo>
            <agencyID>UW</agencyID>
            <creationTime>2012-02-27T16:07:14.000000Z</creationTime>
          </creationInfo>
        </arrival>
        <arrival publicID="quakeml:uw.anss.org/AssocArO/UW/3464338">
          <pickID>quakeml:uw.anss.org/Arrival/UW/3464338</pickID>
          <phase>P</phase>
          <azimuth>150.3</azimuth>
          <distance>1.943</distance>
          <timeResidual>-0.18</timeResidual>
          <creationInfo>
            <agencyID>UW</agencyID>
            <creationTime>2012-02-27T16:07:14.000000Z</creationTime>
          </creationInfo>
        </arrival>
        <arrival publicID="quakeml:uw.anss.org/AssocArO/UW/3464343">
          <pickID>quakeml:uw.anss.org/Arrival/UW/3464343</pickID>
          <phase>S</phase>
          <azimuth>150.3</azimuth>
          <distance>1.943</distance>
          <timeResidual>-0.08</timeResidual>
          <creationInfo>
            <agencyID>UW</agencyID>
            <creationTime>2012-02-27T16:07:14.000000Z</creationTime>
          </creationInfo>
        </arrival>
        <arrival publicID="quakeml:uw.anss.org/AssocArO/UW/3464348">
          <pickID>quakeml:uw.anss.org/Arrival/UW/3464348</pickID>
          <phase>P</phase>
          <azimuth>214.5</azimuth>
          <distance>1.339</distance>
          <timeResidual>-0.54</timeResidual>
          <creationInfo>
            <agencyID>UW</agencyID>
            <creationTime>2012-02-27T16:07:14.000000Z</creationTime>
          </creationInfo>
        </arrival>
        <arrival publicID="quakeml:uw.anss.org/AssocArO/UW/3464353">
          <pickID>quakeml:uw.anss.org/Arrival/UW/3464353</pickID>
          <phase>P</phase>
          <azimuth>178.7</azimuth>
          <distance>2.282</distance>
          <timeResidual>0.11</timeResidual>
          <creationInfo>
            <agencyID>UW</agencyID>
            <creationTime>2012-02-27T16:07:14.000000Z</creationTime>
          </creationInfo>
        </arrival>
        <arrival publicID="quakeml:uw.anss.org/AssocArO/UW/3464358">
          <pickID>quakeml:uw.anss.org/Arrival/UW/3464358</pickID>
          <phase>P</phase>
          <azimuth>185.5</azimuth>
          <distance>2.002</distance>
          <timeResidual>-0.6</timeResidual>
          <creationInfo>
            <agencyID>UW</agencyID>
            <creationTime>2012-02-27T16:07:14.000000Z</creationTime>
          </creationInfo>
        </arrival>
        <arrival publicID="quakeml:uw.anss.org/AssocArO/UW/3464363">
          <pickID>quakeml:uw.anss.org/Arrival/UW/3464363</pickID>
          <phase>P</phase>
          <azimuth>309.3</azimuth>
          <timeResidual>-0.21</timeResidual>
          <creationInfo>
            <agencyID>UW</agencyID>
            <creationTime>2012-02-27T16:07:14.000000Z</creationTime>
          </creationInfo>
        </arrival>
        <arrival publicID="quakeml:uw.anss.org/AssocArO/UW/3464368">
          <pickID>quakeml:uw.anss.org/Arrival/UW/3464368</pickID>
          <phase>P</phase>
          <timeResidual>-0.08</timeResidual>
          <creationInfo>
            <agencyID>UW</agencyID>
            <creationTime>2012-02-27T16:07:14.000000Z</creationTime>
          </creationInfo>
        </arrival>
        <arrival publicID="quakeml:uw.anss.org/AssocArO/UW/3464373">
          <pickID>quakeml:uw.anss.org/Arrival/UW/3464373</pickID>
          <phase>P</phase>
          <timeResidual>0.54</timeResidual>
          <creationInfo>
            <agencyID>UW</agencyID>
            <creationTime>2012-02-27T16:07:14.000000Z</creationTime>
          </creationInfo>
        </arrival>
        <arrival publicID="quakeml:uw.anss.org/AssocArO/UW/3464378">
          <pickID>quakeml:uw.anss.org/Arrival/UW/3464378</pickID>
          <phase>P</phase>
          <azimuth>144.2</azimuth>
          <distance>1.582</distance>
          <timeResidual>0.99</timeResidual>
          <creationInfo>
            <agencyID>UW</agencyID>
            <creationTime>2012-02-27T16:07:14.000000Z</creationTime>
          </creationInfo>
        </arrival>
        <arrival publicID="quakeml:uw.anss.org/AssocArO/UW/3464383">
          <pickID>quakeml:uw.anss.org/Arrival/UW/3464383</pickID>
          <phase>P</phase>
          <azimuth>120.3</azimuth>
          <distance>2.069</distance>
          <timeResidual>-0.18</timeResidual>
          <creationInfo>
            <agencyID>UW</agencyID>
            <creationTime>2012-02-27T16:07:14.000000Z</creationTime>
          </creationInfo>
        </arrival>
        <arrival publicID="quakeml:uw.anss.org/AssocArO/UW/3464388">
          <pickID>quakeml:uw.anss.org/Arrival/UW/3464388</pickID>
          <phase>S</phase>
          <azimuth>120.3</azimuth>
          <distance>2.069</distance>
          <timeResidual>3.29</timeResidual>
          <creationInfo>
            <agencyID>UW</agencyID>
            <creationTime>2012-02-27T16:07:14.000000Z</creationTime>
          </creationInfo>
        </arrival>
        <arrival publicID="quakeml:uw.anss.org/AssocArO/UW/3464393">
          <pickID>quakeml:uw.anss.org/Arrival/UW/3464393</pickID>
          <phase>P</phase>
          <azimuth>180.6</azimuth>
          <distance>3.273</distance>
          <timeResidual>0.63</timeResidual>
          <creationInfo>
            <agencyID>UW</agencyID>
            <creationTime>2012-02-27T16:07:14.000000Z</creationTime>
          </creationInfo>
        </arrival>
        <arrival publicID="quakeml:uw.anss.org/AssocArO/UW/3464398">
          <pickID>quakeml:uw.anss.org/Arrival/UW/3464398</pickID>
          <phase>P</phase>
          <azimuth>92.8</azimuth>
          <distance>0.07129</distance>
          <timeResidual>0.04</timeResidual>
          <creationInfo>
            <agencyID>UW</agencyID>
            <creationTime>2012-02-27T16:07:15.000000Z</creationTime>
          </creationInfo>
        </arrival>
        <arrival publicID="quakeml:uw.anss.org/AssocArO/UW/3464403">
          <pickID>quakeml:uw.anss.org/Arrival/UW/3464403</pickID>
          <phase>P</phase>
          <azimuth>179.4</azimuth>
          <distance>1.965</distance>
          <timeResidual>-0.19</timeResidual>
          <creationInfo>
            <agencyID>UW</agencyID>
            <creationTime>2012-02-27T16:07:15.000000Z</creationTime>
          </creationInfo>
        </arrival>
        <arrival publicID="quakeml:uw.anss.org/AssocArO/UW/3464408">
          <pickID>quakeml:uw.anss.org/Arrival/UW/3464408</pickID>
          <phase>S</phase>
          <azimuth>179.4</azimuth>
          <distance>1.965</distance>
          <timeResidual>-0.09</timeResidual>
          <creationInfo>
            <agencyID>UW</agencyID>
            <creationTime>2012-02-27T16:07:15.000000Z</creationTime>
          </creationInfo>
        </arrival>
        <arrival publicID="quakeml:uw.anss.org/AssocArO/UW/3464413">
          <pickID>quakeml:uw.anss.org/Arrival/UW/3464413</pickID>
          <phase>P</phase>
          <azimuth>166.5</azimuth>
          <timeResidual>0.04</timeResidual>
          <creationInfo>
            <agencyID>UW</agencyID>
            <creationTime>2012-02-27T16:07:15.000000Z</creationTime>
          </creationInfo>
        </arrival>
        <arrival publicID="quakeml:uw.anss.org/AssocArO/UW/3464418">
          <pickID>quakeml:uw.anss.org/Arrival/UW/3464418</pickID>
          <phase>P</phase>
          <timeResidual>-1.06</timeResidual>
          <creationInfo>
            <agencyID>UW</agencyID>
            <creationTime>2012-02-27T16:07:15.000000Z</creationTime>
          </creationInfo>
        </arrival>
        <arrival publicID="quakeml:uw.anss.org/AssocArO/UW/3464423">
          <pickID>quakeml:uw.anss.org/Arrival/UW/3464423</pickID>
          <phase>P</phase>
          <azimuth>173.4</azimuth>
          <distance>1.494</distance>
          <timeResidual>0.02</timeResidual>
          <creationInfo>
            <agencyID>UW</agencyID>
            <creationTime>2012-02-27T16:07:15.000000Z</creationTime>
          </creationInfo>
        </arrival>
        <arrival publicID="quakeml:uw.anss.org/AssocArO/UW/3464428">
          <pickID>quakeml:uw.anss.org/Arrival/UW/3464428</pickID>
          <phase>P</phase>
          <azimuth>170.3</azimuth>
          <distance>1.701</distance>
          <timeResidual>0.12</timeResidual>
          <creationInfo>
            <agencyID>UW</agencyID>
            <creationTime>2012-02-27T16:07:15.000000Z</creationTime>
          </creationInfo>
        </arrival>
        <arrival publicID="quakeml:uw.anss.org/AssocArO/UW/3464433">
          <pickID>quakeml:uw.anss.org/Arrival/UW/3464433</pickID>
          <phase>S</phase>
          <azimuth>170.3</azimuth>
          <distance>1.701</distance>
          <timeResidual>-1.3</timeResidual>
          <creationInfo>
            <agencyID>UW</agencyID>
            <creationTime>2012-02-27T16:07:15.000000Z</creationTime>
          </creationInfo>
        </arrival>
        <arrival publicID="quakeml:uw.anss.org/AssocArO/UW/3464438">
          <pickID>quakeml:uw.anss.org/Arrival/UW/3464438</pickID>
          <phase>P</phase>
          <timeResidual>0.05</timeResidual>
          <creationInfo>
            <agencyID>UW</agencyID>
            <creationTime>2012-02-27T16:07:15.000000Z</creationTime>
          </creationInfo>
        </arrival>
        <arrival publicID="quakeml:uw.anss.org/AssocArO/UW/3464443">
          <pickID>quakeml:uw.anss.org/Arrival/UW/3464443</pickID>
          <phase>S</phase>
          <timeResidual>0.25</timeResidual>
          <creationInfo>
            <agencyID>UW</agencyID>
            <creationTime>2012-02-27T16:07:15.000000Z</creationTime>
          </creationInfo>
        </arrival>
        <arrival publicID="quakeml:uw.anss.org/AssocArO/UW/3464448">
          <pickID>quakeml:uw.anss.org/Arrival/UW/3464448</pickID>
          <phase>P</phase>
          <azimuth>87.2</azimuth>
          <distance>0.4748</distance>
          <timeResidual>-0.13</timeResidual>
          <creationInfo>
            <agencyID>UW</agencyID>
            <creationTime>2012-02-27T16:07:15.000000Z</creationTime>
          </creationInfo>
        </arrival>
        <arrival publicID="quakeml:uw.anss.org/AssocArO/UW/3464453">
          <pickID>quakeml:uw.anss.org/Arrival/UW/3464453</pickID>
          <phase>P</phase>
          <azimuth>167.2</azimuth>
          <distance>1.917</distance>
          <timeResidual>0.34</timeResidual>
          <creationInfo>
            <agencyID>UW</agencyID>
            <creationTime>2012-02-27T16:07:15.000000Z</creationTime>
          </creationInfo>
        </arrival>
        <arrival publicID="quakeml:uw.anss.org/AssocArO/UW/3464458">
          <pickID>quakeml:uw.anss.org/Arrival/UW/3464458</pickID>
          <phase>S</phase>
          <azimuth>167.2</azimuth>
          <distance>1.917</distance>
          <timeResidual>0.46</timeResidual>
          <creationInfo>
            <agencyID>UW</agencyID>
            <creationTime>2012-02-27T16:07:15.000000Z</creationTime>
          </creationInfo>
        </arrival>
        <arrival publicID="quakeml:uw.anss.org/AssocArO/UW/3464463">
          <pickID>quakeml:uw.anss.org/Arrival/UW/3464463</pickID>
          <phase>P</phase>
          <azimuth>141.2</azimuth>
          <distance>2.81</distance>
          <timeResidual>-0.45</timeResidual>
          <creationInfo>
            <agencyID>UW</agencyID>
            <creationTime>2012-02-27T16:07:15.000000Z</creationTime>
          </creationInfo>
        </arrival>
        <arrival publicID="quakeml:uw.anss.org/AssocArO/UW/3464468">
          <pickID>quakeml:uw.anss.org/Arrival/UW/3464468</pickID>
          <phase>P</phase>
          <azimuth>164.7</azimuth>
          <distance>1.791</distance>
          <timeResidual>0.08</timeResidual>
          <creationInfo>
            <agencyID>UW</agencyID>
            <creationTime>2012-02-27T16:07:15.000000Z</creationTime>
          </creationInfo>
        </arrival>
        <arrival publicID="quakeml:uw.anss.org/AssocArO/UW/3464473">
          <pickID>quakeml:uw.anss.org/Arrival/UW/3464473</pickID>
          <phase>S</phase>
          <azimuth>164.7</azimuth>
          <distance>1.791</distance>
          <timeResidual>-0.43</timeResidual>
          <creationInfo>
            <agencyID>UW</agencyID>
            <creationTime>2012-02-27T16:07:15.000000Z</creationTime>
          </creationInfo>
        </arrival>
        <arrival publicID="quakeml:uw.anss.org/AssocArO/UW/3464478">
          <pickID>quakeml:uw.anss.org/Arrival/UW/3464478</pickID>
          <phase>P</phase>
          <azimuth>324.6</azimuth>
          <timeResidual>-0.28</timeResidual>
          <creationInfo>
            <agencyID>UW</agencyID>
            <creationTime>2012-02-27T16:07:15.000000Z</creationTime>
          </creationInfo>
        </arrival>
        <arrival publicID="quakeml:uw.anss.org/AssocArO/UW/3464483">
          <pickID>quakeml:uw.anss.org/Arrival/UW/3464483</pickID>
          <phase>S</phase>
          <azimuth>324.6</azimuth>
          <timeResidual>-0.97</timeResidual>
          <creationInfo>
            <agencyID>UW</agencyID>
            <creationTime>2012-02-27T16:07:15.000000Z</creationTime>
          </creationInfo>
        </arrival>
        <arrival publicID="quakeml:uw.anss.org/AssocArO/UW/3464488">
          <pickID>quakeml:uw.anss.org/Arrival/UW/3464488</pickID>
          <phase>P</phase>
          <azimuth>242.9</azimuth>
          <distance>1.486</distance>
          <timeResidual>0.91</timeResidual>
          <creationInfo>
            <agencyID>UW</agencyID>
            <creationTime>2012-02-27T16:07:15.000000Z</creationTime>
          </creationInfo>
        </arrival>
        <arrival publicID="quakeml:uw.anss.org/AssocArO/UW/3464493">
          <pickID>quakeml:uw.anss.org/Arrival/UW/3464493</pickID>
          <phase>S</phase>
          <azimuth>242.9</azimuth>
          <distance>1.486</distance>
          <timeResidual>3.23</timeResidual>
          <creationInfo>
            <agencyID>UW</agencyID>
            <creationTime>2012-02-27T16:07:15.000000Z</creationTime>
          </creationInfo>
        </arrival>
        <arrival publicID="quakeml:uw.anss.org/AssocArO/UW/3464498">
