<?xml version='1.0' encoding='utf-8'?>
<q:quakeml xmlns="http://quakeml.org/xmlns/bed/1.2" xmlns:q="http://quakeml.org/xmlns/quakeml/1.2" xmlns:ns0="http://anss.org/xmlns/catalog/0.1">
  <eventParameters publicID="smi:local/07126ec1-7026-4c9b-8bd3-3dc64ee8fea4">
    <event publicID="quakeml:uw.anss.org/Event/UW/10239508" ns0:datasource="uw" ns0:dataid="uw10239508" ns0:eventsource="uw" ns0:eventid="10239508">
      <preferredOriginID>quakeml:uw.anss.org/Origin/UW/516453</preferredOriginID>
      <preferredMagnitudeID>quakeml:uw.anss.org/Netmag/UW/430218</preferredMagnitudeID>
      <type>earthquake</type>
      <creationInfo>
        <agencyID>UW</agencyID>
        <creationTime>2012-02-27T16:05:19.000000Z</creationTime>
        <version>2</version>
      </creationInfo>
      <origin publicID="quakeml:uw.anss.org/Origin/UW/516453" ns0:datasource="uw" ns0:dataid="uw10239508" ns0:eventsource="uw" ns0:eventid="10239508">
        <time>
          <value>1989-03-06T03:09:53.910000Z</value>
          <uncertainty>0.1</uncertainty>
        </time>
        <latitude>
          <value>48.4298333</value>
          <uncertainty>0.33</uncertainty>
        </latitude>
        <longitude>
          <value>-122.2318333</value>
          <uncertainty>0.41</uncertainty>
        </longitude>
        <depth>
          <value>-821.0</value>
          <uncertainty>980.0</uncertainty>
        </depth>
        <depthType>from location</depthType>
        <timeFixed>false</timeFixed>
        <epicenterFixed>false</epicenterFixed>
        <methodID>smi:uw.anss.org/origin/spong</methodID>
        <quality>
          <associatedPhaseCount>120</associatedPhaseCount>
          <usedPhaseCount>30</usedPhaseCount>
          <associatedStationCount>97</associatedStationCount>
          <usedStationCount>0</usedStationCount>
          <standardError>0.23</standardError>
          <azimuthalGap>55.0</azimuthalGap>
        </quality>
        <type>hypocenter</type>
        <evaluationMode>manual</evaluationMode>
        <evaluationStatus>final</evaluationStatus>
        <creationInfo>
          <agencyID>UW</agencyID>
          <creationTime>2012-02-27T16:05:19.000000Z</creationTime>
        </creationInfo>
        <originUncertainty>
          <preferredDescription>horizontal uncertainty</preferredDescription>
          <horizontalUncertainty>526.0</horizontalUncertainty>
        </originUncertainty>
        <arrival publicID="quakeml:uw.anss.org/AssocArO/UW/3439418">
          <pickID>quakeml:uw.anss.org/Arrival/UW/3439418</pickID>
          <phase>P</phase>
          <azimuth>304.9</azimuth>
          <timeResidual>-0.68</timeResidual>
          <creationInfo>
            <agencyID>UW</agencyID>
            <creationTime>2012-02-27T16:05:19.000000Z</creationTime>
          </creationInfo>
        </arrival>
        <arrival publicID="quakeml:uw.anss.org/AssocArO/UW/3439423">
          <pickID>quakeml:uw.anss.org/Arrival/UW/3439423</pickID>
          <phase>S</phase>
          <azimuth>304.9</azimuth>
          <timeResidual>-1.3</timeResidual>
          <creationInfo>
            <agencyID>UW</agencyID>
            <creationTime>2012-02-27T16:05:19.000000Z</creationTime>
          </creationInfo>
        </arrival>
        <arrival publicID="quakeml:uw.anss.org/AssocArO/UW/3439433">
          <pickID>quakeml:uw.anss.org/Arrival/UW/3439433</pickID>
          <phase>P</phase>
          <azimuth>150.3</azimuth>
          <distance>1.947</distance>
          <timeResidual>-0.12</timeResidual>
          <creationInfo>
            <agencyID>UW</agencyID>
            <creationTime>2012-02-27T16:05:19.000000Z</creationTime>
          </creationInfo>
        </arrival>
        <arrival publicID="quakeml:uw.anss.org/AssocArO/UW/3439443">
          <pickID>quakeml:uw.anss.org/Arrival/UW/3439443</pickID>
          <phase>S</phase>
          <azimuth>150.3</azimuth>
          <distance>1.947</distance>
          <timeResidual>-0.14</timeResidual>
          <creationInfo>
            <agencyID>UW</agencyID>
            <creationTime>2012-02-27T16:05:19.000000Z</creationTime>
          </creationInfo>
        </arrival>
        <arrival publicID="quakeml:uw.anss.org/AssocArO/UW/3439458">
          <pickID>quakeml:uw.anss.org/Arrival/UW/3439458</pickID>
          <phase>P</phase>
          <azimuth>181.2</azimuth>
          <distance>1.389</distance>
          <timeResidual>-0.27</timeResidual>
          <creationInfo>
            <agencyID>UW</agencyID>
            <creationTime>2012-02-27T16:05:19.000000Z</creationTime>
          </creationInfo>
        </arrival>
        <arrival publicID="quakeml:uw.anss.org/AssocArO/UW/3439463">
          <pickID>quakeml:uw.anss.org/Arrival/UW/3439463</pickID>
          <phase>S</phase>
          <azimuth>181.2</azimuth>
          <distance>1.389</distance>
          <timeResidual>0.46</timeResidual>
          <creationInfo>
            <agencyID>UW</agencyID>
            <creationTime>2012-02-27T16:05:20.000000Z</creationTime>
          </creationInfo>
        </arrival>
        <arrival publicID="quakeml:uw.anss.org/AssocArO/UW/3439468">
          <pickID>quakeml:uw.anss.org/Arrival/UW/3439468</pickID>
          <phase>P</phase>
          <azimuth>145.6</azimuth>
          <distance>3.059</distance>
          <timeResidual>-0.85</timeResidual>
          <creationInfo>
            <agencyID>UW</agencyID>
            <creationTime>2012-02-27T16:05:20.000000Z</creationTime>
          </creationInfo>
        </arrival>
        <arrival publicID="quakeml:uw.anss.org/AssocArO/UW/3439473">
          <pickID>quakeml:uw.anss.org/Arrival/UW/3439473</pickID>
          <phase>P</phase>
          <azimuth>131.3</azimuth>
          <distance>2.915</distance>
          <timeResidual>-0.61</timeResidual>
          <creationInfo>
            <agencyID>UW</agencyID>
            <creationTime>2012-02-27T16:05:20.000000Z</creationTime>
          </creationInfo>
        </arrival>
        <arrival publicID="quakeml:uw.anss.org/AssocArO/UW/3439478">
          <pickID>quakeml:uw.anss.org/Arrival/UW/3439478</pickID>
          <phase>P</phase>
          <azimuth>199.4</azimuth>
          <distance>2.07</distance>
          <timeResidual>-0.4</timeResidual>
          <creationInfo>
            <agencyID>UW</agencyID>
            <creationTime>2012-02-27T16:05:20.000000Z</creationTime>
          </creationInfo>
        </arrival>
        <arrival publicID="quakeml:uw.anss.org/AssocArO/UW/3439483">
          <pickID>quakeml:uw.anss.org/Arrival/UW/3439483</pickID>
          <phase>P</phase>
          <azimuth>166.4</azimuth>
          <timeResidual>0.04</timeResidual>
          <creationInfo>
            <agencyID>UW</agencyID>
            <creationTime>2012-02-27T16:05:20.000000Z</creationTime>
          </creationInfo>
        </arrival>
        <arrival publicID="quakeml:uw.anss.org/AssocArO/UW/3439488">
          <pickID>quakeml:uw.anss.org/Arrival/UW/3439488</pickID>
          <phase>P</phase>
          <azimuth>203.1</azimuth>
          <distance>1.58</distance>
          <timeResidual>-0.72</timeResidual>
          <creationInfo>
            <agencyID>UW</agencyID>
            <creationTime>2012-02-27T16:05:20.000000Z</creationTime>
          </creationInfo>
        </arrival>
        <arrival publicID="quakeml:uw.anss.org/AssocArO/UW/3439493">
          <pickID>quakeml:uw.anss.org/Arrival/UW/3439493</pickID>
          <phase>S</phase>
          <azimuth>203.1</azimuth>
          <distance>1.58</distance>
          <timeResidual>-1.06</timeResidual>
          <creationInfo>
            <agencyID>UW</agencyID>
            <creationTime>2012-02-27T16:05:20.000000Z</creationTime>
          </creationInfo>
        </arrival>
        <arrival publicID="quakeml:uw.anss.org/AssocArO/UW/3439498">
          <pickID>quakeml:uw.anss.org/Arrival/UW/3439498</pickID>
          <phase>P</phase>
          <azimuth>173.2</azimuth>
          <distance>1.497</distance>
          <timeResidual>-0.08</timeResidual>
          <creationInfo>
            <agencyID>UW</agencyID>
            <creationTime>2012-02-27T16:05:20.000000Z</creationTime>
          </creationInfo>
        </arrival>
        <arrival publicID="quakeml:uw.anss.org/AssocArO/UW/3439503">
          <pickID>quakeml:uw.anss.org/Arrival/UW/3439503</pickID>
          <phase>P</phase>
          <azimuth>141.2</azimuth>
          <distance>2.814</distance>
          <timeResidual>-0.74</timeResidual>
          <creationInfo>
            <agencyID>UW</agencyID>
            <creationTime>2012-02-27T16:05:20.000000Z</creationTime>
          </creationInfo>
        </arrival>
        <arrival publicID="quakeml:uw.anss.org/AssocArO/UW/3439508">
          <pickID>quakeml:uw.anss.org/Arrival/UW/3439508</pickID>
          <phase>P</phase>
          <azimuth>180.7</azimuth>
          <distance>0.877</distance>
          <timeResidual>0.28</timeResidual>
          <creationInfo>
            <agencyID>UW</agencyID>
            <creationTime>2012-02-27T16:05:20.000000Z</creationTime>
          </creationInfo>
        </arrival>
        <arrival publicID="quakeml:uw.anss.org/AssocArO/UW/3439513">
          <pickID>quakeml:uw.anss.org/Arrival/UW/3439513</pickID>
          <phase>S</phase>
          <azimuth>180.7</azimuth>
          <distance>0.877</distance>
          <timeResidual>-0.93</timeResidual>
          <creationInfo>
            <agencyID>UW</agencyID>
            <creationTime>2012-02-27T16:05:20.000000Z</creationTime>
          </creationInfo>
        </arrival>
        <arrival publicID="quakeml:uw.anss.org/AssocArO/UW/3439518">
          <pickID>quakeml:uw.anss.org/Arrival/UW/3439518</pickID>
          <phase>P</phase>
          <azimuth>179.1</azimuth>
          <distance>2.257</distance>
          <timeResidual>0.09</timeResidual>
          <creationInfo>
            <agencyID>UW</agencyID>
            <creationTime>2012-02-27T16:05:20.000000Z</creationTime>
          </creationInfo>
        </arrival>
        <arrival publicID="quakeml:uw.anss.org/AssocArO/UW/3439523">
          <pickID>quakeml:uw.anss.org/Arrival/UW/3439523</pickID>
          <phase>P</phase>
          <azimuth>197.5</azimuth>
          <distance>2.925</distance>
          <timeResidual>-0.88</timeResidual>
          <creationInfo>
            <agencyID>UW</agencyID>
            <creationTime>2012-02-27T16:05:20.000000Z</creationTime>
          </creationInfo>
        </arrival>
        <arrival publicID="quakeml:uw.anss.org/AssocArO/UW/3439528">
          <pickID>quakeml:uw.anss.org/Arrival/UW/3439528</pickID>
          <phase>P</phase>
          <azimuth>188.8</azimuth>
          <distance>2.308</distance>
          <timeResidual>-0.14</timeResidual>
          <creationInfo>
            <agencyID>UW</agencyID>
            <creationTime>2012-02-27T16:05:20.000000Z</creationTime>
          </creationInfo>
        </arrival>
        <arrival publicID="quakeml:uw.anss.org/AssocArO/UW/3439533">
          <pickID>quakeml:uw.anss.org/Arrival/UW/3439533</pickID>
          <phase>S</phase>
          <azimuth>188.8</azimuth>
          <distance>2.308</distance>
          <timeResidual>0.29</timeResidual>
          <creationInfo>
            <agencyID>UW</agencyID>
            <creationTime>2012-02-27T16:05:20.000000Z</creationTime>
          </creationInfo>
        </arrival>
        <arrival publicID="quakeml:uw.anss.org/AssocArO/UW/3439538">
          <pickID>quakeml:uw.anss.org/Arrival/UW/3439538</pickID>
          <phase>P</phase>
          <azimuth>242.1</azimuth>
          <distance>0.2275</distance>
          <timeResidual>-0.02</timeResidual>
          <creationInfo>
            <agencyID>UW</agencyID>
            <creationTime>2012-02-27T16:05:20.000000Z</creationTime>
          </creationInfo>
        </arrival>
        <arrival publicID="quakeml:uw.anss.org/AssocArO/UW/3439543">
          <pickID>quakeml:uw.anss.org/Arrival/UW/3439543</pickID>
          <phase>P</phase>
          <azimuth>110.0</azimuth>
          <distance>2.033</distance>
          <timeResidual>2.14</timeResidual>
          <creationInfo>
            <agencyID>UW</agencyID>
            <creationTime>2012-02-27T16:05:20.000000Z</creationTime>
          </creationInfo>
        </arrival>
        <arrival publicID="quakeml:uw.anss.org/AssocArO/UW/3439548">
          <pickID>quakeml:uw.anss.org/Arrival/UW/3439548</pickID>
          <phase>P</phase>
          <azimuth>124.0</azimuth>
          <distance>2.545</distance>
          <timeResidual>-0.45</timeResidual>
          <creationInfo>
            <agencyID>UW</agencyID>
            <creationTime>2012-02-27T16:05:20.000000Z</creationTime>
          </creationInfo>
        </arrival>
        <arrival publicID="quakeml:uw.anss.org/AssocArO/UW/3439553">
          <pickID>quakeml:uw.anss.org/Arrival/UW/3439553</pickID>
          <phase>P</phase>
          <azimuth>134.8</azimuth>
          <distance>2.269</distance>
          <timeResidual>-0.4</timeResidual>
          <creationInfo>
            <agencyID>UW</agencyID>
            <creationTime>2012-02-27T16:05:20.000000Z</creationTime>
          </creationInfo>
        </arrival>
        <arrival publicID="quakeml:uw.anss.org/AssocArO/UW/3439558">
          <pickID>quakeml:uw.anss.org/Arrival/UW/3439558</pickID>
          <phase>P</phase>
          <timeResidual>-0.32</timeResidual>
          <creationInfo>
            <agencyID>UW</agencyID>
            <creationTime>2012-02-27T16:05:20.000000Z</creationTime>
          </creationInfo>
        </arrival>
        <arrival publicID="quakeml:uw.anss.org/AssocArO/UW/3439563">
          <pickID>quakeml:uw.anss.org/Arrival/UW/3439563</pickID>
          <phase>S</phase>
          <timeResidual>0.43</timeResidual>
          <creationInfo>
            <agencyID>UW</agencyID>
            <creationTime>2012-02-27T16:05:20.000000Z</creationTime>
          </creationInfo>
        </arrival>
        <arrival publicID="quakeml:uw.anss.org/AssocArO/UW/3439568">
          <pickID>quakeml:uw.anss.org/Arrival/UW/3439568</pickID>
          <phase>P</phase>
          <azimuth>179.2</azimuth>
          <distance>2.222</distance>
          <timeResidual>-0.16</timeResidual>
          <creationInfo>
            <agencyID>UW</agencyID>
            <creationTime>2012-02-27T16:05:20.000000Z</creationTime>
          </creationInfo>
        </arrival>
        <arrival publicID="quakeml:uw.anss.org/AssocArO/UW/3439573">
          <pickID>quakeml:uw.anss.org/Arrival/UW/3439573</pickID>
          <phase>P</phase>
          <azimuth>189.4</azimuth>
          <distance>1.797</distance>
          <timeResidual>-0.68</timeResidual>
          <creationInfo>
            <agencyID>UW</agencyID>
            <creationTime>2012-02-27T16:05:20.000000Z</creationTime>
          </creationInfo>
        </arrival>
        <arrival publicID="quakeml:uw.anss.org/AssocArO/UW/3439578">
          <pickID>quakeml:uw.anss.org/Arrival/UW/3439578</pickID>
          <phase>S</phase>
          <azimuth>189.4</azimuth>
          <distance>1.797</distance>
          <timeResidual>-0.5</timeResidual>
          <creationInfo>
            <agencyID>UW</agencyID>
            <creationTime>2012-02-27T16:05:20.000000Z</creationTime>
          </creationInfo>
        </arrival>
        <arrival publicID="quakeml:uw.anss.org/AssocArO/UW/3439583">
          <pickID>quakeml:uw.anss.org/Arrival/UW/3439583</pickID>
          <phase>P</phase>
          <azimuth>215.5</azimuth>
          <distance>0.9577</distance>
          <timeResidual>-0.31</timeResidual>
          <creationInfo>
            <agencyID>UW</agencyID>
            <creationTime>2012-02-27T16:05:20.000000Z</creationTime>
          </creationInfo>
        </arrival>
        <arrival publicID="quakeml:uw.anss.org/AssocArO/UW/3439588">
          <pickID>quakeml:uw.anss.org/Arrival/UW/3439588</pickID>
          <phase>P</phase>
          <azimuth>185.4</azimuth>
          <distance>2.005</distance>
          <timeResidual>-0.42</timeResidual>
          <creationInfo>
            <agencyID>UW</agencyID>
            <creationTime>2012-02-27T16:05:20.000000Z</creationTime>
          </creationInfo>
        </arrival>
        <arrival publicID="quakeml:uw.anss.org/AssocArO/UW/3439593">
          <pickID>quakeml:uw.anss.org/Arrival/UW/3439593</pickID>
          <phase>P</phase>
          <azimuth>133.4</azimuth>
          <distance>2.624</distance>
          <timeResidual>-1.14</timeResidual>
          <creationInfo>
            <agencyID>UW</agencyID>
            <creationTime>2012-02-27T16:05:20.000000Z</creationTime>
          </creationInfo>
        </arrival>
        <arrival publicID="quakeml:uw.anss.org/AssocArO/UW/3439598">
          <pickID>quakeml:uw.anss.org/Arrival/UW/3439598</pickID>
          <phase>P</phase>
          <timeResidual>0.52</timeResidual>
          <creationInfo>
            <agencyID>UW</agencyID>
            <creationTime>2012-02-27T16:05:20.000000Z</creationTime>
          </creationInfo>
        </arrival>
        <arrival publicID="quakeml:uw.anss.org/AssocArO/UW/3439603">
          <pickID>quakeml:uw.anss.org/Arrival/UW/3439603</pickID>
          <phase>P</phase>
          <azimuth>128.9</azimuth>
          <distance>2.505</distance>
          <timeResidual>-0.83</timeResidual>
          <creationInfo>
            <agencyID>UW</agencyID>
            <creationTime>2012-02-27T16:05:20.000000Z</creationTime>
          </creationInfo>
        </arrival>
        <arrival publicID="quakeml:uw.anss.org/AssocArO/UW/3439608">
          <pickID>quakeml:uw.anss.org/Arrival/UW/3439608</pickID>
          <phase>P</phase>
          <azimuth>94.8</azimuth>
          <distance>0.07458</distance>
          <timeResidual>0.05</timeResidual>
          <creationInfo>
            <agencyID>UW</agencyID>
            <creationTime>2012-02-27T16:05:20.000000Z</creationTime>
          </creationInfo>
        </arrival>
        <arrival publicID="quakeml:uw.anss.org/AssocArO/UW/3439613">
          <pickID>quakeml:uw.anss.org/Arrival/UW/3439613</pickID>
          <phase>P</phase>
          <azimuth>181.4</azimuth>
          <distance>1.763</distance>
          <timeResidual>-0.27</timeResidual>
          <creationInfo>
            <agencyID>UW</agencyID>
            <creationTime>2012-02-27T16:05:20.000000Z</creationTime>
          </creationInfo>
        </arrival>
        <arrival publicID="quakeml:uw.anss.org/AssocArO/UW/3439618">
          <pickID>quakeml:uw.anss.org/Arrival/UW/3439618</pickID>
          <phase>P</phase>
          <azimuth>177.3</azimuth>
          <distance>2.896</distance>
          <timeResidual>0.41</timeResidual>
          <creationInfo>
            <agencyID>UW</agencyID>
            <creationTime>2012-02-27T16:05:20.000000Z</creationTime>
          </creationInfo>
        </arrival>
        <arrival publicID="quakeml:uw.anss.org/AssocArO/UW/3439623">
          <pickID>quakeml:uw.anss.org/Arrival/UW/3439623</pickID>
          <phase>P</phase>
          <azimuth>178.6</azimuth>
          <distance>2.285</distance>
          <timeResidual>-0.01</timeResidual>
          <creationInfo>
            <agencyID>UW</agencyID>
            <creationTime>2012-02-27T16:05:20.000000Z</creationTime>
          </creationInfo>
        </arrival>
        <arrival publicID="quakeml:uw.anss.org/AssocArO/UW/3439628">
          <pickID>quakeml:uw.anss.org/Arrival/UW/3439628</pickID>
          <phase>S</phase>
          <azimuth>178.6</azimuth>
          <distance>2.285</distance>
          <timeResidual>-0.01</timeResidual>
          <creationInfo>
            <agencyID>UW</agencyID>
            <creationTime>2012-02-27T16:05:20.000000Z</creationTime>
          </creationInfo>
        </arrival>
        <arrival publicID="quakeml:uw.anss.org/AssocArO/UW/3439633">
          <pickID>quakeml:uw.anss.org/Arrival/UW/3439633</pickID>
          <phase>P</phase>
          <azimuth>238.6</azimuth>
