<?xml version='1.0' encoding='utf-8'?>
<q:quakeml xmlns="http://quakeml.org/xmlns/bed/1.2" xmlns:q="http://quakeml.org/xmlns/quakeml/1.2" xmlns:ns0="http://anss.org/xmlns/catalog/0.1">
  <eventParameters publicID="smi:local/128bb5a5-6333-4649-8724-6bf60c5db1b2">
    <event publicID="quakeml:uw.anss.org/Event/UW/10249948" ns0:datasource="uw" ns0:dataid="uw10249948" ns0:eventsource="uw" ns0:eventid="10249948">
      <preferredOriginID>quakeml:uw.anss.org/Origin/UW/526893</preferredOriginID>
      <preferredMagnitudeID>quakeml:uw.anss.org/Netmag/UW/440083</preferredMagnitudeID>
      <type>earthquake</type>
      <creationInfo>
        <agencyID>UW</agencyID>
        <creationTime>2012-02-27T16:25:49.000000Z</creationTime>
        <version>2</version>
      </creationInfo>
      <origin publicID="quakeml:uw.anss.org/Origin/UW/526893" ns0:datasource="uw" ns0:dataid="uw10249948" ns0:eventsource="uw" ns0:eventid="10249948">
        <time>
          <value>1989-10-18T18:32:36.020000Z</value>
          <uncertainty>0.01</uncertainty>
        </time>
        <latitude>
          <value>48.694</value>
          <uncertainty>0.05</uncertainty>
        </latitude>
        <longitude>
          <value>-122.4845</value>
          <uncertainty>0.05</uncertainty>
        </longitude>
        <depth>
          <value>-539.0</value>
          <uncertainty>130.0</uncertainty>
        </depth>
        <depthType>operator assigned</depthType>
        <timeFixed>false</timeFixed>
        <epicenterFixed>false</epicenterFixed>
        <methodID>smi:uw.anss.org/origin/spong</methodID>
        <quality>
          <associatedPhaseCount>48</associatedPhaseCount>
          <usedPhaseCount>27</usedPhaseCount>
          <associatedStationCount>36</associatedStationCount>
          <usedStationCount>0</usedStationCount>
          <standardError>0.2</standardError>
          <azimuthalGap>43.0</azimuthalGap>
        </quality>
        <type>hypocenter</type>
        <evaluationMode>manual</evaluationMode>
        <evaluationStatus>final</evaluationStatus>
        <creationInfo>
          <agencyID>UW</agencyID>
          <creationTime>2012-02-27T16:25:49.000000Z</creationTime>
        </creationInfo>
        <originUncertainty>
          <preferredDescription>horizontal uncertainty</preferredDescription>
          <horizontalUncertainty>71.0</horizontalUncertainty>
        </originUncertainty>
        <arrival publicID="quakeml:uw.anss.org/AssocArO/UW/3673613">
          <pickID>quakeml:uw.anss.org/Arrival/UW/3673613</pickID>
          <phase>P</phase>
          <azimuth>200.2</azimuth>
          <distance>1.114</distance>
          <timeResidual>-0.48</timeResidual>
          <creationInfo>
            <agencyID>UW</agencyID>
            <creationTime>2012-02-27T16:25:49.000000Z</creationTime>
          </creationInfo>
        </arrival>
        <arrival publicID="quakeml:uw.anss.org/AssocArO/UW/3673618">
          <pickID>quakeml:uw.anss.org/Arrival/UW/3673618</pickID>
          <phase>P</phase>
          <azimuth>298.5</azimuth>
          <timeResidual>-0.13</timeResidual>
          <creationInfo>
            <agencyID>UW</agencyID>
            <creationTime>2012-02-27T16:25:49.000000Z</creationTime>
          </creationInfo>
        </arrival>
        <arrival publicID="quakeml:uw.anss.org/AssocArO/UW/3673623">
          <pickID>quakeml:uw.anss.org/Arrival/UW/3673623</pickID>
          <phase>S</phase>
          <azimuth>298.5</azimuth>
          <timeResidual>-1.18</timeResidual>
          <creationInfo>
            <agencyID>UW</agencyID>
            <creationTime>2012-02-27T16:25:49.000000Z</creationTime>
          </creationInfo>
        </arrival>
        <arrival publicID="quakeml:uw.anss.org/AssocArO/UW/3673628">
          <pickID>quakeml:uw.anss.org/Arrival/UW/3673628</pickID>
          <phase>P</phase>
          <azimuth>353.9</azimuth>
          <timeResidual>0.21</timeResidual>
          <creationInfo>
            <agencyID>UW</agencyID>
            <creationTime>2012-02-27T16:25:49.000000Z</creationTime>
          </creationInfo>
        </arrival>
        <arrival publicID="quakeml:uw.anss.org/AssocArO/UW/3673633">
          <pickID>quakeml:uw.anss.org/Arrival/UW/3673633</pickID>
          <phase>S</phase>
          <azimuth>353.9</azimuth>
          <timeResidual>-0.16</timeResidual>
          <creationInfo>
            <agencyID>UW</agencyID>
            <creationTime>2012-02-27T16:25:49.000000Z</creationTime>
          </creationInfo>
        </arrival>
        <arrival publicID="quakeml:uw.anss.org/AssocArO/UW/3673638">
          <pickID>quakeml:uw.anss.org/Arrival/UW/3673638</pickID>
          <phase>P</phase>
          <azimuth>203.0</azimuth>
          <distance>1.492</distance>
          <timeResidual>0.38</timeResidual>
          <creationInfo>
            <agencyID>UW</agencyID>
            <creationTime>2012-02-27T16:25:49.000000Z</creationTime>
          </creationInfo>
        </arrival>
        <arrival publicID="quakeml:uw.anss.org/AssocArO/UW/3673643">
          <pickID>quakeml:uw.anss.org/Arrival/UW/3673643</pickID>
          <phase>P</phase>
          <timeResidual>0.39</timeResidual>
          <creationInfo>
            <agencyID>UW</agencyID>
            <creationTime>2012-02-27T16:25:49.000000Z</creationTime>
          </creationInfo>
        </arrival>
        <arrival publicID="quakeml:uw.anss.org/AssocArO/UW/3673648">
          <pickID>quakeml:uw.anss.org/Arrival/UW/3673648</pickID>
          <phase>P</phase>
          <azimuth>144.6</azimuth>
          <distance>1.898</distance>
          <timeResidual>0.98</timeResidual>
          <creationInfo>
            <agencyID>UW</agencyID>
            <creationTime>2012-02-27T16:25:49.000000Z</creationTime>
          </creationInfo>
        </arrival>
        <arrival publicID="quakeml:uw.anss.org/AssocArO/UW/3673653">
          <pickID>quakeml:uw.anss.org/Arrival/UW/3673653</pickID>
          <phase>P</phase>
          <azimuth>138.2</azimuth>
          <distance>0.3631</distance>
          <timeResidual>-0.26</timeResidual>
          <creationInfo>
            <agencyID>UW</agencyID>
            <creationTime>2012-02-27T16:25:49.000000Z</creationTime>
          </creationInfo>
        </arrival>
        <arrival publicID="quakeml:uw.anss.org/AssocArO/UW/3673658">
          <pickID>quakeml:uw.anss.org/Arrival/UW/3673658</pickID>
          <phase>S</phase>
          <azimuth>138.2</azimuth>
          <distance>0.3631</distance>
          <timeResidual>0.35</timeResidual>
          <creationInfo>
            <agencyID>UW</agencyID>
            <creationTime>2012-02-27T16:25:49.000000Z</creationTime>
          </creationInfo>
        </arrival>
        <arrival publicID="quakeml:uw.anss.org/AssocArO/UW/3673663">
          <pickID>quakeml:uw.anss.org/Arrival/UW/3673663</pickID>
          <phase>P</phase>
          <azimuth>162.6</azimuth>
          <timeResidual>-0.61</timeResidual>
          <creationInfo>
            <agencyID>UW</agencyID>
            <creationTime>2012-02-27T16:25:49.000000Z</creationTime>
          </creationInfo>
        </arrival>
        <arrival publicID="quakeml:uw.anss.org/AssocArO/UW/3673668">
          <pickID>quakeml:uw.anss.org/Arrival/UW/3673668</pickID>
          <phase>P</phase>
          <timeResidual>-0.12</timeResidual>
          <creationInfo>
            <agencyID>UW</agencyID>
            <creationTime>2012-02-27T16:25:49.000000Z</creationTime>
          </creationInfo>
        </arrival>
        <arrival publicID="quakeml:uw.anss.org/AssocArO/UW/3673673">
          <pickID>quakeml:uw.anss.org/Arrival/UW/3673673</pickID>
          <phase>P</phase>
          <azimuth>166.6</azimuth>
          <distance>1.997</distance>
          <timeResidual>-0.71</timeResidual>
          <creationInfo>
            <agencyID>UW</agencyID>
            <creationTime>2012-02-27T16:25:49.000000Z</creationTime>
          </creationInfo>
        </arrival>
        <arrival publicID="quakeml:uw.anss.org/AssocArO/UW/3673678">
          <pickID>quakeml:uw.anss.org/Arrival/UW/3673678</pickID>
          <phase>P</phase>
          <timeResidual>0.59</timeResidual>
          <creationInfo>
            <agencyID>UW</agencyID>
            <creationTime>2012-02-27T16:25:49.000000Z</creationTime>
          </creationInfo>
        </arrival>
        <arrival publicID="quakeml:uw.anss.org/AssocArO/UW/3673683">
          <pickID>quakeml:uw.anss.org/Arrival/UW/3673683</pickID>
          <phase>S</phase>
          <timeResidual>0.23</timeResidual>
          <creationInfo>
            <agencyID>UW</agencyID>
            <creationTime>2012-02-27T16:25:49.000000Z</creationTime>
          </creationInfo>
        </arrival>
        <arrival publicID="quakeml:uw.anss.org/AssocArO/UW/3673688">
          <pickID>quakeml:uw.anss.org/Arrival/UW/3673688</pickID>
          <phase>P</phase>
          <azimuth>110.6</azimuth>
          <distance>0.6894</distance>
          <timeResidual>0.01</timeResidual>
          <creationInfo>
            <agencyID>UW</agencyID>
            <creationTime>2012-02-27T16:25:49.000000Z</creationTime>
          </creationInfo>
        </arrival>
        <arrival publicID="quakeml:uw.anss.org/AssocArO/UW/3673693">
          <pickID>quakeml:uw.anss.org/Arrival/UW/3673693</pickID>
          <phase>P</phase>
          <azimuth>161.9</azimuth>
          <distance>2.097</distance>
          <timeResidual>-0.26</timeResidual>
          <creationInfo>
            <agencyID>UW</agencyID>
            <creationTime>2012-02-27T16:25:49.000000Z</creationTime>
          </creationInfo>
        </arrival>
        <arrival publicID="quakeml:uw.anss.org/AssocArO/UW/3673698">
          <pickID>quakeml:uw.anss.org/Arrival/UW/3673698</pickID>
          <phase>S</phase>
          <azimuth>161.9</azimuth>
          <distance>2.097</distance>
          <timeResidual>-2.23</timeResidual>
          <creationInfo>
            <agencyID>UW</agencyID>
            <creationTime>2012-02-27T16:25:49.000000Z</creationTime>
          </creationInfo>
        </arrival>
        <arrival publicID="quakeml:uw.anss.org/AssocArO/UW/3673703">
          <pickID>quakeml:uw.anss.org/Arrival/UW/3673703</pickID>
          <phase>P</phase>
          <azimuth>323.3</azimuth>
          <timeResidual>-0.07</timeResidual>
          <creationInfo>
            <agencyID>UW</agencyID>
            <creationTime>2012-02-27T16:25:49.000000Z</creationTime>
          </creationInfo>
        </arrival>
        <arrival publicID="quakeml:uw.anss.org/AssocArO/UW/3673708">
          <pickID>quakeml:uw.anss.org/Arrival/UW/3673708</pickID>
          <phase>S</phase>
          <azimuth>323.3</azimuth>
          <timeResidual>-0.99</timeResidual>
          <creationInfo>
            <agencyID>UW</agencyID>
            <creationTime>2012-02-27T16:25:49.000000Z</creationTime>
          </creationInfo>
        </arrival>
        <arrival publicID="quakeml:uw.anss.org/AssocArO/UW/3673713">
          <pickID>quakeml:uw.anss.org/Arrival/UW/3673713</pickID>
          <phase>P</phase>
          <azimuth>172.0</azimuth>
          <distance>1.152</distance>
          <timeResidual>0.12</timeResidual>
          <creationInfo>
            <agencyID>UW</agencyID>
            <creationTime>2012-02-27T16:25:49.000000Z</creationTime>
          </creationInfo>
        </arrival>
        <arrival publicID="quakeml:uw.anss.org/AssocArO/UW/3673718">
          <pickID>quakeml:uw.anss.org/Arrival/UW/3673718</pickID>
          <phase>P</phase>
          <azimuth>76.6</azimuth>
          <distance>0.3967</distance>
          <timeResidual>0.19</timeResidual>
          <creationInfo>
            <agencyID>UW</agencyID>
            <creationTime>2012-02-27T16:25:49.000000Z</creationTime>
          </creationInfo>
        </arrival>
        <arrival publicID="quakeml:uw.anss.org/AssocArO/UW/3673723">
          <pickID>quakeml:uw.anss.org/Arrival/UW/3673723</pickID>
          <phase>S</phase>
          <azimuth>76.6</azimuth>
          <distance>0.3967</distance>
          <timeResidual>1.22</timeResidual>
          <creationInfo>
            <agencyID>UW</agencyID>
            <creationTime>2012-02-27T16:25:49.000000Z</creationTime>
          </creationInfo>
        </arrival>
        <arrival publicID="quakeml:uw.anss.org/AssocArO/UW/3673728">
          <pickID>quakeml:uw.anss.org/Arrival/UW/3673728</pickID>
          <phase>P</phase>
          <azimuth>223.3</azimuth>
          <distance>1.199</distance>
          <timeResidual>-0.03</timeResidual>
          <creationInfo>
            <agencyID>UW</agencyID>
            <creationTime>2012-02-27T16:25:49.000000Z</creationTime>
          </creationInfo>
        </arrival>
        <arrival publicID="quakeml:uw.anss.org/AssocArO/UW/3673733">
          <pickID>quakeml:uw.anss.org/Arrival/UW/3673733</pickID>
          <phase>P</phase>
          <azimuth>333.9</azimuth>
          <timeResidual>0.04</timeResidual>
          <creationInfo>
            <agencyID>UW</agencyID>
            <creationTime>2012-02-27T16:25:49.000000Z</creationTime>
          </creationInfo>
        </arrival>
        <arrival publicID="quakeml:uw.anss.org/AssocArO/UW/3673738">
          <pickID>quakeml:uw.anss.org/Arrival/UW/3673738</pickID>
          <phase>S</phase>
          <azimuth>333.9</azimuth>
          <timeResidual>-1.14</timeResidual>
          <creationInfo>
            <agencyID>UW</agencyID>
            <creationTime>2012-02-27T16:25:49.000000Z</creationTime>
          </creationInfo>
        </arrival>
        <arrival publicID="quakeml:uw.anss.org/AssocArO/UW/3673743">
          <pickID>quakeml:uw.anss.org/Arrival/UW/3673743</pickID>
          <phase>P</phase>
          <azimuth>143.3</azimuth>
          <timeResidual>0.07</timeResidual>
          <creationInfo>
            <agencyID>UW</agencyID>
            <creationTime>2012-02-27T16:25:49.000000Z</creationTime>
          </creationInfo>
        </arrival>
        <arrival publicID="quakeml:uw.anss.org/AssocArO/UW/3673748">
          <pickID>quakeml:uw.anss.org/Arrival/UW/3673748</pickID>
          <phase>P</phase>
          <azimuth>143.5</azimuth>
          <distance>2.204</distance>
          <timeResidual>0.59</timeResidual>
          <creationInfo>
            <agencyID>UW</agencyID>
            <creationTime>2012-02-27T16:25:49.000000Z</creationTime>
          </creationInfo>
        </arrival>
        <arrival publicID="quakeml:uw.anss.org/AssocArO/UW/3673753">
          <pickID>quakeml:uw.anss.org/Arrival/UW/3673753</pickID>
          <phase>P</phase>
          <azimuth>162.4</azimuth>
          <timeResidual>-0.25</timeResidual>
          <creationInfo>
            <agencyID>UW</agencyID>
            <creationTime>2012-02-27T16:25:49.000000Z</creationTime>
          </creationInfo>
        </arrival>
        <arrival publicID="quakeml:uw.anss.org/AssocArO/UW/3673758">
          <pickID>quakeml:uw.anss.org/Arrival/UW/3673758</pickID>
          <phase>S</phase>
          <azimuth>162.4</azimuth>
          <timeResidual>-1.94</timeResidual>
          <creationInfo>
            <agencyID>UW</agencyID>
            <creationTime>2012-02-27T16:25:49.000000Z</creationTime>
          </creationInfo>
        </arrival>
        <arrival publicID="quakeml:uw.anss.org/AssocArO/UW/3673763">
          <pickID>quakeml:uw.anss.org/Arrival/UW/3673763</pickID>
          <phase>P</phase>
          <timeResidual>0.38</timeResidual>
          <creationInfo>
            <agencyID>UW</agencyID>
            <creationTime>2012-02-27T16:25:49.000000Z</creationTime>
          </creationInfo>
        </arrival>
        <arrival publicID="quakeml:uw.anss.org/AssocArO/UW/3673768">
          <pickID>quakeml:uw.anss.org/Arrival/UW/3673768</pickID>
          <phase>S</phase>
          <timeResidual>-0.27</timeResidual>
          <creationInfo>
            <agencyID>UW</agencyID>
            <creationTime>2012-02-27T16:25:49.000000Z</creationTime>
          </creationInfo>
        </arrival>
        <arrival publicID="quakeml:uw.anss.org/AssocArO/UW/3673773">
          <pickID>quakeml:uw.anss.org/Arrival/UW/3673773</pickID>
          <phase>P</phase>
          <azimuth>235.8</azimuth>
          <timeResidual>-0.21</timeResidual>
          <creationInfo>
            <agencyID>UW</agencyID>
            <creationTime>2012-02-27T16:25:49.000000Z</creationTime>
          </creationInfo>
        </arrival>
        <arrival publicID="quakeml:uw.anss.org/AssocArO/UW/3673778">
          <pickID>quakeml:uw.anss.org/Arrival/UW/3673778</pickID>
          <phase>S</phase>
          <azimuth>235.8</azimuth>
          <timeResidual>-0.6</timeResidual>
          <creationInfo>
            <agencyID>UW</agencyID>
            <creationTime>2012-02-27T16:25:49.000000Z</creationTime>
          </creationInfo>
        </arrival>
        <arrival publicID="quakeml:uw.anss.org/AssocArO/UW/3673783">
          <pickID>quakeml:uw.anss.org/Arrival/UW/3673783</pickID>
          <phase>P</phase>
          <azimuth>190.1</azimuth>
          <distance>1.165</distance>
          <timeResidual>-0.32</timeResidual>
          <creationInfo>
            <agencyID>UW</agencyID>
            <creationTime>2012-02-27T16:25:49.000000Z</creationTime>
          </creationInfo>
        </arrival>
        <arrival publicID="quakeml:uw.anss.org/AssocArO/UW/3673788">
          <pickID>quakeml:uw.anss.org/Arrival/UW/3673788</pickID>
          <phase>P</phase>
          <azimuth>175.0</azimuth>
          <distance>1.66</distance>
          <timeResidual>-0.77</timeResidual>
          <creationInfo>
            <agencyID>UW</agencyID>
            <creationTime>2012-02-27T16:25:49.000000Z</creationTime>
          </creationInfo>
        </arrival>
        <arrival publicID="quakeml:uw.anss.org/AssocArO/UW/3673793">
          <pickID>quakeml:uw.anss.org/Arrival/UW/3673793</pickID>
          <phase>P</phase>
          <azimuth>159.6</azimuth>
          <distance>1.316</distance>
          <timeResidual>-0.15</timeResidual>
          <creationInfo>
            <agencyID>UW</agencyID>
            <creationTime>2012-02-27T16:25:49.000000Z</creationTime>
          </creationInfo>
        </arrival>
        <arrival publicID="quakeml:uw.anss.org/AssocArO/UW/3673798">
          <pickID>quakeml:uw.anss.org/Arrival/UW/3673798</pickID>
          <phase>P</phase>
          <timeResidual>-0.69</timeResidual>
          <creationInfo>
            <agencyID>UW</agencyID>
            <creationTime>2012-02-27T16:25:49.000000Z</creationTime>
          </creationInfo>
        </arrival>
        <arrival publicID="quakeml:uw.anss.org/AssocArO/UW/3673803">
          <pickID>quakeml:uw.anss.org/Arrival/UW/3673803</pickID>
          <phase>P</phase>
          <azimuth>173.3</azimuth>
          <distance>2.596</distance>
          <timeResidual>0.19</timeResidual>
          <creationInfo>
            <agencyID>UW</agencyID>
            <creationTime>2012-02-27T16:25:49.000000Z</creationTime>
          </creationInfo>
        </arrival>
        <arrival publicID="quakeml:uw.anss.org/AssocArO/UW/3673808">
          <pickID>quakeml:uw.anss.org/Arrival/UW/3673808</pickID>
          <phase>P</phase>
          <azimuth>185.0</azimuth>
          <distance>0.3725</distance>
          <timeResidual>-0.1</timeResidual>
          <creationInfo>
            <agencyID>UW</agencyID>
            <creationTime>2012-02-27T16:25:49.000000Z</creationTime>
          </creationInfo>
        </arrival>
        <arrival publicID="quakeml:uw.anss.org/AssocArO/UW/3673813">
          <pickID>quakeml:uw.anss.org/Arrival/UW/3673813</pickID>
          <phase>S</phase>
          <azimuth>185.0</azimuth>
          <distance>0.3725</distance>
          <timeResidual>0.2</timeResidual>
          <creationInfo>
            <agencyID>UW</agencyID>
            <creationTime>2012-02-27T16:25:49.000000Z</creationTime>
          </creationInfo>
        </arrival>
