<?xml version='1.0' encoding='utf-8'?>
<q:quakeml xmlns="http://quakeml.org/xmlns/bed/1.2" xmlns:q="http://quakeml.org/xmlns/quakeml/1.2" xmlns:ns0="http://anss.org/xmlns/catalog/0.1">
  <eventParameters publicID="smi:local/70970ff5-73a0-4c1b-911d-eb07bd179e1f">
    <event publicID="quakeml:uw.anss.org/Event/UW/10252008" ns0:datasource="uw" ns0:dataid="uw10252008" ns0:eventsource="uw" ns0:eventid="10252008">
      <preferredOriginID>quakeml:uw.anss.org/Origin/UW/528953</preferredOriginID>
      <preferredMagnitudeID>quakeml:uw.anss.org/Netmag/UW/441948</preferredMagnitudeID>
      <type>earthquake</type>
      <creationInfo>
        <agencyID>UW</agencyID>
        <creationTime>2012-02-27T16:30:08.000000Z</creationTime>
        <version>3</version>
      </creationInfo>
      <origin publicID="quakeml:uw.anss.org/Origin/UW/528953" ns0:datasource="uw" ns0:dataid="uw10252008" ns0:eventsource="uw" ns0:eventid="10252008">
        <time>
          <value>1989-08-28T10:06:55.980000Z</value>
          <uncertainty>0.36</uncertainty>
        </time>
        <latitude>
          <value>48.744</value>
          <uncertainty>1.26</uncertainty>
        </latitude>
        <longitude>
          <value>-121.8081667</value>
          <uncertainty>2.19</uncertainty>
        </longitude>
        <depth>
          <value>18458.0</value>
          <uncertainty>2940.0</uncertainty>
        </depth>
        <depthType>from location</depthType>
        <timeFixed>false</timeFixed>
        <epicenterFixed>false</epicenterFixed>
        <methodID>smi:uw.anss.org/origin/spong</methodID>
        <quality>
          <associatedPhaseCount>19</associatedPhaseCount>
          <usedPhaseCount>7</usedPhaseCount>
          <associatedStationCount>15</associatedStationCount>
          <usedStationCount>0</usedStationCount>
          <standardError>0.19</standardError>
          <azimuthalGap>203.0</azimuthalGap>
        </quality>
        <type>hypocenter</type>
        <evaluationMode>manual</evaluationMode>
        <evaluationStatus>final</evaluationStatus>
        <creationInfo>
          <agencyID>UW</agencyID>
          <creationTime>2012-02-27T16:30:08.000000Z</creationTime>
        </creationInfo>
        <originUncertainty>
          <preferredDescription>horizontal uncertainty</preferredDescription>
          <horizontalUncertainty>2527.0</horizontalUncertainty>
        </originUncertainty>
        <arrival publicID="quakeml:uw.anss.org/AssocArO/UW/3712073">
          <pickID>quakeml:uw.anss.org/Arrival/UW/3712073</pickID>
          <phase>P</phase>
          <azimuth>217.7</azimuth>
          <distance>1.378</distance>
          <timeResidual>-0.9</timeResidual>
          <creationInfo>
            <agencyID>UW</agencyID>
            <creationTime>2012-02-27T16:30:08.000000Z</creationTime>
          </creationInfo>
        </arrival>
        <arrival publicID="quakeml:uw.anss.org/AssocArO/UW/3712078">
          <pickID>quakeml:uw.anss.org/Arrival/UW/3712078</pickID>
          <phase>P</phase>
          <azimuth>229.0</azimuth>
          <distance>0.64</distance>
          <timeResidual>0.29</timeResidual>
          <creationInfo>
            <agencyID>UW</agencyID>
            <creationTime>2012-02-27T16:30:08.000000Z</creationTime>
          </creationInfo>
        </arrival>
        <arrival publicID="quakeml:uw.anss.org/AssocArO/UW/3712083">
          <pickID>quakeml:uw.anss.org/Arrival/UW/3712083</pickID>
          <phase>P</phase>
          <azimuth>188.2</azimuth>
          <timeResidual>0.18</timeResidual>
          <creationInfo>
            <agencyID>UW</agencyID>
            <creationTime>2012-02-27T16:30:08.000000Z</creationTime>
          </creationInfo>
        </arrival>
        <arrival publicID="quakeml:uw.anss.org/AssocArO/UW/3712088">
          <pickID>quakeml:uw.anss.org/Arrival/UW/3712088</pickID>
          <phase>S</phase>
          <azimuth>188.2</azimuth>
          <timeResidual>0.21</timeResidual>
          <creationInfo>
            <agencyID>UW</agencyID>
            <creationTime>2012-02-27T16:30:08.000000Z</creationTime>
          </creationInfo>
        </arrival>
        <arrival publicID="quakeml:uw.anss.org/AssocArO/UW/3712093">
          <pickID>quakeml:uw.anss.org/Arrival/UW/3712093</pickID>
          <phase>P</phase>
          <azimuth>138.7</azimuth>
          <distance>1.509</distance>
          <timeResidual>-0.24</timeResidual>
          <creationInfo>
            <agencyID>UW</agencyID>
            <creationTime>2012-02-27T16:30:08.000000Z</creationTime>
          </creationInfo>
        </arrival>
        <arrival publicID="quakeml:uw.anss.org/AssocArO/UW/3712098">
          <pickID>quakeml:uw.anss.org/Arrival/UW/3712098</pickID>
          <phase>P</phase>
          <azimuth>146.6</azimuth>
          <distance>0.3544</distance>
          <timeResidual>-0.08</timeResidual>
          <creationInfo>
            <agencyID>UW</agencyID>
            <creationTime>2012-02-27T16:30:08.000000Z</creationTime>
          </creationInfo>
        </arrival>
        <arrival publicID="quakeml:uw.anss.org/AssocArO/UW/3712103">
          <pickID>quakeml:uw.anss.org/Arrival/UW/3712103</pickID>
          <phase>S</phase>
          <azimuth>146.6</azimuth>
          <distance>0.3544</distance>
          <timeResidual>0.6</timeResidual>
          <creationInfo>
            <agencyID>UW</agencyID>
            <creationTime>2012-02-27T16:30:08.000000Z</creationTime>
          </creationInfo>
        </arrival>
        <arrival publicID="quakeml:uw.anss.org/AssocArO/UW/3712128">
          <pickID>quakeml:uw.anss.org/Arrival/UW/3712128</pickID>
          <phase>P</phase>
          <azimuth>128.0</azimuth>
          <distance>1.508</distance>
          <timeResidual>0.88</timeResidual>
          <creationInfo>
            <agencyID>UW</agencyID>
            <creationTime>2012-02-27T16:30:08.000000Z</creationTime>
          </creationInfo>
        </arrival>
        <arrival publicID="quakeml:uw.anss.org/AssocArO/UW/3712138">
          <pickID>quakeml:uw.anss.org/Arrival/UW/3712138</pickID>
          <phase>P</phase>
          <azimuth>177.0</azimuth>
          <timeResidual>-0.61</timeResidual>
          <creationInfo>
            <agencyID>UW</agencyID>
            <creationTime>2012-02-27T16:30:08.000000Z</creationTime>
          </creationInfo>
        </arrival>
        <arrival publicID="quakeml:uw.anss.org/AssocArO/UW/3712153">
          <pickID>quakeml:uw.anss.org/Arrival/UW/3712153</pickID>
          <phase>P</phase>
          <azimuth>178.4</azimuth>
          <distance>0.9413</distance>
          <timeResidual>0.19</timeResidual>
          <creationInfo>
            <agencyID>UW</agencyID>
            <creationTime>2012-02-27T16:30:08.000000Z</creationTime>
          </creationInfo>
        </arrival>
        <arrival publicID="quakeml:uw.anss.org/AssocArO/UW/3712163">
          <pickID>quakeml:uw.anss.org/Arrival/UW/3712163</pickID>
          <phase>P</phase>
          <azimuth>264.9</azimuth>
          <distance>0.6816</distance>
          <timeResidual>-0.29</timeResidual>
          <creationInfo>
            <agencyID>UW</agencyID>
            <creationTime>2012-02-27T16:30:08.000000Z</creationTime>
          </creationInfo>
        </arrival>
        <arrival publicID="quakeml:uw.anss.org/AssocArO/UW/3712173">
          <pickID>quakeml:uw.anss.org/Arrival/UW/3712173</pickID>
          <phase>P</phase>
          <azimuth>152.3</azimuth>
          <distance>1.772</distance>
          <timeResidual>0.74</timeResidual>
          <creationInfo>
            <agencyID>UW</agencyID>
            <creationTime>2012-02-27T16:30:08.000000Z</creationTime>
          </creationInfo>
        </arrival>
        <arrival publicID="quakeml:uw.anss.org/AssocArO/UW/3712188">
          <pickID>quakeml:uw.anss.org/Arrival/UW/3712188</pickID>
          <phase>P</phase>
          <azimuth>212.9</azimuth>
          <distance>0.3819</distance>
          <timeResidual>-0.11</timeResidual>
          <creationInfo>
            <agencyID>UW</agencyID>
            <creationTime>2012-02-27T16:30:08.000000Z</creationTime>
          </creationInfo>
        </arrival>
        <arrival publicID="quakeml:uw.anss.org/AssocArO/UW/3712198">
          <pickID>quakeml:uw.anss.org/Arrival/UW/3712198</pickID>
          <phase>S</phase>
          <azimuth>212.9</azimuth>
          <distance>0.3819</distance>
          <timeResidual>0.42</timeResidual>
          <creationInfo>
            <agencyID>UW</agencyID>
            <creationTime>2012-02-27T16:30:08.000000Z</creationTime>
          </creationInfo>
        </arrival>
        <arrival publicID="quakeml:uw.anss.org/AssocArO/UW/3712218">
          <pickID>quakeml:uw.anss.org/Arrival/UW/3712218</pickID>
          <phase>P</phase>
          <azimuth>129.6</azimuth>
          <distance>1.622</distance>
          <timeResidual>0.97</timeResidual>
          <creationInfo>
            <agencyID>UW</agencyID>
            <creationTime>2012-02-27T16:30:08.000000Z</creationTime>
          </creationInfo>
        </arrival>
        <arrival publicID="quakeml:uw.anss.org/AssocArO/UW/3712228">
          <pickID>quakeml:uw.anss.org/Arrival/UW/3712228</pickID>
          <phase>P</phase>
          <azimuth>303.1</azimuth>
          <distance>0.07315</distance>
          <timeResidual>0.06</timeResidual>
          <creationInfo>
            <agencyID>UW</agencyID>
            <creationTime>2012-02-27T16:30:08.000000Z</creationTime>
          </creationInfo>
        </arrival>
        <arrival publicID="quakeml:uw.anss.org/AssocArO/UW/3712238">
          <pickID>quakeml:uw.anss.org/Arrival/UW/3712238</pickID>
          <phase>S</phase>
          <azimuth>303.1</azimuth>
          <distance>0.07315</distance>
          <timeResidual>3.03</timeResidual>
          <creationInfo>
            <agencyID>UW</agencyID>
            <creationTime>2012-02-27T16:30:08.000000Z</creationTime>
          </creationInfo>
        </arrival>
        <arrival publicID="quakeml:uw.anss.org/AssocArO/UW/3712253">
          <pickID>quakeml:uw.anss.org/Arrival/UW/3712253</pickID>
          <phase>P</phase>
          <azimuth>179.7</azimuth>
          <timeResidual>-0.48</timeResidual>
          <creationInfo>
            <agencyID>UW</agencyID>
            <creationTime>2012-02-27T16:30:08.000000Z</creationTime>
          </creationInfo>
        </arrival>
        <arrival publicID="quakeml:uw.anss.org/AssocArO/UW/3712268">
          <pickID>quakeml:uw.anss.org/Arrival/UW/3712268</pickID>
          <phase>S</phase>
          <azimuth>180.0</azimuth>
          <distance>1.285</distance>
          <timeResidual>0.44</timeResidual>
          <creationInfo>
            <agencyID>UW</agencyID>
            <creationTime>2012-02-27T16:30:08.000000Z</creationTime>
          </creationInfo>
        </arrival>
      </origin>
      <magnitude publicID="quakeml:uw.anss.org/Netmag/UW/441948">
        <mag>
          <value>2.0</value>
          <uncertainty>0.07</uncertainty>
        </mag>
        <type>Md</type>
        <originID>quakeml:uw.anss.org/Origin/UW/528953</originID>
        <methodID>smi:uw.anss.org/magnitude/Crosson</methodID>
        <stationCount>4</stationCount>
        <evaluationMode>manual</evaluationMode>
        <evaluationStatus>final</evaluationStatus>
        <stationMagnitudeContribution>
          <stationMagnitudeID>quakeml:uw.anss.org/AssocCoM/UW/1076013</stationMagnitudeID>
          <weight>1.0</weight>
          <residual>0.12</residual>
        </stationMagnitudeContribution>
        <stationMagnitudeContribution>
          <stationMagnitudeID>quakeml:uw.anss.org/AssocCoM/UW/1076033</stationMagnitudeID>
          <weight>1.0</weight>
          <residual>-0.22</residual>
        </stationMagnitudeContribution>
        <stationMagnitudeContribution>
          <stationMagnitudeID>quakeml:uw.anss.org/AssocCoM/UW/1076008</stationMagnitudeID>
          <weight>1.0</weight>
          <residual>-0.14</residual>
        </stationMagnitudeContribution>
        <stationMagnitudeContribution>
          <stationMagnitudeID>quakeml:uw.anss.org/AssocCoM/UW/1076028</stationMagnitudeID>
          <weight>1.0</weight>
          <residual>0.03</residual>
        </stationMagnitudeContribution>
        <creationInfo>
          <agencyID>UW</agencyID>
          <creationTime>2012-02-27T16:30:08.000000Z</creationTime>
        </creationInfo>
      </magnitude>
      <stationMagnitude publicID="quakeml:uw.anss.org/AssocCoM/UW/1076008">
        <originID>quakeml:uw.anss.org/Origin/UW/528953</originID>
        <mag>
          <value>1.86</value>
        </mag>
        <type>MD</type>
        <amplitudeID>quakeml:uw.anss.org/Coda/UW/1076008</amplitudeID>
        <waveformID networkCode="UW" stationCode="JCW" locationCode="" channelCode="EHZ"></waveformID>
      </stationMagnitude>
      <stationMagnitude publicID="quakeml:uw.anss.org/AssocCoM/UW/1076013">
        <originID>quakeml:uw.anss.org/Origin/UW/528953</originID>
        <mag>
          <value>2.12</value>
        </mag>
        <type>MD</type>
        <amplitudeID>quakeml:uw.anss.org/Coda/UW/1076013</amplitudeID>
        <waveformID networkCode="UW" stationCode="RPW" locationCode="" channelCode="EHZ"></waveformID>
      </stationMagnitude>
      <stationMagnitude publicID="quakeml:uw.anss.org/AssocCoM/UW/1076028">
        <originID>quakeml:uw.anss.org/Origin/UW/528953</originID>
        <mag>
          <value>2.03</value>
        </mag>
        <type>MD</type>
        <amplitudeID>quakeml:uw.anss.org/Coda/UW/1076028</amplitudeID>
        <waveformID networkCode="UW" stationCode="CMW" locationCode="" channelCode="EHZ"></waveformID>
      </stationMagnitude>
      <stationMagnitude publicID="quakeml:uw.anss.org/AssocCoM/UW/1076033">
        <originID>quakeml:uw.anss.org/Origin/UW/528953</originID>
        <mag>
          <value>1.78</value>
        </mag>
        <type>MD</type>
        <amplitudeID>quakeml:uw.anss.org/Coda/UW/1076033</amplitudeID>
        <waveformID networkCode="UW" stationCode="MBW" locationCode="" channelCode="EHZ"></waveformID>
      </stationMagnitude>
      <pick publicID="quakeml:uw.anss.org/Arrival/UW/3712073">
        <time>
          <value>1989-08-28T10:07:18.460000Z</value>
          <uncertainty>0.13</uncertainty>
        </time>
        <waveformID networkCode="UW" stationCode="HDW" locationCode="" channelCode="EHZ"></waveformID>
        <polarity>undecidable</polarity>
        <evaluationMode>manual</evaluationMode>
        <evaluationStatus>final</evaluationStatus>
        <creationInfo>
          <agencyID>UW</agencyID>
          <creationTime>2012-02-27T16:30:08.000000Z</creationTime>
        </creationInfo>
      </pick>
      <pick publicID="quakeml:uw.anss.org/Arrival/UW/3712078">
        <time>
          <value>1989-08-28T10:07:07.610000Z</value>
          <uncertainty>0.11</uncertainty>
        </time>
        <waveformID networkCode="UW" stationCode="OHW" locationCode="" channelCode="EHZ"></waveformID>
        <polarity>undecidable</polarity>
        <evaluationMode>manual</evaluationMode>
        <evaluationStatus>final</evaluationStatus>
        <creationInfo>
          <agencyID>UW</agencyID>
          <creationTime>2012-02-27T16:30:08.000000Z</creationTime>
        </creationInfo>
      </pick>
      <pick publicID="quakeml:uw.anss.org/Arrival/UW/3712083">
        <time>
          <value>1989-08-28T10:07:06.230000Z</value>
          <uncertainty>0.09</uncertainty>
        </time>
        <waveformID networkCode="UW" stationCode="JCW" locationCode="" channelCode="EHZ"></waveformID>
        <polarity>undecidable</polarity>
        <evaluationMode>manual</evaluationMode>
        <evaluationStatus>final</evaluationStatus>
        <creationInfo>
          <agencyID>UW</agencyID>
          <creationTime>2012-02-27T16:30:08.000000Z</creationTime>
        </creationInfo>
      </pick>
      <pick publicID="quakeml:uw.anss.org/Arrival/UW/3712088">
        <time>
          <value>1989-08-28T10:07:14.110000Z</value>
          <uncertainty>0.04</uncertainty>
        </time>
        <waveformID networkCode="UW" stationCode="JCW" locationCode="" channelCode="EHZ"></waveformID>
        <polarity>undecidable</polarity>
        <evaluationMode>manual</evaluationMode>
        <evaluationStatus>final</evaluationStatus>
        <creationInfo>
          <agencyID>UW</agencyID>
          <creationTime>2012-02-27T16:30:08.000000Z</creationTime>
        </creationInfo>
      </pick>
      <pick publicID="quakeml:uw.anss.org/Arrival/UW/3712093">
        <time>
          <value>1989-08-28T10:07:21.370000Z</value>
          <uncertainty>0.15</uncertainty>
        </time>
        <waveformID networkCode="UW" stationCode="ETW" locationCode="" channelCode="EHZ"></waveformID>
        <polarity>undecidable</polarity>
        <evaluationMode>manual</evaluationMode>
        <evaluationStatus>final</evaluationStatus>
        <creationInfo>
          <agencyID>UW</agencyID>
          <creationTime>2012-02-27T16:30:08.000000Z</creationTime>
        </creationInfo>
      </pick>
      <pick publicID="quakeml:uw.anss.org/Arrival/UW/3712098">
        <time>
          <value>1989-08-28T10:07:03.030000Z</value>
          <uncertainty>0.05</uncertainty>
        </time>
        <waveformID networkCode="UW" stationCode="RPW" locationCode="" channelCode="EHZ"></waveformID>
        <polarity>undecidable</polarity>
        <evaluationMode>manual</evaluationMode>
        <evaluationStatus>final</evaluationStatus>
        <creationInfo>
          <agencyID>UW</agencyID>
          <creationTime>2012-02-27T16:30:08.000000Z</creationTime>
        </creationInfo>
      </pick>
      <pick publicID="quakeml:uw.anss.org/Arrival/UW/3712103">
        <time>
          <value>1989-08-28T10:07:09.270000Z</value>
          <uncertainty>0.04</uncertainty>
        </time>
        <waveformID networkCode="UW" stationCode="RPW" locationCode="" channelCode="EHZ"></waveformID>
        <polarity>undecidable</polarity>
        <evaluationMode>manual</evaluationMode>
        <evaluationStatus>final</evaluationStatus>
        <creationInfo>
          <agencyID>UW</agencyID>
          <creationTime>2012-02-27T16:30:08.000000Z</creationTime>
        </creationInfo>
      </pick>
      <pick publicID="quakeml:uw.anss.org/Arrival/UW/3712128">
        <time>
          <value>1989-08-28T10:07:22.480000Z</value>
          <uncertainty>0.08</uncertainty>
        </time>
        <waveformID networkCode="UW" stationCode="CBS" locationCode="" channelCode="EHZ"></waveformID>
        <polarity>undecidable</polarity>
        <evaluationMode>manual</evaluationMode>
        <evaluationStatus>final</evaluationStatus>
        <creationInfo>
          <agencyID>UW</agencyID>
          <creationTime>2012-02-27T16:30:08.000000Z</creationTime>
        </creationInfo>
      </pick>
      <pick publicID="quakeml:uw.anss.org/Arrival/UW/3712138">
        <time>
          <value>1989-08-28T10:07:25.800000Z</value>
          <uncertainty>0.16</uncertainty>
        </time>
        <waveformID networkCode="UW" stationCode="FMW" locationCode="" channelCode="EHZ"></waveformID>
        <polarity>undecidable</polarity>
        <evaluationMode>manual</evaluationMode>
        <evaluationStatus>final</evaluationStatus>
        <creationInfo>
          <agencyID>UW</agencyID>
          <creationTime>2012-02-27T16:30:08.000000Z</creationTime>
        </creationInfo>
      </pick>
      <pick publicID="quakeml:uw.anss.org/Arrival/UW/3712153">
        <time>
          <value>1989-08-28T10:07:12.600000Z</value>
          <uncertainty>0.05</uncertainty>
        </time>
        <waveformID networkCode="UW" stationCode="HTW" locationCode="" channelCode="EHZ"></waveformID>
        <polarity>undecidable</polarity>
        <evaluationMode>manual</evaluationMode>
        <evaluationStatus>final</evaluationStatus>
        <creationInfo>
