<?xml version='1.0' encoding='utf-8'?>
<q:quakeml xmlns="http://quakeml.org/xmlns/bed/1.2" xmlns:q="http://quakeml.org/xmlns/quakeml/1.2" xmlns:ns0="http://anss.org/xmlns/catalog/0.1">
  <eventParameters publicID="smi:local/06b2f323-97c5-48f2-994a-32a6341b7211">
    <event publicID="quakeml:uw.anss.org/Event/UW/10176573" ns0:datasource="uw" ns0:dataid="uw10176573" ns0:eventsource="uw" ns0:eventid="10176573">
      <preferredOriginID>quakeml:uw.anss.org/Origin/UW/453498</preferredOriginID>
      <preferredMagnitudeID>quakeml:uw.anss.org/Netmag/UW/383898</preferredMagnitudeID>
      <type>earthquake</type>
      <creationInfo>
        <agencyID>UW</agencyID>
        <creationTime>2012-02-27T13:57:32.000000Z</creationTime>
        <version>3</version>
      </creationInfo>
      <origin publicID="quakeml:uw.anss.org/Origin/UW/453498" ns0:datasource="uw" ns0:dataid="uw10176573" ns0:eventsource="uw" ns0:eventid="10176573">
        <time>
          <value>1984-07-14T04:16:30.200000Z</value>
          <uncertainty>0.14</uncertainty>
        </time>
        <latitude>
          <value>48.6075</value>
          <uncertainty>0.8</uncertainty>
        </latitude>
        <longitude>
          <value>-122.0513333</value>
          <uncertainty>0.45</uncertainty>
        </longitude>
        <depth>
          <value>255.0</value>
          <uncertainty>1790.0</uncertainty>
        </depth>
        <depthType>from location</depthType>
        <timeFixed>false</timeFixed>
        <epicenterFixed>false</epicenterFixed>
        <methodID>smi:uw.anss.org/origin/spong</methodID>
        <quality>
          <associatedPhaseCount>34</associatedPhaseCount>
          <usedPhaseCount>16</usedPhaseCount>
          <associatedStationCount>24</associatedStationCount>
          <usedStationCount>0</usedStationCount>
          <standardError>0.21</standardError>
          <azimuthalGap>137.0</azimuthalGap>
        </quality>
        <type>hypocenter</type>
        <evaluationMode>manual</evaluationMode>
        <evaluationStatus>final</evaluationStatus>
        <creationInfo>
          <agencyID>UW</agencyID>
          <creationTime>2012-02-27T13:57:32.000000Z</creationTime>
        </creationInfo>
        <originUncertainty>
          <preferredDescription>horizontal uncertainty</preferredDescription>
          <horizontalUncertainty>918.0</horizontalUncertainty>
        </originUncertainty>
        <arrival publicID="quakeml:uw.anss.org/AssocArO/UW/2446648">
          <pickID>quakeml:uw.anss.org/Arrival/UW/2446648</pickID>
          <phase>P</phase>
          <azimuth>215.3</azimuth>
          <distance>1.172</distance>
          <timeResidual>-0.3</timeResidual>
          <creationInfo>
            <agencyID>UW</agencyID>
            <creationTime>2012-02-27T13:57:32.000000Z</creationTime>
          </creationInfo>
        </arrival>
        <arrival publicID="quakeml:uw.anss.org/AssocArO/UW/2446653">
          <pickID>quakeml:uw.anss.org/Arrival/UW/2446653</pickID>
          <phase>S</phase>
          <azimuth>215.3</azimuth>
          <distance>1.172</distance>
          <timeResidual>-0.51</timeResidual>
          <creationInfo>
            <agencyID>UW</agencyID>
            <creationTime>2012-02-27T13:57:32.000000Z</creationTime>
          </creationInfo>
        </arrival>
        <arrival publicID="quakeml:uw.anss.org/AssocArO/UW/2446658">
          <pickID>quakeml:uw.anss.org/Arrival/UW/2446658</pickID>
          <phase>P</phase>
          <azimuth>155.8</azimuth>
          <distance>2.051</distance>
          <timeResidual>0.77</timeResidual>
          <creationInfo>
            <agencyID>UW</agencyID>
            <creationTime>2012-02-27T13:57:32.000000Z</creationTime>
          </creationInfo>
        </arrival>
        <arrival publicID="quakeml:uw.anss.org/AssocArO/UW/2446663">
          <pickID>quakeml:uw.anss.org/Arrival/UW/2446663</pickID>
          <phase>P</phase>
          <azimuth>332.7</azimuth>
          <timeResidual>-0.36</timeResidual>
          <creationInfo>
            <agencyID>UW</agencyID>
            <creationTime>2012-02-27T13:57:32.000000Z</creationTime>
          </creationInfo>
        </arrival>
        <arrival publicID="quakeml:uw.anss.org/AssocArO/UW/2446668">
          <pickID>quakeml:uw.anss.org/Arrival/UW/2446668</pickID>
          <phase>S</phase>
          <azimuth>332.7</azimuth>
          <timeResidual>-1.32</timeResidual>
          <creationInfo>
            <agencyID>UW</agencyID>
            <creationTime>2012-02-27T13:57:32.000000Z</creationTime>
          </creationInfo>
        </arrival>
        <arrival publicID="quakeml:uw.anss.org/AssocArO/UW/2446673">
          <pickID>quakeml:uw.anss.org/Arrival/UW/2446673</pickID>
          <phase>P</phase>
          <azimuth>128.4</azimuth>
          <distance>1.515</distance>
          <timeResidual>0.03</timeResidual>
          <creationInfo>
            <agencyID>UW</agencyID>
            <creationTime>2012-02-27T13:57:32.000000Z</creationTime>
          </creationInfo>
        </arrival>
        <arrival publicID="quakeml:uw.anss.org/AssocArO/UW/2446678">
          <pickID>quakeml:uw.anss.org/Arrival/UW/2446678</pickID>
          <phase>P</phase>
          <timeResidual>0.0</timeResidual>
          <creationInfo>
            <agencyID>UW</agencyID>
            <creationTime>2012-02-27T13:57:32.000000Z</creationTime>
          </creationInfo>
        </arrival>
        <arrival publicID="quakeml:uw.anss.org/AssocArO/UW/2446683">
          <pickID>quakeml:uw.anss.org/Arrival/UW/2446683</pickID>
          <phase>S</phase>
          <timeResidual>0.26</timeResidual>
          <creationInfo>
            <agencyID>UW</agencyID>
            <creationTime>2012-02-27T13:57:32.000000Z</creationTime>
          </creationInfo>
        </arrival>
        <arrival publicID="quakeml:uw.anss.org/AssocArO/UW/2446688">
          <pickID>quakeml:uw.anss.org/Arrival/UW/2446688</pickID>
          <phase>P</phase>
          <azimuth>157.2</azimuth>
          <distance>1.483</distance>
          <timeResidual>0.05</timeResidual>
          <creationInfo>
            <agencyID>UW</agencyID>
            <creationTime>2012-02-27T13:57:32.000000Z</creationTime>
          </creationInfo>
        </arrival>
        <arrival publicID="quakeml:uw.anss.org/AssocArO/UW/2446693">
          <pickID>quakeml:uw.anss.org/Arrival/UW/2446693</pickID>
          <phase>P</phase>
          <timeResidual>0.17</timeResidual>
          <creationInfo>
            <agencyID>UW</agencyID>
            <creationTime>2012-02-27T13:57:32.000000Z</creationTime>
          </creationInfo>
        </arrival>
        <arrival publicID="quakeml:uw.anss.org/AssocArO/UW/2446698">
          <pickID>quakeml:uw.anss.org/Arrival/UW/2446698</pickID>
          <phase>S</phase>
          <timeResidual>-0.59</timeResidual>
          <creationInfo>
            <agencyID>UW</agencyID>
            <creationTime>2012-02-27T13:57:32.000000Z</creationTime>
          </creationInfo>
        </arrival>
        <arrival publicID="quakeml:uw.anss.org/AssocArO/UW/2446703">
          <pickID>quakeml:uw.anss.org/Arrival/UW/2446703</pickID>
          <phase>P</phase>
          <azimuth>171.6</azimuth>
          <distance>2.073</distance>
          <timeResidual>0.58</timeResidual>
          <creationInfo>
            <agencyID>UW</agencyID>
            <creationTime>2012-02-27T13:57:32.000000Z</creationTime>
          </creationInfo>
        </arrival>
        <arrival publicID="quakeml:uw.anss.org/AssocArO/UW/2446708">
          <pickID>quakeml:uw.anss.org/Arrival/UW/2446708</pickID>
          <phase>P</phase>
          <azimuth>112.2</azimuth>
          <distance>1.655</distance>
          <timeResidual>1.39</timeResidual>
          <creationInfo>
            <agencyID>UW</agencyID>
            <creationTime>2012-02-27T13:57:32.000000Z</creationTime>
          </creationInfo>
        </arrival>
        <arrival publicID="quakeml:uw.anss.org/AssocArO/UW/2446713">
          <pickID>quakeml:uw.anss.org/Arrival/UW/2446713</pickID>
          <phase>P</phase>
          <azimuth>29.3</azimuth>
          <distance>0.2027</distance>
          <timeResidual>-0.03</timeResidual>
          <creationInfo>
            <agencyID>UW</agencyID>
            <creationTime>2012-02-27T13:57:32.000000Z</creationTime>
          </creationInfo>
        </arrival>
        <arrival publicID="quakeml:uw.anss.org/AssocArO/UW/2446718">
          <pickID>quakeml:uw.anss.org/Arrival/UW/2446718</pickID>
          <phase>S</phase>
          <azimuth>29.3</azimuth>
          <distance>0.2027</distance>
          <timeResidual>0.11</timeResidual>
          <creationInfo>
            <agencyID>UW</agencyID>
            <creationTime>2012-02-27T13:57:32.000000Z</creationTime>
          </creationInfo>
        </arrival>
        <arrival publicID="quakeml:uw.anss.org/AssocArO/UW/2446723">
          <pickID>quakeml:uw.anss.org/Arrival/UW/2446723</pickID>
          <phase>P</phase>
          <azimuth>168.7</azimuth>
          <timeResidual>-0.02</timeResidual>
          <creationInfo>
            <agencyID>UW</agencyID>
            <creationTime>2012-02-27T13:57:32.000000Z</creationTime>
          </creationInfo>
        </arrival>
        <arrival publicID="quakeml:uw.anss.org/AssocArO/UW/2446728">
          <pickID>quakeml:uw.anss.org/Arrival/UW/2446728</pickID>
          <phase>P</phase>
          <azimuth>149.0</azimuth>
          <distance>1.972</distance>
          <timeResidual>0.7</timeResidual>
          <creationInfo>
            <agencyID>UW</agencyID>
            <creationTime>2012-02-27T13:57:32.000000Z</creationTime>
          </creationInfo>
        </arrival>
        <arrival publicID="quakeml:uw.anss.org/AssocArO/UW/2446733">
          <pickID>quakeml:uw.anss.org/Arrival/UW/2446733</pickID>
          <phase>P</phase>
          <azimuth>171.1</azimuth>
          <timeResidual>-0.39</timeResidual>
          <creationInfo>
            <agencyID>UW</agencyID>
            <creationTime>2012-02-27T13:57:32.000000Z</creationTime>
          </creationInfo>
        </arrival>
        <arrival publicID="quakeml:uw.anss.org/AssocArO/UW/2446738">
          <pickID>quakeml:uw.anss.org/Arrival/UW/2446738</pickID>
          <phase>S</phase>
          <azimuth>171.1</azimuth>
          <timeResidual>-1.19</timeResidual>
          <creationInfo>
            <agencyID>UW</agencyID>
            <creationTime>2012-02-27T13:57:32.000000Z</creationTime>
          </creationInfo>
        </arrival>
        <arrival publicID="quakeml:uw.anss.org/AssocArO/UW/2446743">
          <pickID>quakeml:uw.anss.org/Arrival/UW/2446743</pickID>
          <phase>P</phase>
          <azimuth>225.9</azimuth>
          <distance>0.8602</distance>
          <timeResidual>0.54</timeResidual>
          <creationInfo>
            <agencyID>UW</agencyID>
            <creationTime>2012-02-27T13:57:32.000000Z</creationTime>
          </creationInfo>
        </arrival>
        <arrival publicID="quakeml:uw.anss.org/AssocArO/UW/2446748">
          <pickID>quakeml:uw.anss.org/Arrival/UW/2446748</pickID>
          <phase>P</phase>
          <timeResidual>0.17</timeResidual>
          <creationInfo>
            <agencyID>UW</agencyID>
            <creationTime>2012-02-27T13:57:32.000000Z</creationTime>
          </creationInfo>
        </arrival>
        <arrival publicID="quakeml:uw.anss.org/AssocArO/UW/2446753">
          <pickID>quakeml:uw.anss.org/Arrival/UW/2446753</pickID>
          <phase>S</phase>
          <timeResidual>-0.4</timeResidual>
          <creationInfo>
            <agencyID>UW</agencyID>
            <creationTime>2012-02-27T13:57:32.000000Z</creationTime>
          </creationInfo>
        </arrival>
        <arrival publicID="quakeml:uw.anss.org/AssocArO/UW/2446758">
          <pickID>quakeml:uw.anss.org/Arrival/UW/2446758</pickID>
          <phase>P</phase>
          <azimuth>205.2</azimuth>
          <distance>1.17</distance>
          <timeResidual>-0.08</timeResidual>
          <creationInfo>
            <agencyID>UW</agencyID>
            <creationTime>2012-02-27T13:57:32.000000Z</creationTime>
          </creationInfo>
        </arrival>
        <arrival publicID="quakeml:uw.anss.org/AssocArO/UW/2446763">
          <pickID>quakeml:uw.anss.org/Arrival/UW/2446763</pickID>
          <phase>P</phase>
          <azimuth>171.8</azimuth>
          <distance>1.16</distance>
          <timeResidual>0.13</timeResidual>
          <creationInfo>
            <agencyID>UW</agencyID>
            <creationTime>2012-02-27T13:57:32.000000Z</creationTime>
          </creationInfo>
        </arrival>
        <arrival publicID="quakeml:uw.anss.org/AssocArO/UW/2446768">
          <pickID>quakeml:uw.anss.org/Arrival/UW/2446768</pickID>
          <phase>P</phase>
          <timeResidual>0.13</timeResidual>
          <creationInfo>
            <agencyID>UW</agencyID>
            <creationTime>2012-02-27T13:57:32.000000Z</creationTime>
          </creationInfo>
        </arrival>
        <arrival publicID="quakeml:uw.anss.org/AssocArO/UW/2446773">
          <pickID>quakeml:uw.anss.org/Arrival/UW/2446773</pickID>
          <phase>S</phase>
          <timeResidual>-0.07</timeResidual>
          <creationInfo>
            <agencyID>UW</agencyID>
            <creationTime>2012-02-27T13:57:32.000000Z</creationTime>
          </creationInfo>
        </arrival>
        <arrival publicID="quakeml:uw.anss.org/AssocArO/UW/2446778">
          <pickID>quakeml:uw.anss.org/Arrival/UW/2446778</pickID>
          <phase>P</phase>
          <azimuth>192.1</azimuth>
          <distance>1.994</distance>
          <timeResidual>-0.4</timeResidual>
          <creationInfo>
            <agencyID>UW</agencyID>
            <creationTime>2012-02-27T13:57:32.000000Z</creationTime>
          </creationInfo>
        </arrival>
        <arrival publicID="quakeml:uw.anss.org/AssocArO/UW/2446783">
          <pickID>quakeml:uw.anss.org/Arrival/UW/2446783</pickID>
          <phase>P</phase>
          <azimuth>184.9</azimuth>
          <distance>1.948</distance>
          <timeResidual>-0.23</timeResidual>
          <creationInfo>
            <agencyID>UW</agencyID>
            <creationTime>2012-02-27T13:57:32.000000Z</creationTime>
          </creationInfo>
        </arrival>
        <arrival publicID="quakeml:uw.anss.org/AssocArO/UW/2446788">
          <pickID>quakeml:uw.anss.org/Arrival/UW/2446788</pickID>
          <phase>S</phase>
          <azimuth>184.9</azimuth>
          <distance>1.948</distance>
          <timeResidual>-0.5</timeResidual>
          <creationInfo>
            <agencyID>UW</agencyID>
            <creationTime>2012-02-27T13:57:32.000000Z</creationTime>
          </creationInfo>
        </arrival>
        <arrival publicID="quakeml:uw.anss.org/AssocArO/UW/2446793">
          <pickID>quakeml:uw.anss.org/Arrival/UW/2446793</pickID>
          <phase>P</phase>
          <azimuth>166.7</azimuth>
          <distance>0.8262</distance>
          <timeResidual>0.01</timeResidual>
          <creationInfo>
            <agencyID>UW</agencyID>
            <creationTime>2012-02-27T13:57:32.000000Z</creationTime>
          </creationInfo>
        </arrival>
        <arrival publicID="quakeml:uw.anss.org/AssocArO/UW/2446798">
          <pickID>quakeml:uw.anss.org/Arrival/UW/2446798</pickID>
          <phase>P</phase>
          <azimuth>247.6</azimuth>
          <timeResidual>-0.21</timeResidual>
          <creationInfo>
            <agencyID>UW</agencyID>
            <creationTime>2012-02-27T13:57:32.000000Z</creationTime>
          </creationInfo>
        </arrival>
        <arrival publicID="quakeml:uw.anss.org/AssocArO/UW/2446803">
          <pickID>quakeml:uw.anss.org/Arrival/UW/2446803</pickID>
          <phase>S</phase>
          <azimuth>247.6</azimuth>
          <timeResidual>-0.95</timeResidual>
          <creationInfo>
            <agencyID>UW</agencyID>
            <creationTime>2012-02-27T13:57:32.000000Z</creationTime>
          </creationInfo>
        </arrival>
        <arrival publicID="quakeml:uw.anss.org/AssocArO/UW/2446808">
          <pickID>quakeml:uw.anss.org/Arrival/UW/2446808</pickID>
          <phase>P</phase>
          <azimuth>145.3</azimuth>
          <distance>1.739</distance>
          <timeResidual>0.24</timeResidual>
          <creationInfo>
            <agencyID>UW</agencyID>
            <creationTime>2012-02-27T13:57:32.000000Z</creationTime>
          </creationInfo>
        </arrival>
        <arrival publicID="quakeml:uw.anss.org/AssocArO/UW/2446813">
          <pickID>quakeml:uw.anss.org/Arrival/UW/2446813</pickID>
          <phase>P</phase>
          <azimuth>278.2</azimuth>
          <distance>0.5231</distance>
          <timeResidual>-0.17</timeResidual>
          <creationInfo>
            <agencyID>UW</agencyID>
            <creationTime>2012-02-27T13:57:32.000000Z</creationTime>
          </creationInfo>
        </arrival>
      </origin>
      <magnitude publicID="quakeml:uw.anss.org/Netmag/UW/383898">
        <mag>
          <value>2.4</value>
          <uncertainty>0.08</uncertainty>
        </mag>
        <type>Md</type>
        <originID>quakeml:uw.anss.org/Origin/UW/453498</originID>
        <methodID>smi:uw.anss.org/magnitude/Crosson</methodID>
        <stationCount>4</stationCount>
        <evaluationMode>manual</evaluationMode>
        <evaluationStatus>final</evaluationStatus>
        <stationMagnitudeContribution>
          <stationMagnitudeID>quakeml:uw.anss.org/AssocCoM/UW/806493</stationMagnitudeID>
          <weight>1.0</weight>
          <residual>-0.09</residual>
        </stationMagnitudeContribution>
        <stationMagnitudeContribution>
          <stationMagnitudeID>quakeml:uw.anss.org/AssocCoM/UW/806483</stationMagnitudeID>
          <weight>1.0</weight>
          <residual>-0.09</residual>
        </stationMagnitudeContribution>
        <stationMagnitudeContribution>
          <stationMagnitudeID>quakeml:uw.anss.org/AssocCoM/UW/806488</stationMagnitudeID>
          <weight>1.0</weight>
          <residual>0.13</residual>
        </stationMagnitudeContribution>
        <stationMagnitudeContribution>
          <stationMagnitudeID>quakeml:uw.anss.org/AssocCoM/UW/806498</stationMagnitudeID>
          <weight>1.0</weight>
          <residual>-0.12</residual>
        </stationMagnitudeContribution>
        <creationInfo>
          <agencyID>UW</agencyID>
          <creationTime>2012-02-27T13:57:32.000000Z</creationTime>
        </creationInfo>
      </magnitude>
      <stationMagnitude publicID="quakeml:uw.anss.org/AssocCoM/UW/806483">
        <originID>quakeml:uw.anss.org/Origin/UW/453498</originID>
        <mag>
          <value>2.31</value>
        </mag>
        <type>MD</type>
        <amplitudeID>quakeml:uw.anss.org/Coda/UW/806483</amplitudeID>
        <waveformID networkCode="UW" stationCode="MBW" locationCode="" channelCode="EHZ"></waveformID>
      </stationMagnitude>
      <stationMagnitude publicID="quakeml:uw.anss.org/AssocCoM/UW/806488">
        <originID>quakeml:uw.anss.org/Origin/UW/453498</originID>
        <mag>
          <value>2.53</value>
        </mag>
        <type>MD</type>
        <amplitudeID>quakeml:uw.anss.org/Coda/UW/806488</amplitudeID>
        <waveformID networkCode="UW" stationCode="JCW" locationCode="" channelCode="EHZ"></waveformID>
      </stationMagnitude>
      <stationMagnitude publicID="quakeml:uw.anss.org/AssocCoM/UW/806493">
        <originID>quakeml:uw.anss.org/Origin/UW/453498</originID>
        <mag>
          <value>2.31</value>
        </mag>
        <type>MD</type>
        <amplitudeID>quakeml:uw.anss.org/Coda/UW/806493</amplitudeID>
        <waveformID networkCode="UW" stationCode="FMW" locationCode="" channelCode="EHZ"></waveformID>
      </stationMagnitude>
      <stationMagnitude publicID="quakeml:uw.anss.org/AssocCoM/UW/806498">
        <originID>quakeml:uw.anss.org/Origin/UW/453498</originID>
        <mag>
