<?xml version='1.0' encoding='utf-8'?>
<q:quakeml xmlns="http://quakeml.org/xmlns/bed/1.2" xmlns:q="http://quakeml.org/xmlns/quakeml/1.2" xmlns:ns0="http://anss.org/xmlns/catalog/0.1">
  <eventParameters publicID="smi:local/348f0a25-c14c-43eb-88e9-4adb2f71397d">
    <event publicID="quakeml:uw.anss.org/Event/UW/10178713" ns0:datasource="uw" ns0:dataid="uw10178713" ns0:eventsource="uw" ns0:eventid="10178713">
      <preferredOriginID>quakeml:uw.anss.org/Origin/UW/455638</preferredOriginID>
      <preferredMagnitudeID>quakeml:uw.anss.org/Netmag/UW/385473</preferredMagnitudeID>
      <type>earthquake</type>
      <creationInfo>
        <agencyID>UW</agencyID>
        <creationTime>2012-02-27T14:00:51.000000Z</creationTime>
        <version>3</version>
      </creationInfo>
      <origin publicID="quakeml:uw.anss.org/Origin/UW/455638" ns0:datasource="uw" ns0:dataid="uw10178713" ns0:eventsource="uw" ns0:eventid="10178713">
        <time>
          <value>1984-06-24T23:08:10.390000Z</value>
          <uncertainty>0.37</uncertainty>
        </time>
        <latitude>
          <value>48.9923333</value>
          <uncertainty>1.93</uncertainty>
        </latitude>
        <longitude>
          <value>-121.5628333</value>
          <uncertainty>1.2</uncertainty>
        </longitude>
        <depth>
          <value>3684.0</value>
          <uncertainty>2700.0</uncertainty>
        </depth>
        <depthType>from location</depthType>
        <timeFixed>false</timeFixed>
        <epicenterFixed>false</epicenterFixed>
        <methodID>smi:uw.anss.org/origin/spong</methodID>
        <quality>
          <associatedPhaseCount>22</associatedPhaseCount>
          <usedPhaseCount>13</usedPhaseCount>
          <associatedStationCount>17</associatedStationCount>
          <usedStationCount>0</usedStationCount>
          <standardError>0.42</standardError>
          <azimuthalGap>191.0</azimuthalGap>
        </quality>
        <type>hypocenter</type>
        <evaluationMode>manual</evaluationMode>
        <evaluationStatus>final</evaluationStatus>
        <creationInfo>
          <agencyID>UW</agencyID>
          <creationTime>2012-02-27T14:00:51.000000Z</creationTime>
        </creationInfo>
        <originUncertainty>
          <preferredDescription>horizontal uncertainty</preferredDescription>
          <horizontalUncertainty>2273.0</horizontalUncertainty>
        </originUncertainty>
        <arrival publicID="quakeml:uw.anss.org/AssocArO/UW/2474913">
          <pickID>quakeml:uw.anss.org/Arrival/UW/2474913</pickID>
          <phase>P</phase>
          <azimuth>217.0</azimuth>
          <distance>1.674</distance>
          <timeResidual>0.19</timeResidual>
          <creationInfo>
            <agencyID>UW</agencyID>
            <creationTime>2012-02-27T14:00:51.000000Z</creationTime>
          </creationInfo>
        </arrival>
        <arrival publicID="quakeml:uw.anss.org/AssocArO/UW/2474918">
          <pickID>quakeml:uw.anss.org/Arrival/UW/2474918</pickID>
          <phase>P</phase>
          <azimuth>147.3</azimuth>
          <distance>1.584</distance>
          <timeResidual>0.14</timeResidual>
          <creationInfo>
            <agencyID>UW</agencyID>
            <creationTime>2012-02-27T14:00:51.000000Z</creationTime>
          </creationInfo>
        </arrival>
        <arrival publicID="quakeml:uw.anss.org/AssocArO/UW/2474923">
          <pickID>quakeml:uw.anss.org/Arrival/UW/2474923</pickID>
          <phase>P</phase>
          <azimuth>293.4</azimuth>
          <timeResidual>-0.52</timeResidual>
          <creationInfo>
            <agencyID>UW</agencyID>
            <creationTime>2012-02-27T14:00:51.000000Z</creationTime>
          </creationInfo>
        </arrival>
        <arrival publicID="quakeml:uw.anss.org/AssocArO/UW/2474928">
          <pickID>quakeml:uw.anss.org/Arrival/UW/2474928</pickID>
          <phase>S</phase>
          <azimuth>293.4</azimuth>
          <timeResidual>-1.31</timeResidual>
          <creationInfo>
            <agencyID>UW</agencyID>
            <creationTime>2012-02-27T14:00:51.000000Z</creationTime>
          </creationInfo>
        </arrival>
        <arrival publicID="quakeml:uw.anss.org/AssocArO/UW/2474933">
          <pickID>quakeml:uw.anss.org/Arrival/UW/2474933</pickID>
          <phase>P</phase>
          <timeResidual>0.94</timeResidual>
          <creationInfo>
            <agencyID>UW</agencyID>
            <creationTime>2012-02-27T14:00:51.000000Z</creationTime>
          </creationInfo>
        </arrival>
        <arrival publicID="quakeml:uw.anss.org/AssocArO/UW/2474938">
          <pickID>quakeml:uw.anss.org/Arrival/UW/2474938</pickID>
          <phase>P</phase>
          <azimuth>322.0</azimuth>
          <distance>1.454</distance>
          <timeResidual>-0.19</timeResidual>
          <creationInfo>
            <agencyID>UW</agencyID>
            <creationTime>2012-02-27T14:00:51.000000Z</creationTime>
          </creationInfo>
        </arrival>
        <arrival publicID="quakeml:uw.anss.org/AssocArO/UW/2474943">
          <pickID>quakeml:uw.anss.org/Arrival/UW/2474943</pickID>
          <phase>P</phase>
          <azimuth>224.0</azimuth>
          <distance>1.361</distance>
          <timeResidual>1.51</timeResidual>
          <creationInfo>
            <agencyID>UW</agencyID>
            <creationTime>2012-02-27T14:00:51.000000Z</creationTime>
          </creationInfo>
        </arrival>
        <arrival publicID="quakeml:uw.anss.org/AssocArO/UW/2474953">
          <pickID>quakeml:uw.anss.org/Arrival/UW/2474953</pickID>
          <phase>P</phase>
          <azimuth>239.7</azimuth>
          <timeResidual>0.05</timeResidual>
          <creationInfo>
            <agencyID>UW</agencyID>
            <creationTime>2012-02-27T14:00:51.000000Z</creationTime>
          </creationInfo>
        </arrival>
        <arrival publicID="quakeml:uw.anss.org/AssocArO/UW/2474963">
          <pickID>quakeml:uw.anss.org/Arrival/UW/2474963</pickID>
          <phase>P</phase>
          <azimuth>197.0</azimuth>
          <timeResidual>0.13</timeResidual>
          <creationInfo>
            <agencyID>UW</agencyID>
            <creationTime>2012-02-27T14:00:51.000000Z</creationTime>
          </creationInfo>
        </arrival>
        <arrival publicID="quakeml:uw.anss.org/AssocArO/UW/2474968">
          <pickID>quakeml:uw.anss.org/Arrival/UW/2474968</pickID>
          <phase>S</phase>
          <azimuth>197.0</azimuth>
          <timeResidual>-0.45</timeResidual>
          <creationInfo>
            <agencyID>UW</agencyID>
            <creationTime>2012-02-27T14:00:51.000000Z</creationTime>
          </creationInfo>
        </arrival>
        <arrival publicID="quakeml:uw.anss.org/AssocArO/UW/2474983">
          <pickID>quakeml:uw.anss.org/Arrival/UW/2474983</pickID>
          <phase>P</phase>
          <azimuth>186.6</azimuth>
          <distance>1.197</distance>
          <timeResidual>0.72</timeResidual>
          <creationInfo>
            <agencyID>UW</agencyID>
            <creationTime>2012-02-27T14:00:51.000000Z</creationTime>
          </creationInfo>
        </arrival>
        <arrival publicID="quakeml:uw.anss.org/AssocArO/UW/2474998">
          <pickID>quakeml:uw.anss.org/Arrival/UW/2474998</pickID>
          <phase>P</phase>
          <timeResidual>0.12</timeResidual>
          <creationInfo>
            <agencyID>UW</agencyID>
            <creationTime>2012-02-27T14:00:51.000000Z</creationTime>
          </creationInfo>
        </arrival>
        <arrival publicID="quakeml:uw.anss.org/AssocArO/UW/2475008">
          <pickID>quakeml:uw.anss.org/Arrival/UW/2475008</pickID>
          <phase>S</phase>
          <timeResidual>0.31</timeResidual>
          <creationInfo>
            <agencyID>UW</agencyID>
            <creationTime>2012-02-27T14:00:51.000000Z</creationTime>
          </creationInfo>
        </arrival>
        <arrival publicID="quakeml:uw.anss.org/AssocArO/UW/2475013">
          <pickID>quakeml:uw.anss.org/Arrival/UW/2475013</pickID>
          <phase>P</phase>
          <azimuth>138.9</azimuth>
          <distance>1.564</distance>
          <timeResidual>-0.4</timeResidual>
          <creationInfo>
            <agencyID>UW</agencyID>
            <creationTime>2012-02-27T14:00:51.000000Z</creationTime>
          </creationInfo>
        </arrival>
        <arrival publicID="quakeml:uw.anss.org/AssocArO/UW/2475018">
          <pickID>quakeml:uw.anss.org/Arrival/UW/2475018</pickID>
          <phase>P</phase>
          <azimuth>182.1</azimuth>
          <timeResidual>1.12</timeResidual>
          <creationInfo>
            <agencyID>UW</agencyID>
            <creationTime>2012-02-27T14:00:51.000000Z</creationTime>
          </creationInfo>
        </arrival>
        <arrival publicID="quakeml:uw.anss.org/AssocArO/UW/2475023">
          <pickID>quakeml:uw.anss.org/Arrival/UW/2475023</pickID>
          <phase>P</phase>
          <azimuth>249.9</azimuth>
          <distance>0.8956</distance>
          <timeResidual>0.5</timeResidual>
          <creationInfo>
            <agencyID>UW</agencyID>
            <creationTime>2012-02-27T14:00:51.000000Z</creationTime>
          </creationInfo>
        </arrival>
        <arrival publicID="quakeml:uw.anss.org/AssocArO/UW/2475028">
          <pickID>quakeml:uw.anss.org/Arrival/UW/2475028</pickID>
          <phase>S</phase>
          <azimuth>249.9</azimuth>
          <distance>0.8956</distance>
          <timeResidual>0.38</timeResidual>
          <creationInfo>
            <agencyID>UW</agencyID>
            <creationTime>2012-02-27T14:00:51.000000Z</creationTime>
          </creationInfo>
        </arrival>
        <arrival publicID="quakeml:uw.anss.org/AssocArO/UW/2475043">
          <pickID>quakeml:uw.anss.org/Arrival/UW/2475043</pickID>
          <phase>P</phase>
          <azimuth>152.6</azimuth>
          <distance>1.358</distance>
          <timeResidual>0.09</timeResidual>
          <creationInfo>
            <agencyID>UW</agencyID>
            <creationTime>2012-02-27T14:00:51.000000Z</creationTime>
          </creationInfo>
        </arrival>
        <arrival publicID="quakeml:uw.anss.org/AssocArO/UW/2475053">
          <pickID>quakeml:uw.anss.org/Arrival/UW/2475053</pickID>
          <phase>P</phase>
          <azimuth>139.8</azimuth>
          <distance>1.681</distance>
          <timeResidual>0.31</timeResidual>
          <creationInfo>
            <agencyID>UW</agencyID>
            <creationTime>2012-02-27T14:00:51.000000Z</creationTime>
          </creationInfo>
        </arrival>
        <arrival publicID="quakeml:uw.anss.org/AssocArO/UW/2475063">
          <pickID>quakeml:uw.anss.org/Arrival/UW/2475063</pickID>
          <phase>P</phase>
          <azimuth>227.0</azimuth>
          <distance>0.3055</distance>
          <timeResidual>-0.22</timeResidual>
          <creationInfo>
            <agencyID>UW</agencyID>
            <creationTime>2012-02-27T14:00:51.000000Z</creationTime>
          </creationInfo>
        </arrival>
        <arrival publicID="quakeml:uw.anss.org/AssocArO/UW/2475073">
          <pickID>quakeml:uw.anss.org/Arrival/UW/2475073</pickID>
          <phase>S</phase>
          <azimuth>227.0</azimuth>
          <distance>0.3055</distance>
          <timeResidual>-0.39</timeResidual>
          <creationInfo>
            <agencyID>UW</agencyID>
            <creationTime>2012-02-27T14:00:51.000000Z</creationTime>
          </creationInfo>
        </arrival>
        <arrival publicID="quakeml:uw.anss.org/AssocArO/UW/2475088">
          <pickID>quakeml:uw.anss.org/Arrival/UW/2475088</pickID>
          <phase>P</phase>
          <azimuth>131.1</azimuth>
          <distance>1.936</distance>
          <timeResidual>1.17</timeResidual>
          <creationInfo>
            <agencyID>UW</agencyID>
            <creationTime>2012-02-27T14:00:51.000000Z</creationTime>
          </creationInfo>
        </arrival>
      </origin>
      <magnitude publicID="quakeml:uw.anss.org/Netmag/UW/385473">
        <mag>
          <value>1.8</value>
          <uncertainty>0.13</uncertainty>
        </mag>
        <type>Md</type>
        <originID>quakeml:uw.anss.org/Origin/UW/455638</originID>
        <methodID>smi:uw.anss.org/magnitude/Crosson</methodID>
        <stationCount>4</stationCount>
        <evaluationMode>manual</evaluationMode>
        <evaluationStatus>final</evaluationStatus>
        <stationMagnitudeContribution>
          <stationMagnitudeID>quakeml:uw.anss.org/AssocCoM/UW/812348</stationMagnitudeID>
          <weight>1.0</weight>
          <residual>0.19</residual>
        </stationMagnitudeContribution>
        <stationMagnitudeContribution>
          <stationMagnitudeID>quakeml:uw.anss.org/AssocCoM/UW/812363</stationMagnitudeID>
          <weight>1.0</weight>
          <residual>0.06</residual>
        </stationMagnitudeContribution>
        <stationMagnitudeContribution>
          <stationMagnitudeID>quakeml:uw.anss.org/AssocCoM/UW/812353</stationMagnitudeID>
          <weight>1.0</weight>
          <residual>0.06</residual>
        </stationMagnitudeContribution>
        <stationMagnitudeContribution>
          <stationMagnitudeID>quakeml:uw.anss.org/AssocCoM/UW/812358</stationMagnitudeID>
          <weight>1.0</weight>
          <residual>-0.59</residual>
        </stationMagnitudeContribution>
        <creationInfo>
          <agencyID>UW</agencyID>
          <creationTime>2012-02-27T14:00:51.000000Z</creationTime>
        </creationInfo>
      </magnitude>
      <stationMagnitude publicID="quakeml:uw.anss.org/AssocCoM/UW/812348">
        <originID>quakeml:uw.anss.org/Origin/UW/455638</originID>
        <mag>
          <value>1.99</value>
        </mag>
        <type>MD</type>
        <amplitudeID>quakeml:uw.anss.org/Coda/UW/812348</amplitudeID>
        <waveformID networkCode="UW" stationCode="JCW" locationCode="" channelCode="EHZ"></waveformID>
      </stationMagnitude>
      <stationMagnitude publicID="quakeml:uw.anss.org/AssocCoM/UW/812353">
        <originID>quakeml:uw.anss.org/Origin/UW/455638</originID>
        <mag>
          <value>1.86</value>
        </mag>
        <type>MD</type>
        <amplitudeID>quakeml:uw.anss.org/Coda/UW/812353</amplitudeID>
        <waveformID networkCode="UW" stationCode="HTW" locationCode="" channelCode="EHZ"></waveformID>
      </stationMagnitude>
      <stationMagnitude publicID="quakeml:uw.anss.org/AssocCoM/UW/812358">
        <originID>quakeml:uw.anss.org/Origin/UW/455638</originID>
        <mag>
          <value>1.21</value>
        </mag>
        <type>MD</type>
        <amplitudeID>quakeml:uw.anss.org/Coda/UW/812358</amplitudeID>
        <waveformID networkCode="UW" stationCode="MCW" locationCode="" channelCode="EHZ"></waveformID>
      </stationMagnitude>
      <stationMagnitude publicID="quakeml:uw.anss.org/AssocCoM/UW/812363">
        <originID>quakeml:uw.anss.org/Origin/UW/455638</originID>
        <mag>
          <value>1.86</value>
        </mag>
        <type>MD</type>
        <amplitudeID>quakeml:uw.anss.org/Coda/UW/812363</amplitudeID>
        <waveformID networkCode="UW" stationCode="MBW" locationCode="" channelCode="EHZ"></waveformID>
      </stationMagnitude>
      <pick publicID="quakeml:uw.anss.org/Arrival/UW/2474913">
        <time>
          <value>1984-06-24T23:08:39.550000Z</value>
          <uncertainty>0.26</uncertainty>
        </time>
        <waveformID networkCode="UW" stationCode="HDW" locationCode="" channelCode="EHZ"></waveformID>
        <polarity>undecidable</polarity>
        <evaluationMode>manual</evaluationMode>
        <evaluationStatus>final</evaluationStatus>
        <creationInfo>
          <agencyID>UW</agencyID>
          <creationTime>2012-02-27T14:00:51.000000Z</creationTime>
        </creationInfo>
      </pick>
      <pick publicID="quakeml:uw.anss.org/Arrival/UW/2474918">
        <time>
          <value>1984-06-24T23:08:38.390000Z</value>
          <uncertainty>0.1</uncertainty>
        </time>
        <waveformID networkCode="UW" stationCode="ETT" locationCode="" channelCode="EHZ"></waveformID>
        <polarity>undecidable</polarity>
        <evaluationMode>manual</evaluationMode>
        <evaluationStatus>final</evaluationStatus>
        <creationInfo>
          <agencyID>UW</agencyID>
          <creationTime>2012-02-27T14:00:51.000000Z</creationTime>
        </creationInfo>
      </pick>
      <pick publicID="quakeml:uw.anss.org/Arrival/UW/2474923">
        <time>
          <value>1984-06-24T23:08:23.200000Z</value>
          <uncertainty>0.06</uncertainty>
        </time>
        <waveformID networkCode="CN" stationCode="HNB" locationCode="" channelCode="EHZ"></waveformID>
        <polarity>positive</polarity>
        <evaluationMode>manual</evaluationMode>
        <evaluationStatus>final</evaluationStatus>
        <creationInfo>
          <agencyID>UW</agencyID>
          <creationTime>2012-02-27T14:00:51.000000Z</creationTime>
        </creationInfo>
      </pick>
      <pick publicID="quakeml:uw.anss.org/Arrival/UW/2474928">
        <time>
          <value>1984-06-24T23:08:32.800000Z</value>
          <uncertainty>0.35</uncertainty>
        </time>
        <waveformID networkCode="CN" stationCode="HNB" locationCode="" channelCode="EHZ"></waveformID>
        <polarity>undecidable</polarity>
        <evaluationMode>manual</evaluationMode>
        <evaluationStatus>final</evaluationStatus>
        <creationInfo>
          <agencyID>UW</agencyID>
          <creationTime>2012-02-27T14:00:51.000000Z</creationTime>
        </creationInfo>
      </pick>
      <pick publicID="quakeml:uw.anss.org/Arrival/UW/2474933">
        <time>
          <value>1984-06-24T23:08:30.700000Z</value>
          <uncertainty>0.06</uncertainty>
        </time>
        <waveformID networkCode="CN" stationCode="SNB" locationCode="" channelCode="EHZ"></waveformID>
        <polarity>undecidable</polarity>
        <evaluationMode>manual</evaluationMode>
        <evaluationStatus>final</evaluationStatus>
        <creationInfo>
          <agencyID>UW</agencyID>
          <creationTime>2012-02-27T14:00:51.000000Z</creationTime>
        </creationInfo>
      </pick>
      <pick publicID="quakeml:uw.anss.org/Arrival/UW/2474938">
        <time>
          <value>1984-06-24T23:08:35.800000Z</value>
          <uncertainty>0.06</uncertainty>
        </time>
        <waveformID networkCode="CN" stationCode="WHB" locationCode="" channelCode="EHZ"></waveformID>
        <polarity>undecidable</polarity>
        <evaluationMode>manual</evaluationMode>
        <evaluationStatus>final</evaluationStatus>
        <creationInfo>
          <agencyID>UW</agencyID>
          <creationTime>2012-02-27T14:00:51.000000Z</creationTime>
        </creationInfo>
      </pick>
      <pick publicID="quakeml:uw.anss.org/Arrival/UW/2474943">
        <time>
          <value>1984-06-24T23:08:35.630000Z</value>
          <uncertainty>0.24</uncertainty>
        </time>
        <waveformID networkCode="UW" stationCode="BLN" locationCode="" channelCode="EHZ"></waveformID>
        <polarity>undecidable</polarity>
        <evaluationMode>manual</evaluationMode>
        <evaluationStatus>final</evaluationStatus>
        <creationInfo>
          <agencyID>UW</agencyID>
          <creationTime>2012-02-27T14:00:51.000000Z</creationTime>
        </creationInfo>
      </pick>
      <pick publicID="quakeml:uw.anss.org/Arrival/UW/2474953">
        <time>
          <value>1984-06-24T23:08:38.980000Z</value>
          <uncertainty>0.13</uncertainty>
        </time>
        <waveformID networkCode="UW" stationCode="STW" locationCode="" channelCode="EHZ"></waveformID>
        <polarity>undecidable</polarity>
        <evaluationMode>manual</evaluationMode>
        <evaluationStatus>final</evaluationStatus>
        <creationInfo>
          <agencyID>UW</agencyID>
          <creationTime>2012-02-27T14:00:51.000000Z</creationTime>
        </creationInfo>
      </pick>
