<?xml version='1.0' encoding='utf-8'?>
<q:quakeml xmlns="http://quakeml.org/xmlns/bed/1.2" xmlns:q="http://quakeml.org/xmlns/quakeml/1.2" xmlns:ns0="http://anss.org/xmlns/catalog/0.1">
  <eventParameters publicID="smi:local/8346fe49-a5f7-4f85-a190-faf74940169a">
    <event publicID="quakeml:uw.anss.org/Event/UW/10281568" ns0:datasource="uw" ns0:dataid="uw10281568" ns0:eventsource="uw" ns0:eventid="10281568">
      <preferredOriginID>quakeml:uw.anss.org/Origin/UW/558513</preferredOriginID>
      <preferredMagnitudeID>quakeml:uw.anss.org/Netmag/UW/468458</preferredMagnitudeID>
      <type>earthquake</type>
      <creationInfo>
        <agencyID>UW</agencyID>
        <creationTime>2012-02-27T17:37:48.000000Z</creationTime>
        <version>3</version>
      </creationInfo>
      <origin publicID="quakeml:uw.anss.org/Origin/UW/558513" ns0:datasource="uw" ns0:dataid="uw10281568" ns0:eventsource="uw" ns0:eventid="10281568">
        <time>
          <value>1991-08-26T15:33:01.160000Z</value>
          <uncertainty>0.25</uncertainty>
        </time>
        <latitude>
          <value>48.5978333</value>
          <uncertainty>0.5</uncertainty>
        </latitude>
        <longitude>
          <value>-122.2781667</value>
          <uncertainty>0.5</uncertainty>
        </longitude>
        <depth>
          <value>2369.0</value>
          <uncertainty>2030.0</uncertainty>
        </depth>
        <depthType>from location</depthType>
        <timeFixed>false</timeFixed>
        <epicenterFixed>false</epicenterFixed>
        <methodID>smi:uw.anss.org/origin/spong</methodID>
        <quality>
          <associatedPhaseCount>73</associatedPhaseCount>
          <usedPhaseCount>35</usedPhaseCount>
          <associatedStationCount>53</associatedStationCount>
          <usedStationCount>0</usedStationCount>
          <standardError>0.4</standardError>
          <azimuthalGap>52.0</azimuthalGap>
        </quality>
        <type>hypocenter</type>
        <evaluationMode>manual</evaluationMode>
        <evaluationStatus>final</evaluationStatus>
        <creationInfo>
          <agencyID>UW</agencyID>
          <creationTime>2012-02-27T17:37:48.000000Z</creationTime>
        </creationInfo>
        <originUncertainty>
          <preferredDescription>horizontal uncertainty</preferredDescription>
          <horizontalUncertainty>707.0</horizontalUncertainty>
        </originUncertainty>
        <arrival publicID="quakeml:uw.anss.org/AssocArO/UW/4287823">
          <pickID>quakeml:uw.anss.org/Arrival/UW/4287823</pickID>
          <phase>P</phase>
          <azimuth>208.9</azimuth>
          <distance>1.084</distance>
          <timeResidual>-0.31</timeResidual>
          <creationInfo>
            <agencyID>UW</agencyID>
            <creationTime>2012-02-27T17:37:48.000000Z</creationTime>
          </creationInfo>
        </arrival>
        <arrival publicID="quakeml:uw.anss.org/AssocArO/UW/4287828">
          <pickID>quakeml:uw.anss.org/Arrival/UW/4287828</pickID>
          <phase>S</phase>
          <azimuth>208.9</azimuth>
          <distance>1.084</distance>
          <timeResidual>-0.54</timeResidual>
          <creationInfo>
            <agencyID>UW</agencyID>
            <creationTime>2012-02-27T17:37:48.000000Z</creationTime>
          </creationInfo>
        </arrival>
        <arrival publicID="quakeml:uw.anss.org/AssocArO/UW/4287833">
          <pickID>quakeml:uw.anss.org/Arrival/UW/4287833</pickID>
          <phase>P</phase>
          <azimuth>299.5</azimuth>
          <timeResidual>-0.69</timeResidual>
          <creationInfo>
            <agencyID>UW</agencyID>
            <creationTime>2012-02-27T17:37:48.000000Z</creationTime>
          </creationInfo>
        </arrival>
        <arrival publicID="quakeml:uw.anss.org/AssocArO/UW/4287838">
          <pickID>quakeml:uw.anss.org/Arrival/UW/4287838</pickID>
          <phase>P</phase>
          <azimuth>111.6</azimuth>
          <distance>1.396</distance>
          <timeResidual>0.44</timeResidual>
          <creationInfo>
            <agencyID>UW</agencyID>
            <creationTime>2012-02-27T17:37:48.000000Z</creationTime>
          </creationInfo>
        </arrival>
        <arrival publicID="quakeml:uw.anss.org/AssocArO/UW/4287843">
          <pickID>quakeml:uw.anss.org/Arrival/UW/4287843</pickID>
          <phase>P</phase>
          <azimuth>343.8</azimuth>
          <timeResidual>-0.03</timeResidual>
          <creationInfo>
            <agencyID>UW</agencyID>
            <creationTime>2012-02-27T17:37:48.000000Z</creationTime>
          </creationInfo>
        </arrival>
        <arrival publicID="quakeml:uw.anss.org/AssocArO/UW/4287848">
          <pickID>quakeml:uw.anss.org/Arrival/UW/4287848</pickID>
          <phase>S</phase>
          <azimuth>343.8</azimuth>
          <timeResidual>-0.39</timeResidual>
          <creationInfo>
            <agencyID>UW</agencyID>
            <creationTime>2012-02-27T17:37:48.000000Z</creationTime>
          </creationInfo>
        </arrival>
        <arrival publicID="quakeml:uw.anss.org/AssocArO/UW/4287853">
          <pickID>quakeml:uw.anss.org/Arrival/UW/4287853</pickID>
          <phase>P</phase>
          <azimuth>126.7</azimuth>
          <distance>1.64</distance>
          <timeResidual>0.24</timeResidual>
          <creationInfo>
            <agencyID>UW</agencyID>
            <creationTime>2012-02-27T17:37:48.000000Z</creationTime>
          </creationInfo>
        </arrival>
        <arrival publicID="quakeml:uw.anss.org/AssocArO/UW/4287858">
          <pickID>quakeml:uw.anss.org/Arrival/UW/4287858</pickID>
          <phase>P</phase>
          <azimuth>151.8</azimuth>
          <distance>2.109</distance>
          <timeResidual>-0.42</timeResidual>
          <creationInfo>
            <agencyID>UW</agencyID>
            <creationTime>2012-02-27T17:37:48.000000Z</creationTime>
          </creationInfo>
        </arrival>
        <arrival publicID="quakeml:uw.anss.org/AssocArO/UW/4287863">
          <pickID>quakeml:uw.anss.org/Arrival/UW/4287863</pickID>
          <phase>S</phase>
          <azimuth>151.8</azimuth>
          <distance>2.109</distance>
          <timeResidual>-0.62</timeResidual>
          <creationInfo>
            <agencyID>UW</agencyID>
            <creationTime>2012-02-27T17:37:48.000000Z</creationTime>
          </creationInfo>
        </arrival>
        <arrival publicID="quakeml:uw.anss.org/AssocArO/UW/4287868">
          <pickID>quakeml:uw.anss.org/Arrival/UW/4287868</pickID>
          <phase>P</phase>
          <azimuth>170.5</azimuth>
          <timeResidual>-0.42</timeResidual>
          <creationInfo>
            <agencyID>UW</agencyID>
            <creationTime>2012-02-27T17:37:48.000000Z</creationTime>
          </creationInfo>
        </arrival>
        <arrival publicID="quakeml:uw.anss.org/AssocArO/UW/4287873">
          <pickID>quakeml:uw.anss.org/Arrival/UW/4287873</pickID>
          <phase>P</phase>
          <azimuth>167.8</azimuth>
          <distance>1.767</distance>
          <timeResidual>-0.21</timeResidual>
          <creationInfo>
            <agencyID>UW</agencyID>
            <creationTime>2012-02-27T17:37:48.000000Z</creationTime>
          </creationInfo>
        </arrival>
        <arrival publicID="quakeml:uw.anss.org/AssocArO/UW/4287878">
          <pickID>quakeml:uw.anss.org/Arrival/UW/4287878</pickID>
          <phase>P</phase>
          <timeResidual>0.27</timeResidual>
          <creationInfo>
            <agencyID>UW</agencyID>
            <creationTime>2012-02-27T17:37:48.000000Z</creationTime>
          </creationInfo>
        </arrival>
        <arrival publicID="quakeml:uw.anss.org/AssocArO/UW/4287883">
          <pickID>quakeml:uw.anss.org/Arrival/UW/4287883</pickID>
          <phase>S</phase>
          <timeResidual>0.75</timeResidual>
          <creationInfo>
            <agencyID>UW</agencyID>
            <creationTime>2012-02-27T17:37:48.000000Z</creationTime>
          </creationInfo>
        </arrival>
        <arrival publicID="quakeml:uw.anss.org/AssocArO/UW/4287888">
          <pickID>quakeml:uw.anss.org/Arrival/UW/4287888</pickID>
          <phase>P</phase>
          <azimuth>149.0</azimuth>
          <distance>0.2036</distance>
          <timeResidual>-0.19</timeResidual>
          <creationInfo>
            <agencyID>UW</agencyID>
            <creationTime>2012-02-27T17:37:48.000000Z</creationTime>
          </creationInfo>
        </arrival>
        <arrival publicID="quakeml:uw.anss.org/AssocArO/UW/4287893">
          <pickID>quakeml:uw.anss.org/Arrival/UW/4287893</pickID>
          <phase>S</phase>
          <azimuth>149.0</azimuth>
          <distance>0.2036</distance>
          <timeResidual>0.07</timeResidual>
          <creationInfo>
            <agencyID>UW</agencyID>
            <creationTime>2012-02-27T17:37:48.000000Z</creationTime>
          </creationInfo>
        </arrival>
        <arrival publicID="quakeml:uw.anss.org/AssocArO/UW/4287898">
          <pickID>quakeml:uw.anss.org/Arrival/UW/4287898</pickID>
          <phase>P</phase>
          <azimuth>178.5</azimuth>
          <distance>2.137</distance>
          <timeResidual>-0.42</timeResidual>
          <creationInfo>
            <agencyID>UW</agencyID>
            <creationTime>2012-02-27T17:37:48.000000Z</creationTime>
          </creationInfo>
        </arrival>
        <arrival publicID="quakeml:uw.anss.org/AssocArO/UW/4287903">
          <pickID>quakeml:uw.anss.org/Arrival/UW/4287903</pickID>
          <phase>P</phase>
          <azimuth>166.8</azimuth>
          <timeResidual>-0.57</timeResidual>
          <creationInfo>
            <agencyID>UW</agencyID>
            <creationTime>2012-02-27T17:37:49.000000Z</creationTime>
          </creationInfo>
        </arrival>
        <arrival publicID="quakeml:uw.anss.org/AssocArO/UW/4287908">
          <pickID>quakeml:uw.anss.org/Arrival/UW/4287908</pickID>
          <phase>S</phase>
          <azimuth>166.8</azimuth>
          <timeResidual>-1.44</timeResidual>
          <creationInfo>
            <agencyID>UW</agencyID>
            <creationTime>2012-02-27T17:37:49.000000Z</creationTime>
          </creationInfo>
        </arrival>
        <arrival publicID="quakeml:uw.anss.org/AssocArO/UW/4287963">
          <pickID>quakeml:uw.anss.org/Arrival/UW/4287963</pickID>
          <phase>P</phase>
          <timeResidual>-0.84</timeResidual>
          <creationInfo>
            <agencyID>UW</agencyID>
            <creationTime>2012-02-27T17:37:49.000000Z</creationTime>
          </creationInfo>
        </arrival>
        <arrival publicID="quakeml:uw.anss.org/AssocArO/UW/4287973">
          <pickID>quakeml:uw.anss.org/Arrival/UW/4287973</pickID>
          <phase>S</phase>
          <timeResidual>-1.84</timeResidual>
          <creationInfo>
            <agencyID>UW</agencyID>
            <creationTime>2012-02-27T17:37:49.000000Z</creationTime>
          </creationInfo>
        </arrival>
        <arrival publicID="quakeml:uw.anss.org/AssocArO/UW/4287983">
          <pickID>quakeml:uw.anss.org/Arrival/UW/4287983</pickID>
          <phase>P</phase>
          <azimuth>172.8</azimuth>
          <distance>1.667</distance>
          <timeResidual>-0.72</timeResidual>
          <creationInfo>
            <agencyID>UW</agencyID>
            <creationTime>2012-02-27T17:37:49.000000Z</creationTime>
          </creationInfo>
        </arrival>
        <arrival publicID="quakeml:uw.anss.org/AssocArO/UW/4287988">
          <pickID>quakeml:uw.anss.org/Arrival/UW/4287988</pickID>
          <phase>S</phase>
          <azimuth>172.8</azimuth>
          <distance>1.667</distance>
          <timeResidual>-0.57</timeResidual>
          <creationInfo>
            <agencyID>UW</agencyID>
            <creationTime>2012-02-27T17:37:49.000000Z</creationTime>
          </creationInfo>
        </arrival>
        <arrival publicID="quakeml:uw.anss.org/AssocArO/UW/4287998">
          <pickID>quakeml:uw.anss.org/Arrival/UW/4287998</pickID>
          <phase>P</phase>
          <azimuth>169.1</azimuth>
          <distance>2.489</distance>
          <timeResidual>0.43</timeResidual>
          <creationInfo>
            <agencyID>UW</agencyID>
            <creationTime>2012-02-27T17:37:49.000000Z</creationTime>
          </creationInfo>
        </arrival>
        <arrival publicID="quakeml:uw.anss.org/AssocArO/UW/4288008">
          <pickID>quakeml:uw.anss.org/Arrival/UW/4288008</pickID>
          <phase>P</phase>
          <timeResidual>0.4</timeResidual>
          <creationInfo>
            <agencyID>UW</agencyID>
            <creationTime>2012-02-27T17:37:49.000000Z</creationTime>
          </creationInfo>
        </arrival>
        <arrival publicID="quakeml:uw.anss.org/AssocArO/UW/4288013">
          <pickID>quakeml:uw.anss.org/Arrival/UW/4288013</pickID>
          <phase>S</phase>
          <timeResidual>0.03</timeResidual>
          <creationInfo>
            <agencyID>UW</agencyID>
            <creationTime>2012-02-27T17:37:49.000000Z</creationTime>
          </creationInfo>
        </arrival>
        <arrival publicID="quakeml:uw.anss.org/AssocArO/UW/4288018">
          <pickID>quakeml:uw.anss.org/Arrival/UW/4288018</pickID>
          <phase>P</phase>
          <azimuth>106.2</azimuth>
          <distance>0.5291</distance>
          <timeResidual>-0.38</timeResidual>
          <creationInfo>
            <agencyID>UW</agencyID>
            <creationTime>2012-02-27T17:37:49.000000Z</creationTime>
          </creationInfo>
        </arrival>
        <arrival publicID="quakeml:uw.anss.org/AssocArO/UW/4288023">
          <pickID>quakeml:uw.anss.org/Arrival/UW/4288023</pickID>
          <phase>S</phase>
          <azimuth>106.2</azimuth>
          <distance>0.5291</distance>
          <timeResidual>0.0</timeResidual>
          <creationInfo>
            <agencyID>UW</agencyID>
            <creationTime>2012-02-27T17:37:49.000000Z</creationTime>
          </creationInfo>
        </arrival>
        <arrival publicID="quakeml:uw.anss.org/AssocArO/UW/4288028">
          <pickID>quakeml:uw.anss.org/Arrival/UW/4288028</pickID>
          <phase>P</phase>
          <azimuth>167.3</azimuth>
          <distance>2.091</distance>
          <timeResidual>-0.3</timeResidual>
          <creationInfo>
            <agencyID>UW</agencyID>
            <creationTime>2012-02-27T17:37:49.000000Z</creationTime>
          </creationInfo>
        </arrival>
        <arrival publicID="quakeml:uw.anss.org/AssocArO/UW/4288033">
          <pickID>quakeml:uw.anss.org/Arrival/UW/4288033</pickID>
          <phase>P</phase>
          <azimuth>165.0</azimuth>
          <distance>1.965</distance>
          <timeResidual>-0.75</timeResidual>
          <creationInfo>
            <agencyID>UW</agencyID>
            <creationTime>2012-02-27T17:37:49.000000Z</creationTime>
          </creationInfo>
        </arrival>
        <arrival publicID="quakeml:uw.anss.org/AssocArO/UW/4288038">
          <pickID>quakeml:uw.anss.org/Arrival/UW/4288038</pickID>
          <phase>S</phase>
          <azimuth>165.0</azimuth>
          <distance>1.965</distance>
          <timeResidual>-2.02</timeResidual>
          <creationInfo>
            <agencyID>UW</agencyID>
            <creationTime>2012-02-27T17:37:49.000000Z</creationTime>
          </creationInfo>
        </arrival>
        <arrival publicID="quakeml:uw.anss.org/AssocArO/UW/4288053">
          <pickID>quakeml:uw.anss.org/Arrival/UW/4288053</pickID>
          <phase>P</phase>
          <azimuth>320.7</azimuth>
          <timeResidual>-0.34</timeResidual>
          <creationInfo>
            <agencyID>UW</agencyID>
            <creationTime>2012-02-27T17:37:49.000000Z</creationTime>
          </creationInfo>
        </arrival>
        <arrival publicID="quakeml:uw.anss.org/AssocArO/UW/4288058">
          <pickID>quakeml:uw.anss.org/Arrival/UW/4288058</pickID>
          <phase>P</phase>
          <azimuth>177.6</azimuth>
          <distance>2.357</distance>
          <timeResidual>-0.15</timeResidual>
          <creationInfo>
            <agencyID>UW</agencyID>
            <creationTime>2012-02-27T17:37:49.000000Z</creationTime>
          </creationInfo>
        </arrival>
        <arrival publicID="quakeml:uw.anss.org/AssocArO/UW/4288068">
          <pickID>quakeml:uw.anss.org/Arrival/UW/4288068</pickID>
          <phase>P</phase>
          <azimuth>145.1</azimuth>
          <distance>2.046</distance>
          <timeResidual>-0.52</timeResidual>
          <creationInfo>
            <agencyID>UW</agencyID>
            <creationTime>2012-02-27T17:37:49.000000Z</creationTime>
          </creationInfo>
        </arrival>
        <arrival publicID="quakeml:uw.anss.org/AssocArO/UW/4288078">
          <pickID>quakeml:uw.anss.org/Arrival/UW/4288078</pickID>
          <phase>P</phase>
          <azimuth>53.1</azimuth>
          <distance>0.3117</distance>
          <timeResidual>-0.02</timeResidual>
          <creationInfo>
            <agencyID>UW</agencyID>
            <creationTime>2012-02-27T17:37:49.000000Z</creationTime>
          </creationInfo>
        </arrival>
        <arrival publicID="quakeml:uw.anss.org/AssocArO/UW/4288088">
          <pickID>quakeml:uw.anss.org/Arrival/UW/4288088</pickID>
          <phase>S</phase>
          <azimuth>53.1</azimuth>
          <distance>0.3117</distance>
          <timeResidual>0.53</timeResidual>
          <creationInfo>
            <agencyID>UW</agencyID>
            <creationTime>2012-02-27T17:37:49.000000Z</creationTime>
          </creationInfo>
        </arrival>
        <arrival publicID="quakeml:uw.anss.org/AssocArO/UW/4288108">
          <pickID>quakeml:uw.anss.org/Arrival/UW/4288108</pickID>
          <phase>P</phase>
          <azimuth>231.1</azimuth>
          <distance>1.234</distance>
          <timeResidual>1.11</timeResidual>
          <creationInfo>
            <agencyID>UW</agencyID>
            <creationTime>2012-02-27T17:37:49.000000Z</creationTime>
          </creationInfo>
        </arrival>
        <arrival publicID="quakeml:uw.anss.org/AssocArO/UW/4288113">
          <pickID>quakeml:uw.anss.org/Arrival/UW/4288113</pickID>
          <phase>P</phase>
          <azimuth>330.3</azimuth>
          <timeResidual>-0.15</timeResidual>
          <creationInfo>
            <agencyID>UW</agencyID>
            <creationTime>2012-02-27T17:37:49.000000Z</creationTime>
          </creationInfo>
        </arrival>
        <arrival publicID="quakeml:uw.anss.org/AssocArO/UW/4288118">
          <pickID>quakeml:uw.anss.org/Arrival/UW/4288118</pickID>
          <phase>S</phase>
          <azimuth>330.3</azimuth>
          <timeResidual>-1.42</timeResidual>
          <creationInfo>
            <agencyID>UW</agencyID>
            <creationTime>2012-02-27T17:37:49.000000Z</creationTime>
          </creationInfo>
        </arrival>
        <arrival publicID="quakeml:uw.anss.org/AssocArO/UW/4288123">
          <pickID>quakeml:uw.anss.org/Arrival/UW/4288123</pickID>
          <phase>P</phase>
          <azimuth>179.1</azimuth>
          <distance>2.362</distance>
          <timeResidual>0.02</timeResidual>
          <creationInfo>
            <agencyID>UW</agencyID>
            <creationTime>2012-02-27T17:37:49.000000Z</creationTime>
          </creationInfo>
        </arrival>
        <arrival publicID="quakeml:uw.anss.org/AssocArO/UW/4288128">
          <pickID>quakeml:uw.anss.org/Arrival/UW/4288128</pickID>
          <phase>P</phase>
          <azimuth>149.8</azimuth>
          <timeResidual>-0.23</timeResidual>
          <creationInfo>
            <agencyID>UW</agencyID>
            <creationTime>2012-02-27T17:37:49.000000Z</creationTime>
          </creationInfo>
        </arrival>
        <arrival publicID="quakeml:uw.anss.org/AssocArO/UW/4288133">
          <pickID>quakeml:uw.anss.org/Arrival/UW/4288133</pickID>
          <phase>S</phase>
          <azimuth>149.8</azimuth>
          <timeResidual>0.1</timeResidual>
