<?xml version='1.0' encoding='utf-8'?>
<q:quakeml xmlns="http://quakeml.org/xmlns/bed/1.2" xmlns:q="http://quakeml.org/xmlns/quakeml/1.2" xmlns:ns0="http://anss.org/xmlns/catalog/0.1">
  <eventParameters publicID="smi:local/e38d2928-398c-488d-9a9a-8cdc576eaf98">
    <event publicID="quakeml:uw.anss.org/Event/UW/10278308" ns0:datasource="uw" ns0:dataid="uw10278308" ns0:eventsource="uw" ns0:eventid="10278308">
      <preferredOriginID>quakeml:uw.anss.org/Origin/UW/555253</preferredOriginID>
      <preferredMagnitudeID>quakeml:uw.anss.org/Netmag/UW/465613</preferredMagnitudeID>
      <type>earthquake</type>
      <creationInfo>
        <agencyID>UW</agencyID>
        <creationTime>2012-02-27T17:30:42.000000Z</creationTime>
        <version>3</version>
      </creationInfo>
      <origin publicID="quakeml:uw.anss.org/Origin/UW/555253" ns0:datasource="uw" ns0:dataid="uw10278308" ns0:eventsource="uw" ns0:eventid="10278308">
        <time>
          <value>1991-08-17T20:56:42.920000Z</value>
          <uncertainty>0.06</uncertainty>
        </time>
        <latitude>
          <value>48.7318333</value>
          <uncertainty>0.37</uncertainty>
        </latitude>
        <longitude>
          <value>-121.935</value>
          <uncertainty>0.17</uncertainty>
        </longitude>
        <depth>
          <value>-882.0</value>
          <uncertainty>730.0</uncertainty>
        </depth>
        <depthType>operator assigned</depthType>
        <timeFixed>false</timeFixed>
        <epicenterFixed>false</epicenterFixed>
        <methodID>smi:uw.anss.org/origin/spong</methodID>
        <quality>
          <associatedPhaseCount>84</associatedPhaseCount>
          <usedPhaseCount>26</usedPhaseCount>
          <associatedStationCount>68</associatedStationCount>
          <usedStationCount>0</usedStationCount>
          <standardError>0.73</standardError>
          <azimuthalGap>97.0</azimuthalGap>
        </quality>
        <type>hypocenter</type>
        <evaluationMode>manual</evaluationMode>
        <evaluationStatus>final</evaluationStatus>
        <creationInfo>
          <agencyID>UW</agencyID>
          <creationTime>2012-02-27T17:30:42.000000Z</creationTime>
        </creationInfo>
        <originUncertainty>
          <preferredDescription>horizontal uncertainty</preferredDescription>
          <horizontalUncertainty>407.0</horizontalUncertainty>
        </originUncertainty>
        <arrival publicID="quakeml:uw.anss.org/AssocArO/UW/4215613">
          <pickID>quakeml:uw.anss.org/Arrival/UW/4215613</pickID>
          <phase>P</phase>
          <azimuth>215.0</azimuth>
          <distance>1.318</distance>
          <timeResidual>0.21</timeResidual>
          <creationInfo>
            <agencyID>UW</agencyID>
            <creationTime>2012-02-27T17:30:42.000000Z</creationTime>
          </creationInfo>
        </arrival>
        <arrival publicID="quakeml:uw.anss.org/AssocArO/UW/4215623">
          <pickID>quakeml:uw.anss.org/Arrival/UW/4215623</pickID>
          <phase>S</phase>
          <azimuth>215.0</azimuth>
          <distance>1.318</distance>
          <timeResidual>1.03</timeResidual>
          <creationInfo>
            <agencyID>UW</agencyID>
            <creationTime>2012-02-27T17:30:42.000000Z</creationTime>
          </creationInfo>
        </arrival>
        <arrival publicID="quakeml:uw.anss.org/AssocArO/UW/4215638">
          <pickID>quakeml:uw.anss.org/Arrival/UW/4215638</pickID>
          <phase>P</phase>
          <azimuth>290.6</azimuth>
          <timeResidual>-0.75</timeResidual>
          <creationInfo>
            <agencyID>UW</agencyID>
            <creationTime>2012-02-27T17:30:42.000000Z</creationTime>
          </creationInfo>
        </arrival>
        <arrival publicID="quakeml:uw.anss.org/AssocArO/UW/4215653">
          <pickID>quakeml:uw.anss.org/Arrival/UW/4215653</pickID>
          <phase>S</phase>
          <azimuth>290.6</azimuth>
          <timeResidual>-1.43</timeResidual>
          <creationInfo>
            <agencyID>UW</agencyID>
            <creationTime>2012-02-27T17:30:42.000000Z</creationTime>
          </creationInfo>
        </arrival>
        <arrival publicID="quakeml:uw.anss.org/AssocArO/UW/4215658">
          <pickID>quakeml:uw.anss.org/Arrival/UW/4215658</pickID>
          <phase>P</phase>
          <azimuth>121.4</azimuth>
          <distance>1.252</distance>
          <timeResidual>1.29</timeResidual>
          <creationInfo>
            <agencyID>UW</agencyID>
            <creationTime>2012-02-27T17:30:42.000000Z</creationTime>
          </creationInfo>
        </arrival>
        <arrival publicID="quakeml:uw.anss.org/AssocArO/UW/4215673">
          <pickID>quakeml:uw.anss.org/Arrival/UW/4215673</pickID>
          <phase>P</phase>
          <azimuth>322.3</azimuth>
          <timeResidual>-0.73</timeResidual>
          <creationInfo>
            <agencyID>UW</agencyID>
            <creationTime>2012-02-27T17:30:42.000000Z</creationTime>
          </creationInfo>
        </arrival>
        <arrival publicID="quakeml:uw.anss.org/AssocArO/UW/4215683">
          <pickID>quakeml:uw.anss.org/Arrival/UW/4215683</pickID>
          <phase>S</phase>
          <azimuth>322.3</azimuth>
          <timeResidual>-0.65</timeResidual>
          <creationInfo>
            <agencyID>UW</agencyID>
            <creationTime>2012-02-27T17:30:42.000000Z</creationTime>
          </creationInfo>
        </arrival>
        <arrival publicID="quakeml:uw.anss.org/AssocArO/UW/4215693">
          <pickID>quakeml:uw.anss.org/Arrival/UW/4215693</pickID>
          <phase>P</phase>
          <azimuth>136.0</azimuth>
          <distance>1.557</distance>
          <timeResidual>1.34</timeResidual>
          <creationInfo>
            <agencyID>UW</agencyID>
            <creationTime>2012-02-27T17:30:42.000000Z</creationTime>
          </creationInfo>
        </arrival>
        <arrival publicID="quakeml:uw.anss.org/AssocArO/UW/4215698">
          <pickID>quakeml:uw.anss.org/Arrival/UW/4215698</pickID>
          <phase>P</phase>
          <azimuth>159.1</azimuth>
          <distance>2.136</distance>
          <timeResidual>0.51</timeResidual>
          <creationInfo>
            <agencyID>UW</agencyID>
            <creationTime>2012-02-27T17:30:42.000000Z</creationTime>
          </creationInfo>
        </arrival>
        <arrival publicID="quakeml:uw.anss.org/AssocArO/UW/4215708">
          <pickID>quakeml:uw.anss.org/Arrival/UW/4215708</pickID>
          <phase>S</phase>
          <azimuth>159.1</azimuth>
          <distance>2.136</distance>
          <timeResidual>1.72</timeResidual>
          <creationInfo>
            <agencyID>UW</agencyID>
            <creationTime>2012-02-27T17:30:42.000000Z</creationTime>
          </creationInfo>
        </arrival>
        <arrival publicID="quakeml:uw.anss.org/AssocArO/UW/4215718">
          <pickID>quakeml:uw.anss.org/Arrival/UW/4215718</pickID>
          <phase>P</phase>
          <azimuth>214.2</azimuth>
          <distance>1.701</distance>
          <timeResidual>1.68</timeResidual>
          <creationInfo>
            <agencyID>UW</agencyID>
            <creationTime>2012-02-27T17:30:42.000000Z</creationTime>
          </creationInfo>
        </arrival>
        <arrival publicID="quakeml:uw.anss.org/AssocArO/UW/4215728">
          <pickID>quakeml:uw.anss.org/Arrival/UW/4215728</pickID>
          <phase>P</phase>
          <azimuth>189.7</azimuth>
          <distance>2.33</distance>
          <timeResidual>0.56</timeResidual>
          <creationInfo>
            <agencyID>UW</agencyID>
            <creationTime>2012-02-27T17:30:42.000000Z</creationTime>
          </creationInfo>
        </arrival>
        <arrival publicID="quakeml:uw.anss.org/AssocArO/UW/4215738">
          <pickID>quakeml:uw.anss.org/Arrival/UW/4215738</pickID>
          <phase>P</phase>
          <azimuth>175.7</azimuth>
          <distance>1.867</distance>
          <timeResidual>1.05</timeResidual>
          <creationInfo>
            <agencyID>UW</agencyID>
            <creationTime>2012-02-27T17:30:42.000000Z</creationTime>
          </creationInfo>
        </arrival>
        <arrival publicID="quakeml:uw.anss.org/AssocArO/UW/4215753">
          <pickID>quakeml:uw.anss.org/Arrival/UW/4215753</pickID>
          <phase>P</phase>
          <azimuth>107.7</azimuth>
          <distance>2.636</distance>
          <timeResidual>5.0</timeResidual>
          <creationInfo>
            <agencyID>UW</agencyID>
            <creationTime>2012-02-27T17:30:42.000000Z</creationTime>
          </creationInfo>
        </arrival>
        <arrival publicID="quakeml:uw.anss.org/AssocArO/UW/4215758">
          <pickID>quakeml:uw.anss.org/Arrival/UW/4215758</pickID>
          <phase>P</phase>
          <timeResidual>-0.49</timeResidual>
          <creationInfo>
            <agencyID>UW</agencyID>
            <creationTime>2012-02-27T17:30:42.000000Z</creationTime>
          </creationInfo>
        </arrival>
        <arrival publicID="quakeml:uw.anss.org/AssocArO/UW/4215773">
          <pickID>quakeml:uw.anss.org/Arrival/UW/4215773</pickID>
          <phase>S</phase>
          <timeResidual>1.08</timeResidual>
          <creationInfo>
            <agencyID>UW</agencyID>
            <creationTime>2012-02-27T17:30:42.000000Z</creationTime>
          </creationInfo>
        </arrival>
        <arrival publicID="quakeml:uw.anss.org/AssocArO/UW/4215783">
          <pickID>quakeml:uw.anss.org/Arrival/UW/4215783</pickID>
          <phase>P</phase>
          <azimuth>137.1</azimuth>
          <distance>2.567</distance>
          <timeResidual>4.49</timeResidual>
          <creationInfo>
            <agencyID>UW</agencyID>
            <creationTime>2012-02-27T17:30:42.000000Z</creationTime>
          </creationInfo>
        </arrival>
        <arrival publicID="quakeml:uw.anss.org/AssocArO/UW/4215793">
          <pickID>quakeml:uw.anss.org/Arrival/UW/4215793</pickID>
          <phase>P</phase>
          <azimuth>140.3</azimuth>
          <distance>2.543</distance>
          <timeResidual>4.54</timeResidual>
          <creationInfo>
            <agencyID>UW</agencyID>
            <creationTime>2012-02-27T17:30:42.000000Z</creationTime>
          </creationInfo>
        </arrival>
        <arrival publicID="quakeml:uw.anss.org/AssocArO/UW/4215803">
          <pickID>quakeml:uw.anss.org/Arrival/UW/4215803</pickID>
          <phase>P</phase>
          <azimuth>130.5</azimuth>
          <distance>2.087</distance>
          <timeResidual>2.18</timeResidual>
          <creationInfo>
            <agencyID>UW</agencyID>
            <creationTime>2012-02-27T17:30:43.000000Z</creationTime>
          </creationInfo>
        </arrival>
        <arrival publicID="quakeml:uw.anss.org/AssocArO/UW/4215823">
          <pickID>quakeml:uw.anss.org/Arrival/UW/4215823</pickID>
          <phase>P</phase>
          <azimuth>201.7</azimuth>
          <distance>0.3322</distance>
          <timeResidual>-0.69</timeResidual>
          <creationInfo>
            <agencyID>UW</agencyID>
            <creationTime>2012-02-27T17:30:43.000000Z</creationTime>
          </creationInfo>
        </arrival>
        <arrival publicID="quakeml:uw.anss.org/AssocArO/UW/4215838">
          <pickID>quakeml:uw.anss.org/Arrival/UW/4215838</pickID>
          <phase>P</phase>
          <azimuth>184.5</azimuth>
          <distance>2.277</distance>
          <timeResidual>0.65</timeResidual>
          <creationInfo>
            <agencyID>UW</agencyID>
            <creationTime>2012-02-27T17:30:43.000000Z</creationTime>
          </creationInfo>
        </arrival>
        <arrival publicID="quakeml:uw.anss.org/AssocArO/UW/4215848">
          <pickID>quakeml:uw.anss.org/Arrival/UW/4215848</pickID>
          <phase>P</phase>
          <azimuth>176.5</azimuth>
          <timeResidual>0.61</timeResidual>
          <creationInfo>
            <agencyID>UW</agencyID>
            <creationTime>2012-02-27T17:30:43.000000Z</creationTime>
          </creationInfo>
        </arrival>
        <arrival publicID="quakeml:uw.anss.org/AssocArO/UW/4215858">
          <pickID>quakeml:uw.anss.org/Arrival/UW/4215858</pickID>
          <phase>P</phase>
          <timeResidual>-0.9</timeResidual>
          <creationInfo>
            <agencyID>UW</agencyID>
            <creationTime>2012-02-27T17:30:43.000000Z</creationTime>
          </creationInfo>
        </arrival>
        <arrival publicID="quakeml:uw.anss.org/AssocArO/UW/4215868">
          <pickID>quakeml:uw.anss.org/Arrival/UW/4215868</pickID>
          <phase>P</phase>
          <azimuth>180.9</azimuth>
          <distance>1.789</distance>
          <timeResidual>0.85</timeResidual>
          <creationInfo>
            <agencyID>UW</agencyID>
            <creationTime>2012-02-27T17:30:43.000000Z</creationTime>
          </creationInfo>
        </arrival>
        <arrival publicID="quakeml:uw.anss.org/AssocArO/UW/4215878">
          <pickID>quakeml:uw.anss.org/Arrival/UW/4215878</pickID>
          <phase>P</phase>
          <azimuth>177.5</azimuth>
          <distance>1.984</distance>
          <timeResidual>0.69</timeResidual>
          <creationInfo>
            <agencyID>UW</agencyID>
            <creationTime>2012-02-27T17:30:43.000000Z</creationTime>
          </creationInfo>
        </arrival>
        <arrival publicID="quakeml:uw.anss.org/AssocArO/UW/4215883">
          <pickID>quakeml:uw.anss.org/Arrival/UW/4215883</pickID>
          <phase>P</phase>
          <timeResidual>0.2</timeResidual>
          <creationInfo>
            <agencyID>UW</agencyID>
            <creationTime>2012-02-27T17:30:43.000000Z</creationTime>
          </creationInfo>
        </arrival>
        <arrival publicID="quakeml:uw.anss.org/AssocArO/UW/4215888">
          <pickID>quakeml:uw.anss.org/Arrival/UW/4215888</pickID>
          <phase>S</phase>
          <timeResidual>0.11</timeResidual>
          <creationInfo>
            <agencyID>UW</agencyID>
            <creationTime>2012-02-27T17:30:43.000000Z</creationTime>
          </creationInfo>
        </arrival>
        <arrival publicID="quakeml:uw.anss.org/AssocArO/UW/4215893">
          <pickID>quakeml:uw.anss.org/Arrival/UW/4215893</pickID>
          <phase>P</phase>
          <azimuth>135.4</azimuth>
          <distance>0.398</distance>
          <timeResidual>-0.3</timeResidual>
          <creationInfo>
            <agencyID>UW</agencyID>
            <creationTime>2012-02-27T17:30:43.000000Z</creationTime>
          </creationInfo>
        </arrival>
        <arrival publicID="quakeml:uw.anss.org/AssocArO/UW/4215898">
          <pickID>quakeml:uw.anss.org/Arrival/UW/4215898</pickID>
          <phase>P</phase>
          <azimuth>174.1</azimuth>
          <distance>2.187</distance>
          <timeResidual>1.17</timeResidual>
          <creationInfo>
            <agencyID>UW</agencyID>
            <creationTime>2012-02-27T17:30:43.000000Z</creationTime>
          </creationInfo>
        </arrival>
        <arrival publicID="quakeml:uw.anss.org/AssocArO/UW/4215903">
          <pickID>quakeml:uw.anss.org/Arrival/UW/4215903</pickID>
          <phase>P</phase>
          <azimuth>172.4</azimuth>
          <distance>2.052</distance>
          <timeResidual>0.52</timeResidual>
          <creationInfo>
            <agencyID>UW</agencyID>
            <creationTime>2012-02-27T17:30:43.000000Z</creationTime>
          </creationInfo>
        </arrival>
        <arrival publicID="quakeml:uw.anss.org/AssocArO/UW/4215908">
          <pickID>quakeml:uw.anss.org/Arrival/UW/4215908</pickID>
          <phase>S</phase>
          <azimuth>172.4</azimuth>
          <distance>2.052</distance>
          <timeResidual>0.68</timeResidual>
          <creationInfo>
            <agencyID>UW</agencyID>
            <creationTime>2012-02-27T17:30:43.000000Z</creationTime>
          </creationInfo>
        </arrival>
        <arrival publicID="quakeml:uw.anss.org/AssocArO/UW/4215913">
          <pickID>quakeml:uw.anss.org/Arrival/UW/4215913</pickID>
          <phase>P</phase>
          <azimuth>228.6</azimuth>
          <timeResidual>0.81</timeResidual>
          <creationInfo>
            <agencyID>UW</agencyID>
            <creationTime>2012-02-27T17:30:43.000000Z</creationTime>
          </creationInfo>
        </arrival>
        <arrival publicID="quakeml:uw.anss.org/AssocArO/UW/4215918">
          <pickID>quakeml:uw.anss.org/Arrival/UW/4215918</pickID>
          <phase>P</phase>
          <azimuth>307.5</azimuth>
          <timeResidual>-0.67</timeResidual>
          <creationInfo>
            <agencyID>UW</agencyID>
            <creationTime>2012-02-27T17:30:43.000000Z</creationTime>
          </creationInfo>
        </arrival>
        <arrival publicID="quakeml:uw.anss.org/AssocArO/UW/4215923">
          <pickID>quakeml:uw.anss.org/Arrival/UW/4215923</pickID>
          <phase>P</phase>
          <azimuth>190.1</azimuth>
          <distance>1.198</distance>
          <timeResidual>1.52</timeResidual>
          <creationInfo>
            <agencyID>UW</agencyID>
            <creationTime>2012-02-27T17:30:43.000000Z</creationTime>
          </creationInfo>
        </arrival>
        <arrival publicID="quakeml:uw.anss.org/AssocArO/UW/4215928">
          <pickID>quakeml:uw.anss.org/Arrival/UW/4215928</pickID>
          <phase>P</phase>
          <azimuth>152.7</azimuth>
          <distance>2.043</distance>
          <timeResidual>0.26</timeResidual>
          <creationInfo>
            <agencyID>UW</agencyID>
            <creationTime>2012-02-27T17:30:43.000000Z</creationTime>
          </creationInfo>
        </arrival>
        <arrival publicID="quakeml:uw.anss.org/AssocArO/UW/4215933">
          <pickID>quakeml:uw.anss.org/Arrival/UW/4215933</pickID>
          <phase>P</phase>
          <azimuth>140.5</azimuth>
          <distance>2.786</distance>
          <timeResidual>3.23</timeResidual>
          <creationInfo>
            <agencyID>UW</agencyID>
            <creationTime>2012-02-27T17:30:43.000000Z</creationTime>
          </creationInfo>
        </arrival>
        <arrival publicID="quakeml:uw.anss.org/AssocArO/UW/4215938">
          <pickID>quakeml:uw.anss.org/Arrival/UW/4215938</pickID>
          <phase>P</phase>
          <azimuth>174.2</azimuth>
          <timeResidual>0.85</timeResidual>
          <creationInfo>
            <agencyID>UW</agencyID>
            <creationTime>2012-02-27T17:30:43.000000Z</creationTime>
          </creationInfo>
        </arrival>
        <arrival publicID="quakeml:uw.anss.org/AssocArO/UW/4215943">
          <pickID>quakeml:uw.anss.org/Arrival/UW/4215943</pickID>
          <phase>S</phase>
          <azimuth>174.2</azimuth>
          <timeResidual>1.58</timeResidual>
          <creationInfo>
            <agencyID>UW</agencyID>
            <creationTime>2012-02-27T17:30:43.000000Z</creationTime>
          </creationInfo>
        </arrival>
        <arrival publicID="quakeml:uw.anss.org/AssocArO/UW/4215948">
          <pickID>quakeml:uw.anss.org/Arrival/UW/4215948</pickID>
          <phase>P</phase>
          <azimuth>201.6</azimuth>
          <distance>2.422</distance>
          <timeResidual>0.39</timeResidual>
          <creationInfo>
            <agencyID>UW</agencyID>
            <creationTime>2012-02-27T17:30:43.000000Z</creationTime>
          </creationInfo>
        </arrival>
        <arrival publicID="quakeml:uw.anss.org/AssocArO/UW/4215953">
          <pickID>quakeml:uw.anss.org/Arrival/UW/4215953</pickID>
          <phase>P</phase>
          <azimuth>224.3</azimuth>
          <distance>0.5704</distance>
          <timeResidual>1.15</timeResidual>
          <creationInfo>
            <agencyID>UW</agencyID>
            <creationTime>2012-02-27T17:30:43.000000Z</creationTime>
          </creationInfo>
        </arrival>
        <arrival publicID="quakeml:uw.anss.org/AssocArO/UW/4215958">
          <pickID>quakeml:uw.anss.org/Arrival/UW/4215958</pickID>
