<?xml version='1.0' encoding='utf-8'?>
<q:quakeml xmlns="http://quakeml.org/xmlns/bed/1.2" xmlns:q="http://quakeml.org/xmlns/quakeml/1.2" xmlns:ns0="http://anss.org/xmlns/catalog/0.1">
  <eventParameters publicID="smi:local/6ad0196e-f5ed-4de6-b207-fbd40b94e46d">
    <event publicID="quakeml:uw.anss.org/Event/UW/10268628" ns0:datasource="uw" ns0:dataid="uw10268628" ns0:eventsource="uw" ns0:eventid="10268628">
      <preferredOriginID>quakeml:uw.anss.org/Origin/UW/545573</preferredOriginID>
      <preferredMagnitudeID>quakeml:uw.anss.org/Netmag/UW/457208</preferredMagnitudeID>
      <type>earthquake</type>
      <creationInfo>
        <agencyID>UW</agencyID>
        <creationTime>2012-02-27T17:06:17.000000Z</creationTime>
        <version>4</version>
      </creationInfo>
      <origin publicID="quakeml:uw.anss.org/Origin/UW/545573" ns0:datasource="uw" ns0:dataid="uw10268628" ns0:eventsource="uw" ns0:eventid="10268628">
        <time>
          <value>1991-01-05T19:16:44.330000Z</value>
          <uncertainty>0.63</uncertainty>
        </time>
        <latitude>
          <value>49.1626667</value>
          <uncertainty>1.79</uncertainty>
        </latitude>
        <longitude>
          <value>-121.9856667</value>
          <uncertainty>3.85</uncertainty>
        </longitude>
        <depth>
          <value>2962.0</value>
          <uncertainty>18260.0</uncertainty>
        </depth>
        <depthType>operator assigned</depthType>
        <timeFixed>false</timeFixed>
        <epicenterFixed>true</epicenterFixed>
        <methodID>smi:uw.anss.org/origin/spong</methodID>
        <quality>
          <associatedPhaseCount>49</associatedPhaseCount>
          <usedPhaseCount>24</usedPhaseCount>
          <associatedStationCount>33</associatedStationCount>
          <usedStationCount>0</usedStationCount>
          <standardError>0.46</standardError>
          <azimuthalGap>189.0</azimuthalGap>
        </quality>
        <type>hypocenter</type>
        <evaluationMode>manual</evaluationMode>
        <evaluationStatus>final</evaluationStatus>
        <creationInfo>
          <agencyID>UW</agencyID>
          <creationTime>2012-02-27T17:06:17.000000Z</creationTime>
        </creationInfo>
        <originUncertainty>
          <preferredDescription>horizontal uncertainty</preferredDescription>
          <horizontalUncertainty>4246.0</horizontalUncertainty>
        </originUncertainty>
        <arrival publicID="quakeml:uw.anss.org/AssocArO/UW/4028608">
          <pickID>quakeml:uw.anss.org/Arrival/UW/4028608</pickID>
          <phase>P</phase>
          <azimuth>273.4</azimuth>
          <timeResidual>-0.06</timeResidual>
          <creationInfo>
            <agencyID>UW</agencyID>
            <creationTime>2012-02-27T17:06:17.000000Z</creationTime>
          </creationInfo>
        </arrival>
        <arrival publicID="quakeml:uw.anss.org/AssocArO/UW/4028613">
          <pickID>quakeml:uw.anss.org/Arrival/UW/4028613</pickID>
          <phase>S</phase>
          <azimuth>273.4</azimuth>
          <timeResidual>-0.92</timeResidual>
          <creationInfo>
            <agencyID>UW</agencyID>
            <creationTime>2012-02-27T17:06:17.000000Z</creationTime>
          </creationInfo>
        </arrival>
        <arrival publicID="quakeml:uw.anss.org/AssocArO/UW/4028618">
          <pickID>quakeml:uw.anss.org/Arrival/UW/4028618</pickID>
          <phase>P</phase>
          <azimuth>205.5</azimuth>
          <distance>1.675</distance>
          <timeResidual>-0.09</timeResidual>
          <creationInfo>
            <agencyID>UW</agencyID>
            <creationTime>2012-02-27T17:06:17.000000Z</creationTime>
          </creationInfo>
        </arrival>
        <arrival publicID="quakeml:uw.anss.org/AssocArO/UW/4028623">
          <pickID>quakeml:uw.anss.org/Arrival/UW/4028623</pickID>
          <phase>S</phase>
          <azimuth>205.5</azimuth>
          <distance>1.675</distance>
          <timeResidual>-0.77</timeResidual>
          <creationInfo>
            <agencyID>UW</agencyID>
            <creationTime>2012-02-27T17:06:17.000000Z</creationTime>
          </creationInfo>
        </arrival>
        <arrival publicID="quakeml:uw.anss.org/AssocArO/UW/4028638">
          <pickID>quakeml:uw.anss.org/Arrival/UW/4028638</pickID>
          <phase>P</phase>
          <azimuth>134.5</azimuth>
          <distance>1.545</distance>
          <timeResidual>0.53</timeResidual>
          <creationInfo>
            <agencyID>UW</agencyID>
            <creationTime>2012-02-27T17:06:17.000000Z</creationTime>
          </creationInfo>
        </arrival>
        <arrival publicID="quakeml:uw.anss.org/AssocArO/UW/4028648">
          <pickID>quakeml:uw.anss.org/Arrival/UW/4028648</pickID>
          <phase>S</phase>
          <azimuth>134.5</azimuth>
          <distance>1.545</distance>
          <timeResidual>-0.2</timeResidual>
          <creationInfo>
            <agencyID>UW</agencyID>
            <creationTime>2012-02-27T17:06:17.000000Z</creationTime>
          </creationInfo>
        </arrival>
        <arrival publicID="quakeml:uw.anss.org/AssocArO/UW/4028663">
          <pickID>quakeml:uw.anss.org/Arrival/UW/4028663</pickID>
          <phase>P</phase>
          <azimuth>286.3</azimuth>
          <timeResidual>0.1</timeResidual>
          <creationInfo>
            <agencyID>UW</agencyID>
            <creationTime>2012-02-27T17:06:17.000000Z</creationTime>
          </creationInfo>
        </arrival>
        <arrival publicID="quakeml:uw.anss.org/AssocArO/UW/4028668">
          <pickID>quakeml:uw.anss.org/Arrival/UW/4028668</pickID>
          <phase>S</phase>
          <azimuth>286.3</azimuth>
          <timeResidual>-0.2</timeResidual>
          <creationInfo>
            <agencyID>UW</agencyID>
            <creationTime>2012-02-27T17:06:17.000000Z</creationTime>
          </creationInfo>
        </arrival>
        <arrival publicID="quakeml:uw.anss.org/AssocArO/UW/4028683">
          <pickID>quakeml:uw.anss.org/Arrival/UW/4028683</pickID>
          <phase>P</phase>
          <azimuth>144.2</azimuth>
          <distance>1.909</distance>
          <timeResidual>1.17</timeResidual>
          <creationInfo>
            <agencyID>UW</agencyID>
            <creationTime>2012-02-27T17:06:17.000000Z</creationTime>
          </creationInfo>
        </arrival>
        <arrival publicID="quakeml:uw.anss.org/AssocArO/UW/4028698">
          <pickID>quakeml:uw.anss.org/Arrival/UW/4028698</pickID>
          <phase>S</phase>
          <azimuth>144.2</azimuth>
          <distance>1.909</distance>
          <timeResidual>0.38</timeResidual>
          <creationInfo>
            <agencyID>UW</agencyID>
            <creationTime>2012-02-27T17:06:17.000000Z</creationTime>
          </creationInfo>
        </arrival>
        <arrival publicID="quakeml:uw.anss.org/AssocArO/UW/4028713">
          <pickID>quakeml:uw.anss.org/Arrival/UW/4028713</pickID>
          <phase>P</phase>
          <azimuth>161.8</azimuth>
          <distance>2.553</distance>
          <timeResidual>3.29</timeResidual>
          <creationInfo>
            <agencyID>UW</agencyID>
            <creationTime>2012-02-27T17:06:17.000000Z</creationTime>
          </creationInfo>
        </arrival>
        <arrival publicID="quakeml:uw.anss.org/AssocArO/UW/4028718">
          <pickID>quakeml:uw.anss.org/Arrival/UW/4028718</pickID>
          <phase>S</phase>
          <azimuth>115.9</azimuth>
          <distance>2.827</distance>
          <timeResidual>5.14</timeResidual>
          <creationInfo>
            <agencyID>UW</agencyID>
            <creationTime>2012-02-27T17:06:17.000000Z</creationTime>
          </creationInfo>
        </arrival>
        <arrival publicID="quakeml:uw.anss.org/AssocArO/UW/4028728">
          <pickID>quakeml:uw.anss.org/Arrival/UW/4028728</pickID>
          <phase>P</phase>
          <timeResidual>0.16</timeResidual>
          <creationInfo>
            <agencyID>UW</agencyID>
            <creationTime>2012-02-27T17:06:17.000000Z</creationTime>
          </creationInfo>
        </arrival>
        <arrival publicID="quakeml:uw.anss.org/AssocArO/UW/4028733">
          <pickID>quakeml:uw.anss.org/Arrival/UW/4028733</pickID>
          <phase>S</phase>
          <timeResidual>-0.55</timeResidual>
          <creationInfo>
            <agencyID>UW</agencyID>
            <creationTime>2012-02-27T17:06:17.000000Z</creationTime>
          </creationInfo>
        </arrival>
        <arrival publicID="quakeml:uw.anss.org/AssocArO/UW/4028738">
          <pickID>quakeml:uw.anss.org/Arrival/UW/4028738</pickID>
          <phase>P</phase>
          <azimuth>137.7</azimuth>
          <distance>2.411</distance>
          <timeResidual>3.32</timeResidual>
          <creationInfo>
            <agencyID>UW</agencyID>
            <creationTime>2012-02-27T17:06:17.000000Z</creationTime>
          </creationInfo>
        </arrival>
        <arrival publicID="quakeml:uw.anss.org/AssocArO/UW/4028748">
          <pickID>quakeml:uw.anss.org/Arrival/UW/4028748</pickID>
          <phase>S</phase>
          <azimuth>137.7</azimuth>
          <distance>2.411</distance>
          <timeResidual>2.76</timeResidual>
          <creationInfo>
            <agencyID>UW</agencyID>
            <creationTime>2012-02-27T17:06:17.000000Z</creationTime>
          </creationInfo>
        </arrival>
        <arrival publicID="quakeml:uw.anss.org/AssocArO/UW/4028758">
          <pickID>quakeml:uw.anss.org/Arrival/UW/4028758</pickID>
          <phase>P</phase>
          <azimuth>176.2</azimuth>
          <timeResidual>0.37</timeResidual>
          <creationInfo>
            <agencyID>UW</agencyID>
            <creationTime>2012-02-27T17:06:17.000000Z</creationTime>
          </creationInfo>
        </arrival>
        <arrival publicID="quakeml:uw.anss.org/AssocArO/UW/4028768">
          <pickID>quakeml:uw.anss.org/Arrival/UW/4028768</pickID>
          <phase>P</phase>
          <timeResidual>0.53</timeResidual>
          <creationInfo>
            <agencyID>UW</agencyID>
            <creationTime>2012-02-27T17:06:17.000000Z</creationTime>
          </creationInfo>
        </arrival>
        <arrival publicID="quakeml:uw.anss.org/AssocArO/UW/4028778">
          <pickID>quakeml:uw.anss.org/Arrival/UW/4028778</pickID>
          <phase>P</phase>
          <azimuth>327.3</azimuth>
          <distance>1.154</distance>
          <timeResidual>0.03</timeResidual>
          <creationInfo>
            <agencyID>UW</agencyID>
            <creationTime>2012-02-27T17:06:17.000000Z</creationTime>
          </creationInfo>
        </arrival>
        <arrival publicID="quakeml:uw.anss.org/AssocArO/UW/4028783">
          <pickID>quakeml:uw.anss.org/Arrival/UW/4028783</pickID>
          <phase>S</phase>
          <azimuth>327.3</azimuth>
          <distance>1.154</distance>
          <timeResidual>-1.39</timeResidual>
          <creationInfo>
            <agencyID>UW</agencyID>
            <creationTime>2012-02-27T17:06:17.000000Z</creationTime>
          </creationInfo>
        </arrival>
        <arrival publicID="quakeml:uw.anss.org/AssocArO/UW/4028788">
          <pickID>quakeml:uw.anss.org/Arrival/UW/4028788</pickID>
          <phase>P</phase>
          <azimuth>286.5</azimuth>
          <timeResidual>-0.06</timeResidual>
          <creationInfo>
            <agencyID>UW</agencyID>
            <creationTime>2012-02-27T17:06:17.000000Z</creationTime>
          </creationInfo>
        </arrival>
        <arrival publicID="quakeml:uw.anss.org/AssocArO/UW/4028803">
          <pickID>quakeml:uw.anss.org/Arrival/UW/4028803</pickID>
          <phase>S</phase>
          <azimuth>286.5</azimuth>
          <timeResidual>-0.93</timeResidual>
          <creationInfo>
            <agencyID>UW</agencyID>
            <creationTime>2012-02-27T17:06:17.000000Z</creationTime>
          </creationInfo>
        </arrival>
        <arrival publicID="quakeml:uw.anss.org/AssocArO/UW/4028873">
          <pickID>quakeml:uw.anss.org/Arrival/UW/4028873</pickID>
          <phase>P</phase>
          <azimuth>171.6</azimuth>
          <distance>0.3833</distance>
          <timeResidual>-0.21</timeResidual>
          <creationInfo>
            <agencyID>UW</agencyID>
            <creationTime>2012-02-27T17:06:17.000000Z</creationTime>
          </creationInfo>
        </arrival>
        <arrival publicID="quakeml:uw.anss.org/AssocArO/UW/4028883">
          <pickID>quakeml:uw.anss.org/Arrival/UW/4028883</pickID>
          <phase>S</phase>
          <azimuth>171.6</azimuth>
          <distance>0.3833</distance>
          <timeResidual>-0.98</timeResidual>
          <creationInfo>
            <agencyID>UW</agencyID>
            <creationTime>2012-02-27T17:06:17.000000Z</creationTime>
          </creationInfo>
        </arrival>
        <arrival publicID="quakeml:uw.anss.org/AssocArO/UW/4028903">
          <pickID>quakeml:uw.anss.org/Arrival/UW/4028903</pickID>
          <phase>P</phase>
          <azimuth>129.5</azimuth>
          <distance>2.258</distance>
          <timeResidual>2.6</timeResidual>
          <creationInfo>
            <agencyID>UW</agencyID>
            <creationTime>2012-02-27T17:06:17.000000Z</creationTime>
          </creationInfo>
        </arrival>
        <arrival publicID="quakeml:uw.anss.org/AssocArO/UW/4028938">
          <pickID>quakeml:uw.anss.org/Arrival/UW/4028938</pickID>
          <phase>P</phase>
          <azimuth>301.9</azimuth>
          <timeResidual>0.01</timeResidual>
          <creationInfo>
            <agencyID>UW</agencyID>
            <creationTime>2012-02-27T17:06:17.000000Z</creationTime>
          </creationInfo>
        </arrival>
        <arrival publicID="quakeml:uw.anss.org/AssocArO/UW/4028943">
          <pickID>quakeml:uw.anss.org/Arrival/UW/4028943</pickID>
          <phase>S</phase>
          <azimuth>301.9</azimuth>
          <timeResidual>-1.04</timeResidual>
          <creationInfo>
            <agencyID>UW</agencyID>
            <creationTime>2012-02-27T17:06:17.000000Z</creationTime>
          </creationInfo>
        </arrival>
        <arrival publicID="quakeml:uw.anss.org/AssocArO/UW/4028948">
          <pickID>quakeml:uw.anss.org/Arrival/UW/4028948</pickID>
          <phase>P</phase>
          <azimuth>177.7</azimuth>
          <timeResidual>0.46</timeResidual>
          <creationInfo>
            <agencyID>UW</agencyID>
            <creationTime>2012-02-27T17:06:17.000000Z</creationTime>
          </creationInfo>
        </arrival>
        <arrival publicID="quakeml:uw.anss.org/AssocArO/UW/4028953">
          <pickID>quakeml:uw.anss.org/Arrival/UW/4028953</pickID>
          <phase>S</phase>
          <azimuth>177.7</azimuth>
          <timeResidual>0.03</timeResidual>
          <creationInfo>
            <agencyID>UW</agencyID>
            <creationTime>2012-02-27T17:06:17.000000Z</creationTime>
          </creationInfo>
        </arrival>
        <arrival publicID="quakeml:uw.anss.org/AssocArO/UW/4028958">
          <pickID>quakeml:uw.anss.org/Arrival/UW/4028958</pickID>
          <phase>P</phase>
          <azimuth>174.5</azimuth>
          <timeResidual>0.58</timeResidual>
          <creationInfo>
            <agencyID>UW</agencyID>
            <creationTime>2012-02-27T17:06:17.000000Z</creationTime>
          </creationInfo>
        </arrival>
        <arrival publicID="quakeml:uw.anss.org/AssocArO/UW/4028963">
          <pickID>quakeml:uw.anss.org/Arrival/UW/4028963</pickID>
          <phase>P</phase>
          <azimuth>128.0</azimuth>
          <distance>1.884</distance>
          <timeResidual>1.25</timeResidual>
          <creationInfo>
            <agencyID>UW</agencyID>
            <creationTime>2012-02-27T17:06:17.000000Z</creationTime>
          </creationInfo>
        </arrival>
        <arrival publicID="quakeml:uw.anss.org/AssocArO/UW/4028968">
          <pickID>quakeml:uw.anss.org/Arrival/UW/4028968</pickID>
          <phase>S</phase>
          <azimuth>128.0</azimuth>
          <distance>1.884</distance>
          <timeResidual>1.07</timeResidual>
          <creationInfo>
            <agencyID>UW</agencyID>
            <creationTime>2012-02-27T17:06:17.000000Z</creationTime>
          </creationInfo>
        </arrival>
        <arrival publicID="quakeml:uw.anss.org/AssocArO/UW/4028973">
          <pickID>quakeml:uw.anss.org/Arrival/UW/4028973</pickID>
          <phase>P</phase>
          <timeResidual>0.41</timeResidual>
          <creationInfo>
            <agencyID>UW</agencyID>
            <creationTime>2012-02-27T17:06:17.000000Z</creationTime>
          </creationInfo>
        </arrival>
        <arrival publicID="quakeml:uw.anss.org/AssocArO/UW/4028978">
          <pickID>quakeml:uw.anss.org/Arrival/UW/4028978</pickID>
          <phase>S</phase>
          <timeResidual>-0.47</timeResidual>
          <creationInfo>
            <agencyID>UW</agencyID>
            <creationTime>2012-02-27T17:06:17.000000Z</creationTime>
          </creationInfo>
        </arrival>
        <arrival publicID="quakeml:uw.anss.org/AssocArO/UW/4028983">
          <pickID>quakeml:uw.anss.org/Arrival/UW/4028983</pickID>
          <phase>P</phase>
          <azimuth>228.4</azimuth>
          <timeResidual>0.22</timeResidual>
          <creationInfo>
            <agencyID>UW</agencyID>
            <creationTime>2012-02-27T17:06:17.000000Z</creationTime>
          </creationInfo>
        </arrival>
        <arrival publicID="quakeml:uw.anss.org/AssocArO/UW/4028988">
          <pickID>quakeml:uw.anss.org/Arrival/UW/4028988</pickID>
          <phase>P</phase>
          <timeResidual>0.37</timeResidual>
          <creationInfo>
            <agencyID>UW</agencyID>
            <creationTime>2012-02-27T17:06:17.000000Z</creationTime>
          </creationInfo>
        </arrival>
        <arrival publicID="quakeml:uw.anss.org/AssocArO/UW/4028993">
          <pickID>quakeml:uw.anss.org/Arrival/UW/4028993</pickID>
          <phase>P</phase>
          <azimuth>136.6</azimuth>
          <distance>1.994</distance>
          <timeResidual>1.09</timeResidual>
          <creationInfo>
            <agencyID>UW</agencyID>
            <creationTime>2012-02-27T17:06:17.000000Z</creationTime>
          </creationInfo>
        </arrival>
        <arrival publicID="quakeml:uw.anss.org/AssocArO/UW/4028998">
          <pickID>quakeml:uw.anss.org/Arrival/UW/4028998</pickID>
          <phase>S</phase>
          <azimuth>136.6</azimuth>
          <distance>1.994</distance>
          <timeResidual>1.55</timeResidual>
          <creationInfo>
            <agencyID>UW</agencyID>
            <creationTime>2012-02-27T17:06:17.000000Z</creationTime>
          </creationInfo>
        </arrival>
        <arrival publicID="quakeml:uw.anss.org/AssocArO/UW/4029003">
          <pickID>quakeml:uw.anss.org/Arrival/UW/4029003</pickID>
          <phase>S</phase>
          <azimuth>198.6</azimuth>
          <distance>1.702</distance>
          <timeResidual>-0.95</timeResidual>
          <creationInfo>
            <agencyID>UW</agencyID>
            <creationTime>2012-02-27T17:06:18.000000Z</creationTime>
          </creationInfo>
        </arrival>
        <arrival publicID="quakeml:uw.anss.org/AssocArO/UW/4029008">
          <pickID>quakeml:uw.anss.org/Arrival/UW/4029008</pickID>
          <phase>P</phase>
          <azimuth>175.9</azimuth>
          <distance>1.709</distance>
          <timeResidual>0.34</timeResidual>
          <creationInfo>
            <agencyID>UW</agencyID>
            <creationTime>2012-02-27T17:06:18.000000Z</creationTime>
          </creationInfo>
        </arrival>
        <arrival publicID="quakeml:uw.anss.org/AssocArO/UW/4029013">
          <pickID>quakeml:uw.anss.org/Arrival/UW/4029013</pickID>
          <phase>P</phase>
          <timeResidual>0.32</timeResidual>
          <creationInfo>
            <agencyID>UW</agencyID>
            <creationTime>2012-02-27T17:06:18.000000Z</creationTime>
          </creationInfo>
