<?xml version='1.0' encoding='utf-8'?>
<q:quakeml xmlns="http://quakeml.org/xmlns/bed/1.2" xmlns:q="http://quakeml.org/xmlns/quakeml/1.2" xmlns:ns0="http://anss.org/xmlns/catalog/0.1">
  <eventParameters publicID="smi:local/96198009-0a9e-44e7-9e11-4364581201cf">
    <event publicID="quakeml:uw.anss.org/Event/UW/10271493" ns0:datasource="uw" ns0:dataid="uw10271493" ns0:eventsource="uw" ns0:eventid="10271493">
      <preferredOriginID>quakeml:uw.anss.org/Origin/UW/548438</preferredOriginID>
      <preferredMagnitudeID>quakeml:uw.anss.org/Netmag/UW/459653</preferredMagnitudeID>
      <type>earthquake</type>
      <creationInfo>
        <agencyID>UW</agencyID>
        <creationTime>2012-02-27T17:12:34.000000Z</creationTime>
        <version>3</version>
      </creationInfo>
      <origin publicID="quakeml:uw.anss.org/Origin/UW/548438" ns0:datasource="uw" ns0:dataid="uw10271493" ns0:eventsource="uw" ns0:eventid="10271493">
        <time>
          <value>1991-01-25T13:09:37.610000Z</value>
          <uncertainty>0.11</uncertainty>
        </time>
        <latitude>
          <value>48.8415</value>
          <uncertainty>0.47</uncertainty>
        </latitude>
        <longitude>
          <value>-122.1471667</value>
          <uncertainty>0.55</uncertainty>
        </longitude>
        <depth>
          <value>879.0</value>
          <uncertainty>1070.0</uncertainty>
        </depth>
        <depthType>from location</depthType>
        <timeFixed>false</timeFixed>
        <epicenterFixed>false</epicenterFixed>
        <methodID>smi:uw.anss.org/origin/spong</methodID>
        <quality>
          <associatedPhaseCount>82</associatedPhaseCount>
          <usedPhaseCount>29</usedPhaseCount>
          <associatedStationCount>60</associatedStationCount>
          <usedStationCount>0</usedStationCount>
          <standardError>0.28</standardError>
          <azimuthalGap>100.0</azimuthalGap>
        </quality>
        <type>hypocenter</type>
        <evaluationMode>manual</evaluationMode>
        <evaluationStatus>final</evaluationStatus>
        <creationInfo>
          <agencyID>UW</agencyID>
          <creationTime>2012-02-27T17:12:34.000000Z</creationTime>
        </creationInfo>
        <originUncertainty>
          <preferredDescription>horizontal uncertainty</preferredDescription>
          <horizontalUncertainty>723.0</horizontalUncertainty>
        </originUncertainty>
        <arrival publicID="quakeml:uw.anss.org/AssocArO/UW/4074953">
          <pickID>quakeml:uw.anss.org/Arrival/UW/4074953</pickID>
          <phase>P</phase>
          <azimuth>288.1</azimuth>
          <timeResidual>-0.54</timeResidual>
          <creationInfo>
            <agencyID>UW</agencyID>
            <creationTime>2012-02-27T17:12:34.000000Z</creationTime>
          </creationInfo>
        </arrival>
        <arrival publicID="quakeml:uw.anss.org/AssocArO/UW/4074963">
          <pickID>quakeml:uw.anss.org/Arrival/UW/4074963</pickID>
          <phase>S</phase>
          <azimuth>288.1</azimuth>
          <timeResidual>-1.42</timeResidual>
          <creationInfo>
            <agencyID>UW</agencyID>
            <creationTime>2012-02-27T17:12:34.000000Z</creationTime>
          </creationInfo>
        </arrival>
        <arrival publicID="quakeml:uw.anss.org/AssocArO/UW/4074973">
          <pickID>quakeml:uw.anss.org/Arrival/UW/4074973</pickID>
          <phase>P</phase>
          <azimuth>207.2</azimuth>
          <distance>1.34</distance>
          <timeResidual>-0.18</timeResidual>
          <creationInfo>
            <agencyID>UW</agencyID>
            <creationTime>2012-02-27T17:12:34.000000Z</creationTime>
          </creationInfo>
        </arrival>
        <arrival publicID="quakeml:uw.anss.org/AssocArO/UW/4074983">
          <pickID>quakeml:uw.anss.org/Arrival/UW/4074983</pickID>
          <phase>S</phase>
          <azimuth>207.2</azimuth>
          <distance>1.34</distance>
          <timeResidual>-0.07</timeResidual>
          <creationInfo>
            <agencyID>UW</agencyID>
            <creationTime>2012-02-27T17:12:34.000000Z</creationTime>
          </creationInfo>
        </arrival>
        <arrival publicID="quakeml:uw.anss.org/AssocArO/UW/4074993">
          <pickID>quakeml:uw.anss.org/Arrival/UW/4074993</pickID>
          <phase>P</phase>
          <azimuth>122.1</azimuth>
          <distance>1.429</distance>
          <timeResidual>0.8</timeResidual>
          <creationInfo>
            <agencyID>UW</agencyID>
            <creationTime>2012-02-27T17:12:35.000000Z</creationTime>
          </creationInfo>
        </arrival>
        <arrival publicID="quakeml:uw.anss.org/AssocArO/UW/4075003">
          <pickID>quakeml:uw.anss.org/Arrival/UW/4075003</pickID>
          <phase>P</phase>
          <azimuth>327.0</azimuth>
          <timeResidual>0.02</timeResidual>
          <creationInfo>
            <agencyID>UW</agencyID>
            <creationTime>2012-02-27T17:12:35.000000Z</creationTime>
          </creationInfo>
        </arrival>
        <arrival publicID="quakeml:uw.anss.org/AssocArO/UW/4075033">
          <pickID>quakeml:uw.anss.org/Arrival/UW/4075033</pickID>
          <phase>S</phase>
          <azimuth>327.0</azimuth>
          <timeResidual>0.08</timeResidual>
          <creationInfo>
            <agencyID>UW</agencyID>
            <creationTime>2012-02-27T17:12:35.000000Z</creationTime>
          </creationInfo>
        </arrival>
        <arrival publicID="quakeml:uw.anss.org/AssocArO/UW/4075043">
          <pickID>quakeml:uw.anss.org/Arrival/UW/4075043</pickID>
          <phase>P</phase>
          <azimuth>135.0</azimuth>
          <distance>1.733</distance>
          <timeResidual>0.77</timeResidual>
          <creationInfo>
            <agencyID>UW</agencyID>
            <creationTime>2012-02-27T17:12:35.000000Z</creationTime>
          </creationInfo>
        </arrival>
        <arrival publicID="quakeml:uw.anss.org/AssocArO/UW/4075053">
          <pickID>quakeml:uw.anss.org/Arrival/UW/4075053</pickID>
          <phase>P</phase>
          <azimuth>156.7</azimuth>
          <distance>2.29</distance>
          <timeResidual>-0.18</timeResidual>
          <creationInfo>
            <agencyID>UW</agencyID>
            <creationTime>2012-02-27T17:12:35.000000Z</creationTime>
          </creationInfo>
        </arrival>
        <arrival publicID="quakeml:uw.anss.org/AssocArO/UW/4075063">
          <pickID>quakeml:uw.anss.org/Arrival/UW/4075063</pickID>
          <phase>S</phase>
          <azimuth>156.7</azimuth>
          <distance>2.29</distance>
          <timeResidual>0.62</timeResidual>
          <creationInfo>
            <agencyID>UW</agencyID>
            <creationTime>2012-02-27T17:12:35.000000Z</creationTime>
          </creationInfo>
        </arrival>
        <arrival publicID="quakeml:uw.anss.org/AssocArO/UW/4075078">
          <pickID>quakeml:uw.anss.org/Arrival/UW/4075078</pickID>
          <phase>P</phase>
          <azimuth>174.1</azimuth>
          <timeResidual>-0.11</timeResidual>
          <creationInfo>
            <agencyID>UW</agencyID>
            <creationTime>2012-02-27T17:12:35.000000Z</creationTime>
          </creationInfo>
        </arrival>
        <arrival publicID="quakeml:uw.anss.org/AssocArO/UW/4075088">
          <pickID>quakeml:uw.anss.org/Arrival/UW/4075088</pickID>
          <phase>P</phase>
          <azimuth>185.9</azimuth>
          <distance>2.42</distance>
          <timeResidual>0.61</timeResidual>
          <creationInfo>
            <agencyID>UW</agencyID>
            <creationTime>2012-02-27T17:12:35.000000Z</creationTime>
          </creationInfo>
        </arrival>
        <arrival publicID="quakeml:uw.anss.org/AssocArO/UW/4075098">
          <pickID>quakeml:uw.anss.org/Arrival/UW/4075098</pickID>
          <phase>P</phase>
          <azimuth>171.8</azimuth>
          <distance>1.992</distance>
          <timeResidual>0.24</timeResidual>
          <creationInfo>
            <agencyID>UW</agencyID>
            <creationTime>2012-02-27T17:12:35.000000Z</creationTime>
          </creationInfo>
        </arrival>
        <arrival publicID="quakeml:uw.anss.org/AssocArO/UW/4075108">
          <pickID>quakeml:uw.anss.org/Arrival/UW/4075108</pickID>
          <phase>P</phase>
          <timeResidual>0.56</timeResidual>
          <creationInfo>
            <agencyID>UW</agencyID>
            <creationTime>2012-02-27T17:12:35.000000Z</creationTime>
          </creationInfo>
        </arrival>
        <arrival publicID="quakeml:uw.anss.org/AssocArO/UW/4075113">
          <pickID>quakeml:uw.anss.org/Arrival/UW/4075113</pickID>
          <phase>S</phase>
          <timeResidual>1.73</timeResidual>
          <creationInfo>
            <agencyID>UW</agencyID>
            <creationTime>2012-02-27T17:12:35.000000Z</creationTime>
          </creationInfo>
        </arrival>
        <arrival publicID="quakeml:uw.anss.org/AssocArO/UW/4075118">
          <pickID>quakeml:uw.anss.org/Arrival/UW/4075118</pickID>
          <phase>P</phase>
          <azimuth>152.9</azimuth>
          <distance>1.908</distance>
          <timeResidual>1.46</timeResidual>
          <creationInfo>
            <agencyID>UW</agencyID>
            <creationTime>2012-02-27T17:12:35.000000Z</creationTime>
          </creationInfo>
        </arrival>
        <arrival publicID="quakeml:uw.anss.org/AssocArO/UW/4075123">
          <pickID>quakeml:uw.anss.org/Arrival/UW/4075123</pickID>
          <phase>P</phase>
          <azimuth>130.1</azimuth>
          <distance>2.265</distance>
          <timeResidual>2.33</timeResidual>
          <creationInfo>
            <agencyID>UW</agencyID>
            <creationTime>2012-02-27T17:12:35.000000Z</creationTime>
          </creationInfo>
        </arrival>
        <arrival publicID="quakeml:uw.anss.org/AssocArO/UW/4075128">
          <pickID>quakeml:uw.anss.org/Arrival/UW/4075128</pickID>
          <phase>P</phase>
          <azimuth>180.8</azimuth>
          <distance>2.38</distance>
          <timeResidual>0.32</timeResidual>
          <creationInfo>
            <agencyID>UW</agencyID>
            <creationTime>2012-02-27T17:12:35.000000Z</creationTime>
          </creationInfo>
        </arrival>
        <arrival publicID="quakeml:uw.anss.org/AssocArO/UW/4075133">
          <pickID>quakeml:uw.anss.org/Arrival/UW/4075133</pickID>
          <phase>P</phase>
          <azimuth>180.1</azimuth>
          <distance>2.646</distance>
          <timeResidual>1.02</timeResidual>
          <creationInfo>
            <agencyID>UW</agencyID>
            <creationTime>2012-02-27T17:12:35.000000Z</creationTime>
          </creationInfo>
        </arrival>
        <arrival publicID="quakeml:uw.anss.org/AssocArO/UW/4075138">
          <pickID>quakeml:uw.anss.org/Arrival/UW/4075138</pickID>
          <phase>P</phase>
          <azimuth>171.7</azimuth>
          <timeResidual>-0.01</timeResidual>
          <creationInfo>
            <agencyID>UW</agencyID>
            <creationTime>2012-02-27T17:12:35.000000Z</creationTime>
          </creationInfo>
        </arrival>
        <arrival publicID="quakeml:uw.anss.org/AssocArO/UW/4075143">
          <pickID>quakeml:uw.anss.org/Arrival/UW/4075143</pickID>
          <phase>S</phase>
          <azimuth>171.7</azimuth>
          <timeResidual>-0.3</timeResidual>
          <creationInfo>
            <agencyID>UW</agencyID>
            <creationTime>2012-02-27T17:12:35.000000Z</creationTime>
          </creationInfo>
        </arrival>
        <arrival publicID="quakeml:uw.anss.org/AssocArO/UW/4075148">
          <pickID>quakeml:uw.anss.org/Arrival/UW/4075148</pickID>
          <phase>P</phase>
          <timeResidual>-0.98</timeResidual>
          <creationInfo>
            <agencyID>UW</agencyID>
            <creationTime>2012-02-27T17:12:35.000000Z</creationTime>
          </creationInfo>
        </arrival>
        <arrival publicID="quakeml:uw.anss.org/AssocArO/UW/4075158">
          <pickID>quakeml:uw.anss.org/Arrival/UW/4075158</pickID>
          <phase>P</phase>
          <azimuth>176.4</azimuth>
          <distance>1.902</distance>
          <timeResidual>0.08</timeResidual>
          <creationInfo>
            <agencyID>UW</agencyID>
            <creationTime>2012-02-27T17:12:35.000000Z</creationTime>
          </creationInfo>
        </arrival>
        <arrival publicID="quakeml:uw.anss.org/AssocArO/UW/4075168">
          <pickID>quakeml:uw.anss.org/Arrival/UW/4075168</pickID>
          <phase>S</phase>
          <azimuth>176.4</azimuth>
          <distance>1.902</distance>
          <timeResidual>-0.27</timeResidual>
          <creationInfo>
            <agencyID>UW</agencyID>
            <creationTime>2012-02-27T17:12:35.000000Z</creationTime>
          </creationInfo>
        </arrival>
        <arrival publicID="quakeml:uw.anss.org/AssocArO/UW/4075198">
          <pickID>quakeml:uw.anss.org/Arrival/UW/4075198</pickID>
          <phase>P</phase>
          <azimuth>173.7</azimuth>
          <distance>2.105</distance>
          <timeResidual>-0.16</timeResidual>
          <creationInfo>
            <agencyID>UW</agencyID>
            <creationTime>2012-02-27T17:12:35.000000Z</creationTime>
          </creationInfo>
        </arrival>
        <arrival publicID="quakeml:uw.anss.org/AssocArO/UW/4075203">
          <pickID>quakeml:uw.anss.org/Arrival/UW/4075203</pickID>
          <phase>P</phase>
          <timeResidual>-0.05</timeResidual>
          <creationInfo>
            <agencyID>UW</agencyID>
            <creationTime>2012-02-27T17:12:35.000000Z</creationTime>
          </creationInfo>
        </arrival>
        <arrival publicID="quakeml:uw.anss.org/AssocArO/UW/4075248">
          <pickID>quakeml:uw.anss.org/Arrival/UW/4075248</pickID>
          <phase>S</phase>
          <timeResidual>-0.48</timeResidual>
          <creationInfo>
            <agencyID>UW</agencyID>
            <creationTime>2012-02-27T17:12:35.000000Z</creationTime>
          </creationInfo>
        </arrival>
        <arrival publicID="quakeml:uw.anss.org/AssocArO/UW/4075258">
          <pickID>quakeml:uw.anss.org/Arrival/UW/4075258</pickID>
          <phase>P</phase>
          <azimuth>133.0</azimuth>
          <distance>0.5752</distance>
          <timeResidual>-0.36</timeResidual>
          <creationInfo>
            <agencyID>UW</agencyID>
            <creationTime>2012-02-27T17:12:35.000000Z</creationTime>
          </creationInfo>
        </arrival>
        <arrival publicID="quakeml:uw.anss.org/AssocArO/UW/4075263">
          <pickID>quakeml:uw.anss.org/Arrival/UW/4075263</pickID>
          <phase>S</phase>
          <azimuth>133.0</azimuth>
          <distance>0.5752</distance>
          <timeResidual>0.24</timeResidual>
          <creationInfo>
            <agencyID>UW</agencyID>
            <creationTime>2012-02-27T17:12:35.000000Z</creationTime>
          </creationInfo>
        </arrival>
        <arrival publicID="quakeml:uw.anss.org/AssocArO/UW/4075278">
          <pickID>quakeml:uw.anss.org/Arrival/UW/4075278</pickID>
          <phase>P</phase>
          <azimuth>170.8</azimuth>
          <distance>2.314</distance>
          <timeResidual>0.39</timeResidual>
          <creationInfo>
            <agencyID>UW</agencyID>
            <creationTime>2012-02-27T17:12:35.000000Z</creationTime>
          </creationInfo>
        </arrival>
        <arrival publicID="quakeml:uw.anss.org/AssocArO/UW/4075288">
          <pickID>quakeml:uw.anss.org/Arrival/UW/4075288</pickID>
          <phase>P</phase>
          <azimuth>168.9</azimuth>
          <distance>2.183</distance>
          <timeResidual>0.01</timeResidual>
          <creationInfo>
            <agencyID>UW</agencyID>
            <creationTime>2012-02-27T17:12:35.000000Z</creationTime>
          </creationInfo>
        </arrival>
        <arrival publicID="quakeml:uw.anss.org/AssocArO/UW/4075293">
          <pickID>quakeml:uw.anss.org/Arrival/UW/4075293</pickID>
          <phase>P</phase>
          <azimuth>307.3</azimuth>
          <timeResidual>-0.25</timeResidual>
          <creationInfo>
            <agencyID>UW</agencyID>
            <creationTime>2012-02-27T17:12:35.000000Z</creationTime>
          </creationInfo>
        </arrival>
        <arrival publicID="quakeml:uw.anss.org/AssocArO/UW/4075303">
          <pickID>quakeml:uw.anss.org/Arrival/UW/4075303</pickID>
          <phase>P</phase>
          <azimuth>206.4</azimuth>
          <distance>0.5786</distance>
          <timeResidual>0.63</timeResidual>
          <creationInfo>
            <agencyID>UW</agencyID>
            <creationTime>2012-02-27T17:12:35.000000Z</creationTime>
          </creationInfo>
        </arrival>
        <arrival publicID="quakeml:uw.anss.org/AssocArO/UW/4075343">
          <pickID>quakeml:uw.anss.org/Arrival/UW/4075343</pickID>
          <phase>P</phase>
          <azimuth>120.9</azimuth>
          <distance>2.16</distance>
          <timeResidual>2.52</timeResidual>
          <creationInfo>
            <agencyID>UW</agencyID>
            <creationTime>2012-02-27T17:12:35.000000Z</creationTime>
          </creationInfo>
        </arrival>
        <arrival publicID="quakeml:uw.anss.org/AssocArO/UW/4075353">
          <pickID>quakeml:uw.anss.org/Arrival/UW/4075353</pickID>
          <phase>P</phase>
          <azimuth>225.9</azimuth>
          <distance>1.461</distance>
          <timeResidual>-0.02</timeResidual>
          <creationInfo>
            <agencyID>UW</agencyID>
            <creationTime>2012-02-27T17:12:35.000000Z</creationTime>
          </creationInfo>
        </arrival>
        <arrival publicID="quakeml:uw.anss.org/AssocArO/UW/4075358">
          <pickID>quakeml:uw.anss.org/Arrival/UW/4075358</pickID>
          <phase>P</phase>
          <azimuth>167.2</azimuth>
          <timeResidual>-0.18</timeResidual>
          <creationInfo>
            <agencyID>UW</agencyID>
            <creationTime>2012-02-27T17:12:35.000000Z</creationTime>
          </creationInfo>
        </arrival>
        <arrival publicID="quakeml:uw.anss.org/AssocArO/UW/4075363">
          <pickID>quakeml:uw.anss.org/Arrival/UW/4075363</pickID>
          <phase>S</phase>
          <azimuth>167.2</azimuth>
          <timeResidual>1.63</timeResidual>
          <creationInfo>
            <agencyID>UW</agencyID>
            <creationTime>2012-02-27T17:12:35.000000Z</creationTime>
          </creationInfo>
        </arrival>
        <arrival publicID="quakeml:uw.anss.org/AssocArO/UW/4075368">
          <pickID>quakeml:uw.anss.org/Arrival/UW/4075368</pickID>
          <phase>P</phase>
          <azimuth>150.7</azimuth>
          <distance>2.206</distance>
          <timeResidual>-0.25</timeResidual>
          <creationInfo>
            <agencyID>UW</agencyID>
            <creationTime>2012-02-27T17:12:35.000000Z</creationTime>
          </creationInfo>
        </arrival>
        <arrival publicID="quakeml:uw.anss.org/AssocArO/UW/4075373">
          <pickID>quakeml:uw.anss.org/Arrival/UW/4075373</pickID>
          <phase>P</phase>
          <azimuth>150.5</azimuth>
          <timeResidual>0.55</timeResidual>
          <creationInfo>
            <agencyID>UW</agencyID>
            <creationTime>2012-02-27T17:12:35.000000Z</creationTime>
          </creationInfo>
        </arrival>
        <arrival publicID="quakeml:uw.anss.org/AssocArO/UW/4075378">
          <pickID>quakeml:uw.anss.org/Arrival/UW/4075378</pickID>
          <phase>P</phase>
          <azimuth>170.3</azimuth>
          <timeResidual>0.06</timeResidual>
          <creationInfo>
            <agencyID>UW</agencyID>
            <creationTime>2012-02-27T17:12:35.000000Z</creationTime>
          </creationInfo>
        </arrival>
        <arrival publicID="quakeml:uw.anss.org/AssocArO/UW/4075383">
          <pickID>quakeml:uw.anss.org/Arrival/UW/4075383</pickID>
          <phase>S</phase>
          <azimuth>170.3</azimuth>
          <timeResidual>-0.76</timeResidual>
