<?xml version='1.0' encoding='utf-8'?>
<q:quakeml xmlns="http://quakeml.org/xmlns/bed/1.2" xmlns:q="http://quakeml.org/xmlns/quakeml/1.2" xmlns:ns0="http://anss.org/xmlns/catalog/0.1">
  <eventParameters publicID="smi:local/4cd92fa7-d5ab-440b-99ce-d32525caa8c0">
    <event publicID="quakeml:uw.anss.org/Event/UW/10279273" ns0:datasource="uw" ns0:dataid="uw10279273" ns0:eventsource="uw" ns0:eventid="10279273">
      <preferredOriginID>quakeml:uw.anss.org/Origin/UW/556218</preferredOriginID>
      <preferredMagnitudeID>quakeml:uw.anss.org/Netmag/UW/466473</preferredMagnitudeID>
      <type>earthquake</type>
      <creationInfo>
        <agencyID>UW</agencyID>
        <creationTime>2012-02-27T17:32:45.000000Z</creationTime>
        <version>3</version>
      </creationInfo>
      <origin publicID="quakeml:uw.anss.org/Origin/UW/556218" ns0:datasource="uw" ns0:dataid="uw10279273" ns0:eventsource="uw" ns0:eventid="10279273">
        <time>
          <value>1991-05-27T10:05:44.570000Z</value>
          <uncertainty>0.07</uncertainty>
        </time>
        <latitude>
          <value>48.6646667</value>
          <uncertainty>0.4</uncertainty>
        </latitude>
        <longitude>
          <value>-122.1851667</value>
          <uncertainty>0.38</uncertainty>
        </longitude>
        <depth>
          <value>19527.0</value>
          <uncertainty>1450.0</uncertainty>
        </depth>
        <depthType>from location</depthType>
        <timeFixed>false</timeFixed>
        <epicenterFixed>false</epicenterFixed>
        <methodID>smi:uw.anss.org/origin/spong</methodID>
        <quality>
          <associatedPhaseCount>39</associatedPhaseCount>
          <usedPhaseCount>26</usedPhaseCount>
          <associatedStationCount>26</associatedStationCount>
          <usedStationCount>0</usedStationCount>
          <standardError>0.2</standardError>
          <azimuthalGap>58.0</azimuthalGap>
        </quality>
        <type>hypocenter</type>
        <evaluationMode>manual</evaluationMode>
        <evaluationStatus>final</evaluationStatus>
        <creationInfo>
          <agencyID>UW</agencyID>
          <creationTime>2012-02-27T17:32:45.000000Z</creationTime>
        </creationInfo>
        <originUncertainty>
          <preferredDescription>horizontal uncertainty</preferredDescription>
          <horizontalUncertainty>552.0</horizontalUncertainty>
        </originUncertainty>
        <arrival publicID="quakeml:uw.anss.org/AssocArO/UW/4241308">
          <pickID>quakeml:uw.anss.org/Arrival/UW/4241308</pickID>
          <phase>P</phase>
          <azimuth>210.1</azimuth>
          <distance>1.172</distance>
          <timeResidual>-0.03</timeResidual>
          <creationInfo>
            <agencyID>UW</agencyID>
            <creationTime>2012-02-27T17:32:45.000000Z</creationTime>
          </creationInfo>
        </arrival>
        <arrival publicID="quakeml:uw.anss.org/AssocArO/UW/4241313">
          <pickID>quakeml:uw.anss.org/Arrival/UW/4241313</pickID>
          <phase>S</phase>
          <azimuth>210.1</azimuth>
          <distance>1.172</distance>
          <timeResidual>-0.35</timeResidual>
          <creationInfo>
            <agencyID>UW</agencyID>
            <creationTime>2012-02-27T17:32:45.000000Z</creationTime>
          </creationInfo>
        </arrival>
        <arrival publicID="quakeml:uw.anss.org/AssocArO/UW/4241343">
          <pickID>quakeml:uw.anss.org/Arrival/UW/4241343</pickID>
          <phase>P</phase>
          <azimuth>295.7</azimuth>
          <timeResidual>-0.07</timeResidual>
          <creationInfo>
            <agencyID>UW</agencyID>
            <creationTime>2012-02-27T17:32:45.000000Z</creationTime>
          </creationInfo>
        </arrival>
        <arrival publicID="quakeml:uw.anss.org/AssocArO/UW/4241358">
          <pickID>quakeml:uw.anss.org/Arrival/UW/4241358</pickID>
          <phase>S</phase>
          <azimuth>295.7</azimuth>
          <timeResidual>-0.89</timeResidual>
          <creationInfo>
            <agencyID>UW</agencyID>
            <creationTime>2012-02-27T17:32:45.000000Z</creationTime>
          </creationInfo>
        </arrival>
        <arrival publicID="quakeml:uw.anss.org/AssocArO/UW/4241373">
          <pickID>quakeml:uw.anss.org/Arrival/UW/4241373</pickID>
          <phase>P</phase>
          <azimuth>115.2</azimuth>
          <distance>1.366</distance>
          <timeResidual>1.54</timeResidual>
          <creationInfo>
            <agencyID>UW</agencyID>
            <creationTime>2012-02-27T17:32:45.000000Z</creationTime>
          </creationInfo>
        </arrival>
        <arrival publicID="quakeml:uw.anss.org/AssocArO/UW/4241388">
          <pickID>quakeml:uw.anss.org/Arrival/UW/4241388</pickID>
          <phase>P</phase>
          <azimuth>337.2</azimuth>
          <timeResidual>0.1</timeResidual>
          <creationInfo>
            <agencyID>UW</agencyID>
            <creationTime>2012-02-27T17:32:45.000000Z</creationTime>
          </creationInfo>
        </arrival>
        <arrival publicID="quakeml:uw.anss.org/AssocArO/UW/4241403">
          <pickID>quakeml:uw.anss.org/Arrival/UW/4241403</pickID>
          <phase>S</phase>
          <azimuth>337.2</azimuth>
          <timeResidual>-0.22</timeResidual>
          <creationInfo>
            <agencyID>UW</agencyID>
            <creationTime>2012-02-27T17:32:45.000000Z</creationTime>
          </creationInfo>
        </arrival>
        <arrival publicID="quakeml:uw.anss.org/AssocArO/UW/4241468">
          <pickID>quakeml:uw.anss.org/Arrival/UW/4241468</pickID>
          <phase>P</phase>
          <azimuth>154.1</azimuth>
          <distance>2.14</distance>
          <timeResidual>0.72</timeResidual>
          <creationInfo>
            <agencyID>UW</agencyID>
            <creationTime>2012-02-27T17:32:45.000000Z</creationTime>
          </creationInfo>
        </arrival>
        <arrival publicID="quakeml:uw.anss.org/AssocArO/UW/4241483">
          <pickID>quakeml:uw.anss.org/Arrival/UW/4241483</pickID>
          <phase>P</phase>
          <timeResidual>0.31</timeResidual>
          <creationInfo>
            <agencyID>UW</agencyID>
            <creationTime>2012-02-27T17:32:45.000000Z</creationTime>
          </creationInfo>
        </arrival>
        <arrival publicID="quakeml:uw.anss.org/AssocArO/UW/4241498">
          <pickID>quakeml:uw.anss.org/Arrival/UW/4241498</pickID>
          <phase>S</phase>
          <timeResidual>0.31</timeResidual>
          <creationInfo>
            <agencyID>UW</agencyID>
            <creationTime>2012-02-27T17:32:45.000000Z</creationTime>
          </creationInfo>
        </arrival>
        <arrival publicID="quakeml:uw.anss.org/AssocArO/UW/4241513">
          <pickID>quakeml:uw.anss.org/Arrival/UW/4241513</pickID>
          <phase>P</phase>
          <azimuth>169.7</azimuth>
          <timeResidual>-0.04</timeResidual>
          <creationInfo>
            <agencyID>UW</agencyID>
            <creationTime>2012-02-27T17:32:45.000000Z</creationTime>
          </creationInfo>
        </arrival>
        <arrival publicID="quakeml:uw.anss.org/AssocArO/UW/4241518">
          <pickID>quakeml:uw.anss.org/Arrival/UW/4241518</pickID>
          <phase>S</phase>
          <azimuth>169.7</azimuth>
          <timeResidual>0.05</timeResidual>
          <creationInfo>
            <agencyID>UW</agencyID>
            <creationTime>2012-02-27T17:32:45.000000Z</creationTime>
          </creationInfo>
        </arrival>
        <arrival publicID="quakeml:uw.anss.org/AssocArO/UW/4241533">
          <pickID>quakeml:uw.anss.org/Arrival/UW/4241533</pickID>
          <phase>P</phase>
          <azimuth>175.2</azimuth>
          <distance>1.728</distance>
          <timeResidual>0.19</timeResidual>
          <creationInfo>
            <agencyID>UW</agencyID>
            <creationTime>2012-02-27T17:32:45.000000Z</creationTime>
          </creationInfo>
        </arrival>
        <arrival publicID="quakeml:uw.anss.org/AssocArO/UW/4241543">
          <pickID>quakeml:uw.anss.org/Arrival/UW/4241543</pickID>
          <phase>P</phase>
          <timeResidual>0.28</timeResidual>
          <creationInfo>
            <agencyID>UW</agencyID>
            <creationTime>2012-02-27T17:32:45.000000Z</creationTime>
          </creationInfo>
        </arrival>
        <arrival publicID="quakeml:uw.anss.org/AssocArO/UW/4241553">
          <pickID>quakeml:uw.anss.org/Arrival/UW/4241553</pickID>
          <phase>S</phase>
          <timeResidual>-0.03</timeResidual>
          <creationInfo>
            <agencyID>UW</agencyID>
            <creationTime>2012-02-27T17:32:45.000000Z</creationTime>
          </creationInfo>
        </arrival>
        <arrival publicID="quakeml:uw.anss.org/AssocArO/UW/4241568">
          <pickID>quakeml:uw.anss.org/Arrival/UW/4241568</pickID>
          <phase>P</phase>
          <azimuth>115.8</azimuth>
          <distance>0.4953</distance>
          <timeResidual>-0.25</timeResidual>
          <creationInfo>
            <agencyID>UW</agencyID>
            <creationTime>2012-02-27T17:32:45.000000Z</creationTime>
          </creationInfo>
        </arrival>
        <arrival publicID="quakeml:uw.anss.org/AssocArO/UW/4241583">
          <pickID>quakeml:uw.anss.org/Arrival/UW/4241583</pickID>
          <phase>S</phase>
          <azimuth>115.8</azimuth>
          <distance>0.4953</distance>
          <timeResidual>-0.6</timeResidual>
          <creationInfo>
            <agencyID>UW</agencyID>
            <creationTime>2012-02-27T17:32:45.000000Z</creationTime>
          </creationInfo>
        </arrival>
        <arrival publicID="quakeml:uw.anss.org/AssocArO/UW/4241643">
          <pickID>quakeml:uw.anss.org/Arrival/UW/4241643</pickID>
          <phase>P</phase>
          <azimuth>315.8</azimuth>
          <timeResidual>0.01</timeResidual>
          <creationInfo>
            <agencyID>UW</agencyID>
            <creationTime>2012-02-27T17:32:45.000000Z</creationTime>
          </creationInfo>
        </arrival>
        <arrival publicID="quakeml:uw.anss.org/AssocArO/UW/4241653">
          <pickID>quakeml:uw.anss.org/Arrival/UW/4241653</pickID>
          <phase>S</phase>
          <azimuth>315.8</azimuth>
          <timeResidual>-0.52</timeResidual>
          <creationInfo>
            <agencyID>UW</agencyID>
            <creationTime>2012-02-27T17:32:45.000000Z</creationTime>
          </creationInfo>
        </arrival>
        <arrival publicID="quakeml:uw.anss.org/AssocArO/UW/4241663">
          <pickID>quakeml:uw.anss.org/Arrival/UW/4241663</pickID>
          <phase>P</phase>
          <azimuth>198.3</azimuth>
          <distance>0.8881</distance>
          <timeResidual>0.07</timeResidual>
          <creationInfo>
            <agencyID>UW</agencyID>
            <creationTime>2012-02-27T17:32:45.000000Z</creationTime>
          </creationInfo>
        </arrival>
        <arrival publicID="quakeml:uw.anss.org/AssocArO/UW/4241673">
          <pickID>quakeml:uw.anss.org/Arrival/UW/4241673</pickID>
          <phase>P</phase>
          <azimuth>214.2</azimuth>
          <distance>0.4128</distance>
          <timeResidual>0.37</timeResidual>
          <creationInfo>
            <agencyID>UW</agencyID>
            <creationTime>2012-02-27T17:32:45.000000Z</creationTime>
          </creationInfo>
        </arrival>
        <arrival publicID="quakeml:uw.anss.org/AssocArO/UW/4241688">
          <pickID>quakeml:uw.anss.org/Arrival/UW/4241688</pickID>
          <phase>P</phase>
          <azimuth>326.2</azimuth>
          <timeResidual>0.16</timeResidual>
          <creationInfo>
            <agencyID>UW</agencyID>
            <creationTime>2012-02-27T17:32:45.000000Z</creationTime>
          </creationInfo>
        </arrival>
        <arrival publicID="quakeml:uw.anss.org/AssocArO/UW/4241703">
          <pickID>quakeml:uw.anss.org/Arrival/UW/4241703</pickID>
          <phase>S</phase>
          <azimuth>326.2</azimuth>
          <timeResidual>-0.8</timeResidual>
          <creationInfo>
            <agencyID>UW</agencyID>
            <creationTime>2012-02-27T17:32:45.000000Z</creationTime>
          </creationInfo>
        </arrival>
        <arrival publicID="quakeml:uw.anss.org/AssocArO/UW/4241783">
          <pickID>quakeml:uw.anss.org/Arrival/UW/4241783</pickID>
          <phase>P</phase>
          <azimuth>159.9</azimuth>
          <timeResidual>-0.2</timeResidual>
          <creationInfo>
            <agencyID>UW</agencyID>
            <creationTime>2012-02-27T17:32:45.000000Z</creationTime>
          </creationInfo>
        </arrival>
        <arrival publicID="quakeml:uw.anss.org/AssocArO/UW/4241803">
          <pickID>quakeml:uw.anss.org/Arrival/UW/4241803</pickID>
          <phase>P</phase>
          <azimuth>147.6</azimuth>
          <distance>2.067</distance>
          <timeResidual>1.92</timeResidual>
          <creationInfo>
            <agencyID>UW</agencyID>
            <creationTime>2012-02-27T17:32:45.000000Z</creationTime>
          </creationInfo>
        </arrival>
        <arrival publicID="quakeml:uw.anss.org/AssocArO/UW/4241838">
          <pickID>quakeml:uw.anss.org/Arrival/UW/4241838</pickID>
          <phase>P</phase>
          <azimuth>168.5</azimuth>
          <timeResidual>0.21</timeResidual>
          <creationInfo>
            <agencyID>UW</agencyID>
            <creationTime>2012-02-27T17:32:45.000000Z</creationTime>
          </creationInfo>
        </arrival>
        <arrival publicID="quakeml:uw.anss.org/AssocArO/UW/4241848">
          <pickID>quakeml:uw.anss.org/Arrival/UW/4241848</pickID>
          <phase>P</phase>
          <timeResidual>0.22</timeResidual>
          <creationInfo>
            <agencyID>UW</agencyID>
            <creationTime>2012-02-27T17:32:45.000000Z</creationTime>
          </creationInfo>
        </arrival>
        <arrival publicID="quakeml:uw.anss.org/AssocArO/UW/4241858">
          <pickID>quakeml:uw.anss.org/Arrival/UW/4241858</pickID>
          <phase>S</phase>
          <timeResidual>-0.25</timeResidual>
          <creationInfo>
            <agencyID>UW</agencyID>
            <creationTime>2012-02-27T17:32:45.000000Z</creationTime>
          </creationInfo>
        </arrival>
        <arrival publicID="quakeml:uw.anss.org/AssocArO/UW/4241868">
          <pickID>quakeml:uw.anss.org/Arrival/UW/4241868</pickID>
          <phase>P</phase>
          <azimuth>218.8</azimuth>
          <distance>0.8425</distance>
          <timeResidual>0.38</timeResidual>
          <creationInfo>
            <agencyID>UW</agencyID>
            <creationTime>2012-02-27T17:32:45.000000Z</creationTime>
          </creationInfo>
        </arrival>
        <arrival publicID="quakeml:uw.anss.org/AssocArO/UW/4241878">
          <pickID>quakeml:uw.anss.org/Arrival/UW/4241878</pickID>
          <phase>P</phase>
          <timeResidual>0.16</timeResidual>
          <creationInfo>
            <agencyID>UW</agencyID>
            <creationTime>2012-02-27T17:32:45.000000Z</creationTime>
          </creationInfo>
        </arrival>
        <arrival publicID="quakeml:uw.anss.org/AssocArO/UW/4241888">
          <pickID>quakeml:uw.anss.org/Arrival/UW/4241888</pickID>
          <phase>S</phase>
          <timeResidual>-0.23</timeResidual>
          <creationInfo>
            <agencyID>UW</agencyID>
            <creationTime>2012-02-27T17:32:45.000000Z</creationTime>
          </creationInfo>
        </arrival>
        <arrival publicID="quakeml:uw.anss.org/AssocArO/UW/4241898">
          <pickID>quakeml:uw.anss.org/Arrival/UW/4241898</pickID>
          <phase>P</phase>
          <azimuth>122.2</azimuth>
          <distance>1.778</distance>
          <timeResidual>1.7</timeResidual>
          <creationInfo>
            <agencyID>UW</agencyID>
            <creationTime>2012-02-27T17:32:45.000000Z</creationTime>
          </creationInfo>
        </arrival>
        <arrival publicID="quakeml:uw.anss.org/AssocArO/UW/4241908">
          <pickID>quakeml:uw.anss.org/Arrival/UW/4241908</pickID>
          <phase>P</phase>
          <azimuth>57.5</azimuth>
          <distance>0.2228</distance>
          <timeResidual>-0.18</timeResidual>
          <creationInfo>
            <agencyID>UW</agencyID>
            <creationTime>2012-02-27T17:32:45.000000Z</creationTime>
          </creationInfo>
        </arrival>
        <arrival publicID="quakeml:uw.anss.org/AssocArO/UW/4241913">
          <pickID>quakeml:uw.anss.org/Arrival/UW/4241913</pickID>
          <phase>S</phase>
          <azimuth>57.5</azimuth>
          <distance>0.2228</distance>
          <timeResidual>0.13</timeResidual>
          <creationInfo>
            <agencyID>UW</agencyID>
            <creationTime>2012-02-27T17:32:45.000000Z</creationTime>
          </creationInfo>
        </arrival>
        <arrival publicID="quakeml:uw.anss.org/AssocArO/UW/4241918">
          <pickID>quakeml:uw.anss.org/Arrival/UW/4241918</pickID>
          <phase>P</phase>
          <timeResidual>0.27</timeResidual>
          <creationInfo>
            <agencyID>UW</agencyID>
            <creationTime>2012-02-27T17:32:45.000000Z</creationTime>
          </creationInfo>
        </arrival>
        <arrival publicID="quakeml:uw.anss.org/AssocArO/UW/4241923">
          <pickID>quakeml:uw.anss.org/Arrival/UW/4241923</pickID>
          <phase>P</phase>
          <azimuth>341.4</azimuth>
          <distance>1.549</distance>
          <timeResidual>0.82</timeResidual>
          <creationInfo>
            <agencyID>UW</agencyID>
            <creationTime>2012-02-27T17:32:45.000000Z</creationTime>
          </creationInfo>
        </arrival>
        <arrival publicID="quakeml:uw.anss.org/AssocArO/UW/4241928">
          <pickID>quakeml:uw.anss.org/Arrival/UW/4241928</pickID>
          <phase>P</phase>
          <azimuth>162.0</azimuth>
          <distance>0.9054</distance>
          <timeResidual>0.2</timeResidual>
          <creationInfo>
            <agencyID>UW</agencyID>
            <creationTime>2012-02-27T17:32:45.000000Z</creationTime>
          </creationInfo>
        </arrival>
        <arrival publicID="quakeml:uw.anss.org/AssocArO/UW/4241938">
          <pickID>quakeml:uw.anss.org/Arrival/UW/4241938</pickID>
          <phase>P</phase>
          <azimuth>272.2</azimuth>
          <distance>0.4294</distance>
          <timeResidual>-0.02</timeResidual>
          <creationInfo>
            <agencyID>UW</agencyID>
            <creationTime>2012-02-27T17:32:45.000000Z</creationTime>
          </creationInfo>
        </arrival>
        <arrival publicID="quakeml:uw.anss.org/AssocArO/UW/4241943">
          <pickID>quakeml:uw.anss.org/Arrival/UW/4241943</pickID>
          <phase>S</phase>
          <azimuth>272.2</azimuth>
          <distance>0.4294</distance>
          <timeResidual>-0.18</timeResidual>
          <creationInfo>
            <agencyID>UW</agencyID>
            <creationTime>2012-02-27T17:32:46.000000Z</creationTime>
          </creationInfo>
        </arrival>
      </origin>
      <magnitude publicID="quakeml:uw.anss.org/Netmag/UW/466473">
        <mag>
          <value>1.6</value>
          <uncertainty>0.09</uncertainty>
        </mag>
        <type>Md</type>
        <originID>quakeml:uw.anss.org/Origin/UW/556218</originID>
        <methodID>smi:uw.anss.org/magnitude/Crosson</methodID>
        <stationCount>5</stationCount>
        <evaluationMode>manual</evaluationMode>
        <evaluationStatus>final</evaluationStatus>
        <stationMagnitudeContribution>
          <stationMagnitudeID>quakeml:uw.anss.org/AssocCoM/UW/1172508</stationMagnitudeID>
          <weight>1.0</weight>
          <residual>0.02</residual>
        </stationMagnitudeContribution>
        <stationMagnitudeContribution>
          <stationMagnitudeID>quakeml:uw.anss.org/AssocCoM/UW/1172513</stationMagnitudeID>
          <weight>1.0</weight>
          <residual>-0.12</residual>
        </stationMagnitudeContribution>
        <stationMagnitudeContribution>
