<?xml version='1.0' encoding='utf-8'?>
<q:quakeml xmlns="http://quakeml.org/xmlns/bed/1.2" xmlns:q="http://quakeml.org/xmlns/quakeml/1.2" xmlns:ns0="http://anss.org/xmlns/catalog/0.1">
  <eventParameters publicID="smi:local/34c4ab35-28eb-4c38-991f-1f0360568bb5">
    <event publicID="quakeml:uw.anss.org/Event/UW/10272208" ns0:datasource="uw" ns0:dataid="uw10272208" ns0:eventsource="uw" ns0:eventid="10272208">
      <preferredOriginID>quakeml:uw.anss.org/Origin/UW/549153</preferredOriginID>
      <preferredMagnitudeID>quakeml:uw.anss.org/Netmag/UW/460283</preferredMagnitudeID>
      <type>earthquake</type>
      <creationInfo>
        <agencyID>UW</agencyID>
        <creationTime>2012-02-27T17:14:09.000000Z</creationTime>
        <version>3</version>
      </creationInfo>
      <origin publicID="quakeml:uw.anss.org/Origin/UW/549153" ns0:datasource="uw" ns0:dataid="uw10272208" ns0:eventsource="uw" ns0:eventid="10272208">
        <time>
          <value>1991-01-29T15:00:47.200000Z</value>
          <uncertainty>0.11</uncertainty>
        </time>
        <latitude>
          <value>48.8801667</value>
          <uncertainty>1.05</uncertainty>
        </latitude>
        <longitude>
          <value>-122.1261667</value>
          <uncertainty>0.93</uncertainty>
        </longitude>
        <depth>
          <value>15971.0</value>
          <uncertainty>1960.0</uncertainty>
        </depth>
        <depthType>from location</depthType>
        <timeFixed>false</timeFixed>
        <epicenterFixed>false</epicenterFixed>
        <methodID>smi:uw.anss.org/origin/spong</methodID>
        <quality>
          <associatedPhaseCount>20</associatedPhaseCount>
          <usedPhaseCount>15</usedPhaseCount>
          <associatedStationCount>15</associatedStationCount>
          <usedStationCount>0</usedStationCount>
          <standardError>0.25</standardError>
          <azimuthalGap>116.0</azimuthalGap>
        </quality>
        <type>hypocenter</type>
        <evaluationMode>manual</evaluationMode>
        <evaluationStatus>final</evaluationStatus>
        <creationInfo>
          <agencyID>UW</agencyID>
          <creationTime>2012-02-27T17:14:09.000000Z</creationTime>
        </creationInfo>
        <originUncertainty>
          <preferredDescription>horizontal uncertainty</preferredDescription>
          <horizontalUncertainty>1403.0</horizontalUncertainty>
        </originUncertainty>
        <arrival publicID="quakeml:uw.anss.org/AssocArO/UW/4089183">
          <pickID>quakeml:uw.anss.org/Arrival/UW/4089183</pickID>
          <phase>P</phase>
          <azimuth>286.3</azimuth>
          <timeResidual>-0.26</timeResidual>
          <creationInfo>
            <agencyID>UW</agencyID>
            <creationTime>2012-02-27T17:14:09.000000Z</creationTime>
          </creationInfo>
        </arrival>
        <arrival publicID="quakeml:uw.anss.org/AssocArO/UW/4089188">
          <pickID>quakeml:uw.anss.org/Arrival/UW/4089188</pickID>
          <phase>S</phase>
          <azimuth>286.3</azimuth>
          <timeResidual>-1.4</timeResidual>
          <creationInfo>
            <agencyID>UW</agencyID>
            <creationTime>2012-02-27T17:14:09.000000Z</creationTime>
          </creationInfo>
        </arrival>
        <arrival publicID="quakeml:uw.anss.org/AssocArO/UW/4089193">
          <pickID>quakeml:uw.anss.org/Arrival/UW/4089193</pickID>
          <phase>P</phase>
          <azimuth>207.0</azimuth>
          <distance>1.38</distance>
          <timeResidual>0.54</timeResidual>
          <creationInfo>
            <agencyID>UW</agencyID>
            <creationTime>2012-02-27T17:14:09.000000Z</creationTime>
          </creationInfo>
        </arrival>
        <arrival publicID="quakeml:uw.anss.org/AssocArO/UW/4089198">
          <pickID>quakeml:uw.anss.org/Arrival/UW/4089198</pickID>
          <phase>P</phase>
          <azimuth>323.2</azimuth>
          <timeResidual>-0.12</timeResidual>
          <creationInfo>
            <agencyID>UW</agencyID>
            <creationTime>2012-02-27T17:14:09.000000Z</creationTime>
          </creationInfo>
        </arrival>
        <arrival publicID="quakeml:uw.anss.org/AssocArO/UW/4089203">
          <pickID>quakeml:uw.anss.org/Arrival/UW/4089203</pickID>
          <phase>S</phase>
          <azimuth>323.2</azimuth>
          <timeResidual>0.14</timeResidual>
          <creationInfo>
            <agencyID>UW</agencyID>
            <creationTime>2012-02-27T17:14:10.000000Z</creationTime>
          </creationInfo>
        </arrival>
        <arrival publicID="quakeml:uw.anss.org/AssocArO/UW/4089208">
          <pickID>quakeml:uw.anss.org/Arrival/UW/4089208</pickID>
          <phase>P</phase>
          <timeResidual>-0.23</timeResidual>
          <creationInfo>
            <agencyID>UW</agencyID>
            <creationTime>2012-02-27T17:14:10.000000Z</creationTime>
          </creationInfo>
        </arrival>
        <arrival publicID="quakeml:uw.anss.org/AssocArO/UW/4089213">
          <pickID>quakeml:uw.anss.org/Arrival/UW/4089213</pickID>
          <phase>P</phase>
          <timeResidual>-0.05</timeResidual>
          <creationInfo>
            <agencyID>UW</agencyID>
            <creationTime>2012-02-27T17:14:10.000000Z</creationTime>
          </creationInfo>
        </arrival>
        <arrival publicID="quakeml:uw.anss.org/AssocArO/UW/4089218">
          <pickID>quakeml:uw.anss.org/Arrival/UW/4089218</pickID>
          <phase>P</phase>
          <azimuth>136.7</azimuth>
          <distance>0.5926</distance>
          <timeResidual>0.07</timeResidual>
          <creationInfo>
            <agencyID>UW</agencyID>
            <creationTime>2012-02-27T17:14:10.000000Z</creationTime>
          </creationInfo>
        </arrival>
        <arrival publicID="quakeml:uw.anss.org/AssocArO/UW/4089223">
          <pickID>quakeml:uw.anss.org/Arrival/UW/4089223</pickID>
          <phase>P</phase>
          <azimuth>170.9</azimuth>
          <timeResidual>0.85</timeResidual>
          <creationInfo>
            <agencyID>UW</agencyID>
            <creationTime>2012-02-27T17:14:10.000000Z</creationTime>
          </creationInfo>
        </arrival>
        <arrival publicID="quakeml:uw.anss.org/AssocArO/UW/4089228">
          <pickID>quakeml:uw.anss.org/Arrival/UW/4089228</pickID>
          <phase>P</phase>
          <azimuth>304.9</azimuth>
          <timeResidual>-0.14</timeResidual>
          <creationInfo>
            <agencyID>UW</agencyID>
            <creationTime>2012-02-27T17:14:10.000000Z</creationTime>
          </creationInfo>
        </arrival>
        <arrival publicID="quakeml:uw.anss.org/AssocArO/UW/4089233">
          <pickID>quakeml:uw.anss.org/Arrival/UW/4089233</pickID>
          <phase>P</phase>
          <azimuth>169.1</azimuth>
          <timeResidual>0.19</timeResidual>
          <creationInfo>
            <agencyID>UW</agencyID>
            <creationTime>2012-02-27T17:14:10.000000Z</creationTime>
          </creationInfo>
        </arrival>
        <arrival publicID="quakeml:uw.anss.org/AssocArO/UW/4089238">
          <pickID>quakeml:uw.anss.org/Arrival/UW/4089238</pickID>
          <phase>S</phase>
          <azimuth>169.1</azimuth>
          <timeResidual>1.75</timeResidual>
          <creationInfo>
            <agencyID>UW</agencyID>
            <creationTime>2012-02-27T17:14:10.000000Z</creationTime>
          </creationInfo>
        </arrival>
        <arrival publicID="quakeml:uw.anss.org/AssocArO/UW/4089243">
          <pickID>quakeml:uw.anss.org/Arrival/UW/4089243</pickID>
          <phase>P</phase>
          <timeResidual>0.31</timeResidual>
          <creationInfo>
            <agencyID>UW</agencyID>
            <creationTime>2012-02-27T17:14:10.000000Z</creationTime>
          </creationInfo>
        </arrival>
        <arrival publicID="quakeml:uw.anss.org/AssocArO/UW/4089248">
          <pickID>quakeml:uw.anss.org/Arrival/UW/4089248</pickID>
          <phase>S</phase>
          <timeResidual>0.2</timeResidual>
          <creationInfo>
            <agencyID>UW</agencyID>
            <creationTime>2012-02-27T17:14:10.000000Z</creationTime>
          </creationInfo>
        </arrival>
        <arrival publicID="quakeml:uw.anss.org/AssocArO/UW/4089253">
          <pickID>quakeml:uw.anss.org/Arrival/UW/4089253</pickID>
          <phase>P</phase>
          <timeResidual>0.32</timeResidual>
          <creationInfo>
            <agencyID>UW</agencyID>
            <creationTime>2012-02-27T17:14:10.000000Z</creationTime>
          </creationInfo>
        </arrival>
        <arrival publicID="quakeml:uw.anss.org/AssocArO/UW/4089258">
          <pickID>quakeml:uw.anss.org/Arrival/UW/4089258</pickID>
          <phase>P</phase>
          <timeResidual>0.44</timeResidual>
          <creationInfo>
            <agencyID>UW</agencyID>
            <creationTime>2012-02-27T17:14:10.000000Z</creationTime>
          </creationInfo>
        </arrival>
        <arrival publicID="quakeml:uw.anss.org/AssocArO/UW/4089263">
          <pickID>quakeml:uw.anss.org/Arrival/UW/4089263</pickID>
          <phase>P</phase>
          <azimuth>176.9</azimuth>
          <distance>1.94</distance>
          <timeResidual>0.58</timeResidual>
          <creationInfo>
            <agencyID>UW</agencyID>
            <creationTime>2012-02-27T17:14:10.000000Z</creationTime>
          </creationInfo>
        </arrival>
        <arrival publicID="quakeml:uw.anss.org/AssocArO/UW/4089268">
          <pickID>quakeml:uw.anss.org/Arrival/UW/4089268</pickID>
          <phase>P</phase>
          <azimuth>246.9</azimuth>
          <distance>0.5088</distance>
          <timeResidual>-0.13</timeResidual>
          <creationInfo>
            <agencyID>UW</agencyID>
            <creationTime>2012-02-27T17:14:10.000000Z</creationTime>
          </creationInfo>
        </arrival>
        <arrival publicID="quakeml:uw.anss.org/AssocArO/UW/4089273">
          <pickID>quakeml:uw.anss.org/Arrival/UW/4089273</pickID>
          <phase>P</phase>
          <azimuth>122.9</azimuth>
          <distance>0.1774</distance>
          <timeResidual>-0.5</timeResidual>
          <creationInfo>
            <agencyID>UW</agencyID>
            <creationTime>2012-02-27T17:14:10.000000Z</creationTime>
          </creationInfo>
        </arrival>
        <arrival publicID="quakeml:uw.anss.org/AssocArO/UW/4089278">
          <pickID>quakeml:uw.anss.org/Arrival/UW/4089278</pickID>
          <phase>S</phase>
          <azimuth>122.9</azimuth>
          <distance>0.1774</distance>
          <timeResidual>0.56</timeResidual>
          <creationInfo>
            <agencyID>UW</agencyID>
            <creationTime>2012-02-27T17:14:10.000000Z</creationTime>
          </creationInfo>
        </arrival>
      </origin>
      <magnitude publicID="quakeml:uw.anss.org/Netmag/UW/460283">
        <mag>
          <value>1.4</value>
          <uncertainty>0.09</uncertainty>
        </mag>
        <type>Md</type>
        <originID>quakeml:uw.anss.org/Origin/UW/549153</originID>
        <methodID>smi:uw.anss.org/magnitude/Crosson</methodID>
        <stationCount>4</stationCount>
        <evaluationMode>manual</evaluationMode>
        <evaluationStatus>final</evaluationStatus>
        <stationMagnitudeContribution>
          <stationMagnitudeID>quakeml:uw.anss.org/AssocCoM/UW/1146388</stationMagnitudeID>
          <weight>1.0</weight>
          <residual>-0.25</residual>
        </stationMagnitudeContribution>
        <stationMagnitudeContribution>
          <stationMagnitudeID>quakeml:uw.anss.org/AssocCoM/UW/1146393</stationMagnitudeID>
          <weight>1.0</weight>
          <residual>0.26</residual>
        </stationMagnitudeContribution>
        <stationMagnitudeContribution>
          <stationMagnitudeID>quakeml:uw.anss.org/AssocCoM/UW/1146403</stationMagnitudeID>
          <weight>1.0</weight>
          <residual>-0.07</residual>
        </stationMagnitudeContribution>
        <stationMagnitudeContribution>
          <stationMagnitudeID>quakeml:uw.anss.org/AssocCoM/UW/1146398</stationMagnitudeID>
          <weight>1.0</weight>
          <residual>-0.07</residual>
        </stationMagnitudeContribution>
        <creationInfo>
          <agencyID>UW</agencyID>
          <creationTime>2012-02-27T17:14:09.000000Z</creationTime>
        </creationInfo>
      </magnitude>
      <stationMagnitude publicID="quakeml:uw.anss.org/AssocCoM/UW/1146388">
        <originID>quakeml:uw.anss.org/Origin/UW/549153</originID>
        <mag>
          <value>1.15</value>
        </mag>
        <type>MD</type>
        <amplitudeID>quakeml:uw.anss.org/Coda/UW/1146388</amplitudeID>
        <waveformID networkCode="UW" stationCode="RPW" locationCode="" channelCode="EHZ"></waveformID>
      </stationMagnitude>
      <stationMagnitude publicID="quakeml:uw.anss.org/AssocCoM/UW/1146393">
        <originID>quakeml:uw.anss.org/Origin/UW/549153</originID>
        <mag>
          <value>1.66</value>
        </mag>
        <type>MD</type>
        <amplitudeID>quakeml:uw.anss.org/Coda/UW/1146393</amplitudeID>
        <waveformID networkCode="UW" stationCode="JCW" locationCode="" channelCode="EHZ"></waveformID>
      </stationMagnitude>
      <stationMagnitude publicID="quakeml:uw.anss.org/AssocCoM/UW/1146398">
        <originID>quakeml:uw.anss.org/Origin/UW/549153</originID>
        <mag>
          <value>1.33</value>
        </mag>
        <type>MD</type>
        <amplitudeID>quakeml:uw.anss.org/Coda/UW/1146398</amplitudeID>
        <waveformID networkCode="UW" stationCode="MCW" locationCode="" channelCode="EHZ"></waveformID>
      </stationMagnitude>
      <stationMagnitude publicID="quakeml:uw.anss.org/AssocCoM/UW/1146403">
        <originID>quakeml:uw.anss.org/Origin/UW/549153</originID>
        <mag>
          <value>1.33</value>
        </mag>
        <type>MD</type>
        <amplitudeID>quakeml:uw.anss.org/Coda/UW/1146403</amplitudeID>
        <waveformID networkCode="UW" stationCode="MBW" locationCode="" channelCode="EHZ"></waveformID>
      </stationMagnitude>
      <pick publicID="quakeml:uw.anss.org/Arrival/UW/4089183">
        <time>
          <value>1991-01-29T15:01:08.950000Z</value>
          <uncertainty>0.1</uncertainty>
        </time>
        <waveformID networkCode="CN" stationCode="NAB" locationCode="" channelCode="EHZ"></waveformID>
        <polarity>undecidable</polarity>
        <evaluationMode>manual</evaluationMode>
        <evaluationStatus>final</evaluationStatus>
        <creationInfo>
          <agencyID>UW</agencyID>
          <creationTime>2012-02-27T17:14:09.000000Z</creationTime>
        </creationInfo>
      </pick>
      <pick publicID="quakeml:uw.anss.org/Arrival/UW/4089188">
        <time>
          <value>1991-01-29T15:01:24.970000Z</value>
          <uncertainty>0.1</uncertainty>
        </time>
        <waveformID networkCode="CN" stationCode="NAB" locationCode="" channelCode="EHZ"></waveformID>
        <polarity>undecidable</polarity>
        <evaluationMode>manual</evaluationMode>
        <evaluationStatus>final</evaluationStatus>
        <creationInfo>
          <agencyID>UW</agencyID>
          <creationTime>2012-02-27T17:14:09.000000Z</creationTime>
        </creationInfo>
      </pick>
      <pick publicID="quakeml:uw.anss.org/Arrival/UW/4089193">
        <time>
          <value>1991-01-29T15:01:11.230000Z</value>
          <uncertainty>0.17</uncertainty>
        </time>
        <waveformID networkCode="UW" stationCode="HDW" locationCode="" channelCode="EHZ"></waveformID>
        <polarity>undecidable</polarity>
        <evaluationMode>manual</evaluationMode>
        <evaluationStatus>final</evaluationStatus>
        <creationInfo>
          <agencyID>UW</agencyID>
          <creationTime>2012-02-27T17:14:09.000000Z</creationTime>
        </creationInfo>
      </pick>
      <pick publicID="quakeml:uw.anss.org/Arrival/UW/4089198">
        <time>
          <value>1991-01-29T15:00:56.030000Z</value>
          <uncertainty>0.1</uncertainty>
        </time>
        <waveformID networkCode="CN" stationCode="HNB" locationCode="" channelCode="EHZ"></waveformID>
        <polarity>positive</polarity>
        <evaluationMode>manual</evaluationMode>
        <evaluationStatus>final</evaluationStatus>
        <creationInfo>
          <agencyID>UW</agencyID>
          <creationTime>2012-02-27T17:14:09.000000Z</creationTime>
        </creationInfo>
      </pick>
      <pick publicID="quakeml:uw.anss.org/Arrival/UW/4089203">
        <time>
          <value>1991-01-29T15:01:03.270000Z</value>
          <uncertainty>0.1</uncertainty>
        </time>
        <waveformID networkCode="CN" stationCode="HNB" locationCode="" channelCode="EHZ"></waveformID>
        <polarity>undecidable</polarity>
        <evaluationMode>manual</evaluationMode>
        <evaluationStatus>final</evaluationStatus>
        <creationInfo>
          <agencyID>UW</agencyID>
          <creationTime>2012-02-27T17:14:10.000000Z</creationTime>
        </creationInfo>
      </pick>
      <pick publicID="quakeml:uw.anss.org/Arrival/UW/4089208">
        <time>
          <value>1991-01-29T15:00:59.460000Z</value>
          <uncertainty>0.1</uncertainty>
        </time>
        <waveformID networkCode="CN" stationCode="SNB" locationCode="" channelCode="EHZ"></waveformID>
        <polarity>undecidable</polarity>
        <evaluationMode>manual</evaluationMode>
        <evaluationStatus>final</evaluationStatus>
        <creationInfo>
          <agencyID>UW</agencyID>
          <creationTime>2012-02-27T17:14:10.000000Z</creationTime>
        </creationInfo>
      </pick>
      <pick publicID="quakeml:uw.anss.org/Arrival/UW/4089213">
        <time>
          <value>1991-01-29T15:01:02.460000Z</value>
          <uncertainty>0.1</uncertainty>
        </time>
        <waveformID networkCode="CN" stationCode="PGC" locationCode="" channelCode="EHZ"></waveformID>
        <polarity>undecidable</polarity>
        <evaluationMode>manual</evaluationMode>
        <evaluationStatus>final</evaluationStatus>
        <creationInfo>
          <agencyID>UW</agencyID>
          <creationTime>2012-02-27T17:14:10.000000Z</creationTime>
        </creationInfo>
      </pick>
      <pick publicID="quakeml:uw.anss.org/Arrival/UW/4089218">
        <time>
          <value>1991-01-29T15:00:58.170000Z</value>
          <uncertainty>0.04</uncertainty>
        </time>
        <waveformID networkCode="UW" stationCode="RPW" locationCode="" channelCode="EHZ"></waveformID>
        <polarity>undecidable</polarity>
        <evaluationMode>manual</evaluationMode>
        <evaluationStatus>final</evaluationStatus>
        <creationInfo>
          <agencyID>UW</agencyID>
          <creationTime>2012-02-27T17:14:10.000000Z</creationTime>
        </creationInfo>
      </pick>
      <pick publicID="quakeml:uw.anss.org/Arrival/UW/4089223">
        <time>
          <value>1991-01-29T15:01:20.940000Z</value>
          <uncertainty>0.13</uncertainty>
        </time>
        <waveformID networkCode="UW" stationCode="FMW" locationCode="" channelCode="EHZ"></waveformID>
        <polarity>undecidable</polarity>
        <evaluationMode>manual</evaluationMode>
        <evaluationStatus>final</evaluationStatus>
        <creationInfo>
          <agencyID>UW</agencyID>
          <creationTime>2012-02-27T17:14:10.000000Z</creationTime>
        </creationInfo>
      </pick>
      <pick publicID="quakeml:uw.anss.org/Arrival/UW/4089228">
        <time>
          <value>1991-01-29T15:01:03.500000Z</value>
          <uncertainty>0.1</uncertainty>
        </time>
        <waveformID networkCode="CN" stationCode="BIB" locationCode="" channelCode="EHZ"></waveformID>
        <polarity>undecidable</polarity>
        <evaluationMode>manual</evaluationMode>
        <evaluationStatus>final</evaluationStatus>
        <creationInfo>
          <agencyID>UW</agencyID>
          <creationTime>2012-02-27T17:14:10.000000Z</creationTime>
        </creationInfo>
      </pick>
