<?xml version='1.0' encoding='utf-8'?>
<q:quakeml xmlns="http://quakeml.org/xmlns/bed/1.2" xmlns:q="http://quakeml.org/xmlns/quakeml/1.2" xmlns:ns0="http://anss.org/xmlns/catalog/0.1">
  <eventParameters publicID="smi:local/920719c3-26c7-4d25-9b6d-ac26ef25ce55">
    <event publicID="quakeml:uw.anss.org/Event/UW/10274653" ns0:datasource="uw" ns0:dataid="uw10274653" ns0:eventsource="uw" ns0:eventid="10274653">
      <preferredOriginID>quakeml:uw.anss.org/Origin/UW/551598</preferredOriginID>
      <preferredMagnitudeID>quakeml:uw.anss.org/Netmag/UW/462433</preferredMagnitudeID>
      <type>earthquake</type>
      <creationInfo>
        <agencyID>UW</agencyID>
        <creationTime>2012-02-27T17:23:00.000000Z</creationTime>
        <version>3</version>
      </creationInfo>
      <origin publicID="quakeml:uw.anss.org/Origin/UW/551598" ns0:datasource="uw" ns0:dataid="uw10274653" ns0:eventsource="uw" ns0:eventid="10274653">
        <time>
          <value>1991-04-25T06:24:32.570000Z</value>
          <uncertainty>0.05</uncertainty>
        </time>
        <latitude>
          <value>48.8601667</value>
          <uncertainty>0.4</uncertainty>
        </latitude>
        <longitude>
          <value>-122.429</value>
          <uncertainty>0.43</uncertainty>
        </longitude>
        <depth>
          <value>14969.0</value>
          <uncertainty>1040.0</uncertainty>
        </depth>
        <depthType>from location</depthType>
        <timeFixed>false</timeFixed>
        <epicenterFixed>false</epicenterFixed>
        <methodID>smi:uw.anss.org/origin/spong</methodID>
        <quality>
          <associatedPhaseCount>36</associatedPhaseCount>
          <usedPhaseCount>25</usedPhaseCount>
          <associatedStationCount>28</associatedStationCount>
          <usedStationCount>0</usedStationCount>
          <standardError>0.22</standardError>
          <azimuthalGap>65.0</azimuthalGap>
        </quality>
        <type>hypocenter</type>
        <evaluationMode>manual</evaluationMode>
        <evaluationStatus>final</evaluationStatus>
        <creationInfo>
          <agencyID>UW</agencyID>
          <creationTime>2012-02-27T17:23:00.000000Z</creationTime>
        </creationInfo>
        <originUncertainty>
          <preferredDescription>horizontal uncertainty</preferredDescription>
          <horizontalUncertainty>587.0</horizontalUncertainty>
        </originUncertainty>
        <arrival publicID="quakeml:uw.anss.org/AssocArO/UW/4141148">
          <pickID>quakeml:uw.anss.org/Arrival/UW/4141148</pickID>
          <phase>P</phase>
          <azimuth>199.2</azimuth>
          <distance>1.283</distance>
          <timeResidual>-0.55</timeResidual>
          <creationInfo>
            <agencyID>UW</agencyID>
            <creationTime>2012-02-27T17:23:00.000000Z</creationTime>
          </creationInfo>
        </arrival>
        <arrival publicID="quakeml:uw.anss.org/AssocArO/UW/4141153">
          <pickID>quakeml:uw.anss.org/Arrival/UW/4141153</pickID>
          <phase>P</phase>
          <azimuth>346.7</azimuth>
          <timeResidual>0.18</timeResidual>
          <creationInfo>
            <agencyID>UW</agencyID>
            <creationTime>2012-02-27T17:23:00.000000Z</creationTime>
          </creationInfo>
        </arrival>
        <arrival publicID="quakeml:uw.anss.org/AssocArO/UW/4141158">
          <pickID>quakeml:uw.anss.org/Arrival/UW/4141158</pickID>
          <phase>S</phase>
          <azimuth>346.7</azimuth>
          <timeResidual>0.16</timeResidual>
          <creationInfo>
            <agencyID>UW</agencyID>
            <creationTime>2012-02-27T17:23:00.000000Z</creationTime>
          </creationInfo>
        </arrival>
        <arrival publicID="quakeml:uw.anss.org/AssocArO/UW/4141163">
          <pickID>quakeml:uw.anss.org/Arrival/UW/4141163</pickID>
          <phase>P</phase>
          <azimuth>202.0</azimuth>
          <distance>1.659</distance>
          <timeResidual>1.06</timeResidual>
          <creationInfo>
            <agencyID>UW</agencyID>
            <creationTime>2012-02-27T17:23:00.000000Z</creationTime>
          </creationInfo>
        </arrival>
        <arrival publicID="quakeml:uw.anss.org/AssocArO/UW/4141168">
          <pickID>quakeml:uw.anss.org/Arrival/UW/4141168</pickID>
          <phase>P</phase>
          <azimuth>166.5</azimuth>
          <distance>2.045</distance>
          <timeResidual>-2.94</timeResidual>
          <creationInfo>
            <agencyID>UW</agencyID>
            <creationTime>2012-02-27T17:23:00.000000Z</creationTime>
          </creationInfo>
        </arrival>
        <arrival publicID="quakeml:uw.anss.org/AssocArO/UW/4141173">
          <pickID>quakeml:uw.anss.org/Arrival/UW/4141173</pickID>
          <phase>P</phase>
          <timeResidual>0.21</timeResidual>
          <creationInfo>
            <agencyID>UW</agencyID>
            <creationTime>2012-02-27T17:23:00.000000Z</creationTime>
          </creationInfo>
        </arrival>
        <arrival publicID="quakeml:uw.anss.org/AssocArO/UW/4141178">
          <pickID>quakeml:uw.anss.org/Arrival/UW/4141178</pickID>
          <phase>P</phase>
          <azimuth>165.4</azimuth>
          <timeResidual>-0.17</timeResidual>
          <creationInfo>
            <agencyID>UW</agencyID>
            <creationTime>2012-02-27T17:23:00.000000Z</creationTime>
          </creationInfo>
        </arrival>
        <arrival publicID="quakeml:uw.anss.org/AssocArO/UW/4141188">
          <pickID>quakeml:uw.anss.org/Arrival/UW/4141188</pickID>
          <phase>S</phase>
          <azimuth>165.4</azimuth>
          <timeResidual>-0.91</timeResidual>
          <creationInfo>
            <agencyID>UW</agencyID>
            <creationTime>2012-02-27T17:23:00.000000Z</creationTime>
          </creationInfo>
        </arrival>
        <arrival publicID="quakeml:uw.anss.org/AssocArO/UW/4141198">
          <pickID>quakeml:uw.anss.org/Arrival/UW/4141198</pickID>
          <phase>P</phase>
          <azimuth>170.8</azimuth>
          <distance>1.942</distance>
          <timeResidual>-0.61</timeResidual>
          <creationInfo>
            <agencyID>UW</agencyID>
            <creationTime>2012-02-27T17:23:00.000000Z</creationTime>
          </creationInfo>
        </arrival>
        <arrival publicID="quakeml:uw.anss.org/AssocArO/UW/4141203">
          <pickID>quakeml:uw.anss.org/Arrival/UW/4141203</pickID>
          <phase>P</phase>
          <azimuth>168.6</azimuth>
          <distance>2.152</distance>
          <timeResidual>-0.22</timeResidual>
          <creationInfo>
            <agencyID>UW</agencyID>
            <creationTime>2012-02-27T17:23:00.000000Z</creationTime>
          </creationInfo>
        </arrival>
        <arrival publicID="quakeml:uw.anss.org/AssocArO/UW/4141223">
          <pickID>quakeml:uw.anss.org/Arrival/UW/4141223</pickID>
          <phase>P</phase>
          <timeResidual>0.22</timeResidual>
          <creationInfo>
            <agencyID>UW</agencyID>
            <creationTime>2012-02-27T17:23:00.000000Z</creationTime>
          </creationInfo>
        </arrival>
        <arrival publicID="quakeml:uw.anss.org/AssocArO/UW/4141233">
          <pickID>quakeml:uw.anss.org/Arrival/UW/4141233</pickID>
          <phase>P</phase>
          <azimuth>124.0</azimuth>
          <distance>0.7331</distance>
          <timeResidual>-0.12</timeResidual>
          <creationInfo>
            <agencyID>UW</agencyID>
            <creationTime>2012-02-27T17:23:00.000000Z</creationTime>
          </creationInfo>
        </arrival>
        <arrival publicID="quakeml:uw.anss.org/AssocArO/UW/4141238">
          <pickID>quakeml:uw.anss.org/Arrival/UW/4141238</pickID>
          <phase>P</phase>
          <azimuth>314.1</azimuth>
          <timeResidual>-0.17</timeResidual>
          <creationInfo>
            <agencyID>UW</agencyID>
            <creationTime>2012-02-27T17:23:00.000000Z</creationTime>
          </creationInfo>
        </arrival>
        <arrival publicID="quakeml:uw.anss.org/AssocArO/UW/4141243">
          <pickID>quakeml:uw.anss.org/Arrival/UW/4141243</pickID>
          <phase>P</phase>
          <azimuth>186.3</azimuth>
          <distance>1.046</distance>
          <timeResidual>-0.14</timeResidual>
          <creationInfo>
            <agencyID>UW</agencyID>
            <creationTime>2012-02-27T17:23:00.000000Z</creationTime>
          </creationInfo>
        </arrival>
        <arrival publicID="quakeml:uw.anss.org/AssocArO/UW/4141258">
          <pickID>quakeml:uw.anss.org/Arrival/UW/4141258</pickID>
          <phase>P</phase>
          <azimuth>187.3</azimuth>
          <distance>0.5419</distance>
          <timeResidual>0.19</timeResidual>
          <creationInfo>
            <agencyID>UW</agencyID>
            <creationTime>2012-02-27T17:23:00.000000Z</creationTime>
          </creationInfo>
        </arrival>
        <arrival publicID="quakeml:uw.anss.org/AssocArO/UW/4141263">
          <pickID>quakeml:uw.anss.org/Arrival/UW/4141263</pickID>
          <phase>P</phase>
          <azimuth>219.6</azimuth>
          <distance>1.348</distance>
          <timeResidual>-0.22</timeResidual>
          <creationInfo>
            <agencyID>UW</agencyID>
            <creationTime>2012-02-27T17:23:00.000000Z</creationTime>
          </creationInfo>
        </arrival>
        <arrival publicID="quakeml:uw.anss.org/AssocArO/UW/4141268">
          <pickID>quakeml:uw.anss.org/Arrival/UW/4141268</pickID>
          <phase>P</phase>
          <azimuth>327.5</azimuth>
          <timeResidual>0.03</timeResidual>
          <creationInfo>
            <agencyID>UW</agencyID>
            <creationTime>2012-02-27T17:23:00.000000Z</creationTime>
          </creationInfo>
        </arrival>
        <arrival publicID="quakeml:uw.anss.org/AssocArO/UW/4141273">
          <pickID>quakeml:uw.anss.org/Arrival/UW/4141273</pickID>
          <phase>S</phase>
          <azimuth>327.5</azimuth>
          <timeResidual>-0.48</timeResidual>
          <creationInfo>
            <agencyID>UW</agencyID>
            <creationTime>2012-02-27T17:23:00.000000Z</creationTime>
          </creationInfo>
        </arrival>
        <arrival publicID="quakeml:uw.anss.org/AssocArO/UW/4141283">
          <pickID>quakeml:uw.anss.org/Arrival/UW/4141283</pickID>
          <phase>P</phase>
          <azimuth>153.3</azimuth>
          <timeResidual>0.1</timeResidual>
          <creationInfo>
            <agencyID>UW</agencyID>
            <creationTime>2012-02-27T17:23:01.000000Z</creationTime>
          </creationInfo>
        </arrival>
        <arrival publicID="quakeml:uw.anss.org/AssocArO/UW/4141293">
          <pickID>quakeml:uw.anss.org/Arrival/UW/4141293</pickID>
          <phase>S</phase>
          <azimuth>153.3</azimuth>
          <timeResidual>0.39</timeResidual>
          <creationInfo>
            <agencyID>UW</agencyID>
            <creationTime>2012-02-27T17:23:01.000000Z</creationTime>
          </creationInfo>
        </arrival>
        <arrival publicID="quakeml:uw.anss.org/AssocArO/UW/4141308">
          <pickID>quakeml:uw.anss.org/Arrival/UW/4141308</pickID>
          <phase>P</phase>
          <azimuth>164.9</azimuth>
          <timeResidual>-0.24</timeResidual>
          <creationInfo>
            <agencyID>UW</agencyID>
            <creationTime>2012-02-27T17:23:01.000000Z</creationTime>
          </creationInfo>
        </arrival>
        <arrival publicID="quakeml:uw.anss.org/AssocArO/UW/4141313">
          <pickID>quakeml:uw.anss.org/Arrival/UW/4141313</pickID>
          <phase>P</phase>
          <timeResidual>0.18</timeResidual>
          <creationInfo>
            <agencyID>UW</agencyID>
            <creationTime>2012-02-27T17:23:01.000000Z</creationTime>
          </creationInfo>
        </arrival>
        <arrival publicID="quakeml:uw.anss.org/AssocArO/UW/4141318">
          <pickID>quakeml:uw.anss.org/Arrival/UW/4141318</pickID>
          <phase>P</phase>
          <azimuth>229.7</azimuth>
          <timeResidual>-0.39</timeResidual>
          <creationInfo>
            <agencyID>UW</agencyID>
            <creationTime>2012-02-27T17:23:01.000000Z</creationTime>
          </creationInfo>
        </arrival>
        <arrival publicID="quakeml:uw.anss.org/AssocArO/UW/4141323">
          <pickID>quakeml:uw.anss.org/Arrival/UW/4141323</pickID>
          <phase>S</phase>
          <azimuth>229.7</azimuth>
          <timeResidual>-0.97</timeResidual>
          <creationInfo>
            <agencyID>UW</agencyID>
            <creationTime>2012-02-27T17:23:01.000000Z</creationTime>
          </creationInfo>
        </arrival>
        <arrival publicID="quakeml:uw.anss.org/AssocArO/UW/4141328">
          <pickID>quakeml:uw.anss.org/Arrival/UW/4141328</pickID>
          <phase>P</phase>
          <timeResidual>0.07</timeResidual>
          <creationInfo>
            <agencyID>UW</agencyID>
            <creationTime>2012-02-27T17:23:01.000000Z</creationTime>
          </creationInfo>
        </arrival>
        <arrival publicID="quakeml:uw.anss.org/AssocArO/UW/4141333">
          <pickID>quakeml:uw.anss.org/Arrival/UW/4141333</pickID>
          <phase>P</phase>
          <azimuth>190.5</azimuth>
          <distance>1.335</distance>
          <timeResidual>-0.34</timeResidual>
          <creationInfo>
            <agencyID>UW</agencyID>
            <creationTime>2012-02-27T17:23:01.000000Z</creationTime>
          </creationInfo>
        </arrival>
        <arrival publicID="quakeml:uw.anss.org/AssocArO/UW/4141338">
          <pickID>quakeml:uw.anss.org/Arrival/UW/4141338</pickID>
          <phase>P</phase>
          <azimuth>102.2</azimuth>
          <distance>0.3573</distance>
          <timeResidual>-0.07</timeResidual>
          <creationInfo>
            <agencyID>UW</agencyID>
            <creationTime>2012-02-27T17:23:01.000000Z</creationTime>
          </creationInfo>
        </arrival>
        <arrival publicID="quakeml:uw.anss.org/AssocArO/UW/4141343">
          <pickID>quakeml:uw.anss.org/Arrival/UW/4141343</pickID>
          <phase>S</phase>
          <azimuth>102.2</azimuth>
          <distance>0.3573</distance>
          <timeResidual>-0.36</timeResidual>
          <creationInfo>
            <agencyID>UW</agencyID>
            <creationTime>2012-02-27T17:23:01.000000Z</creationTime>
          </creationInfo>
        </arrival>
        <arrival publicID="quakeml:uw.anss.org/AssocArO/UW/4141348">
          <pickID>quakeml:uw.anss.org/Arrival/UW/4141348</pickID>
          <phase>P</phase>
          <timeResidual>0.28</timeResidual>
          <creationInfo>
            <agencyID>UW</agencyID>
            <creationTime>2012-02-27T17:23:01.000000Z</creationTime>
          </creationInfo>
        </arrival>
        <arrival publicID="quakeml:uw.anss.org/AssocArO/UW/4141353">
          <pickID>quakeml:uw.anss.org/Arrival/UW/4141353</pickID>
          <phase>P</phase>
          <azimuth>157.2</azimuth>
          <distance>1.145</distance>
          <timeResidual>0.22</timeResidual>
          <creationInfo>
            <agencyID>UW</agencyID>
            <creationTime>2012-02-27T17:23:01.000000Z</creationTime>
          </creationInfo>
        </arrival>
        <arrival publicID="quakeml:uw.anss.org/AssocArO/UW/4141358">
          <pickID>quakeml:uw.anss.org/Arrival/UW/4141358</pickID>
          <phase>S</phase>
          <azimuth>157.2</azimuth>
          <distance>1.145</distance>
          <timeResidual>-0.21</timeResidual>
          <creationInfo>
            <agencyID>UW</agencyID>
            <creationTime>2012-02-27T17:23:01.000000Z</creationTime>
          </creationInfo>
        </arrival>
        <arrival publicID="quakeml:uw.anss.org/AssocArO/UW/4141363">
          <pickID>quakeml:uw.anss.org/Arrival/UW/4141363</pickID>
          <phase>P</phase>
          <azimuth>226.8</azimuth>
          <distance>1.627</distance>
          <timeResidual>1.09</timeResidual>
          <creationInfo>
            <agencyID>UW</agencyID>
            <creationTime>2012-02-27T17:23:01.000000Z</creationTime>
          </creationInfo>
        </arrival>
        <arrival publicID="quakeml:uw.anss.org/AssocArO/UW/4141368">
          <pickID>quakeml:uw.anss.org/Arrival/UW/4141368</pickID>
          <phase>P</phase>
          <azimuth>203.1</azimuth>
          <distance>0.9278</distance>
          <timeResidual>0.05</timeResidual>
          <creationInfo>
            <agencyID>UW</agencyID>
            <creationTime>2012-02-27T17:23:01.000000Z</creationTime>
          </creationInfo>
        </arrival>
        <arrival publicID="quakeml:uw.anss.org/AssocArO/UW/4141373">
          <pickID>quakeml:uw.anss.org/Arrival/UW/4141373</pickID>
          <phase>P</phase>
          <azimuth>235.9</azimuth>
          <distance>0.3228</distance>
          <timeResidual>-0.04</timeResidual>
          <creationInfo>
            <agencyID>UW</agencyID>
            <creationTime>2012-02-27T17:23:01.000000Z</creationTime>
          </creationInfo>
        </arrival>
        <arrival publicID="quakeml:uw.anss.org/AssocArO/UW/4141378">
          <pickID>quakeml:uw.anss.org/Arrival/UW/4141378</pickID>
          <phase>S</phase>
          <azimuth>235.9</azimuth>
          <distance>0.3228</distance>
          <timeResidual>-0.11</timeResidual>
          <creationInfo>
            <agencyID>UW</agencyID>
            <creationTime>2012-02-27T17:23:01.000000Z</creationTime>
          </creationInfo>
        </arrival>
        <arrival publicID="quakeml:uw.anss.org/AssocArO/UW/4141383">
          <pickID>quakeml:uw.anss.org/Arrival/UW/4141383</pickID>
          <phase>P</phase>
          <azimuth>165.4</azimuth>
          <distance>1.058</distance>
          <timeResidual>0.17</timeResidual>
          <creationInfo>
            <agencyID>UW</agencyID>
            <creationTime>2012-02-27T17:23:01.000000Z</creationTime>
          </creationInfo>
        </arrival>
      </origin>
      <magnitude publicID="quakeml:uw.anss.org/Netmag/UW/462433">
        <mag>
          <value>1.7</value>
          <uncertainty>0.08</uncertainty>
        </mag>
        <type>Md</type>
        <originID>quakeml:uw.anss.org/Origin/UW/551598</originID>
        <methodID>smi:uw.anss.org/magnitude/Crosson</methodID>
        <stationCount>7</stationCount>
        <evaluationMode>manual</evaluationMode>
        <evaluationStatus>final</evaluationStatus>
        <stationMagnitudeContribution>
          <stationMagnitudeID>quakeml:uw.anss.org/AssocCoM/UW/1156103</stationMagnitudeID>
          <weight>1.0</weight>
          <residual>0.08</residual>
        </stationMagnitudeContribution>
        <stationMagnitudeContribution>
          <stationMagnitudeID>quakeml:uw.anss.org/AssocCoM/UW/1156153</stationMagnitudeID>
          <weight>1.0</weight>
          <residual>0.08</residual>
        </stationMagnitudeContribution>
        <stationMagnitudeContribution>
          <stationMagnitudeID>quakeml:uw.anss.org/AssocCoM/UW/1156148</stationMagnitudeID>
          <weight>1.0</weight>
          <residual>0.05</residual>
        </stationMagnitudeContribution>
        <stationMagnitudeContribution>
          <stationMagnitudeID>quakeml:uw.anss.org/AssocCoM/UW/1156163</stationMagnitudeID>
          <weight>1.0</weight>
          <residual>0.05</residual>
        </stationMagnitudeContribution>
        <stationMagnitudeContribution>
          <stationMagnitudeID>quakeml:uw.anss.org/AssocCoM/UW/1156133</stationMagnitudeID>
          <weight>1.0</weight>
          <residual>0.12</residual>
        </stationMagnitudeContribution>
        <stationMagnitudeContribution>
          <stationMagnitudeID>quakeml:uw.anss.org/AssocCoM/UW/1156158</stationMagnitudeID>
          <weight>1.0</weight>
          <residual>-0.04</residual>
        </stationMagnitudeContribution>
        <stationMagnitudeContribution>
          <stationMagnitudeID>quakeml:uw.anss.org/AssocCoM/UW/1156143</stationMagnitudeID>
          <weight>1.0</weight>
