<?xml version='1.0' encoding='utf-8'?>
<q:quakeml xmlns="http://quakeml.org/xmlns/bed/1.2" xmlns:q="http://quakeml.org/xmlns/quakeml/1.2" xmlns:ns0="http://anss.org/xmlns/catalog/0.1">
  <eventParameters publicID="smi:local/b93951f0-b0bf-44c8-bb8d-836bebc1e481">
    <event publicID="quakeml:uw.anss.org/Event/UW/10282168" ns0:datasource="uw" ns0:dataid="uw10282168" ns0:eventsource="uw" ns0:eventid="10282168">
      <preferredOriginID>quakeml:uw.anss.org/Origin/UW/559113</preferredOriginID>
      <preferredMagnitudeID>quakeml:uw.anss.org/Netmag/UW/469013</preferredMagnitudeID>
      <type>earthquake</type>
      <creationInfo>
        <agencyID>UW</agencyID>
        <creationTime>2012-02-27T17:39:30.000000Z</creationTime>
        <version>3</version>
      </creationInfo>
      <origin publicID="quakeml:uw.anss.org/Origin/UW/559113" ns0:datasource="uw" ns0:dataid="uw10282168" ns0:eventsource="uw" ns0:eventid="10282168">
        <time>
          <value>1991-08-29T13:51:38.720000Z</value>
          <uncertainty>0.04</uncertainty>
        </time>
        <latitude>
          <value>48.7421667</value>
          <uncertainty>0.18</uncertainty>
        </latitude>
        <longitude>
          <value>-121.6288333</value>
          <uncertainty>0.27</uncertainty>
        </longitude>
        <depth>
          <value>-1020.0</value>
          <uncertainty>430.0</uncertainty>
        </depth>
        <depthType>operator assigned</depthType>
        <timeFixed>false</timeFixed>
        <epicenterFixed>false</epicenterFixed>
        <methodID>smi:uw.anss.org/origin/spong</methodID>
        <quality>
          <associatedPhaseCount>35</associatedPhaseCount>
          <usedPhaseCount>21</usedPhaseCount>
          <associatedStationCount>26</associatedStationCount>
          <usedStationCount>0</usedStationCount>
          <standardError>0.7</standardError>
          <azimuthalGap>175.0</azimuthalGap>
        </quality>
        <type>hypocenter</type>
        <evaluationMode>manual</evaluationMode>
        <evaluationStatus>final</evaluationStatus>
        <creationInfo>
          <agencyID>UW</agencyID>
          <creationTime>2012-02-27T17:39:30.000000Z</creationTime>
        </creationInfo>
        <originUncertainty>
          <preferredDescription>horizontal uncertainty</preferredDescription>
          <horizontalUncertainty>324.0</horizontalUncertainty>
        </originUncertainty>
        <arrival publicID="quakeml:uw.anss.org/AssocArO/UW/4301443">
          <pickID>quakeml:uw.anss.org/Arrival/UW/4301443</pickID>
          <phase>P</phase>
          <azimuth>221.5</azimuth>
          <distance>1.452</distance>
          <timeResidual>0.37</timeResidual>
          <creationInfo>
            <agencyID>UW</agencyID>
            <creationTime>2012-02-27T17:39:30.000000Z</creationTime>
          </creationInfo>
        </arrival>
        <arrival publicID="quakeml:uw.anss.org/AssocArO/UW/4301448">
          <pickID>quakeml:uw.anss.org/Arrival/UW/4301448</pickID>
          <phase>S</phase>
          <azimuth>221.5</azimuth>
          <distance>1.452</distance>
          <timeResidual>-0.11</timeResidual>
          <creationInfo>
            <agencyID>UW</agencyID>
            <creationTime>2012-02-27T17:39:30.000000Z</creationTime>
          </creationInfo>
        </arrival>
        <arrival publicID="quakeml:uw.anss.org/AssocArO/UW/4301453">
          <pickID>quakeml:uw.anss.org/Arrival/UW/4301453</pickID>
          <phase>P</phase>
          <azimuth>164.6</azimuth>
          <distance>2.082</distance>
          <timeResidual>0.95</timeResidual>
          <creationInfo>
            <agencyID>UW</agencyID>
            <creationTime>2012-02-27T17:39:30.000000Z</creationTime>
          </creationInfo>
        </arrival>
        <arrival publicID="quakeml:uw.anss.org/AssocArO/UW/4301458">
          <pickID>quakeml:uw.anss.org/Arrival/UW/4301458</pickID>
          <phase>P</phase>
          <azimuth>127.7</azimuth>
          <distance>1.09</distance>
          <timeResidual>0.95</timeResidual>
          <creationInfo>
            <agencyID>UW</agencyID>
            <creationTime>2012-02-27T17:39:30.000000Z</creationTime>
          </creationInfo>
        </arrival>
        <arrival publicID="quakeml:uw.anss.org/AssocArO/UW/4301463">
          <pickID>quakeml:uw.anss.org/Arrival/UW/4301463</pickID>
          <phase>P</phase>
          <azimuth>310.8</azimuth>
          <timeResidual>0.33</timeResidual>
          <creationInfo>
            <agencyID>UW</agencyID>
            <creationTime>2012-02-27T17:39:30.000000Z</creationTime>
          </creationInfo>
        </arrival>
        <arrival publicID="quakeml:uw.anss.org/AssocArO/UW/4301468">
          <pickID>quakeml:uw.anss.org/Arrival/UW/4301468</pickID>
          <phase>P</phase>
          <azimuth>142.3</azimuth>
          <distance>1.431</distance>
          <timeResidual>1.7</timeResidual>
          <creationInfo>
            <agencyID>UW</agencyID>
            <creationTime>2012-02-27T17:39:30.000000Z</creationTime>
          </creationInfo>
        </arrival>
        <arrival publicID="quakeml:uw.anss.org/AssocArO/UW/4301473">
          <pickID>quakeml:uw.anss.org/Arrival/UW/4301473</pickID>
          <phase>P</phase>
          <timeResidual>0.12</timeResidual>
          <creationInfo>
            <agencyID>UW</agencyID>
            <creationTime>2012-02-27T17:39:30.000000Z</creationTime>
          </creationInfo>
        </arrival>
        <arrival publicID="quakeml:uw.anss.org/AssocArO/UW/4301478">
          <pickID>quakeml:uw.anss.org/Arrival/UW/4301478</pickID>
          <phase>P</phase>
          <azimuth>134.8</azimuth>
          <distance>1.945</distance>
          <timeResidual>2.93</timeResidual>
          <creationInfo>
            <agencyID>UW</agencyID>
            <creationTime>2012-02-27T17:39:30.000000Z</creationTime>
          </creationInfo>
        </arrival>
        <arrival publicID="quakeml:uw.anss.org/AssocArO/UW/4301483">
          <pickID>quakeml:uw.anss.org/Arrival/UW/4301483</pickID>
          <phase>P</phase>
          <azimuth>225.8</azimuth>
          <distance>0.4563</distance>
          <timeResidual>0.04</timeResidual>
          <creationInfo>
            <agencyID>UW</agencyID>
            <creationTime>2012-02-27T17:39:30.000000Z</creationTime>
          </creationInfo>
        </arrival>
        <arrival publicID="quakeml:uw.anss.org/AssocArO/UW/4301488">
          <pickID>quakeml:uw.anss.org/Arrival/UW/4301488</pickID>
          <phase>S</phase>
          <azimuth>225.8</azimuth>
          <distance>0.4563</distance>
          <timeResidual>0.22</timeResidual>
          <creationInfo>
            <agencyID>UW</agencyID>
            <creationTime>2012-02-27T17:39:30.000000Z</creationTime>
          </creationInfo>
        </arrival>
        <arrival publicID="quakeml:uw.anss.org/AssocArO/UW/4301493">
          <pickID>quakeml:uw.anss.org/Arrival/UW/4301493</pickID>
          <phase>P</phase>
          <azimuth>184.2</azimuth>
          <timeResidual>0.51</timeResidual>
          <creationInfo>
            <agencyID>UW</agencyID>
            <creationTime>2012-02-27T17:39:30.000000Z</creationTime>
          </creationInfo>
        </arrival>
        <arrival publicID="quakeml:uw.anss.org/AssocArO/UW/4301498">
          <pickID>quakeml:uw.anss.org/Arrival/UW/4301498</pickID>
          <phase>S</phase>
          <azimuth>184.2</azimuth>
          <timeResidual>-0.03</timeResidual>
          <creationInfo>
            <agencyID>UW</agencyID>
            <creationTime>2012-02-27T17:39:30.000000Z</creationTime>
          </creationInfo>
        </arrival>
        <arrival publicID="quakeml:uw.anss.org/AssocArO/UW/4301503">
          <pickID>quakeml:uw.anss.org/Arrival/UW/4301503</pickID>
          <phase>P</phase>
          <azimuth>187.5</azimuth>
          <distance>1.814</distance>
          <timeResidual>1.11</timeResidual>
          <creationInfo>
            <agencyID>UW</agencyID>
            <creationTime>2012-02-27T17:39:30.000000Z</creationTime>
          </creationInfo>
        </arrival>
        <arrival publicID="quakeml:uw.anss.org/AssocArO/UW/4301508">
          <pickID>quakeml:uw.anss.org/Arrival/UW/4301508</pickID>
          <phase>P</phase>
          <timeResidual>1.38</timeResidual>
          <creationInfo>
            <agencyID>UW</agencyID>
            <creationTime>2012-02-27T17:39:30.000000Z</creationTime>
          </creationInfo>
        </arrival>
        <arrival publicID="quakeml:uw.anss.org/AssocArO/UW/4301513">
          <pickID>quakeml:uw.anss.org/Arrival/UW/4301513</pickID>
          <phase>S</phase>
          <timeResidual>0.04</timeResidual>
          <creationInfo>
            <agencyID>UW</agencyID>
            <creationTime>2012-02-27T17:39:30.000000Z</creationTime>
          </creationInfo>
        </arrival>
        <arrival publicID="quakeml:uw.anss.org/AssocArO/UW/4301518">
          <pickID>quakeml:uw.anss.org/Arrival/UW/4301518</pickID>
          <phase>P</phase>
          <azimuth>165.6</azimuth>
          <distance>0.3038</distance>
          <timeResidual>-0.15</timeResidual>
          <creationInfo>
            <agencyID>UW</agencyID>
            <creationTime>2012-02-27T17:39:30.000000Z</creationTime>
          </creationInfo>
        </arrival>
        <arrival publicID="quakeml:uw.anss.org/AssocArO/UW/4301523">
          <pickID>quakeml:uw.anss.org/Arrival/UW/4301523</pickID>
          <phase>S</phase>
          <azimuth>165.6</azimuth>
          <distance>0.3038</distance>
          <timeResidual>-0.47</timeResidual>
          <creationInfo>
            <agencyID>UW</agencyID>
            <creationTime>2012-02-27T17:39:30.000000Z</creationTime>
          </creationInfo>
        </arrival>
        <arrival publicID="quakeml:uw.anss.org/AssocArO/UW/4301528">
          <pickID>quakeml:uw.anss.org/Arrival/UW/4301528</pickID>
          <phase>P</phase>
          <azimuth>178.2</azimuth>
          <distance>2.046</distance>
          <timeResidual>1.52</timeResidual>
          <creationInfo>
            <agencyID>UW</agencyID>
            <creationTime>2012-02-27T17:39:30.000000Z</creationTime>
          </creationInfo>
        </arrival>
        <arrival publicID="quakeml:uw.anss.org/AssocArO/UW/4301533">
          <pickID>quakeml:uw.anss.org/Arrival/UW/4301533</pickID>
          <phase>P</phase>
          <azimuth>199.4</azimuth>
          <distance>1.259</distance>
          <timeResidual>1.18</timeResidual>
          <creationInfo>
            <agencyID>UW</agencyID>
            <creationTime>2012-02-27T17:39:30.000000Z</creationTime>
          </creationInfo>
        </arrival>
        <arrival publicID="quakeml:uw.anss.org/AssocArO/UW/4301538">
          <pickID>quakeml:uw.anss.org/Arrival/UW/4301538</pickID>
          <phase>P</phase>
          <azimuth>283.2</azimuth>
          <distance>0.1848</distance>
          <timeResidual>-0.29</timeResidual>
          <creationInfo>
            <agencyID>UW</agencyID>
            <creationTime>2012-02-27T17:39:30.000000Z</creationTime>
          </creationInfo>
        </arrival>
        <arrival publicID="quakeml:uw.anss.org/AssocArO/UW/4301543">
          <pickID>quakeml:uw.anss.org/Arrival/UW/4301543</pickID>
          <phase>S</phase>
          <azimuth>283.2</azimuth>
          <distance>0.1848</distance>
          <timeResidual>-0.88</timeResidual>
          <creationInfo>
            <agencyID>UW</agencyID>
            <creationTime>2012-02-27T17:39:30.000000Z</creationTime>
          </creationInfo>
        </arrival>
        <arrival publicID="quakeml:uw.anss.org/AssocArO/UW/4301548">
          <pickID>quakeml:uw.anss.org/Arrival/UW/4301548</pickID>
          <phase>P</phase>
          <azimuth>200.0</azimuth>
          <timeResidual>0.41</timeResidual>
          <creationInfo>
            <agencyID>UW</agencyID>
            <creationTime>2012-02-27T17:39:30.000000Z</creationTime>
          </creationInfo>
        </arrival>
        <arrival publicID="quakeml:uw.anss.org/AssocArO/UW/4301553">
          <pickID>quakeml:uw.anss.org/Arrival/UW/4301553</pickID>
          <phase>S</phase>
          <azimuth>200.0</azimuth>
          <timeResidual>0.16</timeResidual>
          <creationInfo>
            <agencyID>UW</agencyID>
            <creationTime>2012-02-27T17:39:30.000000Z</creationTime>
          </creationInfo>
        </arrival>
        <arrival publicID="quakeml:uw.anss.org/AssocArO/UW/4301558">
          <pickID>quakeml:uw.anss.org/Arrival/UW/4301558</pickID>
          <phase>P</phase>
          <azimuth>180.9</azimuth>
          <timeResidual>0.63</timeResidual>
          <creationInfo>
            <agencyID>UW</agencyID>
            <creationTime>2012-02-27T17:39:30.000000Z</creationTime>
          </creationInfo>
        </arrival>
        <arrival publicID="quakeml:uw.anss.org/AssocArO/UW/4301563">
          <pickID>quakeml:uw.anss.org/Arrival/UW/4301563</pickID>
          <phase>S</phase>
          <azimuth>180.9</azimuth>
          <timeResidual>-0.05</timeResidual>
          <creationInfo>
            <agencyID>UW</agencyID>
            <creationTime>2012-02-27T17:39:30.000000Z</creationTime>
          </creationInfo>
        </arrival>
        <arrival publicID="quakeml:uw.anss.org/AssocArO/UW/4301568">
          <pickID>quakeml:uw.anss.org/Arrival/UW/4301568</pickID>
          <phase>S</phase>
          <azimuth>120.8</azimuth>
          <distance>1.451</distance>
          <timeResidual>1.01</timeResidual>
          <creationInfo>
            <agencyID>UW</agencyID>
            <creationTime>2012-02-27T17:39:30.000000Z</creationTime>
          </creationInfo>
        </arrival>
        <arrival publicID="quakeml:uw.anss.org/AssocArO/UW/4301573">
          <pickID>quakeml:uw.anss.org/Arrival/UW/4301573</pickID>
          <phase>P</phase>
          <azimuth>247.2</azimuth>
          <timeResidual>1.09</timeResidual>
          <creationInfo>
            <agencyID>UW</agencyID>
            <creationTime>2012-02-27T17:39:30.000000Z</creationTime>
          </creationInfo>
        </arrival>
        <arrival publicID="quakeml:uw.anss.org/AssocArO/UW/4301578">
          <pickID>quakeml:uw.anss.org/Arrival/UW/4301578</pickID>
          <phase>P</phase>
          <timeResidual>1.42</timeResidual>
          <creationInfo>
            <agencyID>UW</agencyID>
            <creationTime>2012-02-27T17:39:30.000000Z</creationTime>
          </creationInfo>
        </arrival>
        <arrival publicID="quakeml:uw.anss.org/AssocArO/UW/4301583">
          <pickID>quakeml:uw.anss.org/Arrival/UW/4301583</pickID>
          <phase>S</phase>
          <timeResidual>0.61</timeResidual>
          <creationInfo>
            <agencyID>UW</agencyID>
            <creationTime>2012-02-27T17:39:30.000000Z</creationTime>
          </creationInfo>
        </arrival>
        <arrival publicID="quakeml:uw.anss.org/AssocArO/UW/4301588">
          <pickID>quakeml:uw.anss.org/Arrival/UW/4301588</pickID>
          <phase>P</phase>
          <azimuth>213.3</azimuth>
          <distance>1.425</distance>
          <timeResidual>0.51</timeResidual>
          <creationInfo>
            <agencyID>UW</agencyID>
            <creationTime>2012-02-27T17:39:30.000000Z</creationTime>
          </creationInfo>
        </arrival>
        <arrival publicID="quakeml:uw.anss.org/AssocArO/UW/4301593">
          <pickID>quakeml:uw.anss.org/Arrival/UW/4301593</pickID>
          <phase>P</phase>
          <timeResidual>1.36</timeResidual>
          <creationInfo>
            <agencyID>UW</agencyID>
            <creationTime>2012-02-27T17:39:30.000000Z</creationTime>
          </creationInfo>
        </arrival>
        <arrival publicID="quakeml:uw.anss.org/AssocArO/UW/4301598">
          <pickID>quakeml:uw.anss.org/Arrival/UW/4301598</pickID>
          <phase>P</phase>
          <azimuth>185.7</azimuth>
          <distance>0.9437</distance>
          <timeResidual>0.48</timeResidual>
          <creationInfo>
            <agencyID>UW</agencyID>
            <creationTime>2012-02-27T17:39:30.000000Z</creationTime>
          </creationInfo>
        </arrival>
        <arrival publicID="quakeml:uw.anss.org/AssocArO/UW/4301603">
          <pickID>quakeml:uw.anss.org/Arrival/UW/4301603</pickID>
          <phase>P</phase>
          <azimuth>131.0</azimuth>
          <distance>1.415</distance>
          <timeResidual>1.78</timeResidual>
          <creationInfo>
            <agencyID>UW</agencyID>
            <creationTime>2012-02-27T17:39:30.000000Z</creationTime>
          </creationInfo>
        </arrival>
        <arrival publicID="quakeml:uw.anss.org/AssocArO/UW/4301608">
          <pickID>quakeml:uw.anss.org/Arrival/UW/4301608</pickID>
          <phase>P</phase>
          <azimuth>265.9</azimuth>
          <distance>0.7998</distance>
          <timeResidual>0.89</timeResidual>
          <creationInfo>
            <agencyID>UW</agencyID>
            <creationTime>2012-02-27T17:39:30.000000Z</creationTime>
          </creationInfo>
        </arrival>
        <arrival publicID="quakeml:uw.anss.org/AssocArO/UW/4301613">
          <pickID>quakeml:uw.anss.org/Arrival/UW/4301613</pickID>
          <phase>P</phase>
          <azimuth>196.7</azimuth>
          <distance>0.946</distance>
          <timeResidual>1.75</timeResidual>
          <creationInfo>
            <agencyID>UW</agencyID>
            <creationTime>2012-02-27T17:39:30.000000Z</creationTime>
          </creationInfo>
        </arrival>
      </origin>
      <magnitude publicID="quakeml:uw.anss.org/Netmag/UW/469013">
        <mag>
          <value>1.7</value>
          <uncertainty>0.06</uncertainty>
        </mag>
        <type>Md</type>
        <originID>quakeml:uw.anss.org/Origin/UW/559113</originID>
        <methodID>smi:uw.anss.org/magnitude/Crosson</methodID>
        <stationCount>5</stationCount>
        <evaluationMode>manual</evaluationMode>
        <evaluationStatus>final</evaluationStatus>
        <stationMagnitudeContribution>
          <stationMagnitudeID>quakeml:uw.anss.org/AssocCoM/UW/1182228</stationMagnitudeID>
          <weight>1.0</weight>
          <residual>0.01</residual>
        </stationMagnitudeContribution>
        <stationMagnitudeContribution>
          <stationMagnitudeID>quakeml:uw.anss.org/AssocCoM/UW/1182238</stationMagnitudeID>
          <weight>1.0</weight>
          <residual>0.12</residual>
        </stationMagnitudeContribution>
        <stationMagnitudeContribution>
          <stationMagnitudeID>quakeml:uw.anss.org/AssocCoM/UW/1182243</stationMagnitudeID>
          <weight>1.0</weight>
          <residual>0.01</residual>
        </stationMagnitudeContribution>
        <stationMagnitudeContribution>
          <stationMagnitudeID>quakeml:uw.anss.org/AssocCoM/UW/1182233</stationMagnitudeID>
          <weight>1.0</weight>
          <residual>-0.08</residual>
        </stationMagnitudeContribution>
        <stationMagnitudeContribution>
          <stationMagnitudeID>quakeml:uw.anss.org/AssocCoM/UW/1182223</stationMagnitudeID>
          <weight>1.0</weight>
          <residual>0.16</residual>
        </stationMagnitudeContribution>
        <creationInfo>
          <agencyID>UW</agencyID>
          <creationTime>2012-02-27T17:39:30.000000Z</creationTime>
        </creationInfo>
      </magnitude>
      <stationMagnitude publicID="quakeml:uw.anss.org/AssocCoM/UW/1182223">
        <originID>quakeml:uw.anss.org/Origin/UW/559113</originID>
        <mag>
          <value>1.86</value>
        </mag>
        <type>MD</type>
        <amplitudeID>quakeml:uw.anss.org/Coda/UW/1182223</amplitudeID>
        <waveformID networkCode="UW" stationCode="CMW" locationCode="" channelCode="EHZ"></waveformID>
      </stationMagnitude>
      <stationMagnitude publicID="quakeml:uw.anss.org/AssocCoM/UW/1182228">
        <originID>quakeml:uw.anss.org/Origin/UW/559113</originID>
        <mag>
          <value>1.71</value>
