<?xml version='1.0' encoding='utf-8'?>
<q:quakeml xmlns="http://quakeml.org/xmlns/bed/1.2" xmlns:q="http://quakeml.org/xmlns/quakeml/1.2" xmlns:ns0="http://anss.org/xmlns/catalog/0.1">
  <eventParameters publicID="smi:local/d0f8a98b-fc07-4c69-98b8-070e20d8e96f">
    <event publicID="quakeml:uw.anss.org/Event/UW/10283418" ns0:datasource="uw" ns0:dataid="uw10283418" ns0:eventsource="uw" ns0:eventid="10283418">
      <preferredOriginID>quakeml:uw.anss.org/Origin/UW/560363</preferredOriginID>
      <preferredMagnitudeID>quakeml:uw.anss.org/Netmag/UW/470073</preferredMagnitudeID>
      <type>earthquake</type>
      <creationInfo>
        <agencyID>UW</agencyID>
        <creationTime>2012-02-27T17:45:41.000000Z</creationTime>
        <version>4</version>
      </creationInfo>
      <origin publicID="quakeml:uw.anss.org/Origin/UW/560363" ns0:datasource="uw" ns0:dataid="uw10283418" ns0:eventsource="uw" ns0:eventid="10283418">
        <time>
          <value>1991-10-31T17:03:34.850000Z</value>
          <uncertainty>0.13</uncertainty>
        </time>
        <latitude>
          <value>49.1363333</value>
          <uncertainty>0.89</uncertainty>
        </latitude>
        <longitude>
          <value>-122.1521667</value>
          <uncertainty>0.95</uncertainty>
        </longitude>
        <depth>
          <value>4124.0</value>
          <uncertainty>2520.0</uncertainty>
        </depth>
        <depthType>from location</depthType>
        <timeFixed>false</timeFixed>
        <epicenterFixed>false</epicenterFixed>
        <methodID>smi:uw.anss.org/origin/spong</methodID>
        <quality>
          <associatedPhaseCount>50</associatedPhaseCount>
          <usedPhaseCount>23</usedPhaseCount>
          <associatedStationCount>32</associatedStationCount>
          <usedStationCount>0</usedStationCount>
          <standardError>0.31</standardError>
          <azimuthalGap>201.0</azimuthalGap>
        </quality>
        <type>hypocenter</type>
        <evaluationMode>manual</evaluationMode>
        <evaluationStatus>final</evaluationStatus>
        <creationInfo>
          <agencyID>UW</agencyID>
          <creationTime>2012-02-27T17:45:41.000000Z</creationTime>
        </creationInfo>
        <originUncertainty>
          <preferredDescription>horizontal uncertainty</preferredDescription>
          <horizontalUncertainty>1302.0</horizontalUncertainty>
        </originUncertainty>
        <arrival publicID="quakeml:uw.anss.org/AssocArO/UW/4327218">
          <pickID>quakeml:uw.anss.org/Arrival/UW/4327218</pickID>
          <phase>P</phase>
          <azimuth>274.8</azimuth>
          <timeResidual>0.36</timeResidual>
          <creationInfo>
            <agencyID>UW</agencyID>
            <creationTime>2012-02-27T17:45:41.000000Z</creationTime>
          </creationInfo>
        </arrival>
        <arrival publicID="quakeml:uw.anss.org/AssocArO/UW/4327223">
          <pickID>quakeml:uw.anss.org/Arrival/UW/4327223</pickID>
          <phase>S</phase>
          <azimuth>274.8</azimuth>
          <timeResidual>-1.22</timeResidual>
          <creationInfo>
            <agencyID>UW</agencyID>
            <creationTime>2012-02-27T17:45:41.000000Z</creationTime>
          </creationInfo>
        </arrival>
        <arrival publicID="quakeml:uw.anss.org/AssocArO/UW/4327228">
          <pickID>quakeml:uw.anss.org/Arrival/UW/4327228</pickID>
          <phase>P</phase>
          <azimuth>202.3</azimuth>
          <distance>1.606</distance>
          <timeResidual>0.52</timeResidual>
          <creationInfo>
            <agencyID>UW</agencyID>
            <creationTime>2012-02-27T17:45:41.000000Z</creationTime>
          </creationInfo>
        </arrival>
        <arrival publicID="quakeml:uw.anss.org/AssocArO/UW/4327233">
          <pickID>quakeml:uw.anss.org/Arrival/UW/4327233</pickID>
          <phase>S</phase>
          <azimuth>202.3</azimuth>
          <distance>1.606</distance>
          <timeResidual>-0.93</timeResidual>
          <creationInfo>
            <agencyID>UW</agencyID>
            <creationTime>2012-02-27T17:45:41.000000Z</creationTime>
          </creationInfo>
        </arrival>
        <arrival publicID="quakeml:uw.anss.org/AssocArO/UW/4327238">
          <pickID>quakeml:uw.anss.org/Arrival/UW/4327238</pickID>
          <phase>P</phase>
          <azimuth>131.0</azimuth>
          <distance>1.607</distance>
          <timeResidual>1.38</timeResidual>
          <creationInfo>
            <agencyID>UW</agencyID>
            <creationTime>2012-02-27T17:45:41.000000Z</creationTime>
          </creationInfo>
        </arrival>
        <arrival publicID="quakeml:uw.anss.org/AssocArO/UW/4327243">
          <pickID>quakeml:uw.anss.org/Arrival/UW/4327243</pickID>
          <phase>S</phase>
          <azimuth>131.0</azimuth>
          <distance>1.607</distance>
          <timeResidual>0.5</timeResidual>
          <creationInfo>
            <agencyID>UW</agencyID>
            <creationTime>2012-02-27T17:45:41.000000Z</creationTime>
          </creationInfo>
        </arrival>
        <arrival publicID="quakeml:uw.anss.org/AssocArO/UW/4327248">
          <pickID>quakeml:uw.anss.org/Arrival/UW/4327248</pickID>
          <phase>P</phase>
          <azimuth>296.5</azimuth>
          <timeResidual>0.28</timeResidual>
          <creationInfo>
            <agencyID>UW</agencyID>
            <creationTime>2012-02-27T17:45:42.000000Z</creationTime>
          </creationInfo>
        </arrival>
        <arrival publicID="quakeml:uw.anss.org/AssocArO/UW/4327253">
          <pickID>quakeml:uw.anss.org/Arrival/UW/4327253</pickID>
          <phase>S</phase>
          <azimuth>296.5</azimuth>
          <timeResidual>-0.22</timeResidual>
          <creationInfo>
            <agencyID>UW</agencyID>
            <creationTime>2012-02-27T17:45:42.000000Z</creationTime>
          </creationInfo>
        </arrival>
        <arrival publicID="quakeml:uw.anss.org/AssocArO/UW/4327258">
          <pickID>quakeml:uw.anss.org/Arrival/UW/4327258</pickID>
          <phase>P</phase>
          <azimuth>141.1</azimuth>
          <distance>1.955</distance>
          <timeResidual>1.86</timeResidual>
          <creationInfo>
            <agencyID>UW</agencyID>
            <creationTime>2012-02-27T17:45:42.000000Z</creationTime>
          </creationInfo>
        </arrival>
        <arrival publicID="quakeml:uw.anss.org/AssocArO/UW/4327263">
          <pickID>quakeml:uw.anss.org/Arrival/UW/4327263</pickID>
          <phase>S</phase>
          <azimuth>141.1</azimuth>
          <distance>1.955</distance>
          <timeResidual>1.57</timeResidual>
          <creationInfo>
            <agencyID>UW</agencyID>
            <creationTime>2012-02-27T17:45:42.000000Z</creationTime>
          </creationInfo>
        </arrival>
        <arrival publicID="quakeml:uw.anss.org/AssocArO/UW/4327268">
          <pickID>quakeml:uw.anss.org/Arrival/UW/4327268</pickID>
          <phase>P</phase>
          <timeResidual>0.13</timeResidual>
          <creationInfo>
            <agencyID>UW</agencyID>
            <creationTime>2012-02-27T17:45:42.000000Z</creationTime>
          </creationInfo>
        </arrival>
        <arrival publicID="quakeml:uw.anss.org/AssocArO/UW/4327273">
          <pickID>quakeml:uw.anss.org/Arrival/UW/4327273</pickID>
          <phase>P</phase>
          <azimuth>178.3</azimuth>
          <distance>0.7137</distance>
          <timeResidual>-0.07</timeResidual>
          <creationInfo>
            <agencyID>UW</agencyID>
            <creationTime>2012-02-27T17:45:42.000000Z</creationTime>
          </creationInfo>
        </arrival>
        <arrival publicID="quakeml:uw.anss.org/AssocArO/UW/4327278">
          <pickID>quakeml:uw.anss.org/Arrival/UW/4327278</pickID>
          <phase>P</phase>
          <azimuth>172.9</azimuth>
          <timeResidual>0.75</timeResidual>
          <creationInfo>
            <agencyID>UW</agencyID>
            <creationTime>2012-02-27T17:45:42.000000Z</creationTime>
          </creationInfo>
        </arrival>
        <arrival publicID="quakeml:uw.anss.org/AssocArO/UW/4327283">
          <pickID>quakeml:uw.anss.org/Arrival/UW/4327283</pickID>
          <phase>P</phase>
          <azimuth>176.8</azimuth>
          <distance>2.197</distance>
          <timeResidual>-0.07</timeResidual>
          <creationInfo>
            <agencyID>UW</agencyID>
            <creationTime>2012-02-27T17:45:42.000000Z</creationTime>
          </creationInfo>
        </arrival>
        <arrival publicID="quakeml:uw.anss.org/AssocArO/UW/4327288">
          <pickID>quakeml:uw.anss.org/Arrival/UW/4327288</pickID>
          <phase>P</phase>
          <timeResidual>0.38</timeResidual>
          <creationInfo>
            <agencyID>UW</agencyID>
            <creationTime>2012-02-27T17:45:42.000000Z</creationTime>
          </creationInfo>
        </arrival>
        <arrival publicID="quakeml:uw.anss.org/AssocArO/UW/4327293">
          <pickID>quakeml:uw.anss.org/Arrival/UW/4327293</pickID>
          <phase>S</phase>
          <timeResidual>-0.32</timeResidual>
          <creationInfo>
            <agencyID>UW</agencyID>
            <creationTime>2012-02-27T17:45:42.000000Z</creationTime>
          </creationInfo>
        </arrival>
        <arrival publicID="quakeml:uw.anss.org/AssocArO/UW/4327298">
          <pickID>quakeml:uw.anss.org/Arrival/UW/4327298</pickID>
          <phase>P</phase>
          <azimuth>148.4</azimuth>
          <distance>0.8075</distance>
          <timeResidual>-0.02</timeResidual>
          <creationInfo>
            <agencyID>UW</agencyID>
            <creationTime>2012-02-27T17:45:42.000000Z</creationTime>
          </creationInfo>
        </arrival>
        <arrival publicID="quakeml:uw.anss.org/AssocArO/UW/4327303">
          <pickID>quakeml:uw.anss.org/Arrival/UW/4327303</pickID>
          <phase>S</phase>
          <azimuth>148.4</azimuth>
          <distance>0.8075</distance>
          <timeResidual>-0.82</timeResidual>
          <creationInfo>
            <agencyID>UW</agencyID>
            <creationTime>2012-02-27T17:45:42.000000Z</creationTime>
          </creationInfo>
        </arrival>
        <arrival publicID="quakeml:uw.anss.org/AssocArO/UW/4327308">
          <pickID>quakeml:uw.anss.org/Arrival/UW/4327308</pickID>
          <phase>P</phase>
          <azimuth>290.4</azimuth>
          <timeResidual>0.05</timeResidual>
          <creationInfo>
            <agencyID>UW</agencyID>
            <creationTime>2012-02-27T17:45:42.000000Z</creationTime>
          </creationInfo>
        </arrival>
        <arrival publicID="quakeml:uw.anss.org/AssocArO/UW/4327313">
          <pickID>quakeml:uw.anss.org/Arrival/UW/4327313</pickID>
          <phase>S</phase>
          <azimuth>290.4</azimuth>
          <timeResidual>-0.71</timeResidual>
          <creationInfo>
            <agencyID>UW</agencyID>
            <creationTime>2012-02-27T17:45:42.000000Z</creationTime>
          </creationInfo>
        </arrival>
        <arrival publicID="quakeml:uw.anss.org/AssocArO/UW/4327318">
          <pickID>quakeml:uw.anss.org/Arrival/UW/4327318</pickID>
          <phase>S</phase>
          <azimuth>182.3</azimuth>
          <distance>1.585</distance>
          <timeResidual>-2.06</timeResidual>
          <creationInfo>
            <agencyID>UW</agencyID>
            <creationTime>2012-02-27T17:45:42.000000Z</creationTime>
          </creationInfo>
        </arrival>
        <arrival publicID="quakeml:uw.anss.org/AssocArO/UW/4327323">
          <pickID>quakeml:uw.anss.org/Arrival/UW/4327323</pickID>
          <phase>S</phase>
          <azimuth>192.9</azimuth>
          <distance>1.349</distance>
          <timeResidual>-0.14</timeResidual>
          <creationInfo>
            <agencyID>UW</agencyID>
            <creationTime>2012-02-27T17:45:42.000000Z</creationTime>
          </creationInfo>
        </arrival>
        <arrival publicID="quakeml:uw.anss.org/AssocArO/UW/4327328">
          <pickID>quakeml:uw.anss.org/Arrival/UW/4327328</pickID>
          <phase>P</phase>
          <azimuth>197.3</azimuth>
          <distance>0.852</distance>
          <timeResidual>0.64</timeResidual>
          <creationInfo>
            <agencyID>UW</agencyID>
            <creationTime>2012-02-27T17:45:42.000000Z</creationTime>
          </creationInfo>
        </arrival>
        <arrival publicID="quakeml:uw.anss.org/AssocArO/UW/4327333">
          <pickID>quakeml:uw.anss.org/Arrival/UW/4327333</pickID>
          <phase>P</phase>
          <azimuth>218.5</azimuth>
          <distance>1.677</distance>
          <timeResidual>1.93</timeResidual>
          <creationInfo>
            <agencyID>UW</agencyID>
            <creationTime>2012-02-27T17:45:42.000000Z</creationTime>
          </creationInfo>
        </arrival>
        <arrival publicID="quakeml:uw.anss.org/AssocArO/UW/4327338">
          <pickID>quakeml:uw.anss.org/Arrival/UW/4327338</pickID>
          <phase>P</phase>
          <azimuth>307.1</azimuth>
          <timeResidual>0.34</timeResidual>
          <creationInfo>
            <agencyID>UW</agencyID>
            <creationTime>2012-02-27T17:45:42.000000Z</creationTime>
          </creationInfo>
        </arrival>
        <arrival publicID="quakeml:uw.anss.org/AssocArO/UW/4327343">
          <pickID>quakeml:uw.anss.org/Arrival/UW/4327343</pickID>
          <phase>S</phase>
          <azimuth>307.1</azimuth>
          <timeResidual>-0.47</timeResidual>
          <creationInfo>
            <agencyID>UW</agencyID>
            <creationTime>2012-02-27T17:45:42.000000Z</creationTime>
          </creationInfo>
        </arrival>
        <arrival publicID="quakeml:uw.anss.org/AssocArO/UW/4327348">
          <pickID>quakeml:uw.anss.org/Arrival/UW/4327348</pickID>
          <phase>P</phase>
          <azimuth>171.0</azimuth>
          <timeResidual>0.34</timeResidual>
          <creationInfo>
            <agencyID>UW</agencyID>
            <creationTime>2012-02-27T17:45:42.000000Z</creationTime>
          </creationInfo>
        </arrival>
        <arrival publicID="quakeml:uw.anss.org/AssocArO/UW/4327353">
          <pickID>quakeml:uw.anss.org/Arrival/UW/4327353</pickID>
          <phase>S</phase>
          <azimuth>171.0</azimuth>
          <timeResidual>0.09</timeResidual>
          <creationInfo>
            <agencyID>UW</agencyID>
            <creationTime>2012-02-27T17:45:42.000000Z</creationTime>
          </creationInfo>
        </arrival>
        <arrival publicID="quakeml:uw.anss.org/AssocArO/UW/4327358">
          <pickID>quakeml:uw.anss.org/Arrival/UW/4327358</pickID>
          <phase>P</phase>
          <azimuth>154.0</azimuth>
          <distance>2.469</distance>
          <timeResidual>3.43</timeResidual>
          <creationInfo>
            <agencyID>UW</agencyID>
            <creationTime>2012-02-27T17:45:42.000000Z</creationTime>
          </creationInfo>
        </arrival>
        <arrival publicID="quakeml:uw.anss.org/AssocArO/UW/4327363">
          <pickID>quakeml:uw.anss.org/Arrival/UW/4327363</pickID>
          <phase>P</phase>
          <azimuth>171.5</azimuth>
          <timeResidual>0.69</timeResidual>
          <creationInfo>
            <agencyID>UW</agencyID>
            <creationTime>2012-02-27T17:45:42.000000Z</creationTime>
          </creationInfo>
        </arrival>
        <arrival publicID="quakeml:uw.anss.org/AssocArO/UW/4327368">
          <pickID>quakeml:uw.anss.org/Arrival/UW/4327368</pickID>
          <phase>S</phase>
          <azimuth>171.5</azimuth>
          <timeResidual>-0.37</timeResidual>
          <creationInfo>
            <agencyID>UW</agencyID>
            <creationTime>2012-02-27T17:45:42.000000Z</creationTime>
          </creationInfo>
        </arrival>
        <arrival publicID="quakeml:uw.anss.org/AssocArO/UW/4327373">
          <pickID>quakeml:uw.anss.org/Arrival/UW/4327373</pickID>
          <phase>P</phase>
          <azimuth>125.3</azimuth>
          <distance>1.956</distance>
          <timeResidual>3.23</timeResidual>
          <creationInfo>
            <agencyID>UW</agencyID>
            <creationTime>2012-02-27T17:45:42.000000Z</creationTime>
          </creationInfo>
        </arrival>
        <arrival publicID="quakeml:uw.anss.org/AssocArO/UW/4327378">
          <pickID>quakeml:uw.anss.org/Arrival/UW/4327378</pickID>
          <phase>P</phase>
          <timeResidual>0.59</timeResidual>
          <creationInfo>
            <agencyID>UW</agencyID>
            <creationTime>2012-02-27T17:45:42.000000Z</creationTime>
          </creationInfo>
        </arrival>
        <arrival publicID="quakeml:uw.anss.org/AssocArO/UW/4327383">
          <pickID>quakeml:uw.anss.org/Arrival/UW/4327383</pickID>
          <phase>S</phase>
          <timeResidual>0.0</timeResidual>
          <creationInfo>
            <agencyID>UW</agencyID>
            <creationTime>2012-02-27T17:45:42.000000Z</creationTime>
          </creationInfo>
        </arrival>
        <arrival publicID="quakeml:uw.anss.org/AssocArO/UW/4327388">
          <pickID>quakeml:uw.anss.org/Arrival/UW/4327388</pickID>
          <phase>P</phase>
          <azimuth>226.1</azimuth>
          <timeResidual>0.08</timeResidual>
          <creationInfo>
            <agencyID>UW</agencyID>
            <creationTime>2012-02-27T17:45:42.000000Z</creationTime>
          </creationInfo>
        </arrival>
        <arrival publicID="quakeml:uw.anss.org/AssocArO/UW/4327393">
          <pickID>quakeml:uw.anss.org/Arrival/UW/4327393</pickID>
          <phase>S</phase>
          <azimuth>226.1</azimuth>
          <timeResidual>-1.61</timeResidual>
          <creationInfo>
            <agencyID>UW</agencyID>
            <creationTime>2012-02-27T17:45:42.000000Z</creationTime>
          </creationInfo>
        </arrival>
        <arrival publicID="quakeml:uw.anss.org/AssocArO/UW/4327398">
          <pickID>quakeml:uw.anss.org/Arrival/UW/4327398</pickID>
          <phase>P</phase>
          <timeResidual>0.21</timeResidual>
          <creationInfo>
            <agencyID>UW</agencyID>
            <creationTime>2012-02-27T17:45:42.000000Z</creationTime>
          </creationInfo>
        </arrival>
        <arrival publicID="quakeml:uw.anss.org/AssocArO/UW/4327403">
          <pickID>quakeml:uw.anss.org/Arrival/UW/4327403</pickID>
          <phase>S</phase>
          <timeResidual>-0.52</timeResidual>
          <creationInfo>
            <agencyID>UW</agencyID>
            <creationTime>2012-02-27T17:45:42.000000Z</creationTime>
          </creationInfo>
        </arrival>
        <arrival publicID="quakeml:uw.anss.org/AssocArO/UW/4327408">
          <pickID>quakeml:uw.anss.org/Arrival/UW/4327408</pickID>
          <phase>S</phase>
          <azimuth>195.1</azimuth>
          <distance>1.645</distance>
          <timeResidual>-1.41</timeResidual>
          <creationInfo>
            <agencyID>UW</agencyID>
            <creationTime>2012-02-27T17:45:42.000000Z</creationTime>
          </creationInfo>
        </arrival>
        <arrival publicID="quakeml:uw.anss.org/AssocArO/UW/4327413">
          <pickID>quakeml:uw.anss.org/Arrival/UW/4327413</pickID>
          <phase>P</phase>
          <azimuth>172.1</azimuth>
          <distance>1.694</distance>
          <timeResidual>0.43</timeResidual>
          <creationInfo>
            <agencyID>UW</agencyID>
            <creationTime>2012-02-27T17:45:42.000000Z</creationTime>
          </creationInfo>
        </arrival>
        <arrival publicID="quakeml:uw.anss.org/AssocArO/UW/4327418">
          <pickID>quakeml:uw.anss.org/Arrival/UW/4327418</pickID>
          <phase>S</phase>
          <azimuth>172.1</azimuth>
          <distance>1.694</distance>
          <timeResidual>-0.43</timeResidual>
          <creationInfo>
            <agencyID>UW</agencyID>
            <creationTime>2012-02-27T17:45:42.000000Z</creationTime>
          </creationInfo>
        </arrival>
