<?xml version='1.0' encoding='utf-8'?>
<q:quakeml xmlns="http://quakeml.org/xmlns/bed/1.2" xmlns:q="http://quakeml.org/xmlns/quakeml/1.2" xmlns:ns0="http://anss.org/xmlns/catalog/0.1">
  <eventParameters publicID="smi:local/8b32dd7e-2efc-4179-8413-090bc0fba0c1">
    <event publicID="quakeml:uw.anss.org/Event/UW/10274388" ns0:datasource="uw" ns0:dataid="uw10274388" ns0:eventsource="uw" ns0:eventid="10274388">
      <preferredOriginID>quakeml:uw.anss.org/Origin/UW/551333</preferredOriginID>
      <preferredMagnitudeID>quakeml:uw.anss.org/Netmag/UW/462203</preferredMagnitudeID>
      <type>earthquake</type>
      <creationInfo>
        <agencyID>UW</agencyID>
        <creationTime>2012-02-27T17:22:27.000000Z</creationTime>
        <version>3</version>
      </creationInfo>
      <origin publicID="quakeml:uw.anss.org/Origin/UW/551333" ns0:datasource="uw" ns0:dataid="uw10274388" ns0:eventsource="uw" ns0:eventid="10274388">
        <time>
          <value>1991-06-02T02:44:32.400000Z</value>
          <uncertainty>0.02</uncertainty>
        </time>
        <latitude>
          <value>48.8466667</value>
          <uncertainty>0.08</uncertainty>
        </latitude>
        <longitude>
          <value>-122.1948333</value>
          <uncertainty>0.09</uncertainty>
        </longitude>
        <depth>
          <value>-671.0</value>
          <uncertainty>200.0</uncertainty>
        </depth>
        <depthType>operator assigned</depthType>
        <timeFixed>false</timeFixed>
        <epicenterFixed>false</epicenterFixed>
        <methodID>smi:uw.anss.org/origin/spong</methodID>
        <quality>
          <associatedPhaseCount>65</associatedPhaseCount>
          <usedPhaseCount>32</usedPhaseCount>
          <associatedStationCount>51</associatedStationCount>
          <usedStationCount>0</usedStationCount>
          <standardError>0.39</standardError>
          <azimuthalGap>89.0</azimuthalGap>
        </quality>
        <type>hypocenter</type>
        <evaluationMode>manual</evaluationMode>
        <evaluationStatus>final</evaluationStatus>
        <creationInfo>
          <agencyID>UW</agencyID>
          <creationTime>2012-02-27T17:22:27.000000Z</creationTime>
        </creationInfo>
        <originUncertainty>
          <preferredDescription>horizontal uncertainty</preferredDescription>
          <horizontalUncertainty>120.0</horizontalUncertainty>
        </originUncertainty>
        <arrival publicID="quakeml:uw.anss.org/AssocArO/UW/4135498">
          <pickID>quakeml:uw.anss.org/Arrival/UW/4135498</pickID>
          <phase>P</phase>
          <azimuth>288.3</azimuth>
          <timeResidual>-0.5</timeResidual>
          <creationInfo>
            <agencyID>UW</agencyID>
            <creationTime>2012-02-27T17:22:27.000000Z</creationTime>
          </creationInfo>
        </arrival>
        <arrival publicID="quakeml:uw.anss.org/AssocArO/UW/4135503">
          <pickID>quakeml:uw.anss.org/Arrival/UW/4135503</pickID>
          <phase>S</phase>
          <azimuth>288.3</azimuth>
          <timeResidual>-1.46</timeResidual>
          <creationInfo>
            <agencyID>UW</agencyID>
            <creationTime>2012-02-27T17:22:27.000000Z</creationTime>
          </creationInfo>
        </arrival>
        <arrival publicID="quakeml:uw.anss.org/AssocArO/UW/4135508">
          <pickID>quakeml:uw.anss.org/Arrival/UW/4135508</pickID>
          <phase>P</phase>
          <azimuth>205.9</azimuth>
          <distance>1.33</distance>
          <timeResidual>-0.02</timeResidual>
          <creationInfo>
            <agencyID>UW</agencyID>
            <creationTime>2012-02-27T17:22:27.000000Z</creationTime>
          </creationInfo>
        </arrival>
        <arrival publicID="quakeml:uw.anss.org/AssocArO/UW/4135513">
          <pickID>quakeml:uw.anss.org/Arrival/UW/4135513</pickID>
          <phase>S</phase>
          <azimuth>205.9</azimuth>
          <distance>1.33</distance>
          <timeResidual>-0.11</timeResidual>
          <creationInfo>
            <agencyID>UW</agencyID>
            <creationTime>2012-02-27T17:22:27.000000Z</creationTime>
          </creationInfo>
        </arrival>
        <arrival publicID="quakeml:uw.anss.org/AssocArO/UW/4135518">
          <pickID>quakeml:uw.anss.org/Arrival/UW/4135518</pickID>
          <phase>P</phase>
          <azimuth>121.6</azimuth>
          <distance>1.458</distance>
          <timeResidual>0.73</timeResidual>
          <creationInfo>
            <agencyID>UW</agencyID>
            <creationTime>2012-02-27T17:22:27.000000Z</creationTime>
          </creationInfo>
        </arrival>
        <arrival publicID="quakeml:uw.anss.org/AssocArO/UW/4135523">
          <pickID>quakeml:uw.anss.org/Arrival/UW/4135523</pickID>
          <phase>P</phase>
          <azimuth>329.7</azimuth>
          <timeResidual>-0.07</timeResidual>
          <creationInfo>
            <agencyID>UW</agencyID>
            <creationTime>2012-02-27T17:22:27.000000Z</creationTime>
          </creationInfo>
        </arrival>
        <arrival publicID="quakeml:uw.anss.org/AssocArO/UW/4135528">
          <pickID>quakeml:uw.anss.org/Arrival/UW/4135528</pickID>
          <phase>S</phase>
          <azimuth>329.7</azimuth>
          <timeResidual>-0.02</timeResidual>
          <creationInfo>
            <agencyID>UW</agencyID>
            <creationTime>2012-02-27T17:22:27.000000Z</creationTime>
          </creationInfo>
        </arrival>
        <arrival publicID="quakeml:uw.anss.org/AssocArO/UW/4135533">
          <pickID>quakeml:uw.anss.org/Arrival/UW/4135533</pickID>
          <phase>P</phase>
          <azimuth>134.4</azimuth>
          <distance>1.759</distance>
          <timeResidual>0.86</timeResidual>
          <creationInfo>
            <agencyID>UW</agencyID>
            <creationTime>2012-02-27T17:22:27.000000Z</creationTime>
          </creationInfo>
        </arrival>
        <arrival publicID="quakeml:uw.anss.org/AssocArO/UW/4135538">
          <pickID>quakeml:uw.anss.org/Arrival/UW/4135538</pickID>
          <phase>P</phase>
          <azimuth>156.0</azimuth>
          <distance>2.308</distance>
          <timeResidual>-0.43</timeResidual>
          <creationInfo>
            <agencyID>UW</agencyID>
            <creationTime>2012-02-27T17:22:27.000000Z</creationTime>
          </creationInfo>
        </arrival>
        <arrival publicID="quakeml:uw.anss.org/AssocArO/UW/4135543">
          <pickID>quakeml:uw.anss.org/Arrival/UW/4135543</pickID>
          <phase>P</phase>
          <azimuth>207.1</azimuth>
          <distance>1.712</distance>
          <timeResidual>0.61</timeResidual>
          <creationInfo>
            <agencyID>UW</agencyID>
            <creationTime>2012-02-27T17:22:27.000000Z</creationTime>
          </creationInfo>
        </arrival>
        <arrival publicID="quakeml:uw.anss.org/AssocArO/UW/4135548">
          <pickID>quakeml:uw.anss.org/Arrival/UW/4135548</pickID>
          <phase>P</phase>
          <azimuth>170.9</azimuth>
          <distance>2.001</distance>
          <timeResidual>0.21</timeResidual>
          <creationInfo>
            <agencyID>UW</agencyID>
            <creationTime>2012-02-27T17:22:27.000000Z</creationTime>
          </creationInfo>
        </arrival>
        <arrival publicID="quakeml:uw.anss.org/AssocArO/UW/4135553">
          <pickID>quakeml:uw.anss.org/Arrival/UW/4135553</pickID>
          <phase>P</phase>
          <azimuth>108.7</azimuth>
          <distance>2.835</distance>
          <timeResidual>4.84</timeResidual>
          <creationInfo>
            <agencyID>UW</agencyID>
            <creationTime>2012-02-27T17:22:27.000000Z</creationTime>
          </creationInfo>
        </arrival>
        <arrival publicID="quakeml:uw.anss.org/AssocArO/UW/4135558">
          <pickID>quakeml:uw.anss.org/Arrival/UW/4135558</pickID>
          <phase>P</phase>
          <timeResidual>0.58</timeResidual>
          <creationInfo>
            <agencyID>UW</agencyID>
            <creationTime>2012-02-27T17:22:27.000000Z</creationTime>
          </creationInfo>
        </arrival>
        <arrival publicID="quakeml:uw.anss.org/AssocArO/UW/4135563">
          <pickID>quakeml:uw.anss.org/Arrival/UW/4135563</pickID>
          <phase>S</phase>
          <timeResidual>1.65</timeResidual>
          <creationInfo>
            <agencyID>UW</agencyID>
            <creationTime>2012-02-27T17:22:27.000000Z</creationTime>
          </creationInfo>
        </arrival>
        <arrival publicID="quakeml:uw.anss.org/AssocArO/UW/4135568">
          <pickID>quakeml:uw.anss.org/Arrival/UW/4135568</pickID>
          <phase>P</phase>
          <azimuth>129.7</azimuth>
          <distance>2.292</distance>
          <timeResidual>2.08</timeResidual>
          <creationInfo>
            <agencyID>UW</agencyID>
            <creationTime>2012-02-27T17:22:27.000000Z</creationTime>
          </creationInfo>
        </arrival>
        <arrival publicID="quakeml:uw.anss.org/AssocArO/UW/4135573">
          <pickID>quakeml:uw.anss.org/Arrival/UW/4135573</pickID>
          <phase>P</phase>
          <azimuth>180.0</azimuth>
          <distance>2.385</distance>
          <timeResidual>0.39</timeResidual>
          <creationInfo>
            <agencyID>UW</agencyID>
            <creationTime>2012-02-27T17:22:27.000000Z</creationTime>
          </creationInfo>
        </arrival>
        <arrival publicID="quakeml:uw.anss.org/AssocArO/UW/4135578">
          <pickID>quakeml:uw.anss.org/Arrival/UW/4135578</pickID>
          <phase>P</phase>
          <azimuth>170.6</azimuth>
          <timeResidual>0.02</timeResidual>
          <creationInfo>
            <agencyID>UW</agencyID>
            <creationTime>2012-02-27T17:22:27.000000Z</creationTime>
          </creationInfo>
        </arrival>
        <arrival publicID="quakeml:uw.anss.org/AssocArO/UW/4135583">
          <pickID>quakeml:uw.anss.org/Arrival/UW/4135583</pickID>
          <phase>P</phase>
          <timeResidual>-0.98</timeResidual>
          <creationInfo>
            <agencyID>UW</agencyID>
            <creationTime>2012-02-27T17:22:27.000000Z</creationTime>
          </creationInfo>
        </arrival>
        <arrival publicID="quakeml:uw.anss.org/AssocArO/UW/4135588">
          <pickID>quakeml:uw.anss.org/Arrival/UW/4135588</pickID>
          <phase>P</phase>
          <azimuth>175.5</azimuth>
          <distance>1.91</distance>
          <timeResidual>-0.02</timeResidual>
          <creationInfo>
            <agencyID>UW</agencyID>
            <creationTime>2012-02-27T17:22:27.000000Z</creationTime>
          </creationInfo>
        </arrival>
        <arrival publicID="quakeml:uw.anss.org/AssocArO/UW/4135593">
          <pickID>quakeml:uw.anss.org/Arrival/UW/4135593</pickID>
          <phase>S</phase>
          <azimuth>175.5</azimuth>
          <distance>1.91</distance>
          <timeResidual>-0.64</timeResidual>
          <creationInfo>
            <agencyID>UW</agencyID>
            <creationTime>2012-02-27T17:22:27.000000Z</creationTime>
          </creationInfo>
        </arrival>
        <arrival publicID="quakeml:uw.anss.org/AssocArO/UW/4135598">
          <pickID>quakeml:uw.anss.org/Arrival/UW/4135598</pickID>
          <phase>P</phase>
          <azimuth>172.8</azimuth>
          <distance>2.113</distance>
          <timeResidual>-0.23</timeResidual>
          <creationInfo>
            <agencyID>UW</agencyID>
            <creationTime>2012-02-27T17:22:27.000000Z</creationTime>
          </creationInfo>
        </arrival>
        <arrival publicID="quakeml:uw.anss.org/AssocArO/UW/4135603">
          <pickID>quakeml:uw.anss.org/Arrival/UW/4135603</pickID>
          <phase>P</phase>
          <timeResidual>-0.08</timeResidual>
          <creationInfo>
            <agencyID>UW</agencyID>
            <creationTime>2012-02-27T17:22:27.000000Z</creationTime>
          </creationInfo>
        </arrival>
        <arrival publicID="quakeml:uw.anss.org/AssocArO/UW/4135608">
          <pickID>quakeml:uw.anss.org/Arrival/UW/4135608</pickID>
          <phase>P</phase>
          <azimuth>131.3</azimuth>
          <distance>0.602</distance>
          <timeResidual>-0.53</timeResidual>
          <creationInfo>
            <agencyID>UW</agencyID>
            <creationTime>2012-02-27T17:22:27.000000Z</creationTime>
          </creationInfo>
        </arrival>
        <arrival publicID="quakeml:uw.anss.org/AssocArO/UW/4135613">
          <pickID>quakeml:uw.anss.org/Arrival/UW/4135613</pickID>
          <phase>S</phase>
          <azimuth>131.3</azimuth>
          <distance>0.602</distance>
          <timeResidual>-0.38</timeResidual>
          <creationInfo>
            <agencyID>UW</agencyID>
            <creationTime>2012-02-27T17:22:27.000000Z</creationTime>
          </creationInfo>
        </arrival>
        <arrival publicID="quakeml:uw.anss.org/AssocArO/UW/4135618">
          <pickID>quakeml:uw.anss.org/Arrival/UW/4135618</pickID>
          <phase>P</phase>
          <azimuth>222.0</azimuth>
          <timeResidual>1.92</timeResidual>
          <creationInfo>
            <agencyID>UW</agencyID>
            <creationTime>2012-02-27T17:22:27.000000Z</creationTime>
          </creationInfo>
        </arrival>
        <arrival publicID="quakeml:uw.anss.org/AssocArO/UW/4135623">
          <pickID>quakeml:uw.anss.org/Arrival/UW/4135623</pickID>
          <phase>P</phase>
          <azimuth>308.2</azimuth>
          <timeResidual>-0.44</timeResidual>
          <creationInfo>
            <agencyID>UW</agencyID>
            <creationTime>2012-02-27T17:22:27.000000Z</creationTime>
          </creationInfo>
        </arrival>
        <arrival publicID="quakeml:uw.anss.org/AssocArO/UW/4135628">
          <pickID>quakeml:uw.anss.org/Arrival/UW/4135628</pickID>
          <phase>P</phase>
          <azimuth>194.9</azimuth>
          <distance>1.061</distance>
          <timeResidual>0.63</timeResidual>
          <creationInfo>
            <agencyID>UW</agencyID>
            <creationTime>2012-02-27T17:22:27.000000Z</creationTime>
          </creationInfo>
        </arrival>
        <arrival publicID="quakeml:uw.anss.org/AssocArO/UW/4135633">
          <pickID>quakeml:uw.anss.org/Arrival/UW/4135633</pickID>
          <phase>P</phase>
          <azimuth>203.3</azimuth>
          <distance>0.5701</distance>
          <timeResidual>0.52</timeResidual>
          <creationInfo>
            <agencyID>UW</agencyID>
            <creationTime>2012-02-27T17:22:27.000000Z</creationTime>
          </creationInfo>
        </arrival>
        <arrival publicID="quakeml:uw.anss.org/AssocArO/UW/4135638">
          <pickID>quakeml:uw.anss.org/Arrival/UW/4135638</pickID>
          <phase>P</phase>
          <azimuth>224.8</azimuth>
          <distance>1.442</distance>
          <timeResidual>-0.03</timeResidual>
          <creationInfo>
            <agencyID>UW</agencyID>
            <creationTime>2012-02-27T17:22:27.000000Z</creationTime>
          </creationInfo>
        </arrival>
        <arrival publicID="quakeml:uw.anss.org/AssocArO/UW/4135643">
          <pickID>quakeml:uw.anss.org/Arrival/UW/4135643</pickID>
          <phase>P</phase>
          <azimuth>320.8</azimuth>
          <timeResidual>-0.17</timeResidual>
          <creationInfo>
            <agencyID>UW</agencyID>
            <creationTime>2012-02-27T17:22:27.000000Z</creationTime>
          </creationInfo>
        </arrival>
        <arrival publicID="quakeml:uw.anss.org/AssocArO/UW/4135648">
          <pickID>quakeml:uw.anss.org/Arrival/UW/4135648</pickID>
          <phase>P</phase>
          <azimuth>182.3</azimuth>
          <distance>2.544</distance>
          <timeResidual>0.27</timeResidual>
          <creationInfo>
            <agencyID>UW</agencyID>
            <creationTime>2012-02-27T17:22:27.000000Z</creationTime>
          </creationInfo>
        </arrival>
        <arrival publicID="quakeml:uw.anss.org/AssocArO/UW/4135653">
          <pickID>quakeml:uw.anss.org/Arrival/UW/4135653</pickID>
          <phase>P</phase>
          <azimuth>164.7</azimuth>
          <timeResidual>-0.29</timeResidual>
          <creationInfo>
            <agencyID>UW</agencyID>
            <creationTime>2012-02-27T17:22:27.000000Z</creationTime>
          </creationInfo>
        </arrival>
        <arrival publicID="quakeml:uw.anss.org/AssocArO/UW/4135658">
          <pickID>quakeml:uw.anss.org/Arrival/UW/4135658</pickID>
          <phase>S</phase>
          <azimuth>164.7</azimuth>
          <timeResidual>1.34</timeResidual>
          <creationInfo>
            <agencyID>UW</agencyID>
            <creationTime>2012-02-27T17:22:27.000000Z</creationTime>
          </creationInfo>
        </arrival>
        <arrival publicID="quakeml:uw.anss.org/AssocArO/UW/4135663">
          <pickID>quakeml:uw.anss.org/Arrival/UW/4135663</pickID>
          <phase>P</phase>
          <azimuth>150.0</azimuth>
          <distance>2.226</distance>
          <timeResidual>-0.67</timeResidual>
          <creationInfo>
            <agencyID>UW</agencyID>
            <creationTime>2012-02-27T17:22:27.000000Z</creationTime>
          </creationInfo>
        </arrival>
        <arrival publicID="quakeml:uw.anss.org/AssocArO/UW/4135668">
          <pickID>quakeml:uw.anss.org/Arrival/UW/4135668</pickID>
          <phase>P</phase>
          <azimuth>150.0</azimuth>
          <timeResidual>0.19</timeResidual>
          <creationInfo>
            <agencyID>UW</agencyID>
            <creationTime>2012-02-27T17:22:27.000000Z</creationTime>
          </creationInfo>
        </arrival>
        <arrival publicID="quakeml:uw.anss.org/AssocArO/UW/4135673">
          <pickID>quakeml:uw.anss.org/Arrival/UW/4135673</pickID>
          <phase>P</phase>
          <azimuth>169.4</azimuth>
          <timeResidual>-0.08</timeResidual>
          <creationInfo>
            <agencyID>UW</agencyID>
            <creationTime>2012-02-27T17:22:27.000000Z</creationTime>
          </creationInfo>
        </arrival>
        <arrival publicID="quakeml:uw.anss.org/AssocArO/UW/4135678">
          <pickID>quakeml:uw.anss.org/Arrival/UW/4135678</pickID>
          <phase>S</phase>
          <azimuth>169.4</azimuth>
          <timeResidual>-0.62</timeResidual>
          <creationInfo>
            <agencyID>UW</agencyID>
            <creationTime>2012-02-27T17:22:27.000000Z</creationTime>
          </creationInfo>
        </arrival>
        <arrival publicID="quakeml:uw.anss.org/AssocArO/UW/4135683">
          <pickID>quakeml:uw.anss.org/Arrival/UW/4135683</pickID>
          <phase>P</phase>
          <azimuth>120.8</azimuth>
          <distance>2.753</distance>
          <timeResidual>4.23</timeResidual>
          <creationInfo>
            <agencyID>UW</agencyID>
            <creationTime>2012-02-27T17:22:27.000000Z</creationTime>
          </creationInfo>
        </arrival>
        <arrival publicID="quakeml:uw.anss.org/AssocArO/UW/4135688">
          <pickID>quakeml:uw.anss.org/Arrival/UW/4135688</pickID>
          <phase>P</phase>
          <azimuth>117.3</azimuth>
          <distance>1.829</distance>
          <timeResidual>2.26</timeResidual>
          <creationInfo>
            <agencyID>UW</agencyID>
            <creationTime>2012-02-27T17:22:27.000000Z</creationTime>
          </creationInfo>
        </arrival>
        <arrival publicID="quakeml:uw.anss.org/AssocArO/UW/4135693">
          <pickID>quakeml:uw.anss.org/Arrival/UW/4135693</pickID>
          <phase>P</phase>
          <timeResidual>0.14</timeResidual>
          <creationInfo>
            <agencyID>UW</agencyID>
            <creationTime>2012-02-27T17:22:27.000000Z</creationTime>
          </creationInfo>
        </arrival>
        <arrival publicID="quakeml:uw.anss.org/AssocArO/UW/4135698">
          <pickID>quakeml:uw.anss.org/Arrival/UW/4135698</pickID>
          <phase>S</phase>
          <timeResidual>-0.39</timeResidual>
          <creationInfo>
            <agencyID>UW</agencyID>
