<?xml version='1.0' encoding='utf-8'?>
<q:quakeml xmlns="http://quakeml.org/xmlns/bed/1.2" xmlns:q="http://quakeml.org/xmlns/quakeml/1.2" xmlns:ns0="http://anss.org/xmlns/catalog/0.1">
  <eventParameters publicID="smi:local/e36b2c7f-9fb2-4f2b-98b0-34eef0d60321">
    <event publicID="quakeml:uw.anss.org/Event/UW/10276753" ns0:datasource="uw" ns0:dataid="uw10276753" ns0:eventsource="uw" ns0:eventid="10276753">
      <preferredOriginID>quakeml:uw.anss.org/Origin/UW/553698</preferredOriginID>
      <preferredMagnitudeID>quakeml:uw.anss.org/Netmag/UW/464253</preferredMagnitudeID>
      <type>earthquake</type>
      <creationInfo>
        <agencyID>UW</agencyID>
        <creationTime>2012-02-27T17:27:36.000000Z</creationTime>
        <version>3</version>
      </creationInfo>
      <origin publicID="quakeml:uw.anss.org/Origin/UW/553698" ns0:datasource="uw" ns0:dataid="uw10276753" ns0:eventsource="uw" ns0:eventid="10276753">
        <time>
          <value>1991-07-09T22:57:23.360000Z</value>
          <uncertainty>1.02</uncertainty>
        </time>
        <latitude>
          <value>48.8413333</value>
          <uncertainty>0.66</uncertainty>
        </latitude>
        <longitude>
          <value>-122.1693333</value>
          <uncertainty>1.31</uncertainty>
        </longitude>
        <depth>
          <value>701.0</value>
          <uncertainty>8020.0</uncertainty>
        </depth>
        <depthType>operator assigned</depthType>
        <timeFixed>false</timeFixed>
        <epicenterFixed>true</epicenterFixed>
        <methodID>smi:uw.anss.org/origin/spong</methodID>
        <quality>
          <associatedPhaseCount>34</associatedPhaseCount>
          <usedPhaseCount>22</usedPhaseCount>
          <associatedStationCount>22</associatedStationCount>
          <usedStationCount>0</usedStationCount>
          <standardError>0.44</standardError>
          <azimuthalGap>94.0</azimuthalGap>
        </quality>
        <type>hypocenter</type>
        <evaluationMode>manual</evaluationMode>
        <evaluationStatus>final</evaluationStatus>
        <creationInfo>
          <agencyID>UW</agencyID>
          <creationTime>2012-02-27T17:27:36.000000Z</creationTime>
        </creationInfo>
        <originUncertainty>
          <preferredDescription>horizontal uncertainty</preferredDescription>
          <horizontalUncertainty>1467.0</horizontalUncertainty>
        </originUncertainty>
        <arrival publicID="quakeml:uw.anss.org/AssocArO/UW/4183913">
          <pickID>quakeml:uw.anss.org/Arrival/UW/4183913</pickID>
          <phase>P</phase>
          <azimuth>288.3</azimuth>
          <timeResidual>0.01</timeResidual>
          <creationInfo>
            <agencyID>UW</agencyID>
            <creationTime>2012-02-27T17:27:36.000000Z</creationTime>
          </creationInfo>
        </arrival>
        <arrival publicID="quakeml:uw.anss.org/AssocArO/UW/4183923">
          <pickID>quakeml:uw.anss.org/Arrival/UW/4183923</pickID>
          <phase>S</phase>
          <azimuth>288.3</azimuth>
          <timeResidual>-1.34</timeResidual>
          <creationInfo>
            <agencyID>UW</agencyID>
            <creationTime>2012-02-27T17:27:36.000000Z</creationTime>
          </creationInfo>
        </arrival>
        <arrival publicID="quakeml:uw.anss.org/AssocArO/UW/4183933">
          <pickID>quakeml:uw.anss.org/Arrival/UW/4183933</pickID>
          <phase>P</phase>
          <azimuth>121.8</azimuth>
          <distance>1.441</distance>
          <timeResidual>1.11</timeResidual>
          <creationInfo>
            <agencyID>UW</agencyID>
            <creationTime>2012-02-27T17:27:36.000000Z</creationTime>
          </creationInfo>
        </arrival>
        <arrival publicID="quakeml:uw.anss.org/AssocArO/UW/4183938">
          <pickID>quakeml:uw.anss.org/Arrival/UW/4183938</pickID>
          <phase>P</phase>
          <azimuth>328.3</azimuth>
          <timeResidual>-0.15</timeResidual>
          <creationInfo>
            <agencyID>UW</agencyID>
            <creationTime>2012-02-27T17:27:36.000000Z</creationTime>
          </creationInfo>
        </arrival>
        <arrival publicID="quakeml:uw.anss.org/AssocArO/UW/4183948">
          <pickID>quakeml:uw.anss.org/Arrival/UW/4183948</pickID>
          <phase>S</phase>
          <azimuth>328.3</azimuth>
          <timeResidual>-0.25</timeResidual>
          <creationInfo>
            <agencyID>UW</agencyID>
            <creationTime>2012-02-27T17:27:36.000000Z</creationTime>
          </creationInfo>
        </arrival>
        <arrival publicID="quakeml:uw.anss.org/AssocArO/UW/4183958">
          <pickID>quakeml:uw.anss.org/Arrival/UW/4183958</pickID>
          <phase>P</phase>
          <azimuth>134.6</azimuth>
          <distance>1.744</distance>
          <timeResidual>0.85</timeResidual>
          <creationInfo>
            <agencyID>UW</agencyID>
            <creationTime>2012-02-27T17:27:36.000000Z</creationTime>
          </creationInfo>
        </arrival>
        <arrival publicID="quakeml:uw.anss.org/AssocArO/UW/4183968">
          <pickID>quakeml:uw.anss.org/Arrival/UW/4183968</pickID>
          <phase>P</phase>
          <timeResidual>0.3</timeResidual>
          <creationInfo>
            <agencyID>UW</agencyID>
            <creationTime>2012-02-27T17:27:36.000000Z</creationTime>
          </creationInfo>
        </arrival>
        <arrival publicID="quakeml:uw.anss.org/AssocArO/UW/4183973">
          <pickID>quakeml:uw.anss.org/Arrival/UW/4183973</pickID>
          <phase>S</phase>
          <timeResidual>1.17</timeResidual>
          <creationInfo>
            <agencyID>UW</agencyID>
            <creationTime>2012-02-27T17:27:36.000000Z</creationTime>
          </creationInfo>
        </arrival>
        <arrival publicID="quakeml:uw.anss.org/AssocArO/UW/4183978">
          <pickID>quakeml:uw.anss.org/Arrival/UW/4183978</pickID>
          <phase>P</phase>
          <azimuth>171.2</azimuth>
          <timeResidual>0.98</timeResidual>
          <creationInfo>
            <agencyID>UW</agencyID>
            <creationTime>2012-02-27T17:27:36.000000Z</creationTime>
          </creationInfo>
        </arrival>
        <arrival publicID="quakeml:uw.anss.org/AssocArO/UW/4183988">
          <pickID>quakeml:uw.anss.org/Arrival/UW/4183988</pickID>
          <phase>S</phase>
          <azimuth>171.2</azimuth>
          <timeResidual>0.15</timeResidual>
          <creationInfo>
            <agencyID>UW</agencyID>
            <creationTime>2012-02-27T17:27:36.000000Z</creationTime>
          </creationInfo>
        </arrival>
        <arrival publicID="quakeml:uw.anss.org/AssocArO/UW/4183998">
          <pickID>quakeml:uw.anss.org/Arrival/UW/4183998</pickID>
          <phase>P</phase>
          <timeResidual>0.43</timeResidual>
          <creationInfo>
            <agencyID>UW</agencyID>
            <creationTime>2012-02-27T17:27:36.000000Z</creationTime>
          </creationInfo>
        </arrival>
        <arrival publicID="quakeml:uw.anss.org/AssocArO/UW/4184008">
          <pickID>quakeml:uw.anss.org/Arrival/UW/4184008</pickID>
          <phase>P</phase>
          <azimuth>132.0</azimuth>
          <distance>0.5859</distance>
          <timeResidual>-0.06</timeResidual>
          <creationInfo>
            <agencyID>UW</agencyID>
            <creationTime>2012-02-27T17:27:36.000000Z</creationTime>
          </creationInfo>
        </arrival>
        <arrival publicID="quakeml:uw.anss.org/AssocArO/UW/4184013">
          <pickID>quakeml:uw.anss.org/Arrival/UW/4184013</pickID>
          <phase>S</phase>
          <azimuth>132.0</azimuth>
          <distance>0.5859</distance>
          <timeResidual>-0.07</timeResidual>
          <creationInfo>
            <agencyID>UW</agencyID>
            <creationTime>2012-02-27T17:27:36.000000Z</creationTime>
          </creationInfo>
        </arrival>
        <arrival publicID="quakeml:uw.anss.org/AssocArO/UW/4184028">
          <pickID>quakeml:uw.anss.org/Arrival/UW/4184028</pickID>
          <phase>P</phase>
          <azimuth>307.8</azimuth>
          <timeResidual>-0.17</timeResidual>
          <creationInfo>
            <agencyID>UW</agencyID>
            <creationTime>2012-02-27T17:27:36.000000Z</creationTime>
          </creationInfo>
        </arrival>
        <arrival publicID="quakeml:uw.anss.org/AssocArO/UW/4184033">
          <pickID>quakeml:uw.anss.org/Arrival/UW/4184033</pickID>
          <phase>P</phase>
          <azimuth>107.9</azimuth>
          <distance>0.1866</distance>
          <timeResidual>-0.14</timeResidual>
          <creationInfo>
            <agencyID>UW</agencyID>
            <creationTime>2012-02-27T17:27:36.000000Z</creationTime>
          </creationInfo>
        </arrival>
        <arrival publicID="quakeml:uw.anss.org/AssocArO/UW/4184043">
          <pickID>quakeml:uw.anss.org/Arrival/UW/4184043</pickID>
          <phase>S</phase>
          <azimuth>107.9</azimuth>
          <distance>0.1866</distance>
          <timeResidual>0.53</timeResidual>
          <creationInfo>
            <agencyID>UW</agencyID>
            <creationTime>2012-02-27T17:27:36.000000Z</creationTime>
          </creationInfo>
        </arrival>
        <arrival publicID="quakeml:uw.anss.org/AssocArO/UW/4184073">
          <pickID>quakeml:uw.anss.org/Arrival/UW/4184073</pickID>
          <phase>P</phase>
          <azimuth>320.3</azimuth>
          <timeResidual>-0.02</timeResidual>
          <creationInfo>
            <agencyID>UW</agencyID>
            <creationTime>2012-02-27T17:27:36.000000Z</creationTime>
          </creationInfo>
        </arrival>
        <arrival publicID="quakeml:uw.anss.org/AssocArO/UW/4184083">
          <pickID>quakeml:uw.anss.org/Arrival/UW/4184083</pickID>
          <phase>P</phase>
          <azimuth>166.0</azimuth>
          <timeResidual>0.15</timeResidual>
          <creationInfo>
            <agencyID>UW</agencyID>
            <creationTime>2012-02-27T17:27:36.000000Z</creationTime>
          </creationInfo>
        </arrival>
        <arrival publicID="quakeml:uw.anss.org/AssocArO/UW/4184093">
          <pickID>quakeml:uw.anss.org/Arrival/UW/4184093</pickID>
          <phase>S</phase>
          <azimuth>166.0</azimuth>
          <timeResidual>1.14</timeResidual>
          <creationInfo>
            <agencyID>UW</agencyID>
            <creationTime>2012-02-27T17:27:36.000000Z</creationTime>
          </creationInfo>
        </arrival>
        <arrival publicID="quakeml:uw.anss.org/AssocArO/UW/4184113">
          <pickID>quakeml:uw.anss.org/Arrival/UW/4184113</pickID>
          <phase>P</phase>
          <azimuth>169.8</azimuth>
          <timeResidual>0.58</timeResidual>
          <creationInfo>
            <agencyID>UW</agencyID>
            <creationTime>2012-02-27T17:27:36.000000Z</creationTime>
          </creationInfo>
        </arrival>
        <arrival publicID="quakeml:uw.anss.org/AssocArO/UW/4184123">
          <pickID>quakeml:uw.anss.org/Arrival/UW/4184123</pickID>
          <phase>S</phase>
          <azimuth>169.8</azimuth>
          <timeResidual>-0.25</timeResidual>
          <creationInfo>
            <agencyID>UW</agencyID>
            <creationTime>2012-02-27T17:27:36.000000Z</creationTime>
          </creationInfo>
        </arrival>
        <arrival publicID="quakeml:uw.anss.org/AssocArO/UW/4184128">
          <pickID>quakeml:uw.anss.org/Arrival/UW/4184128</pickID>
          <phase>P</phase>
          <azimuth>117.4</azimuth>
          <distance>1.812</distance>
          <timeResidual>2.38</timeResidual>
          <creationInfo>
            <agencyID>UW</agencyID>
            <creationTime>2012-02-27T17:27:36.000000Z</creationTime>
          </creationInfo>
        </arrival>
        <arrival publicID="quakeml:uw.anss.org/AssocArO/UW/4184133">
          <pickID>quakeml:uw.anss.org/Arrival/UW/4184133</pickID>
          <phase>S</phase>
          <azimuth>117.4</azimuth>
          <distance>1.812</distance>
          <timeResidual>1.73</timeResidual>
          <creationInfo>
            <agencyID>UW</agencyID>
            <creationTime>2012-02-27T17:27:36.000000Z</creationTime>
          </creationInfo>
        </arrival>
        <arrival publicID="quakeml:uw.anss.org/AssocArO/UW/4184148">
          <pickID>quakeml:uw.anss.org/Arrival/UW/4184148</pickID>
          <phase>P</phase>
          <timeResidual>0.15</timeResidual>
          <creationInfo>
            <agencyID>UW</agencyID>
            <creationTime>2012-02-27T17:27:36.000000Z</creationTime>
          </creationInfo>
        </arrival>
        <arrival publicID="quakeml:uw.anss.org/AssocArO/UW/4184163">
          <pickID>quakeml:uw.anss.org/Arrival/UW/4184163</pickID>
          <phase>P</phase>
          <azimuth>235.8</azimuth>
          <timeResidual>0.04</timeResidual>
          <creationInfo>
            <agencyID>UW</agencyID>
            <creationTime>2012-02-27T17:27:36.000000Z</creationTime>
          </creationInfo>
        </arrival>
        <arrival publicID="quakeml:uw.anss.org/AssocArO/UW/4184173">
          <pickID>quakeml:uw.anss.org/Arrival/UW/4184173</pickID>
          <phase>S</phase>
          <azimuth>235.8</azimuth>
          <timeResidual>-0.65</timeResidual>
          <creationInfo>
            <agencyID>UW</agencyID>
            <creationTime>2012-02-27T17:27:37.000000Z</creationTime>
          </creationInfo>
        </arrival>
        <arrival publicID="quakeml:uw.anss.org/AssocArO/UW/4184178">
          <pickID>quakeml:uw.anss.org/Arrival/UW/4184178</pickID>
          <phase>P</phase>
          <timeResidual>0.38</timeResidual>
          <creationInfo>
            <agencyID>UW</agencyID>
            <creationTime>2012-02-27T17:27:37.000000Z</creationTime>
          </creationInfo>
        </arrival>
        <arrival publicID="quakeml:uw.anss.org/AssocArO/UW/4184183">
          <pickID>quakeml:uw.anss.org/Arrival/UW/4184183</pickID>
          <phase>S</phase>
          <timeResidual>0.17</timeResidual>
          <creationInfo>
            <agencyID>UW</agencyID>
            <creationTime>2012-02-27T17:27:37.000000Z</creationTime>
          </creationInfo>
        </arrival>
        <arrival publicID="quakeml:uw.anss.org/AssocArO/UW/4184193">
          <pickID>quakeml:uw.anss.org/Arrival/UW/4184193</pickID>
          <phase>P</phase>
          <azimuth>169.9</azimuth>
          <distance>1.404</distance>
          <timeResidual>0.74</timeResidual>
          <creationInfo>
            <agencyID>UW</agencyID>
            <creationTime>2012-02-27T17:27:37.000000Z</creationTime>
          </creationInfo>
        </arrival>
        <arrival publicID="quakeml:uw.anss.org/AssocArO/UW/4184198">
          <pickID>quakeml:uw.anss.org/Arrival/UW/4184198</pickID>
          <phase>P</phase>
          <azimuth>182.2</azimuth>
          <distance>2.176</distance>
          <timeResidual>0.73</timeResidual>
          <creationInfo>
            <agencyID>UW</agencyID>
            <creationTime>2012-02-27T17:27:37.000000Z</creationTime>
          </creationInfo>
        </arrival>
        <arrival publicID="quakeml:uw.anss.org/AssocArO/UW/4184208">
          <pickID>quakeml:uw.anss.org/Arrival/UW/4184208</pickID>
          <phase>P</phase>
          <azimuth>165.5</azimuth>
          <distance>1.072</distance>
          <timeResidual>0.83</timeResidual>
          <creationInfo>
            <agencyID>UW</agencyID>
            <creationTime>2012-02-27T17:27:37.000000Z</creationTime>
          </creationInfo>
        </arrival>
        <arrival publicID="quakeml:uw.anss.org/AssocArO/UW/4184213">
          <pickID>quakeml:uw.anss.org/Arrival/UW/4184213</pickID>
          <phase>P</phase>
          <azimuth>147.3</azimuth>
          <distance>1.977</distance>
          <timeResidual>1.23</timeResidual>
          <creationInfo>
            <agencyID>UW</agencyID>
            <creationTime>2012-02-27T17:27:37.000000Z</creationTime>
          </creationInfo>
        </arrival>
        <arrival publicID="quakeml:uw.anss.org/AssocArO/UW/4184218">
          <pickID>quakeml:uw.anss.org/Arrival/UW/4184218</pickID>
          <phase>P</phase>
          <azimuth>249.9</azimuth>
          <distance>0.468</distance>
          <timeResidual>0.14</timeResidual>
          <creationInfo>
            <agencyID>UW</agencyID>
            <creationTime>2012-02-27T17:27:37.000000Z</creationTime>
          </creationInfo>
        </arrival>
        <arrival publicID="quakeml:uw.anss.org/AssocArO/UW/4184223">
          <pickID>quakeml:uw.anss.org/Arrival/UW/4184223</pickID>
          <phase>S</phase>
          <azimuth>249.9</azimuth>
          <distance>0.468</distance>
          <timeResidual>0.35</timeResidual>
          <creationInfo>
            <agencyID>UW</agencyID>
            <creationTime>2012-02-27T17:27:37.000000Z</creationTime>
          </creationInfo>
        </arrival>
      </origin>
      <magnitude publicID="quakeml:uw.anss.org/Netmag/UW/464253">
        <mag>
          <value>1.8</value>
          <uncertainty>0.08</uncertainty>
        </mag>
        <type>Md</type>
        <originID>quakeml:uw.anss.org/Origin/UW/553698</originID>
        <methodID>smi:uw.anss.org/magnitude/Crosson</methodID>
        <stationCount>4</stationCount>
        <evaluationMode>manual</evaluationMode>
        <evaluationStatus>final</evaluationStatus>
        <stationMagnitudeContribution>
          <stationMagnitudeID>quakeml:uw.anss.org/AssocCoM/UW/1163388</stationMagnitudeID>
          <weight>1.0</weight>
          <residual>-0.14</residual>
        </stationMagnitudeContribution>
        <stationMagnitudeContribution>
          <stationMagnitudeID>quakeml:uw.anss.org/AssocCoM/UW/1163338</stationMagnitudeID>
          <weight>1.0</weight>
          <residual>-0.22</residual>
        </stationMagnitudeContribution>
        <stationMagnitudeContribution>
          <stationMagnitudeID>quakeml:uw.anss.org/AssocCoM/UW/1163368</stationMagnitudeID>
          <weight>1.0</weight>
          <residual>0.09</residual>
        </stationMagnitudeContribution>
        <stationMagnitudeContribution>
          <stationMagnitudeID>quakeml:uw.anss.org/AssocCoM/UW/1163353</stationMagnitudeID>
          <weight>1.0</weight>
          <residual>0.06</residual>
        </stationMagnitudeContribution>
        <creationInfo>
          <agencyID>UW</agencyID>
          <creationTime>2012-02-27T17:27:36.000000Z</creationTime>
        </creationInfo>
      </magnitude>
      <stationMagnitude publicID="quakeml:uw.anss.org/AssocCoM/UW/1163338">
        <originID>quakeml:uw.anss.org/Origin/UW/553698</originID>
        <mag>
          <value>1.58</value>
        </mag>
        <type>MD</type>
        <amplitudeID>quakeml:uw.anss.org/Coda/UW/1163338</amplitudeID>
        <waveformID networkCode="UW" stationCode="RPW" locationCode="" channelCode="EHZ"></waveformID>
      </stationMagnitude>
      <stationMagnitude publicID="quakeml:uw.anss.org/AssocCoM/UW/1163353">
        <originID>quakeml:uw.anss.org/Origin/UW/553698</originID>
        <mag>
          <value>1.86</value>
        </mag>
        <type>MD</type>
        <amplitudeID>quakeml:uw.anss.org/Coda/UW/1163353</amplitudeID>
        <waveformID networkCode="UW" stationCode="MBW" locationCode="" channelCode="EHZ"></waveformID>
      </stationMagnitude>
      <stationMagnitude publicID="quakeml:uw.anss.org/AssocCoM/UW/1163368">
        <originID>quakeml:uw.anss.org/Origin/UW/553698</originID>
        <mag>
          <value>1.89</value>
        </mag>
        <type>MD</type>
        <amplitudeID>quakeml:uw.anss.org/Coda/UW/1163368</amplitudeID>
        <waveformID networkCode="UW" stationCode="JCW" locationCode="" channelCode="EHZ"></waveformID>
      </stationMagnitude>
      <stationMagnitude publicID="quakeml:uw.anss.org/AssocCoM/UW/1163388">
        <originID>quakeml:uw.anss.org/Origin/UW/553698</originID>
        <mag>
          <value>1.66</value>
        </mag>
        <type>MD</type>
