<?xml version='1.0' encoding='utf-8'?>
<q:quakeml xmlns="http://quakeml.org/xmlns/bed/1.2" xmlns:q="http://quakeml.org/xmlns/quakeml/1.2" xmlns:ns0="http://anss.org/xmlns/catalog/0.1">
  <eventParameters publicID="smi:local/185b6358-846b-4191-995b-c24f2797b18c">
    <event publicID="quakeml:uw.anss.org/Event/UW/10283833" ns0:datasource="uw" ns0:dataid="uw10283833" ns0:eventsource="uw" ns0:eventid="10283833">
      <preferredOriginID>quakeml:uw.anss.org/Origin/UW/560778</preferredOriginID>
      <preferredMagnitudeID>quakeml:uw.anss.org/Netmag/UW/470443</preferredMagnitudeID>
      <type>earthquake</type>
      <creationInfo>
        <agencyID>UW</agencyID>
        <creationTime>2012-02-27T17:51:31.000000Z</creationTime>
        <version>3</version>
      </creationInfo>
      <origin publicID="quakeml:uw.anss.org/Origin/UW/560778" ns0:datasource="uw" ns0:dataid="uw10283833" ns0:eventsource="uw" ns0:eventid="10283833">
        <time>
          <value>1991-11-03T11:44:47.020000Z</value>
          <uncertainty>0.03</uncertainty>
        </time>
        <latitude>
          <value>48.8415</value>
          <uncertainty>0.12</uncertainty>
        </latitude>
        <longitude>
          <value>-122.1968333</value>
          <uncertainty>0.1</uncertainty>
        </longitude>
        <depth>
          <value>-898.0</value>
          <uncertainty>330.0</uncertainty>
        </depth>
        <depthType>operator assigned</depthType>
        <timeFixed>false</timeFixed>
        <epicenterFixed>false</epicenterFixed>
        <methodID>smi:uw.anss.org/origin/spong</methodID>
        <quality>
          <associatedPhaseCount>41</associatedPhaseCount>
          <usedPhaseCount>28</usedPhaseCount>
          <associatedStationCount>32</associatedStationCount>
          <usedStationCount>0</usedStationCount>
          <standardError>0.47</standardError>
          <azimuthalGap>87.0</azimuthalGap>
        </quality>
        <type>hypocenter</type>
        <evaluationMode>manual</evaluationMode>
        <evaluationStatus>final</evaluationStatus>
        <creationInfo>
          <agencyID>UW</agencyID>
          <creationTime>2012-02-27T17:51:31.000000Z</creationTime>
        </creationInfo>
        <originUncertainty>
          <preferredDescription>horizontal uncertainty</preferredDescription>
          <horizontalUncertainty>156.0</horizontalUncertainty>
        </originUncertainty>
        <arrival publicID="quakeml:uw.anss.org/AssocArO/UW/4335178">
          <pickID>quakeml:uw.anss.org/Arrival/UW/4335178</pickID>
          <phase>P</phase>
          <azimuth>288.5</azimuth>
          <timeResidual>-0.29</timeResidual>
          <creationInfo>
            <agencyID>UW</agencyID>
            <creationTime>2012-02-27T17:51:31.000000Z</creationTime>
          </creationInfo>
        </arrival>
        <arrival publicID="quakeml:uw.anss.org/AssocArO/UW/4335183">
          <pickID>quakeml:uw.anss.org/Arrival/UW/4335183</pickID>
          <phase>S</phase>
          <azimuth>288.5</azimuth>
          <timeResidual>-1.34</timeResidual>
          <creationInfo>
            <agencyID>UW</agencyID>
            <creationTime>2012-02-27T17:51:31.000000Z</creationTime>
          </creationInfo>
        </arrival>
        <arrival publicID="quakeml:uw.anss.org/AssocArO/UW/4335188">
          <pickID>quakeml:uw.anss.org/Arrival/UW/4335188</pickID>
          <phase>P</phase>
          <azimuth>205.9</azimuth>
          <distance>1.325</distance>
          <timeResidual>0.06</timeResidual>
          <creationInfo>
            <agencyID>UW</agencyID>
            <creationTime>2012-02-27T17:51:31.000000Z</creationTime>
          </creationInfo>
        </arrival>
        <arrival publicID="quakeml:uw.anss.org/AssocArO/UW/4335193">
          <pickID>quakeml:uw.anss.org/Arrival/UW/4335193</pickID>
          <phase>P</phase>
          <azimuth>121.4</azimuth>
          <distance>1.457</distance>
          <timeResidual>0.93</timeResidual>
          <creationInfo>
            <agencyID>UW</agencyID>
            <creationTime>2012-02-27T17:51:31.000000Z</creationTime>
          </creationInfo>
        </arrival>
        <arrival publicID="quakeml:uw.anss.org/AssocArO/UW/4335198">
          <pickID>quakeml:uw.anss.org/Arrival/UW/4335198</pickID>
          <phase>P</phase>
          <azimuth>330.1</azimuth>
          <timeResidual>-0.16</timeResidual>
          <creationInfo>
            <agencyID>UW</agencyID>
            <creationTime>2012-02-27T17:51:31.000000Z</creationTime>
          </creationInfo>
        </arrival>
        <arrival publicID="quakeml:uw.anss.org/AssocArO/UW/4335203">
          <pickID>quakeml:uw.anss.org/Arrival/UW/4335203</pickID>
          <phase>S</phase>
          <azimuth>330.1</azimuth>
          <timeResidual>-0.12</timeResidual>
          <creationInfo>
            <agencyID>UW</agencyID>
            <creationTime>2012-02-27T17:51:32.000000Z</creationTime>
          </creationInfo>
        </arrival>
        <arrival publicID="quakeml:uw.anss.org/AssocArO/UW/4335228">
          <pickID>quakeml:uw.anss.org/Arrival/UW/4335228</pickID>
          <phase>P</phase>
          <azimuth>134.2</azimuth>
          <distance>1.757</distance>
          <timeResidual>1.57</timeResidual>
          <creationInfo>
            <agencyID>UW</agencyID>
            <creationTime>2012-02-27T17:51:32.000000Z</creationTime>
          </creationInfo>
        </arrival>
        <arrival publicID="quakeml:uw.anss.org/AssocArO/UW/4335238">
          <pickID>quakeml:uw.anss.org/Arrival/UW/4335238</pickID>
          <phase>P</phase>
          <azimuth>155.9</azimuth>
          <distance>2.304</distance>
          <timeResidual>0.24</timeResidual>
          <creationInfo>
            <agencyID>UW</agencyID>
            <creationTime>2012-02-27T17:51:32.000000Z</creationTime>
          </creationInfo>
        </arrival>
        <arrival publicID="quakeml:uw.anss.org/AssocArO/UW/4335243">
          <pickID>quakeml:uw.anss.org/Arrival/UW/4335243</pickID>
          <phase>P</phase>
          <azimuth>173.2</azimuth>
          <timeResidual>0.28</timeResidual>
          <creationInfo>
            <agencyID>UW</agencyID>
            <creationTime>2012-02-27T17:51:32.000000Z</creationTime>
          </creationInfo>
        </arrival>
        <arrival publicID="quakeml:uw.anss.org/AssocArO/UW/4335248">
          <pickID>quakeml:uw.anss.org/Arrival/UW/4335248</pickID>
          <phase>P</phase>
          <timeResidual>0.25</timeResidual>
          <creationInfo>
            <agencyID>UW</agencyID>
            <creationTime>2012-02-27T17:51:32.000000Z</creationTime>
          </creationInfo>
        </arrival>
        <arrival publicID="quakeml:uw.anss.org/AssocArO/UW/4335258">
          <pickID>quakeml:uw.anss.org/Arrival/UW/4335258</pickID>
          <phase>S</phase>
          <timeResidual>1.11</timeResidual>
          <creationInfo>
            <agencyID>UW</agencyID>
            <creationTime>2012-02-27T17:51:32.000000Z</creationTime>
          </creationInfo>
        </arrival>
        <arrival publicID="quakeml:uw.anss.org/AssocArO/UW/4335268">
          <pickID>quakeml:uw.anss.org/Arrival/UW/4335268</pickID>
          <phase>P</phase>
          <azimuth>173.1</azimuth>
          <distance>0.4214</distance>
          <timeResidual>-0.67</timeResidual>
          <creationInfo>
            <agencyID>UW</agencyID>
            <creationTime>2012-02-27T17:51:32.000000Z</creationTime>
          </creationInfo>
        </arrival>
        <arrival publicID="quakeml:uw.anss.org/AssocArO/UW/4335273">
          <pickID>quakeml:uw.anss.org/Arrival/UW/4335273</pickID>
          <phase>S</phase>
          <azimuth>173.1</azimuth>
          <distance>0.4214</distance>
          <timeResidual>0.89</timeResidual>
          <creationInfo>
            <agencyID>UW</agencyID>
            <creationTime>2012-02-27T17:51:32.000000Z</creationTime>
          </creationInfo>
        </arrival>
        <arrival publicID="quakeml:uw.anss.org/AssocArO/UW/4335288">
          <pickID>quakeml:uw.anss.org/Arrival/UW/4335288</pickID>
          <phase>P</phase>
          <azimuth>170.6</azimuth>
          <timeResidual>0.56</timeResidual>
          <creationInfo>
            <agencyID>UW</agencyID>
            <creationTime>2012-02-27T17:51:32.000000Z</creationTime>
          </creationInfo>
        </arrival>
        <arrival publicID="quakeml:uw.anss.org/AssocArO/UW/4335298">
          <pickID>quakeml:uw.anss.org/Arrival/UW/4335298</pickID>
          <phase>P</phase>
          <azimuth>175.4</azimuth>
          <distance>1.905</distance>
          <timeResidual>0.19</timeResidual>
          <creationInfo>
            <agencyID>UW</agencyID>
            <creationTime>2012-02-27T17:51:32.000000Z</creationTime>
          </creationInfo>
        </arrival>
        <arrival publicID="quakeml:uw.anss.org/AssocArO/UW/4335308">
          <pickID>quakeml:uw.anss.org/Arrival/UW/4335308</pickID>
          <phase>P</phase>
          <azimuth>172.8</azimuth>
          <distance>2.108</distance>
          <timeResidual>0.12</timeResidual>
          <creationInfo>
            <agencyID>UW</agencyID>
            <creationTime>2012-02-27T17:51:32.000000Z</creationTime>
          </creationInfo>
        </arrival>
        <arrival publicID="quakeml:uw.anss.org/AssocArO/UW/4335313">
          <pickID>quakeml:uw.anss.org/Arrival/UW/4335313</pickID>
          <phase>P</phase>
          <timeResidual>0.32</timeResidual>
          <creationInfo>
            <agencyID>UW</agencyID>
            <creationTime>2012-02-27T17:51:32.000000Z</creationTime>
          </creationInfo>
        </arrival>
        <arrival publicID="quakeml:uw.anss.org/AssocArO/UW/4335318">
          <pickID>quakeml:uw.anss.org/Arrival/UW/4335318</pickID>
          <phase>P</phase>
          <azimuth>130.9</azimuth>
          <distance>0.5996</distance>
          <timeResidual>-0.12</timeResidual>
          <creationInfo>
            <agencyID>UW</agencyID>
            <creationTime>2012-02-27T17:51:32.000000Z</creationTime>
          </creationInfo>
        </arrival>
        <arrival publicID="quakeml:uw.anss.org/AssocArO/UW/4335323">
          <pickID>quakeml:uw.anss.org/Arrival/UW/4335323</pickID>
          <phase>S</phase>
          <azimuth>130.9</azimuth>
          <distance>0.5996</distance>
          <timeResidual>-0.34</timeResidual>
          <creationInfo>
            <agencyID>UW</agencyID>
            <creationTime>2012-02-27T17:51:32.000000Z</creationTime>
          </creationInfo>
        </arrival>
        <arrival publicID="quakeml:uw.anss.org/AssocArO/UW/4335333">
          <pickID>quakeml:uw.anss.org/Arrival/UW/4335333</pickID>
          <phase>P</phase>
          <azimuth>194.9</azimuth>
          <distance>1.056</distance>
          <timeResidual>0.33</timeResidual>
          <creationInfo>
            <agencyID>UW</agencyID>
            <creationTime>2012-02-27T17:51:32.000000Z</creationTime>
          </creationInfo>
        </arrival>
        <arrival publicID="quakeml:uw.anss.org/AssocArO/UW/4335343">
          <pickID>quakeml:uw.anss.org/Arrival/UW/4335343</pickID>
          <phase>P</phase>
          <azimuth>106.4</azimuth>
          <distance>0.204</distance>
          <timeResidual>-0.32</timeResidual>
          <creationInfo>
            <agencyID>UW</agencyID>
            <creationTime>2012-02-27T17:51:32.000000Z</creationTime>
          </creationInfo>
        </arrival>
        <arrival publicID="quakeml:uw.anss.org/AssocArO/UW/4335358">
          <pickID>quakeml:uw.anss.org/Arrival/UW/4335358</pickID>
          <phase>S</phase>
          <azimuth>106.4</azimuth>
          <distance>0.204</distance>
          <timeResidual>0.14</timeResidual>
          <creationInfo>
            <agencyID>UW</agencyID>
            <creationTime>2012-02-27T17:51:32.000000Z</creationTime>
          </creationInfo>
        </arrival>
        <arrival publicID="quakeml:uw.anss.org/AssocArO/UW/4335378">
          <pickID>quakeml:uw.anss.org/Arrival/UW/4335378</pickID>
          <phase>P</phase>
          <azimuth>224.9</azimuth>
          <distance>1.437</distance>
          <timeResidual>0.78</timeResidual>
          <creationInfo>
            <agencyID>UW</agencyID>
            <creationTime>2012-02-27T17:51:32.000000Z</creationTime>
          </creationInfo>
        </arrival>
        <arrival publicID="quakeml:uw.anss.org/AssocArO/UW/4335388">
          <pickID>quakeml:uw.anss.org/Arrival/UW/4335388</pickID>
          <phase>P</phase>
          <azimuth>321.1</azimuth>
          <timeResidual>-0.23</timeResidual>
          <creationInfo>
            <agencyID>UW</agencyID>
            <creationTime>2012-02-27T17:51:32.000000Z</creationTime>
          </creationInfo>
        </arrival>
        <arrival publicID="quakeml:uw.anss.org/AssocArO/UW/4335403">
          <pickID>quakeml:uw.anss.org/Arrival/UW/4335403</pickID>
          <phase>S</phase>
          <azimuth>321.1</azimuth>
          <timeResidual>-1.16</timeResidual>
          <creationInfo>
            <agencyID>UW</agencyID>
            <creationTime>2012-02-27T17:51:32.000000Z</creationTime>
          </creationInfo>
        </arrival>
        <arrival publicID="quakeml:uw.anss.org/AssocArO/UW/4335413">
          <pickID>quakeml:uw.anss.org/Arrival/UW/4335413</pickID>
          <phase>P</phase>
          <azimuth>182.3</azimuth>
          <distance>2.539</distance>
          <timeResidual>0.68</timeResidual>
          <creationInfo>
            <agencyID>UW</agencyID>
            <creationTime>2012-02-27T17:51:32.000000Z</creationTime>
          </creationInfo>
        </arrival>
        <arrival publicID="quakeml:uw.anss.org/AssocArO/UW/4335418">
          <pickID>quakeml:uw.anss.org/Arrival/UW/4335418</pickID>
          <phase>P</phase>
          <azimuth>164.5</azimuth>
          <timeResidual>-0.11</timeResidual>
          <creationInfo>
            <agencyID>UW</agencyID>
            <creationTime>2012-02-27T17:51:32.000000Z</creationTime>
          </creationInfo>
        </arrival>
        <arrival publicID="quakeml:uw.anss.org/AssocArO/UW/4335423">
          <pickID>quakeml:uw.anss.org/Arrival/UW/4335423</pickID>
          <phase>P</phase>
          <azimuth>149.9</azimuth>
          <distance>2.223</distance>
          <timeResidual>1.14</timeResidual>
          <creationInfo>
            <agencyID>UW</agencyID>
            <creationTime>2012-02-27T17:51:32.000000Z</creationTime>
          </creationInfo>
        </arrival>
        <arrival publicID="quakeml:uw.anss.org/AssocArO/UW/4335428">
          <pickID>quakeml:uw.anss.org/Arrival/UW/4335428</pickID>
          <phase>P</phase>
          <azimuth>169.3</azimuth>
          <timeResidual>0.19</timeResidual>
          <creationInfo>
            <agencyID>UW</agencyID>
            <creationTime>2012-02-27T17:51:32.000000Z</creationTime>
          </creationInfo>
        </arrival>
        <arrival publicID="quakeml:uw.anss.org/AssocArO/UW/4335433">
          <pickID>quakeml:uw.anss.org/Arrival/UW/4335433</pickID>
          <phase>P</phase>
          <timeResidual>0.18</timeResidual>
          <creationInfo>
            <agencyID>UW</agencyID>
            <creationTime>2012-02-27T17:51:32.000000Z</creationTime>
          </creationInfo>
        </arrival>
        <arrival publicID="quakeml:uw.anss.org/AssocArO/UW/4335438">
          <pickID>quakeml:uw.anss.org/Arrival/UW/4335438</pickID>
          <phase>S</phase>
          <timeResidual>0.01</timeResidual>
          <creationInfo>
            <agencyID>UW</agencyID>
            <creationTime>2012-02-27T17:51:32.000000Z</creationTime>
          </creationInfo>
        </arrival>
        <arrival publicID="quakeml:uw.anss.org/AssocArO/UW/4335443">
          <pickID>quakeml:uw.anss.org/Arrival/UW/4335443</pickID>
          <phase>P</phase>
          <azimuth>235.3</azimuth>
          <timeResidual>0.01</timeResidual>
          <creationInfo>
            <agencyID>UW</agencyID>
            <creationTime>2012-02-27T17:51:32.000000Z</creationTime>
          </creationInfo>
        </arrival>
        <arrival publicID="quakeml:uw.anss.org/AssocArO/UW/4335448">
          <pickID>quakeml:uw.anss.org/Arrival/UW/4335448</pickID>
          <phase>P</phase>
          <timeResidual>0.25</timeResidual>
          <creationInfo>
            <agencyID>UW</agencyID>
            <creationTime>2012-02-27T17:51:32.000000Z</creationTime>
          </creationInfo>
        </arrival>
        <arrival publicID="quakeml:uw.anss.org/AssocArO/UW/4335453">
          <pickID>quakeml:uw.anss.org/Arrival/UW/4335453</pickID>
          <phase>P</phase>
          <azimuth>197.1</azimuth>
          <distance>1.354</distance>
          <timeResidual>0.08</timeResidual>
          <creationInfo>
            <agencyID>UW</agencyID>
            <creationTime>2012-02-27T17:51:32.000000Z</creationTime>
          </creationInfo>
        </arrival>
        <arrival publicID="quakeml:uw.anss.org/AssocArO/UW/4335458">
          <pickID>quakeml:uw.anss.org/Arrival/UW/4335458</pickID>
          <phase>P</phase>
          <azimuth>169.2</azimuth>
          <distance>1.407</distance>
          <timeResidual>0.46</timeResidual>
          <creationInfo>
            <agencyID>UW</agencyID>
            <creationTime>2012-02-27T17:51:32.000000Z</creationTime>
          </creationInfo>
        </arrival>
        <arrival publicID="quakeml:uw.anss.org/AssocArO/UW/4335463">
          <pickID>quakeml:uw.anss.org/Arrival/UW/4335463</pickID>
          <phase>P</phase>
          <timeResidual>0.51</timeResidual>
          <creationInfo>
            <agencyID>UW</agencyID>
            <creationTime>2012-02-27T17:51:32.000000Z</creationTime>
          </creationInfo>
        </arrival>
        <arrival publicID="quakeml:uw.anss.org/AssocArO/UW/4335468">
          <pickID>quakeml:uw.anss.org/Arrival/UW/4335468</pickID>
          <phase>P</phase>
          <azimuth>164.5</azimuth>
          <distance>1.077</distance>
          <timeResidual>0.89</timeResidual>
          <creationInfo>
            <agencyID>UW</agencyID>
            <creationTime>2012-02-27T17:51:32.000000Z</creationTime>
          </creationInfo>
        </arrival>
        <arrival publicID="quakeml:uw.anss.org/AssocArO/UW/4335473">
          <pickID>quakeml:uw.anss.org/Arrival/UW/4335473</pickID>
          <phase>P</phase>
          <azimuth>212.0</azimuth>
          <distance>0.9824</distance>
          <timeResidual>1.17</timeResidual>
          <creationInfo>
            <agencyID>UW</agencyID>
            <creationTime>2012-02-27T17:51:32.000000Z</creationTime>
          </creationInfo>
        </arrival>
        <arrival publicID="quakeml:uw.anss.org/AssocArO/UW/4335478">
          <pickID>quakeml:uw.anss.org/Arrival/UW/4335478</pickID>
          <phase>S</phase>
          <azimuth>212.0</azimuth>
          <distance>0.9824</distance>
          <timeResidual>1.89</timeResidual>
          <creationInfo>
            <agencyID>UW</agencyID>
            <creationTime>2012-02-27T17:51:32.000000Z</creationTime>
          </creationInfo>
        </arrival>
        <arrival publicID="quakeml:uw.anss.org/AssocArO/UW/4335483">
          <pickID>quakeml:uw.anss.org/Arrival/UW/4335483</pickID>
          <phase>P</phase>
          <azimuth>146.8</azimuth>
          <distance>1.987</distance>
          <timeResidual>0.73</timeResidual>
          <creationInfo>
            <agencyID>UW</agencyID>
            <creationTime>2012-02-27T17:51:32.000000Z</creationTime>
          </creationInfo>
        </arrival>
        <arrival publicID="quakeml:uw.anss.org/AssocArO/UW/4335488">
          <pickID>quakeml:uw.anss.org/Arrival/UW/4335488</pickID>
          <phase>P</phase>
          <azimuth>249.1</azimuth>
          <distance>0.451</distance>
          <timeResidual>0.04</timeResidual>
          <creationInfo>
            <agencyID>UW</agencyID>
