<?xml version='1.0' encoding='utf-8'?>
<q:quakeml xmlns="http://quakeml.org/xmlns/bed/1.2" xmlns:q="http://quakeml.org/xmlns/quakeml/1.2" xmlns:ns0="http://anss.org/xmlns/catalog/0.1">
  <eventParameters publicID="smi:local/426ae5a7-3e23-4242-9bb4-62da47eda98f">
    <event publicID="quakeml:uw.anss.org/Event/UW/10273783" ns0:datasource="uw" ns0:dataid="uw10273783" ns0:eventsource="uw" ns0:eventid="10273783">
      <preferredOriginID>quakeml:uw.anss.org/Origin/UW/550728</preferredOriginID>
      <preferredMagnitudeID>quakeml:uw.anss.org/Netmag/UW/461658</preferredMagnitudeID>
      <type>earthquake</type>
      <creationInfo>
        <agencyID>UW</agencyID>
        <creationTime>2012-02-27T17:18:50.000000Z</creationTime>
        <version>3</version>
      </creationInfo>
      <origin publicID="quakeml:uw.anss.org/Origin/UW/550728" ns0:datasource="uw" ns0:dataid="uw10273783" ns0:eventsource="uw" ns0:eventid="10273783">
        <time>
          <value>1991-04-17T20:50:50.300000Z</value>
          <uncertainty>0.12</uncertainty>
        </time>
        <latitude>
          <value>48.8933333</value>
          <uncertainty>0.76</uncertainty>
        </latitude>
        <longitude>
          <value>-122.1298333</value>
          <uncertainty>0.91</uncertainty>
        </longitude>
        <depth>
          <value>15919.0</value>
          <uncertainty>1680.0</uncertainty>
        </depth>
        <depthType>from location</depthType>
        <timeFixed>false</timeFixed>
        <epicenterFixed>false</epicenterFixed>
        <methodID>smi:uw.anss.org/origin/spong</methodID>
        <quality>
          <associatedPhaseCount>48</associatedPhaseCount>
          <usedPhaseCount>21</usedPhaseCount>
          <associatedStationCount>34</associatedStationCount>
          <usedStationCount>0</usedStationCount>
          <standardError>0.25</standardError>
          <azimuthalGap>118.0</azimuthalGap>
        </quality>
        <type>hypocenter</type>
        <evaluationMode>manual</evaluationMode>
        <evaluationStatus>final</evaluationStatus>
        <creationInfo>
          <agencyID>UW</agencyID>
          <creationTime>2012-02-27T17:18:50.000000Z</creationTime>
        </creationInfo>
        <originUncertainty>
          <preferredDescription>horizontal uncertainty</preferredDescription>
          <horizontalUncertainty>1186.0</horizontalUncertainty>
        </originUncertainty>
        <arrival publicID="quakeml:uw.anss.org/AssocArO/UW/4121178">
          <pickID>quakeml:uw.anss.org/Arrival/UW/4121178</pickID>
          <phase>P</phase>
          <azimuth>285.7</azimuth>
          <timeResidual>-0.06</timeResidual>
          <creationInfo>
            <agencyID>UW</agencyID>
            <creationTime>2012-02-27T17:18:50.000000Z</creationTime>
          </creationInfo>
        </arrival>
        <arrival publicID="quakeml:uw.anss.org/AssocArO/UW/4121183">
          <pickID>quakeml:uw.anss.org/Arrival/UW/4121183</pickID>
          <phase>S</phase>
          <azimuth>285.7</azimuth>
          <timeResidual>-1.3</timeResidual>
          <creationInfo>
            <agencyID>UW</agencyID>
            <creationTime>2012-02-27T17:18:50.000000Z</creationTime>
          </creationInfo>
        </arrival>
        <arrival publicID="quakeml:uw.anss.org/AssocArO/UW/4121188">
          <pickID>quakeml:uw.anss.org/Arrival/UW/4121188</pickID>
          <phase>P</phase>
          <azimuth>206.7</azimuth>
          <distance>1.391</distance>
          <timeResidual>-0.42</timeResidual>
          <creationInfo>
            <agencyID>UW</agencyID>
            <creationTime>2012-02-27T17:18:50.000000Z</creationTime>
          </creationInfo>
        </arrival>
        <arrival publicID="quakeml:uw.anss.org/AssocArO/UW/4121193">
          <pickID>quakeml:uw.anss.org/Arrival/UW/4121193</pickID>
          <phase>S</phase>
          <azimuth>206.7</azimuth>
          <distance>1.391</distance>
          <timeResidual>-0.1</timeResidual>
          <creationInfo>
            <agencyID>UW</agencyID>
            <creationTime>2012-02-27T17:18:50.000000Z</creationTime>
          </creationInfo>
        </arrival>
        <arrival publicID="quakeml:uw.anss.org/AssocArO/UW/4121198">
          <pickID>quakeml:uw.anss.org/Arrival/UW/4121198</pickID>
          <phase>P</phase>
          <azimuth>124.1</azimuth>
          <distance>1.447</distance>
          <timeResidual>1.43</timeResidual>
          <creationInfo>
            <agencyID>UW</agencyID>
            <creationTime>2012-02-27T17:18:50.000000Z</creationTime>
          </creationInfo>
        </arrival>
        <arrival publicID="quakeml:uw.anss.org/AssocArO/UW/4121203">
          <pickID>quakeml:uw.anss.org/Arrival/UW/4121203</pickID>
          <phase>P</phase>
          <azimuth>322.5</azimuth>
          <timeResidual>-0.14</timeResidual>
          <creationInfo>
            <agencyID>UW</agencyID>
            <creationTime>2012-02-27T17:18:50.000000Z</creationTime>
          </creationInfo>
        </arrival>
        <arrival publicID="quakeml:uw.anss.org/AssocArO/UW/4121208">
          <pickID>quakeml:uw.anss.org/Arrival/UW/4121208</pickID>
          <phase>P</phase>
          <azimuth>136.5</azimuth>
          <distance>1.763</distance>
          <timeResidual>1.9</timeResidual>
          <creationInfo>
            <agencyID>UW</agencyID>
            <creationTime>2012-02-27T17:18:50.000000Z</creationTime>
          </creationInfo>
        </arrival>
        <arrival publicID="quakeml:uw.anss.org/AssocArO/UW/4121213">
          <pickID>quakeml:uw.anss.org/Arrival/UW/4121213</pickID>
          <phase>P</phase>
          <azimuth>207.7</azimuth>
          <distance>1.773</distance>
          <timeResidual>0.65</timeResidual>
          <creationInfo>
            <agencyID>UW</agencyID>
            <creationTime>2012-02-27T17:18:50.000000Z</creationTime>
          </creationInfo>
        </arrival>
        <arrival publicID="quakeml:uw.anss.org/AssocArO/UW/4121218">
          <pickID>quakeml:uw.anss.org/Arrival/UW/4121218</pickID>
          <phase>P</phase>
          <azimuth>186.0</azimuth>
          <distance>2.473</distance>
          <timeResidual>0.72</timeResidual>
          <creationInfo>
            <agencyID>UW</agencyID>
            <creationTime>2012-02-27T17:18:50.000000Z</creationTime>
          </creationInfo>
        </arrival>
        <arrival publicID="quakeml:uw.anss.org/AssocArO/UW/4121223">
          <pickID>quakeml:uw.anss.org/Arrival/UW/4121223</pickID>
          <phase>P</phase>
          <timeResidual>0.24</timeResidual>
          <creationInfo>
            <agencyID>UW</agencyID>
            <creationTime>2012-02-27T17:18:50.000000Z</creationTime>
          </creationInfo>
        </arrival>
        <arrival publicID="quakeml:uw.anss.org/AssocArO/UW/4121228">
          <pickID>quakeml:uw.anss.org/Arrival/UW/4121228</pickID>
          <phase>S</phase>
          <timeResidual>0.33</timeResidual>
          <creationInfo>
            <agencyID>UW</agencyID>
            <creationTime>2012-02-27T17:18:50.000000Z</creationTime>
          </creationInfo>
        </arrival>
        <arrival publicID="quakeml:uw.anss.org/AssocArO/UW/4121233">
          <pickID>quakeml:uw.anss.org/Arrival/UW/4121233</pickID>
          <phase>P</phase>
          <azimuth>172.3</azimuth>
          <timeResidual>-0.1</timeResidual>
          <creationInfo>
            <agencyID>UW</agencyID>
            <creationTime>2012-02-27T17:18:50.000000Z</creationTime>
          </creationInfo>
        </arrival>
        <arrival publicID="quakeml:uw.anss.org/AssocArO/UW/4121238">
          <pickID>quakeml:uw.anss.org/Arrival/UW/4121238</pickID>
          <phase>S</phase>
          <azimuth>172.3</azimuth>
          <timeResidual>-0.75</timeResidual>
          <creationInfo>
            <agencyID>UW</agencyID>
            <creationTime>2012-02-27T17:18:50.000000Z</creationTime>
          </creationInfo>
        </arrival>
        <arrival publicID="quakeml:uw.anss.org/AssocArO/UW/4121243">
          <pickID>quakeml:uw.anss.org/Arrival/UW/4121243</pickID>
          <phase>P</phase>
          <azimuth>176.9</azimuth>
          <distance>1.953</distance>
          <timeResidual>0.26</timeResidual>
          <creationInfo>
            <agencyID>UW</agencyID>
            <creationTime>2012-02-27T17:18:50.000000Z</creationTime>
          </creationInfo>
        </arrival>
        <arrival publicID="quakeml:uw.anss.org/AssocArO/UW/4121248">
          <pickID>quakeml:uw.anss.org/Arrival/UW/4121248</pickID>
          <phase>P</phase>
          <azimuth>174.2</azimuth>
          <distance>2.155</distance>
          <timeResidual>0.52</timeResidual>
          <creationInfo>
            <agencyID>UW</agencyID>
            <creationTime>2012-02-27T17:18:50.000000Z</creationTime>
          </creationInfo>
        </arrival>
        <arrival publicID="quakeml:uw.anss.org/AssocArO/UW/4121253">
          <pickID>quakeml:uw.anss.org/Arrival/UW/4121253</pickID>
          <phase>P</phase>
          <timeResidual>-0.03</timeResidual>
          <creationInfo>
            <agencyID>UW</agencyID>
            <creationTime>2012-02-27T17:18:50.000000Z</creationTime>
          </creationInfo>
        </arrival>
        <arrival publicID="quakeml:uw.anss.org/AssocArO/UW/4121258">
          <pickID>quakeml:uw.anss.org/Arrival/UW/4121258</pickID>
          <phase>P</phase>
          <azimuth>137.4</azimuth>
          <distance>0.6039</distance>
          <timeResidual>-0.08</timeResidual>
          <creationInfo>
            <agencyID>UW</agencyID>
            <creationTime>2012-02-27T17:18:50.000000Z</creationTime>
          </creationInfo>
        </arrival>
        <arrival publicID="quakeml:uw.anss.org/AssocArO/UW/4121263">
          <pickID>quakeml:uw.anss.org/Arrival/UW/4121263</pickID>
          <phase>S</phase>
          <azimuth>137.4</azimuth>
          <distance>0.6039</distance>
          <timeResidual>-0.55</timeResidual>
          <creationInfo>
            <agencyID>UW</agencyID>
            <creationTime>2012-02-27T17:18:50.000000Z</creationTime>
          </creationInfo>
        </arrival>
        <arrival publicID="quakeml:uw.anss.org/AssocArO/UW/4121268">
          <pickID>quakeml:uw.anss.org/Arrival/UW/4121268</pickID>
          <phase>P</phase>
          <azimuth>304.3</azimuth>
          <timeResidual>-0.18</timeResidual>
          <creationInfo>
            <agencyID>UW</agencyID>
            <creationTime>2012-02-27T17:18:50.000000Z</creationTime>
          </creationInfo>
        </arrival>
        <arrival publicID="quakeml:uw.anss.org/AssocArO/UW/4121273">
          <pickID>quakeml:uw.anss.org/Arrival/UW/4121273</pickID>
          <phase>S</phase>
          <azimuth>304.3</azimuth>
          <timeResidual>-0.98</timeResidual>
          <creationInfo>
            <agencyID>UW</agencyID>
            <creationTime>2012-02-27T17:18:50.000000Z</creationTime>
          </creationInfo>
        </arrival>
        <arrival publicID="quakeml:uw.anss.org/AssocArO/UW/4121278">
          <pickID>quakeml:uw.anss.org/Arrival/UW/4121278</pickID>
          <phase>P</phase>
          <azimuth>205.2</azimuth>
          <distance>0.6303</distance>
          <timeResidual>0.38</timeResidual>
          <creationInfo>
            <agencyID>UW</agencyID>
            <creationTime>2012-02-27T17:18:50.000000Z</creationTime>
          </creationInfo>
        </arrival>
        <arrival publicID="quakeml:uw.anss.org/AssocArO/UW/4121283">
          <pickID>quakeml:uw.anss.org/Arrival/UW/4121283</pickID>
          <phase>S</phase>
          <azimuth>205.2</azimuth>
          <distance>0.6303</distance>
          <timeResidual>0.25</timeResidual>
          <creationInfo>
            <agencyID>UW</agencyID>
            <creationTime>2012-02-27T17:18:50.000000Z</creationTime>
          </creationInfo>
        </arrival>
        <arrival publicID="quakeml:uw.anss.org/AssocArO/UW/4121288">
          <pickID>quakeml:uw.anss.org/Arrival/UW/4121288</pickID>
          <phase>P</phase>
          <azimuth>224.8</azimuth>
          <distance>1.505</distance>
          <timeResidual>-0.12</timeResidual>
          <creationInfo>
            <agencyID>UW</agencyID>
            <creationTime>2012-02-27T17:18:50.000000Z</creationTime>
          </creationInfo>
        </arrival>
        <arrival publicID="quakeml:uw.anss.org/AssocArO/UW/4121293">
          <pickID>quakeml:uw.anss.org/Arrival/UW/4121293</pickID>
          <phase>P</phase>
          <azimuth>317.4</azimuth>
          <timeResidual>-0.09</timeResidual>
          <creationInfo>
            <agencyID>UW</agencyID>
            <creationTime>2012-02-27T17:18:50.000000Z</creationTime>
          </creationInfo>
        </arrival>
        <arrival publicID="quakeml:uw.anss.org/AssocArO/UW/4121298">
          <pickID>quakeml:uw.anss.org/Arrival/UW/4121298</pickID>
          <phase>P</phase>
          <azimuth>169.1</azimuth>
          <timeResidual>0.12</timeResidual>
          <creationInfo>
            <agencyID>UW</agencyID>
            <creationTime>2012-02-27T17:18:50.000000Z</creationTime>
          </creationInfo>
        </arrival>
        <arrival publicID="quakeml:uw.anss.org/AssocArO/UW/4121303">
          <pickID>quakeml:uw.anss.org/Arrival/UW/4121303</pickID>
          <phase>S</phase>
          <azimuth>169.1</azimuth>
          <timeResidual>1.04</timeResidual>
          <creationInfo>
            <agencyID>UW</agencyID>
            <creationTime>2012-02-27T17:18:50.000000Z</creationTime>
          </creationInfo>
        </arrival>
        <arrival publicID="quakeml:uw.anss.org/AssocArO/UW/4121308">
          <pickID>quakeml:uw.anss.org/Arrival/UW/4121308</pickID>
          <phase>P</phase>
          <azimuth>170.9</azimuth>
          <timeResidual>0.23</timeResidual>
          <creationInfo>
            <agencyID>UW</agencyID>
            <creationTime>2012-02-27T17:18:50.000000Z</creationTime>
          </creationInfo>
        </arrival>
        <arrival publicID="quakeml:uw.anss.org/AssocArO/UW/4121313">
          <pickID>quakeml:uw.anss.org/Arrival/UW/4121313</pickID>
          <phase>P</phase>
          <timeResidual>0.21</timeResidual>
          <creationInfo>
            <agencyID>UW</agencyID>
            <creationTime>2012-02-27T17:18:50.000000Z</creationTime>
          </creationInfo>
        </arrival>
        <arrival publicID="quakeml:uw.anss.org/AssocArO/UW/4121318">
          <pickID>quakeml:uw.anss.org/Arrival/UW/4121318</pickID>
          <phase>P</phase>
          <azimuth>234.5</azimuth>
          <timeResidual>-0.37</timeResidual>
          <creationInfo>
            <agencyID>UW</agencyID>
            <creationTime>2012-02-27T17:18:50.000000Z</creationTime>
          </creationInfo>
        </arrival>
        <arrival publicID="quakeml:uw.anss.org/AssocArO/UW/4121323">
          <pickID>quakeml:uw.anss.org/Arrival/UW/4121323</pickID>
          <phase>S</phase>
          <azimuth>234.5</azimuth>
          <timeResidual>-0.45</timeResidual>
          <creationInfo>
            <agencyID>UW</agencyID>
            <creationTime>2012-02-27T17:18:50.000000Z</creationTime>
          </creationInfo>
        </arrival>
        <arrival publicID="quakeml:uw.anss.org/AssocArO/UW/4121328">
          <pickID>quakeml:uw.anss.org/Arrival/UW/4121328</pickID>
          <phase>P</phase>
          <timeResidual>0.12</timeResidual>
          <creationInfo>
            <agencyID>UW</agencyID>
            <creationTime>2012-02-27T17:18:50.000000Z</creationTime>
          </creationInfo>
        </arrival>
        <arrival publicID="quakeml:uw.anss.org/AssocArO/UW/4121333">
          <pickID>quakeml:uw.anss.org/Arrival/UW/4121333</pickID>
          <phase>P</phase>
          <azimuth>198.3</azimuth>
          <distance>1.417</distance>
          <timeResidual>-0.13</timeResidual>
          <creationInfo>
            <agencyID>UW</agencyID>
            <creationTime>2012-02-27T17:18:50.000000Z</creationTime>
          </creationInfo>
        </arrival>
        <arrival publicID="quakeml:uw.anss.org/AssocArO/UW/4121338">
          <pickID>quakeml:uw.anss.org/Arrival/UW/4121338</pickID>
          <phase>P</phase>
          <azimuth>171.3</azimuth>
          <distance>1.451</distance>
          <timeResidual>0.32</timeResidual>
          <creationInfo>
            <agencyID>UW</agencyID>
            <creationTime>2012-02-27T17:18:50.000000Z</creationTime>
          </creationInfo>
        </arrival>
        <arrival publicID="quakeml:uw.anss.org/AssocArO/UW/4121343">
          <pickID>quakeml:uw.anss.org/Arrival/UW/4121343</pickID>
          <phase>S</phase>
          <azimuth>171.3</azimuth>
          <distance>1.451</distance>
          <timeResidual>0.27</timeResidual>
          <creationInfo>
            <agencyID>UW</agencyID>
            <creationTime>2012-02-27T17:18:50.000000Z</creationTime>
          </creationInfo>
        </arrival>
        <arrival publicID="quakeml:uw.anss.org/AssocArO/UW/4121348">
          <pickID>quakeml:uw.anss.org/Arrival/UW/4121348</pickID>
          <phase>P</phase>
          <timeResidual>-0.48</timeResidual>
          <creationInfo>
            <agencyID>UW</agencyID>
            <creationTime>2012-02-27T17:18:50.000000Z</creationTime>
          </creationInfo>
        </arrival>
        <arrival publicID="quakeml:uw.anss.org/AssocArO/UW/4121353">
          <pickID>quakeml:uw.anss.org/Arrival/UW/4121353</pickID>
          <phase>P</phase>
          <azimuth>125.9</azimuth>
          <distance>0.1868</distance>
          <timeResidual>-0.04</timeResidual>
          <creationInfo>
            <agencyID>UW</agencyID>
            <creationTime>2012-02-27T17:18:50.000000Z</creationTime>
          </creationInfo>
        </arrival>
        <arrival publicID="quakeml:uw.anss.org/AssocArO/UW/4121358">
          <pickID>quakeml:uw.anss.org/Arrival/UW/4121358</pickID>
          <phase>S</phase>
          <azimuth>125.9</azimuth>
          <distance>0.1868</distance>
          <timeResidual>-0.39</timeResidual>
          <creationInfo>
            <agencyID>UW</agencyID>
            <creationTime>2012-02-27T17:18:50.000000Z</creationTime>
          </creationInfo>
        </arrival>
        <arrival publicID="quakeml:uw.anss.org/AssocArO/UW/4121363">
          <pickID>quakeml:uw.anss.org/Arrival/UW/4121363</pickID>
          <phase>P</phase>
          <timeResidual>0.12</timeResidual>
          <creationInfo>
            <agencyID>UW</agencyID>
            <creationTime>2012-02-27T17:18:50.000000Z</creationTime>
          </creationInfo>
        </arrival>
        <arrival publicID="quakeml:uw.anss.org/AssocArO/UW/4121368">
          <pickID>quakeml:uw.anss.org/Arrival/UW/4121368</pickID>
          <phase>P</phase>
          <azimuth>182.9</azimuth>
          <distance>2.23</distance>
          <timeResidual>0.51</timeResidual>
          <creationInfo>
            <agencyID>UW</agencyID>
            <creationTime>2012-02-27T17:18:50.000000Z</creationTime>
          </creationInfo>
        </arrival>
        <arrival publicID="quakeml:uw.anss.org/AssocArO/UW/4121373">
          <pickID>quakeml:uw.anss.org/Arrival/UW/4121373</pickID>
          <phase>P</phase>
          <azimuth>167.4</azimuth>
          <distance>1.117</distance>
          <timeResidual>0.48</timeResidual>
          <creationInfo>
            <agencyID>UW</agencyID>
            <creationTime>2012-02-27T17:18:50.000000Z</creationTime>
          </creationInfo>
        </arrival>
        <arrival publicID="quakeml:uw.anss.org/AssocArO/UW/4121378">
          <pickID>quakeml:uw.anss.org/Arrival/UW/4121378</pickID>
          <phase>S</phase>
          <azimuth>167.4</azimuth>
          <distance>1.117</distance>
          <timeResidual>1.2</timeResidual>
          <creationInfo>
            <agencyID>UW</agencyID>
            <creationTime>2012-02-27T17:18:50.000000Z</creationTime>
