<?xml version='1.0' encoding='utf-8'?>
<q:quakeml xmlns="http://quakeml.org/xmlns/bed/1.2" xmlns:q="http://quakeml.org/xmlns/quakeml/1.2" xmlns:ns0="http://anss.org/xmlns/catalog/0.1">
  <eventParameters publicID="smi:local/0a9562a3-ab79-4587-b506-462d1568cf72">
    <event publicID="quakeml:uw.anss.org/Event/UW/10280743" ns0:datasource="uw" ns0:dataid="uw10280743" ns0:eventsource="uw" ns0:eventid="10280743">
      <preferredOriginID>quakeml:uw.anss.org/Origin/UW/557688</preferredOriginID>
      <preferredMagnitudeID>quakeml:uw.anss.org/Netmag/UW/467733</preferredMagnitudeID>
      <type>earthquake</type>
      <creationInfo>
        <agencyID>UW</agencyID>
        <creationTime>2012-02-27T17:35:39.000000Z</creationTime>
        <version>3</version>
      </creationInfo>
      <origin publicID="quakeml:uw.anss.org/Origin/UW/557688" ns0:datasource="uw" ns0:dataid="uw10280743" ns0:eventsource="uw" ns0:eventid="10280743">
        <time>
          <value>1991-10-12T03:24:51.700000Z</value>
          <uncertainty>0.3</uncertainty>
        </time>
        <latitude>
          <value>48.8243333</value>
          <uncertainty>1.69</uncertainty>
        </latitude>
        <longitude>
          <value>-122.1736667</value>
          <uncertainty>1.0</uncertainty>
        </longitude>
        <depth>
          <value>882.0</value>
          <uncertainty>3850.0</uncertainty>
        </depth>
        <depthType>operator assigned</depthType>
        <timeFixed>false</timeFixed>
        <epicenterFixed>true</epicenterFixed>
        <methodID>smi:uw.anss.org/origin/spong</methodID>
        <quality>
          <associatedPhaseCount>38</associatedPhaseCount>
          <usedPhaseCount>28</usedPhaseCount>
          <associatedStationCount>29</associatedStationCount>
          <usedStationCount>0</usedStationCount>
          <standardError>0.49</standardError>
          <azimuthalGap>89.0</azimuthalGap>
        </quality>
        <type>hypocenter</type>
        <evaluationMode>manual</evaluationMode>
        <evaluationStatus>final</evaluationStatus>
        <creationInfo>
          <agencyID>UW</agencyID>
          <creationTime>2012-02-27T17:35:39.000000Z</creationTime>
        </creationInfo>
        <originUncertainty>
          <preferredDescription>horizontal uncertainty</preferredDescription>
          <horizontalUncertainty>1964.0</horizontalUncertainty>
        </originUncertainty>
        <arrival publicID="quakeml:uw.anss.org/AssocArO/UW/4269123">
          <pickID>quakeml:uw.anss.org/Arrival/UW/4269123</pickID>
          <phase>P</phase>
          <azimuth>289.0</azimuth>
          <timeResidual>-0.42</timeResidual>
          <creationInfo>
            <agencyID>UW</agencyID>
            <creationTime>2012-02-27T17:35:39.000000Z</creationTime>
          </creationInfo>
        </arrival>
        <arrival publicID="quakeml:uw.anss.org/AssocArO/UW/4269128">
          <pickID>quakeml:uw.anss.org/Arrival/UW/4269128</pickID>
          <phase>S</phase>
          <azimuth>289.0</azimuth>
          <timeResidual>-1.11</timeResidual>
          <creationInfo>
            <agencyID>UW</agencyID>
            <creationTime>2012-02-27T17:35:39.000000Z</creationTime>
          </creationInfo>
        </arrival>
        <arrival publicID="quakeml:uw.anss.org/AssocArO/UW/4269133">
          <pickID>quakeml:uw.anss.org/Arrival/UW/4269133</pickID>
          <phase>P</phase>
          <azimuth>206.9</azimuth>
          <distance>1.316</distance>
          <timeResidual>0.76</timeResidual>
          <creationInfo>
            <agencyID>UW</agencyID>
            <creationTime>2012-02-27T17:35:39.000000Z</creationTime>
          </creationInfo>
        </arrival>
        <arrival publicID="quakeml:uw.anss.org/AssocArO/UW/4269138">
          <pickID>quakeml:uw.anss.org/Arrival/UW/4269138</pickID>
          <phase>P</phase>
          <azimuth>121.1</azimuth>
          <distance>1.435</distance>
          <timeResidual>1.0</timeResidual>
          <creationInfo>
            <agencyID>UW</agencyID>
            <creationTime>2012-02-27T17:35:39.000000Z</creationTime>
          </creationInfo>
        </arrival>
        <arrival publicID="quakeml:uw.anss.org/AssocArO/UW/4269143">
          <pickID>quakeml:uw.anss.org/Arrival/UW/4269143</pickID>
          <phase>P</phase>
          <azimuth>329.6</azimuth>
          <timeResidual>-0.07</timeResidual>
          <creationInfo>
            <agencyID>UW</agencyID>
            <creationTime>2012-02-27T17:35:39.000000Z</creationTime>
          </creationInfo>
        </arrival>
        <arrival publicID="quakeml:uw.anss.org/AssocArO/UW/4269148">
          <pickID>quakeml:uw.anss.org/Arrival/UW/4269148</pickID>
          <phase>S</phase>
          <azimuth>329.6</azimuth>
          <timeResidual>-0.21</timeResidual>
          <creationInfo>
            <agencyID>UW</agencyID>
            <creationTime>2012-02-27T17:35:39.000000Z</creationTime>
          </creationInfo>
        </arrival>
        <arrival publicID="quakeml:uw.anss.org/AssocArO/UW/4269153">
          <pickID>quakeml:uw.anss.org/Arrival/UW/4269153</pickID>
          <phase>P</phase>
          <azimuth>134.2</azimuth>
          <distance>1.734</distance>
          <timeResidual>1.63</timeResidual>
          <creationInfo>
            <agencyID>UW</agencyID>
            <creationTime>2012-02-27T17:35:39.000000Z</creationTime>
          </creationInfo>
        </arrival>
        <arrival publicID="quakeml:uw.anss.org/AssocArO/UW/4269158">
          <pickID>quakeml:uw.anss.org/Arrival/UW/4269158</pickID>
          <phase>P</phase>
          <azimuth>156.1</azimuth>
          <distance>2.282</distance>
          <timeResidual>1.86</timeResidual>
          <creationInfo>
            <agencyID>UW</agencyID>
            <creationTime>2012-02-27T17:35:39.000000Z</creationTime>
          </creationInfo>
        </arrival>
        <arrival publicID="quakeml:uw.anss.org/AssocArO/UW/4269163">
          <pickID>quakeml:uw.anss.org/Arrival/UW/4269163</pickID>
          <phase>P</phase>
          <timeResidual>0.27</timeResidual>
          <creationInfo>
            <agencyID>UW</agencyID>
            <creationTime>2012-02-27T17:35:39.000000Z</creationTime>
          </creationInfo>
        </arrival>
        <arrival publicID="quakeml:uw.anss.org/AssocArO/UW/4269168">
          <pickID>quakeml:uw.anss.org/Arrival/UW/4269168</pickID>
          <phase>S</phase>
          <timeResidual>1.17</timeResidual>
          <creationInfo>
            <agencyID>UW</agencyID>
            <creationTime>2012-02-27T17:35:39.000000Z</creationTime>
          </creationInfo>
        </arrival>
        <arrival publicID="quakeml:uw.anss.org/AssocArO/UW/4269173">
          <pickID>quakeml:uw.anss.org/Arrival/UW/4269173</pickID>
          <phase>P</phase>
          <azimuth>174.9</azimuth>
          <distance>0.4027</distance>
          <timeResidual>-0.64</timeResidual>
          <creationInfo>
            <agencyID>UW</agencyID>
            <creationTime>2012-02-27T17:35:39.000000Z</creationTime>
          </creationInfo>
        </arrival>
        <arrival publicID="quakeml:uw.anss.org/AssocArO/UW/4269178">
          <pickID>quakeml:uw.anss.org/Arrival/UW/4269178</pickID>
          <phase>S</phase>
          <azimuth>174.9</azimuth>
          <distance>0.4027</distance>
          <timeResidual>0.43</timeResidual>
          <creationInfo>
            <agencyID>UW</agencyID>
            <creationTime>2012-02-27T17:35:39.000000Z</creationTime>
          </creationInfo>
        </arrival>
        <arrival publicID="quakeml:uw.anss.org/AssocArO/UW/4269183">
          <pickID>quakeml:uw.anss.org/Arrival/UW/4269183</pickID>
          <phase>P</phase>
          <azimuth>171.0</azimuth>
          <timeResidual>0.69</timeResidual>
          <creationInfo>
            <agencyID>UW</agencyID>
            <creationTime>2012-02-27T17:35:39.000000Z</creationTime>
          </creationInfo>
        </arrival>
        <arrival publicID="quakeml:uw.anss.org/AssocArO/UW/4269188">
          <pickID>quakeml:uw.anss.org/Arrival/UW/4269188</pickID>
          <phase>P</phase>
          <azimuth>175.9</azimuth>
          <distance>1.886</distance>
          <timeResidual>0.56</timeResidual>
          <creationInfo>
            <agencyID>UW</agencyID>
            <creationTime>2012-02-27T17:35:39.000000Z</creationTime>
          </creationInfo>
        </arrival>
        <arrival publicID="quakeml:uw.anss.org/AssocArO/UW/4269193">
          <pickID>quakeml:uw.anss.org/Arrival/UW/4269193</pickID>
          <phase>P</phase>
          <timeResidual>0.24</timeResidual>
          <creationInfo>
            <agencyID>UW</agencyID>
            <creationTime>2012-02-27T17:35:39.000000Z</creationTime>
          </creationInfo>
        </arrival>
        <arrival publicID="quakeml:uw.anss.org/AssocArO/UW/4269198">
          <pickID>quakeml:uw.anss.org/Arrival/UW/4269198</pickID>
          <phase>P</phase>
          <azimuth>130.6</azimuth>
          <distance>0.5768</distance>
          <timeResidual>-0.14</timeResidual>
          <creationInfo>
            <agencyID>UW</agencyID>
            <creationTime>2012-02-27T17:35:39.000000Z</creationTime>
          </creationInfo>
        </arrival>
        <arrival publicID="quakeml:uw.anss.org/AssocArO/UW/4269203">
          <pickID>quakeml:uw.anss.org/Arrival/UW/4269203</pickID>
          <phase>S</phase>
          <azimuth>130.6</azimuth>
          <distance>0.5768</distance>
          <timeResidual>0.32</timeResidual>
          <creationInfo>
            <agencyID>UW</agencyID>
            <creationTime>2012-02-27T17:35:39.000000Z</creationTime>
          </creationInfo>
        </arrival>
        <arrival publicID="quakeml:uw.anss.org/AssocArO/UW/4269208">
          <pickID>quakeml:uw.anss.org/Arrival/UW/4269208</pickID>
          <phase>P</phase>
          <azimuth>308.7</azimuth>
          <timeResidual>-0.24</timeResidual>
          <creationInfo>
            <agencyID>UW</agencyID>
            <creationTime>2012-02-27T17:35:39.000000Z</creationTime>
          </creationInfo>
        </arrival>
        <arrival publicID="quakeml:uw.anss.org/AssocArO/UW/4269213">
          <pickID>quakeml:uw.anss.org/Arrival/UW/4269213</pickID>
          <phase>P</phase>
          <azimuth>102.6</azimuth>
          <distance>0.1848</distance>
          <timeResidual>-0.33</timeResidual>
          <creationInfo>
            <agencyID>UW</agencyID>
            <creationTime>2012-02-27T17:35:39.000000Z</creationTime>
          </creationInfo>
        </arrival>
        <arrival publicID="quakeml:uw.anss.org/AssocArO/UW/4269218">
          <pickID>quakeml:uw.anss.org/Arrival/UW/4269218</pickID>
          <phase>S</phase>
          <azimuth>102.6</azimuth>
          <distance>0.1848</distance>
          <timeResidual>0.42</timeResidual>
          <creationInfo>
            <agencyID>UW</agencyID>
            <creationTime>2012-02-27T17:35:39.000000Z</creationTime>
          </creationInfo>
        </arrival>
        <arrival publicID="quakeml:uw.anss.org/AssocArO/UW/4269223">
          <pickID>quakeml:uw.anss.org/Arrival/UW/4269223</pickID>
          <phase>P</phase>
          <azimuth>225.9</azimuth>
          <distance>1.436</distance>
          <timeResidual>0.49</timeResidual>
          <creationInfo>
            <agencyID>UW</agencyID>
            <creationTime>2012-02-27T17:35:39.000000Z</creationTime>
          </creationInfo>
        </arrival>
        <arrival publicID="quakeml:uw.anss.org/AssocArO/UW/4269228">
          <pickID>quakeml:uw.anss.org/Arrival/UW/4269228</pickID>
          <phase>P</phase>
          <azimuth>321.0</azimuth>
          <timeResidual>-0.05</timeResidual>
          <creationInfo>
            <agencyID>UW</agencyID>
            <creationTime>2012-02-27T17:35:39.000000Z</creationTime>
          </creationInfo>
        </arrival>
        <arrival publicID="quakeml:uw.anss.org/AssocArO/UW/4269233">
          <pickID>quakeml:uw.anss.org/Arrival/UW/4269233</pickID>
          <phase>S</phase>
          <azimuth>321.0</azimuth>
          <timeResidual>-1.01</timeResidual>
          <creationInfo>
            <agencyID>UW</agencyID>
            <creationTime>2012-02-27T17:35:39.000000Z</creationTime>
          </creationInfo>
        </arrival>
        <arrival publicID="quakeml:uw.anss.org/AssocArO/UW/4269238">
          <pickID>quakeml:uw.anss.org/Arrival/UW/4269238</pickID>
          <phase>P</phase>
          <azimuth>165.4</azimuth>
          <timeResidual>-0.03</timeResidual>
          <creationInfo>
            <agencyID>UW</agencyID>
            <creationTime>2012-02-27T17:35:39.000000Z</creationTime>
          </creationInfo>
        </arrival>
        <arrival publicID="quakeml:uw.anss.org/AssocArO/UW/4269253">
          <pickID>quakeml:uw.anss.org/Arrival/UW/4269253</pickID>
          <phase>P</phase>
          <azimuth>150.0</azimuth>
          <distance>2.2</distance>
          <timeResidual>1.59</timeResidual>
          <creationInfo>
            <agencyID>UW</agencyID>
            <creationTime>2012-02-27T17:35:39.000000Z</creationTime>
          </creationInfo>
        </arrival>
        <arrival publicID="quakeml:uw.anss.org/AssocArO/UW/4269258">
          <pickID>quakeml:uw.anss.org/Arrival/UW/4269258</pickID>
          <phase>P</phase>
          <azimuth>169.7</azimuth>
          <timeResidual>0.51</timeResidual>
          <creationInfo>
            <agencyID>UW</agencyID>
            <creationTime>2012-02-27T17:35:39.000000Z</creationTime>
          </creationInfo>
        </arrival>
        <arrival publicID="quakeml:uw.anss.org/AssocArO/UW/4269268">
          <pickID>quakeml:uw.anss.org/Arrival/UW/4269268</pickID>
          <phase>P</phase>
          <timeResidual>0.4</timeResidual>
          <creationInfo>
            <agencyID>UW</agencyID>
            <creationTime>2012-02-27T17:35:39.000000Z</creationTime>
          </creationInfo>
        </arrival>
        <arrival publicID="quakeml:uw.anss.org/AssocArO/UW/4269278">
          <pickID>quakeml:uw.anss.org/Arrival/UW/4269278</pickID>
          <phase>S</phase>
          <timeResidual>-0.02</timeResidual>
          <creationInfo>
            <agencyID>UW</agencyID>
            <creationTime>2012-02-27T17:35:39.000000Z</creationTime>
          </creationInfo>
        </arrival>
        <arrival publicID="quakeml:uw.anss.org/AssocArO/UW/4269288">
          <pickID>quakeml:uw.anss.org/Arrival/UW/4269288</pickID>
          <phase>P</phase>
          <azimuth>236.4</azimuth>
          <timeResidual>0.16</timeResidual>
          <creationInfo>
            <agencyID>UW</agencyID>
            <creationTime>2012-02-27T17:35:39.000000Z</creationTime>
          </creationInfo>
        </arrival>
        <arrival publicID="quakeml:uw.anss.org/AssocArO/UW/4269293">
          <pickID>quakeml:uw.anss.org/Arrival/UW/4269293</pickID>
          <phase>P</phase>
          <timeResidual>0.56</timeResidual>
          <creationInfo>
            <agencyID>UW</agencyID>
            <creationTime>2012-02-27T17:35:39.000000Z</creationTime>
          </creationInfo>
        </arrival>
        <arrival publicID="quakeml:uw.anss.org/AssocArO/UW/4269303">
          <pickID>quakeml:uw.anss.org/Arrival/UW/4269303</pickID>
          <phase>S</phase>
          <timeResidual>0.46</timeResidual>
          <creationInfo>
            <agencyID>UW</agencyID>
            <creationTime>2012-02-27T17:35:39.000000Z</creationTime>
          </creationInfo>
        </arrival>
        <arrival publicID="quakeml:uw.anss.org/AssocArO/UW/4269318">
          <pickID>quakeml:uw.anss.org/Arrival/UW/4269318</pickID>
          <phase>P</phase>
          <azimuth>198.0</azimuth>
          <distance>1.342</distance>
          <timeResidual>0.14</timeResidual>
          <creationInfo>
            <agencyID>UW</agencyID>
            <creationTime>2012-02-27T17:35:39.000000Z</creationTime>
          </creationInfo>
        </arrival>
        <arrival publicID="quakeml:uw.anss.org/AssocArO/UW/4269323">
          <pickID>quakeml:uw.anss.org/Arrival/UW/4269323</pickID>
          <phase>P</phase>
          <azimuth>169.7</azimuth>
          <distance>1.388</distance>
          <timeResidual>0.57</timeResidual>
          <creationInfo>
            <agencyID>UW</agencyID>
            <creationTime>2012-02-27T17:35:39.000000Z</creationTime>
          </creationInfo>
        </arrival>
        <arrival publicID="quakeml:uw.anss.org/AssocArO/UW/4269328">
          <pickID>quakeml:uw.anss.org/Arrival/UW/4269328</pickID>
          <phase>P</phase>
          <azimuth>182.2</azimuth>
          <distance>2.159</distance>
          <timeResidual>0.67</timeResidual>
          <creationInfo>
            <agencyID>UW</agencyID>
            <creationTime>2012-02-27T17:35:39.000000Z</creationTime>
          </creationInfo>
        </arrival>
        <arrival publicID="quakeml:uw.anss.org/AssocArO/UW/4269333">
          <pickID>quakeml:uw.anss.org/Arrival/UW/4269333</pickID>
          <phase>P</phase>
          <azimuth>165.1</azimuth>
          <distance>1.056</distance>
          <timeResidual>1.1</timeResidual>
          <creationInfo>
            <agencyID>UW</agencyID>
            <creationTime>2012-02-27T17:35:39.000000Z</creationTime>
          </creationInfo>
        </arrival>
        <arrival publicID="quakeml:uw.anss.org/AssocArO/UW/4269338">
          <pickID>quakeml:uw.anss.org/Arrival/UW/4269338</pickID>
          <phase>P</phase>
          <azimuth>213.3</azimuth>
          <distance>0.9762</distance>
          <timeResidual>0.89</timeResidual>
          <creationInfo>
            <agencyID>UW</agencyID>
            <creationTime>2012-02-27T17:35:39.000000Z</creationTime>
          </creationInfo>
        </arrival>
        <arrival publicID="quakeml:uw.anss.org/AssocArO/UW/4269343">
          <pickID>quakeml:uw.anss.org/Arrival/UW/4269343</pickID>
          <phase>P</phase>
          <azimuth>251.8</azimuth>
          <distance>0.4597</distance>
          <timeResidual>0.17</timeResidual>
          <creationInfo>
            <agencyID>UW</agencyID>
            <creationTime>2012-02-27T17:35:39.000000Z</creationTime>
          </creationInfo>
        </arrival>
        <arrival publicID="quakeml:uw.anss.org/AssocArO/UW/4269348">
          <pickID>quakeml:uw.anss.org/Arrival/UW/4269348</pickID>
          <phase>P</phase>
          <azimuth>174.6</azimuth>
          <distance>0.9934</distance>
          <timeResidual>0.92</timeResidual>
          <creationInfo>
            <agencyID>UW</agencyID>
            <creationTime>2012-02-27T17:35:39.000000Z</creationTime>
          </creationInfo>
        </arrival>
      </origin>
      <magnitude publicID="quakeml:uw.anss.org/Netmag/UW/467733">
        <mag>
          <value>1.6</value>
          <uncertainty>0.11</uncertainty>
        </mag>
        <type>Md</type>
        <originID>quakeml:uw.anss.org/Origin/UW/557688</originID>
        <methodID>smi:uw.anss.org/magnitude/Crosson</methodID>
        <stationCount>5</stationCount>
        <evaluationMode>manual</evaluationMode>
        <evaluationStatus>final</evaluationStatus>
        <stationMagnitudeContribution>
          <stationMagnitudeID>quakeml:uw.anss.org/AssocCoM/UW/1177078</stationMagnitudeID>
          <weight>1.0</weight>
          <residual>-0.07</residual>
        </stationMagnitudeContribution>
        <stationMagnitudeContribution>
          <stationMagnitudeID>quakeml:uw.anss.org/AssocCoM/UW/1177088</stationMagnitudeID>
          <weight>1.0</weight>
          <residual>0.06</residual>
        </stationMagnitudeContribution>
        <stationMagnitudeContribution>
          <stationMagnitudeID>quakeml:uw.anss.org/AssocCoM/UW/1177103</stationMagnitudeID>
          <weight>1.0</weight>
          <residual>-0.17</residual>
        </stationMagnitudeContribution>
        <stationMagnitudeContribution>
