<?xml version='1.0' encoding='utf-8'?>
<q:quakeml xmlns="http://quakeml.org/xmlns/bed/1.2" xmlns:q="http://quakeml.org/xmlns/quakeml/1.2" xmlns:ns0="http://anss.org/xmlns/catalog/0.1">
  <eventParameters publicID="smi:local/6fe4695c-15c0-474a-8333-2239a20f41b9">
    <event publicID="quakeml:uw.anss.org/Event/UW/10276198" ns0:datasource="uw" ns0:dataid="uw10276198" ns0:eventsource="uw" ns0:eventid="10276198">
      <preferredOriginID>quakeml:uw.anss.org/Origin/UW/553143</preferredOriginID>
      <preferredMagnitudeID>quakeml:uw.anss.org/Netmag/UW/463778</preferredMagnitudeID>
      <type>earthquake</type>
      <creationInfo>
        <agencyID>UW</agencyID>
        <creationTime>2012-02-27T17:26:21.000000Z</creationTime>
        <version>3</version>
      </creationInfo>
      <origin publicID="quakeml:uw.anss.org/Origin/UW/553143" ns0:datasource="uw" ns0:dataid="uw10276198" ns0:eventsource="uw" ns0:eventid="10276198">
        <time>
          <value>1991-09-08T03:35:08.550000Z</value>
          <uncertainty>0.18</uncertainty>
        </time>
        <latitude>
          <value>48.8915</value>
          <uncertainty>1.74</uncertainty>
        </latitude>
        <longitude>
          <value>-122.0821667</value>
          <uncertainty>1.18</uncertainty>
        </longitude>
        <depth>
          <value>16132.0</value>
          <uncertainty>2280.0</uncertainty>
        </depth>
        <depthType>from location</depthType>
        <timeFixed>false</timeFixed>
        <epicenterFixed>false</epicenterFixed>
        <methodID>smi:uw.anss.org/origin/spong</methodID>
        <quality>
          <associatedPhaseCount>36</associatedPhaseCount>
          <usedPhaseCount>22</usedPhaseCount>
          <associatedStationCount>25</associatedStationCount>
          <usedStationCount>0</usedStationCount>
          <standardError>0.42</standardError>
          <azimuthalGap>137.0</azimuthalGap>
        </quality>
        <type>hypocenter</type>
        <evaluationMode>manual</evaluationMode>
        <evaluationStatus>final</evaluationStatus>
        <creationInfo>
          <agencyID>UW</agencyID>
          <creationTime>2012-02-27T17:26:21.000000Z</creationTime>
        </creationInfo>
        <originUncertainty>
          <preferredDescription>horizontal uncertainty</preferredDescription>
          <horizontalUncertainty>2102.0</horizontalUncertainty>
        </originUncertainty>
        <arrival publicID="quakeml:uw.anss.org/AssocArO/UW/4173918">
          <pickID>quakeml:uw.anss.org/Arrival/UW/4173918</pickID>
          <phase>P</phase>
          <azimuth>207.9</azimuth>
          <distance>1.404</distance>
          <timeResidual>0.56</timeResidual>
          <creationInfo>
            <agencyID>UW</agencyID>
            <creationTime>2012-02-27T17:26:21.000000Z</creationTime>
          </creationInfo>
        </arrival>
        <arrival publicID="quakeml:uw.anss.org/AssocArO/UW/4173923">
          <pickID>quakeml:uw.anss.org/Arrival/UW/4173923</pickID>
          <phase>P</phase>
          <azimuth>124.8</azimuth>
          <distance>1.42</distance>
          <timeResidual>2.87</timeResidual>
          <creationInfo>
            <agencyID>UW</agencyID>
            <creationTime>2012-02-27T17:26:21.000000Z</creationTime>
          </creationInfo>
        </arrival>
        <arrival publicID="quakeml:uw.anss.org/AssocArO/UW/4173928">
          <pickID>quakeml:uw.anss.org/Arrival/UW/4173928</pickID>
          <phase>P</phase>
          <azimuth>319.8</azimuth>
          <timeResidual>-0.07</timeResidual>
          <creationInfo>
            <agencyID>UW</agencyID>
            <creationTime>2012-02-27T17:26:21.000000Z</creationTime>
          </creationInfo>
        </arrival>
        <arrival publicID="quakeml:uw.anss.org/AssocArO/UW/4173933">
          <pickID>quakeml:uw.anss.org/Arrival/UW/4173933</pickID>
          <phase>S</phase>
          <azimuth>319.8</azimuth>
          <timeResidual>-0.11</timeResidual>
          <creationInfo>
            <agencyID>UW</agencyID>
            <creationTime>2012-02-27T17:26:21.000000Z</creationTime>
          </creationInfo>
        </arrival>
        <arrival publicID="quakeml:uw.anss.org/AssocArO/UW/4173938">
          <pickID>quakeml:uw.anss.org/Arrival/UW/4173938</pickID>
          <phase>P</phase>
          <timeResidual>0.02</timeResidual>
          <creationInfo>
            <agencyID>UW</agencyID>
            <creationTime>2012-02-27T17:26:21.000000Z</creationTime>
          </creationInfo>
        </arrival>
        <arrival publicID="quakeml:uw.anss.org/AssocArO/UW/4173943">
          <pickID>quakeml:uw.anss.org/Arrival/UW/4173943</pickID>
          <phase>S</phase>
          <timeResidual>0.72</timeResidual>
          <creationInfo>
            <agencyID>UW</agencyID>
            <creationTime>2012-02-27T17:26:21.000000Z</creationTime>
          </creationInfo>
        </arrival>
        <arrival publicID="quakeml:uw.anss.org/AssocArO/UW/4173948">
          <pickID>quakeml:uw.anss.org/Arrival/UW/4173948</pickID>
          <phase>P</phase>
          <azimuth>183.1</azimuth>
          <distance>0.4691</distance>
          <timeResidual>-0.6</timeResidual>
          <creationInfo>
            <agencyID>UW</agencyID>
            <creationTime>2012-02-27T17:26:21.000000Z</creationTime>
          </creationInfo>
        </arrival>
        <arrival publicID="quakeml:uw.anss.org/AssocArO/UW/4173953">
          <pickID>quakeml:uw.anss.org/Arrival/UW/4173953</pickID>
          <phase>S</phase>
          <azimuth>183.1</azimuth>
          <distance>0.4691</distance>
          <timeResidual>0.6</timeResidual>
          <creationInfo>
            <agencyID>UW</agencyID>
            <creationTime>2012-02-27T17:26:21.000000Z</creationTime>
          </creationInfo>
        </arrival>
        <arrival publicID="quakeml:uw.anss.org/AssocArO/UW/4173958">
          <pickID>quakeml:uw.anss.org/Arrival/UW/4173958</pickID>
          <phase>P</phase>
          <azimuth>173.4</azimuth>
          <timeResidual>2.3</timeResidual>
          <creationInfo>
            <agencyID>UW</agencyID>
            <creationTime>2012-02-27T17:26:21.000000Z</creationTime>
          </creationInfo>
        </arrival>
        <arrival publicID="quakeml:uw.anss.org/AssocArO/UW/4173963">
          <pickID>quakeml:uw.anss.org/Arrival/UW/4173963</pickID>
          <phase>S</phase>
          <azimuth>173.4</azimuth>
          <timeResidual>1.01</timeResidual>
          <creationInfo>
            <agencyID>UW</agencyID>
            <creationTime>2012-02-27T17:26:21.000000Z</creationTime>
          </creationInfo>
        </arrival>
        <arrival publicID="quakeml:uw.anss.org/AssocArO/UW/4173968">
          <pickID>quakeml:uw.anss.org/Arrival/UW/4173968</pickID>
          <phase>P</phase>
          <azimuth>177.8</azimuth>
          <distance>1.95</distance>
          <timeResidual>1.38</timeResidual>
          <creationInfo>
            <agencyID>UW</agencyID>
            <creationTime>2012-02-27T17:26:21.000000Z</creationTime>
          </creationInfo>
        </arrival>
        <arrival publicID="quakeml:uw.anss.org/AssocArO/UW/4173973">
          <pickID>quakeml:uw.anss.org/Arrival/UW/4173973</pickID>
          <phase>S</phase>
          <azimuth>177.8</azimuth>
          <distance>1.95</distance>
          <timeResidual>1.43</timeResidual>
          <creationInfo>
            <agencyID>UW</agencyID>
            <creationTime>2012-02-27T17:26:21.000000Z</creationTime>
          </creationInfo>
        </arrival>
        <arrival publicID="quakeml:uw.anss.org/AssocArO/UW/4173978">
          <pickID>quakeml:uw.anss.org/Arrival/UW/4173978</pickID>
          <phase>P</phase>
          <timeResidual>-0.01</timeResidual>
          <creationInfo>
            <agencyID>UW</agencyID>
            <creationTime>2012-02-27T17:26:21.000000Z</creationTime>
          </creationInfo>
        </arrival>
        <arrival publicID="quakeml:uw.anss.org/AssocArO/UW/4173983">
          <pickID>quakeml:uw.anss.org/Arrival/UW/4173983</pickID>
          <phase>P</phase>
          <azimuth>139.6</azimuth>
          <distance>0.5816</distance>
          <timeResidual>0.25</timeResidual>
          <creationInfo>
            <agencyID>UW</agencyID>
            <creationTime>2012-02-27T17:26:21.000000Z</creationTime>
          </creationInfo>
        </arrival>
        <arrival publicID="quakeml:uw.anss.org/AssocArO/UW/4173988">
          <pickID>quakeml:uw.anss.org/Arrival/UW/4173988</pickID>
          <phase>S</phase>
          <azimuth>139.6</azimuth>
          <distance>0.5816</distance>
          <timeResidual>0.55</timeResidual>
          <creationInfo>
            <agencyID>UW</agencyID>
            <creationTime>2012-02-27T17:26:21.000000Z</creationTime>
          </creationInfo>
        </arrival>
        <arrival publicID="quakeml:uw.anss.org/AssocArO/UW/4173993">
          <pickID>quakeml:uw.anss.org/Arrival/UW/4173993</pickID>
          <phase>P</phase>
          <azimuth>170.3</azimuth>
          <distance>2.225</distance>
          <timeResidual>3.32</timeResidual>
          <creationInfo>
            <agencyID>UW</agencyID>
            <creationTime>2012-02-27T17:26:21.000000Z</creationTime>
          </creationInfo>
        </arrival>
        <arrival publicID="quakeml:uw.anss.org/AssocArO/UW/4173998">
          <pickID>quakeml:uw.anss.org/Arrival/UW/4173998</pickID>
          <phase>P</phase>
          <azimuth>303.4</azimuth>
          <timeResidual>-0.28</timeResidual>
          <creationInfo>
            <agencyID>UW</agencyID>
            <creationTime>2012-02-27T17:26:21.000000Z</creationTime>
          </creationInfo>
        </arrival>
        <arrival publicID="quakeml:uw.anss.org/AssocArO/UW/4174003">
          <pickID>quakeml:uw.anss.org/Arrival/UW/4174003</pickID>
          <phase>P</phase>
          <azimuth>132.0</azimuth>
          <distance>0.1611</distance>
          <timeResidual>-0.33</timeResidual>
          <creationInfo>
            <agencyID>UW</agencyID>
            <creationTime>2012-02-27T17:26:21.000000Z</creationTime>
          </creationInfo>
        </arrival>
        <arrival publicID="quakeml:uw.anss.org/AssocArO/UW/4174008">
          <pickID>quakeml:uw.anss.org/Arrival/UW/4174008</pickID>
          <phase>S</phase>
          <azimuth>132.0</azimuth>
          <distance>0.1611</distance>
          <timeResidual>0.2</timeResidual>
          <creationInfo>
            <agencyID>UW</agencyID>
            <creationTime>2012-02-27T17:26:21.000000Z</creationTime>
          </creationInfo>
        </arrival>
        <arrival publicID="quakeml:uw.anss.org/AssocArO/UW/4174013">
          <pickID>quakeml:uw.anss.org/Arrival/UW/4174013</pickID>
          <phase>P</phase>
          <azimuth>316.3</azimuth>
          <timeResidual>0.15</timeResidual>
          <creationInfo>
            <agencyID>UW</agencyID>
            <creationTime>2012-02-27T17:26:21.000000Z</creationTime>
          </creationInfo>
        </arrival>
        <arrival publicID="quakeml:uw.anss.org/AssocArO/UW/4174018">
          <pickID>quakeml:uw.anss.org/Arrival/UW/4174018</pickID>
          <phase>S</phase>
          <azimuth>316.3</azimuth>
          <timeResidual>-0.38</timeResidual>
          <creationInfo>
            <agencyID>UW</agencyID>
            <creationTime>2012-02-27T17:26:21.000000Z</creationTime>
          </creationInfo>
        </arrival>
        <arrival publicID="quakeml:uw.anss.org/AssocArO/UW/4174023">
          <pickID>quakeml:uw.anss.org/Arrival/UW/4174023</pickID>
          <phase>P</phase>
          <azimuth>171.6</azimuth>
          <timeResidual>0.12</timeResidual>
          <creationInfo>
            <agencyID>UW</agencyID>
            <creationTime>2012-02-27T17:26:21.000000Z</creationTime>
          </creationInfo>
        </arrival>
        <arrival publicID="quakeml:uw.anss.org/AssocArO/UW/4174028">
          <pickID>quakeml:uw.anss.org/Arrival/UW/4174028</pickID>
          <phase>S</phase>
          <azimuth>171.6</azimuth>
          <timeResidual>1.2</timeResidual>
          <creationInfo>
            <agencyID>UW</agencyID>
            <creationTime>2012-02-27T17:26:21.000000Z</creationTime>
          </creationInfo>
        </arrival>
        <arrival publicID="quakeml:uw.anss.org/AssocArO/UW/4174033">
          <pickID>quakeml:uw.anss.org/Arrival/UW/4174033</pickID>
          <phase>P</phase>
          <azimuth>152.3</azimuth>
          <distance>2.23</distance>
          <timeResidual>2.93</timeResidual>
          <creationInfo>
            <agencyID>UW</agencyID>
            <creationTime>2012-02-27T17:26:21.000000Z</creationTime>
          </creationInfo>
        </arrival>
        <arrival publicID="quakeml:uw.anss.org/AssocArO/UW/4174038">
          <pickID>quakeml:uw.anss.org/Arrival/UW/4174038</pickID>
          <phase>P</phase>
          <azimuth>171.8</azimuth>
          <timeResidual>1.3</timeResidual>
          <creationInfo>
            <agencyID>UW</agencyID>
            <creationTime>2012-02-27T17:26:21.000000Z</creationTime>
          </creationInfo>
        </arrival>
        <arrival publicID="quakeml:uw.anss.org/AssocArO/UW/4174043">
          <pickID>quakeml:uw.anss.org/Arrival/UW/4174043</pickID>
          <phase>S</phase>
          <azimuth>171.8</azimuth>
          <timeResidual>2.5</timeResidual>
          <creationInfo>
            <agencyID>UW</agencyID>
            <creationTime>2012-02-27T17:26:21.000000Z</creationTime>
          </creationInfo>
        </arrival>
        <arrival publicID="quakeml:uw.anss.org/AssocArO/UW/4174048">
          <pickID>quakeml:uw.anss.org/Arrival/UW/4174048</pickID>
          <phase>P</phase>
          <timeResidual>0.53</timeResidual>
          <creationInfo>
            <agencyID>UW</agencyID>
            <creationTime>2012-02-27T17:26:21.000000Z</creationTime>
          </creationInfo>
        </arrival>
        <arrival publicID="quakeml:uw.anss.org/AssocArO/UW/4174053">
          <pickID>quakeml:uw.anss.org/Arrival/UW/4174053</pickID>
          <phase>S</phase>
          <timeResidual>0.4</timeResidual>
          <creationInfo>
            <agencyID>UW</agencyID>
            <creationTime>2012-02-27T17:26:21.000000Z</creationTime>
          </creationInfo>
        </arrival>
        <arrival publicID="quakeml:uw.anss.org/AssocArO/UW/4174058">
          <pickID>quakeml:uw.anss.org/Arrival/UW/4174058</pickID>
          <phase>P</phase>
          <azimuth>235.5</azimuth>
          <timeResidual>-0.2</timeResidual>
          <creationInfo>
            <agencyID>UW</agencyID>
            <creationTime>2012-02-27T17:26:21.000000Z</creationTime>
          </creationInfo>
        </arrival>
        <arrival publicID="quakeml:uw.anss.org/AssocArO/UW/4174063">
          <pickID>quakeml:uw.anss.org/Arrival/UW/4174063</pickID>
          <phase>P</phase>
          <timeResidual>-0.12</timeResidual>
          <creationInfo>
            <agencyID>UW</agencyID>
            <creationTime>2012-02-27T17:26:21.000000Z</creationTime>
          </creationInfo>
        </arrival>
        <arrival publicID="quakeml:uw.anss.org/AssocArO/UW/4174068">
          <pickID>quakeml:uw.anss.org/Arrival/UW/4174068</pickID>
          <phase>P</phase>
          <azimuth>172.6</azimuth>
          <distance>1.445</distance>
          <timeResidual>1.26</timeResidual>
          <creationInfo>
            <agencyID>UW</agencyID>
            <creationTime>2012-02-27T17:26:21.000000Z</creationTime>
          </creationInfo>
        </arrival>
        <arrival publicID="quakeml:uw.anss.org/AssocArO/UW/4174073">
          <pickID>quakeml:uw.anss.org/Arrival/UW/4174073</pickID>
          <phase>P</phase>
          <timeResidual>-0.06</timeResidual>
          <creationInfo>
            <agencyID>UW</agencyID>
            <creationTime>2012-02-27T17:26:21.000000Z</creationTime>
          </creationInfo>
        </arrival>
        <arrival publicID="quakeml:uw.anss.org/AssocArO/UW/4174078">
          <pickID>quakeml:uw.anss.org/Arrival/UW/4174078</pickID>
          <phase>P</phase>
          <azimuth>183.7</azimuth>
          <distance>2.23</distance>
          <timeResidual>1.56</timeResidual>
          <creationInfo>
            <agencyID>UW</agencyID>
            <creationTime>2012-02-27T17:26:21.000000Z</creationTime>
          </creationInfo>
        </arrival>
        <arrival publicID="quakeml:uw.anss.org/AssocArO/UW/4174083">
          <pickID>quakeml:uw.anss.org/Arrival/UW/4174083</pickID>
          <phase>P</phase>
          <azimuth>169.0</azimuth>
          <distance>1.108</distance>
          <timeResidual>1.05</timeResidual>
          <creationInfo>
            <agencyID>UW</agencyID>
            <creationTime>2012-02-27T17:26:21.000000Z</creationTime>
          </creationInfo>
        </arrival>
        <arrival publicID="quakeml:uw.anss.org/AssocArO/UW/4174088">
          <pickID>quakeml:uw.anss.org/Arrival/UW/4174088</pickID>
          <phase>P</phase>
          <azimuth>214.1</azimuth>
          <distance>1.066</distance>
          <timeResidual>0.73</timeResidual>
          <creationInfo>
            <agencyID>UW</agencyID>
            <creationTime>2012-02-27T17:26:21.000000Z</creationTime>
          </creationInfo>
        </arrival>
        <arrival publicID="quakeml:uw.anss.org/AssocArO/UW/4174093">
          <pickID>quakeml:uw.anss.org/Arrival/UW/4174093</pickID>
          <phase>P</phase>
          <azimuth>178.2</azimuth>
          <distance>1.057</distance>
          <timeResidual>0.94</timeResidual>
          <creationInfo>
            <agencyID>UW</agencyID>
            <creationTime>2012-02-27T17:26:21.000000Z</creationTime>
          </creationInfo>
        </arrival>
      </origin>
      <magnitude publicID="quakeml:uw.anss.org/Netmag/UW/463778">
        <mag>
          <value>1.7</value>
          <uncertainty>0.09</uncertainty>
        </mag>
        <type>Md</type>
        <originID>quakeml:uw.anss.org/Origin/UW/553143</originID>
        <methodID>smi:uw.anss.org/magnitude/Crosson</methodID>
        <stationCount>4</stationCount>
        <evaluationMode>manual</evaluationMode>
        <evaluationStatus>final</evaluationStatus>
        <stationMagnitudeContribution>
          <stationMagnitudeID>quakeml:uw.anss.org/AssocCoM/UW/1161538</stationMagnitudeID>
          <weight>1.0</weight>
          <residual>0.05</residual>
        </stationMagnitudeContribution>
        <stationMagnitudeContribution>
          <stationMagnitudeID>quakeml:uw.anss.org/AssocCoM/UW/1161528</stationMagnitudeID>
          <weight>1.0</weight>
          <residual>0.08</residual>
        </stationMagnitudeContribution>
        <stationMagnitudeContribution>
          <stationMagnitudeID>quakeml:uw.anss.org/AssocCoM/UW/1161533</stationMagnitudeID>
          <weight>1.0</weight>
          <residual>-0.12</residual>
        </stationMagnitudeContribution>
        <stationMagnitudeContribution>
          <stationMagnitudeID>quakeml:uw.anss.org/AssocCoM/UW/1161543</stationMagnitudeID>
          <weight>1.0</weight>
          <residual>0.08</residual>
        </stationMagnitudeContribution>
        <creationInfo>
          <agencyID>UW</agencyID>
          <creationTime>2012-02-27T17:26:21.000000Z</creationTime>
        </creationInfo>
      </magnitude>
      <stationMagnitude publicID="quakeml:uw.anss.org/AssocCoM/UW/1161528">
        <originID>quakeml:uw.anss.org/Origin/UW/553143</originID>
        <mag>
          <value>1.78</value>
        </mag>
        <type>MD</type>
        <amplitudeID>quakeml:uw.anss.org/Coda/UW/1161528</amplitudeID>
        <waveformID networkCode="UW" stationCode="CMW" locationCode="" channelCode="EHZ"></waveformID>
      </stationMagnitude>
      <stationMagnitude publicID="quakeml:uw.anss.org/AssocCoM/UW/1161533">
        <originID>quakeml:uw.anss.org/Origin/UW/553143</originID>
        <mag>
          <value>1.58</value>
        </mag>
