<?xml version='1.0' encoding='utf-8'?>
<q:quakeml xmlns="http://quakeml.org/xmlns/bed/1.2" xmlns:q="http://quakeml.org/xmlns/quakeml/1.2" xmlns:ns0="http://anss.org/xmlns/catalog/0.1">
  <eventParameters publicID="smi:local/f2c87887-e466-4b16-95e0-f907b1f98549">
    <event publicID="quakeml:uw.anss.org/Event/UW/61166207" ns0:datasource="uw" ns0:dataid="uw61166207" ns0:eventsource="uw" ns0:eventid="61166207">
      <preferredOriginID>quakeml:uw.anss.org/Origin/UW/2516248</preferredOriginID>
      <preferredMagnitudeID>quakeml:uw.anss.org/Netmag/UW/2492183</preferredMagnitudeID>
      <type>earthquake</type>
      <creationInfo>
        <agencyID>UW</agencyID>
        <creationTime>2016-11-13T23:06:08.000000Z</creationTime>
        <version>5</version>
      </creationInfo>
      <origin publicID="quakeml:uw.anss.org/Origin/UW/2516248" ns0:datasource="uw" ns0:dataid="uw61166207" ns0:eventsource="uw" ns0:eventid="61166207">
        <time>
          <value>2016-07-14T16:12:46.260000Z</value>
        </time>
        <latitude>
          <value>48.7228333</value>
        </latitude>
        <longitude>
          <value>-122.0251667</value>
        </longitude>
        <depth>
          <value>3360.0</value>
          <uncertainty>8360.0</uncertainty>
        </depth>
        <depthType>operator assigned</depthType>
        <timeFixed>false</timeFixed>
        <epicenterFixed>false</epicenterFixed>
        <methodID>smi:uw.anss.org/origin/HYP2000</methodID>
        <quality>
          <associatedPhaseCount>12</associatedPhaseCount>
          <usedPhaseCount>10</usedPhaseCount>
          <associatedStationCount>8</associatedStationCount>
          <usedStationCount>6</usedStationCount>
          <standardError>0.08</standardError>
          <azimuthalGap>223.0</azimuthalGap>
          <secondaryAzimuthalGap>428.0</secondaryAzimuthalGap>
          <minimumDistance>0.1024</minimumDistance>
          <maximumDistance>0.9458</maximumDistance>
          <medianDistance>0.307</medianDistance>
        </quality>
        <type>hypocenter</type>
        <evaluationMode>manual</evaluationMode>
        <evaluationStatus>final</evaluationStatus>
        <creationInfo>
          <agencyID>UW</agencyID>
          <creationTime>2016-07-14T17:44:23.000000Z</creationTime>
        </creationInfo>
        <originUncertainty>
          <preferredDescription>confidence ellipsoid</preferredDescription>
          <horizontalUncertainty>660.0</horizontalUncertainty>
          <confidenceLevel>95.0</confidenceLevel>
          <confidenceEllipsoid>
            <semiMajorAxisLength>20064.0</semiMajorAxisLength>
            <semiMinorAxisLength>648.0</semiMinorAxisLength>
            <semiIntermediateAxisLength>1584.0</semiIntermediateAxisLength>
            <majorAxisPlunge>88.0</majorAxisPlunge>
            <majorAxisAzimuth>49.0</majorAxisAzimuth>
            <majorAxisRotation>7.0</majorAxisRotation>
          </confidenceEllipsoid>
        </originUncertainty>
        <arrival publicID="quakeml:uw.anss.org/AssocArO/UW/13588143">
          <pickID>quakeml:uw.anss.org/Arrival/UW/13588143</pickID>
          <phase>P</phase>
          <timeCorrection>0.0</timeCorrection>
          <azimuth>60.3</azimuth>
          <distance>0.2645</distance>
          <takeoffAngle>
            <value>90.0</value>
          </takeoffAngle>
          <timeResidual>0.04</timeResidual>
          <timeWeight>0.12</timeWeight>
          <creationInfo>
            <agencyID>UW</agencyID>
            <creationTime>2016-07-14T17:44:23.000000Z</creationTime>
          </creationInfo>
        </arrival>
        <arrival publicID="quakeml:uw.anss.org/AssocArO/UW/13588153">
          <pickID>quakeml:uw.anss.org/Arrival/UW/13588153</pickID>
          <phase>P</phase>
          <timeCorrection>0.35</timeCorrection>
          <azimuth>351.9</azimuth>
          <distance>0.2785</distance>
          <takeoffAngle>
            <value>90.0</value>
          </takeoffAngle>
          <timeResidual>-0.02</timeResidual>
          <timeWeight>0.12</timeWeight>
          <creationInfo>
            <agencyID>UW</agencyID>
            <creationTime>2016-07-14T17:44:23.000000Z</creationTime>
          </creationInfo>
        </arrival>
        <arrival publicID="quakeml:uw.anss.org/AssocArO/UW/13588158">
          <pickID>quakeml:uw.anss.org/Arrival/UW/13588158</pickID>
          <phase>S</phase>
          <timeCorrection>0.62</timeCorrection>
          <azimuth>351.9</azimuth>
          <distance>0.2785</distance>
          <takeoffAngle>
            <value>90.0</value>
          </takeoffAngle>
          <timeResidual>-0.17</timeResidual>
          <timeWeight>0.09</timeWeight>
          <creationInfo>
            <agencyID>UW</agencyID>
            <creationTime>2016-07-14T17:44:23.000000Z</creationTime>
          </creationInfo>
        </arrival>
        <arrival publicID="quakeml:uw.anss.org/AssocArO/UW/13588163">
          <pickID>quakeml:uw.anss.org/Arrival/UW/13588163</pickID>
          <phase>S</phase>
          <timeCorrection>0.43</timeCorrection>
          <azimuth>191.9</azimuth>
          <distance>0.3061</distance>
          <takeoffAngle>
            <value>90.0</value>
          </takeoffAngle>
          <timeResidual>-0.8</timeResidual>
          <timeWeight>0.0</timeWeight>
          <creationInfo>
            <agencyID>UW</agencyID>
            <creationTime>2016-07-14T17:44:23.000000Z</creationTime>
          </creationInfo>
        </arrival>
        <arrival publicID="quakeml:uw.anss.org/AssocArO/UW/13588173">
          <pickID>quakeml:uw.anss.org/Arrival/UW/13588173</pickID>
          <phase>S</phase>
          <timeCorrection>0.0</timeCorrection>
          <azimuth>350.5</azimuth>
          <distance>0.3078</distance>
          <takeoffAngle>
            <value>90.0</value>
          </takeoffAngle>
          <timeResidual>0.06</timeResidual>
          <timeWeight>0.09</timeWeight>
          <creationInfo>
            <agencyID>UW</agencyID>
            <creationTime>2016-07-14T17:44:23.000000Z</creationTime>
          </creationInfo>
        </arrival>
        <arrival publicID="quakeml:uw.anss.org/AssocArO/UW/13588183">
          <pickID>quakeml:uw.anss.org/Arrival/UW/13588183</pickID>
          <phase>S</phase>
          <timeCorrection>0.27</timeCorrection>
          <azimuth>119.6</azimuth>
          <distance>0.413</distance>
          <takeoffAngle>
            <value>90.0</value>
          </takeoffAngle>
          <timeResidual>-0.17</timeResidual>
          <timeWeight>0.09</timeWeight>
          <creationInfo>
            <agencyID>UW</agencyID>
            <creationTime>2016-07-14T17:44:23.000000Z</creationTime>
          </creationInfo>
        </arrival>
        <arrival publicID="quakeml:uw.anss.org/AssocArO/UW/13588188">
          <pickID>quakeml:uw.anss.org/Arrival/UW/13588188</pickID>
          <phase>P</phase>
          <timeCorrection>0.14</timeCorrection>
          <azimuth>128.9</azimuth>
          <distance>0.4363</distance>
          <takeoffAngle>
            <value>90.0</value>
          </takeoffAngle>
          <timeResidual>0.07</timeResidual>
          <timeWeight>0.12</timeWeight>
          <creationInfo>
            <agencyID>UW</agencyID>
            <creationTime>2016-07-14T17:44:23.000000Z</creationTime>
          </creationInfo>
        </arrival>
        <arrival publicID="quakeml:uw.anss.org/AssocArO/UW/13588193">
          <pickID>quakeml:uw.anss.org/Arrival/UW/13588193</pickID>
          <phase>S</phase>
          <timeCorrection>-1.28</timeCorrection>
          <azimuth>266.1</azimuth>
          <distance>0.9458</distance>
          <takeoffAngle>
            <value>75.0</value>
          </takeoffAngle>
          <timeResidual>0.9</timeResidual>
          <timeWeight>0.0</timeWeight>
          <creationInfo>
            <agencyID>UW</agencyID>
            <creationTime>2016-07-14T17:44:23.000000Z</creationTime>
          </creationInfo>
        </arrival>
        <arrival publicID="quakeml:uw.anss.org/AssocArO/UW/13588558">
          <pickID>quakeml:uw.anss.org/Arrival/UW/13588558</pickID>
          <phase>P</phase>
          <timeCorrection>0.38</timeCorrection>
          <azimuth>53.3</azimuth>
          <distance>0.1024</distance>
          <takeoffAngle>
            <value>93.0</value>
          </takeoffAngle>
          <timeResidual>-0.01</timeResidual>
          <timeWeight>0.12</timeWeight>
          <creationInfo>
            <agencyID>UW</agencyID>
            <creationTime>2016-07-14T17:44:23.000000Z</creationTime>
          </creationInfo>
        </arrival>
        <arrival publicID="quakeml:uw.anss.org/AssocArO/UW/13588563">
          <pickID>quakeml:uw.anss.org/Arrival/UW/13588563</pickID>
          <phase>S</phase>
          <timeCorrection>0.0</timeCorrection>
          <azimuth>60.3</azimuth>
          <distance>0.2645</distance>
          <takeoffAngle>
            <value>90.0</value>
          </takeoffAngle>
          <timeResidual>0.08</timeResidual>
          <timeWeight>0.09</timeWeight>
          <creationInfo>
            <agencyID>UW</agencyID>
            <creationTime>2016-07-14T17:44:23.000000Z</creationTime>
          </creationInfo>
        </arrival>
        <arrival publicID="quakeml:uw.anss.org/AssocArO/UW/13588568">
          <pickID>quakeml:uw.anss.org/Arrival/UW/13588568</pickID>
          <phase>P</phase>
          <timeCorrection>0.0</timeCorrection>
          <azimuth>350.5</azimuth>
          <distance>0.3078</distance>
          <takeoffAngle>
            <value>90.0</value>
          </takeoffAngle>
          <timeResidual>0.12</timeResidual>
          <timeWeight>0.06</timeWeight>
          <creationInfo>
            <agencyID>UW</agencyID>
            <creationTime>2016-07-14T17:44:23.000000Z</creationTime>
          </creationInfo>
        </arrival>
        <arrival publicID="quakeml:uw.anss.org/AssocArO/UW/13588573">
          <pickID>quakeml:uw.anss.org/Arrival/UW/13588573</pickID>
          <phase>P</phase>
          <timeCorrection>0.15</timeCorrection>
          <azimuth>119.6</azimuth>
          <distance>0.413</distance>
          <takeoffAngle>
            <value>90.0</value>
          </takeoffAngle>
          <timeResidual>0.02</timeResidual>
          <timeWeight>0.09</timeWeight>
          <creationInfo>
            <agencyID>UW</agencyID>
            <creationTime>2016-07-14T17:44:23.000000Z</creationTime>
          </creationInfo>
        </arrival>
      </origin>
      <magnitude publicID="quakeml:uw.anss.org/Netmag/UW/2492183">
        <mag>
          <value>1.23</value>
          <uncertainty>0.071</uncertainty>
        </mag>
        <type>Ml</type>
        <originID>quakeml:uw.anss.org/Origin/UW/2516248</originID>
        <methodID>smi:uw.anss.org/magnitude/RichterMl2</methodID>
        <stationCount>5</stationCount>
        <azimuthalGap>160.0</azimuthalGap>
        <evaluationMode>automatic</evaluationMode>
        <evaluationStatus>preliminary</evaluationStatus>
        <stationMagnitudeContribution>
          <stationMagnitudeID>quakeml:uw.anss.org/AssocAmM/UW/8938138</stationMagnitudeID>
          <weight>1.0</weight>
          <residual>-0.13</residual>
        </stationMagnitudeContribution>
        <stationMagnitudeContribution>
          <stationMagnitudeID>quakeml:uw.anss.org/AssocAmM/UW/8938153</stationMagnitudeID>
          <weight>0.0</weight>
          <residual>-0.46</residual>
        </stationMagnitudeContribution>
        <stationMagnitudeContribution>
          <stationMagnitudeID>quakeml:uw.anss.org/AssocAmM/UW/8938143</stationMagnitudeID>
          <weight>1.0</weight>
          <residual>-0.07</residual>
        </stationMagnitudeContribution>
        <stationMagnitudeContribution>
          <stationMagnitudeID>quakeml:uw.anss.org/AssocAmM/UW/8938163</stationMagnitudeID>
          <weight>1.0</weight>
          <residual>0.07</residual>
        </stationMagnitudeContribution>
        <stationMagnitudeContribution>
          <stationMagnitudeID>quakeml:uw.anss.org/AssocAmM/UW/8938133</stationMagnitudeID>
          <weight>1.0</weight>
          <residual>0.06</residual>
        </stationMagnitudeContribution>
        <stationMagnitudeContribution>
          <stationMagnitudeID>quakeml:uw.anss.org/AssocAmM/UW/8938168</stationMagnitudeID>
          <weight>1.0</weight>
          <residual>-0.16</residual>
        </stationMagnitudeContribution>
        <stationMagnitudeContribution>
          <stationMagnitudeID>quakeml:uw.anss.org/AssocAmM/UW/8938148</stationMagnitudeID>
          <weight>1.0</weight>
          <residual>0.0</residual>
        </stationMagnitudeContribution>
        <stationMagnitudeContribution>
          <stationMagnitudeID>quakeml:uw.anss.org/AssocAmM/UW/8938158</stationMagnitudeID>
          <weight>1.0</weight>
          <residual>0.13</residual>
        </stationMagnitudeContribution>
        <creationInfo>
          <agencyID>UW</agencyID>
          <creationTime>2016-11-13T23:06:08.000000Z</creationTime>
        </creationInfo>
      </magnitude>
      <stationMagnitude publicID="quakeml:uw.anss.org/AssocAmM/UW/8938133">
        <originID>quakeml:uw.anss.org/Origin/UW/2516248</originID>
        <mag>
          <value>1.29</value>
        </mag>
        <type>ML</type>
        <amplitudeID>quakeml:uw.anss.org/Amp/UW/8938133</amplitudeID>
        <waveformID networkCode="UW" stationCode="MBW" locationCode="" channelCode="EHZ"></waveformID>
      </stationMagnitude>
      <stationMagnitude publicID="quakeml:uw.anss.org/AssocAmM/UW/8938138">
        <originID>quakeml:uw.anss.org/Origin/UW/2516248</originID>
        <mag>
          <value>1.1</value>
        </mag>
        <type>ML</type>
        <amplitudeID>quakeml:uw.anss.org/Amp/UW/8938138</amplitudeID>
        <waveformID networkCode="UW" stationCode="PASS" locationCode="" channelCode="HHN"></waveformID>
      </stationMagnitude>
      <stationMagnitude publicID="quakeml:uw.anss.org/AssocAmM/UW/8938143">
        <originID>quakeml:uw.anss.org/Origin/UW/2516248</originID>
        <mag>
          <value>1.16</value>
        </mag>
        <type>ML</type>
        <amplitudeID>quakeml:uw.anss.org/Amp/UW/8938143</amplitudeID>
        <waveformID networkCode="UW" stationCode="PASS" locationCode="" channelCode="HHE"></waveformID>
      </stationMagnitude>
      <stationMagnitude publicID="quakeml:uw.anss.org/AssocAmM/UW/8938148">
        <originID>quakeml:uw.anss.org/Origin/UW/2516248</originID>
        <mag>
          <value>1.23</value>
        </mag>
        <type>ML</type>
        <amplitudeID>quakeml:uw.anss.org/Amp/UW/8938148</amplitudeID>
        <waveformID networkCode="UW" stationCode="CMW" locationCode="" channelCode="EHZ"></waveformID>
      </stationMagnitude>
      <stationMagnitude publicID="quakeml:uw.anss.org/AssocAmM/UW/8938153">
        <originID>quakeml:uw.anss.org/Origin/UW/2516248</originID>
        <mag>
          <value>0.77</value>
        </mag>
        <type>ML</type>
        <amplitudeID>quakeml:uw.anss.org/Amp/UW/8938153</amplitudeID>
        <waveformID networkCode="CN" stationCode="VDB" locationCode="" channelCode="EHZ"></waveformID>
      </stationMagnitude>
      <stationMagnitude publicID="quakeml:uw.anss.org/AssocAmM/UW/8938158">
        <originID>quakeml:uw.anss.org/Origin/UW/2516248</originID>
        <mag>
          <value>1.36</value>
        </mag>
        <type>ML</type>
        <amplitudeID>quakeml:uw.anss.org/Amp/UW/8938158</amplitudeID>
        <waveformID networkCode="UW" stationCode="MRBL" locationCode="" channelCode="HHN"></waveformID>
      </stationMagnitude>
      <stationMagnitude publicID="quakeml:uw.anss.org/AssocAmM/UW/8938163">
        <originID>quakeml:uw.anss.org/Origin/UW/2516248</originID>
        <mag>
          <value>1.3</value>
        </mag>
        <type>ML</type>
        <amplitudeID>quakeml:uw.anss.org/Amp/UW/8938163</amplitudeID>
        <waveformID networkCode="UW" stationCode="MRBL" locationCode="" channelCode="HHE"></waveformID>
      </stationMagnitude>
      <stationMagnitude publicID="quakeml:uw.anss.org/AssocAmM/UW/8938168">
        <originID>quakeml:uw.anss.org/Origin/UW/2516248</originID>
        <mag>
          <value>1.07</value>
        </mag>
        <type>ML</type>
        <amplitudeID>quakeml:uw.anss.org/Amp/UW/8938168</amplitudeID>
        <waveformID networkCode="UW" stationCode="RPW" locationCode="" channelCode="EHZ"></waveformID>
      </stationMagnitude>
      <pick publicID="quakeml:uw.anss.org/Arrival/UW/13588143">
        <time>
          <value>2016-07-14T16:12:51.300000Z</value>
          <uncertainty>0.03</uncertainty>
        </time>
        <waveformID networkCode="UW" stationCode="SHUK" locationCode="" channelCode="BHZ"></waveformID>
        <onset>impulsive</onset>
        <polarity>positive</polarity>
        <evaluationMode>manual</evaluationMode>
        <evaluationStatus>reviewed</evaluationStatus>
        <creationInfo>
          <agencyID>UW</agencyID>
          <creationTime>2016-07-14T17:11:53.000000Z</creationTime>
        </creationInfo>
      </pick>
      <pick publicID="quakeml:uw.anss.org/Arrival/UW/13588153">
        <time>
          <value>2016-07-14T16:12:51.840000Z</value>
          <uncertainty>0.03</uncertainty>
        </time>
        <waveformID networkCode="UW" stationCode="PASS" locationCode="" channelCode="HHZ"></waveformID>
        <onset>impulsive</onset>
        <polarity>positive</polarity>
        <evaluationMode>manual</evaluationMode>
        <evaluationStatus>reviewed</evaluationStatus>
        <creationInfo>
          <agencyID>UW</agencyID>
          <creationTime>2016-07-14T17:11:53.000000Z</creationTime>
        </creationInfo>
      </pick>
      <pick publicID="quakeml:uw.anss.org/Arrival/UW/13588158">
        <time>
          <value>2016-07-14T16:12:56.060000Z</value>
          <uncertainty>0.06</uncertainty>
        </time>
        <waveformID networkCode="UW" stationCode="PASS" locationCode="" channelCode="HHN"></waveformID>
        <onset>impulsive</onset>
        <polarity>undecidable</polarity>
        <evaluationMode>manual</evaluationMode>
        <evaluationStatus>reviewed</evaluationStatus>
        <creationInfo>
          <agencyID>UW</agencyID>
          <creationTime>2016-07-14T17:11:53.000000Z</creationTime>
        </creationInfo>
      </pick>
      <pick publicID="quakeml:uw.anss.org/Arrival/UW/13588163">
        <time>
          <value>2016-07-14T16:12:56.070000Z</value>
          <uncertainty>0.06</uncertainty>
        </time>
        <waveformID networkCode="UW" stationCode="CMW" locationCode="" channelCode="EHZ"></waveformID>
        <onset>impulsive</onset>
        <polarity>undecidable</polarity>
        <evaluationMode>manual</evaluationMode>
        <evaluationStatus>reviewed</evaluationStatus>
        <creationInfo>
          <agencyID>UW</agencyID>
          <creationTime>2016-07-14T17:11:53.000000Z</creationTime>
        </creationInfo>
      </pick>
      <pick publicID="quakeml:uw.anss.org/Arrival/UW/13588173">
        <time>
          <value>2016-07-14T16:12:56.560000Z</value>
          <uncertainty>0.06</uncertainty>
        </time>
        <waveformID networkCode="CN" stationCode="VDB" locationCode="" channelCode="EHZ"></waveformID>
        <onset>impulsive</onset>
        <polarity>undecidable</polarity>
        <evaluationMode>manual</evaluationMode>
        <evaluationStatus>reviewed</evaluationStatus>
        <creationInfo>
          <agencyID>UW</agencyID>
          <creationTime>2016-07-14T17:11:53.000000Z</creationTime>
        </creationInfo>
      </pick>
      <pick publicID="quakeml:uw.anss.org/Arrival/UW/13588183">
        <time>
          <value>2016-07-14T16:12:59.850000Z</value>
          <uncertainty>0.06</uncertainty>
        </time>
        <waveformID networkCode="UW" stationCode="MRBL" locationCode="" channelCode="HHE"></waveformID>
        <onset>impulsive</onset>
