<?xml version='1.0' encoding='utf-8'?>
<q:quakeml xmlns="http://quakeml.org/xmlns/bed/1.2" xmlns:q="http://quakeml.org/xmlns/quakeml/1.2" xmlns:ns0="http://anss.org/xmlns/catalog/0.1">
  <eventParameters publicID="smi:local/b69482db-061c-4f12-8906-ea1d1da92157">
    <event publicID="quakeml:uw.anss.org/Event/UW/61142277" ns0:datasource="uw" ns0:dataid="uw61142277" ns0:eventsource="uw" ns0:eventid="61142277">
      <preferredOriginID>quakeml:uw.anss.org/Origin/UW/2469268</preferredOriginID>
      <preferredMagnitudeID>quakeml:uw.anss.org/Netmag/UW/2231033</preferredMagnitudeID>
      <type>earthquake</type>
      <creationInfo>
        <agencyID>UW</agencyID>
        <creationTime>2016-05-22T23:33:32.000000Z</creationTime>
        <version>4</version>
      </creationInfo>
      <origin publicID="quakeml:uw.anss.org/Origin/UW/2469268" ns0:datasource="uw" ns0:dataid="uw61142277" ns0:eventsource="uw" ns0:eventid="61142277">
        <time>
          <value>2016-05-22T04:17:19.600000Z</value>
        </time>
        <latitude>
          <value>48.739</value>
        </latitude>
        <longitude>
          <value>-121.8528333</value>
        </longitude>
        <depth>
          <value>-770.0</value>
          <uncertainty>2670.0</uncertainty>
        </depth>
        <depthType>from location</depthType>
        <timeFixed>false</timeFixed>
        <epicenterFixed>false</epicenterFixed>
        <methodID>smi:uw.anss.org/origin/HYP2000</methodID>
        <quality>
          <associatedPhaseCount>6</associatedPhaseCount>
          <usedPhaseCount>6</usedPhaseCount>
          <associatedStationCount>6</associatedStationCount>
          <usedStationCount>6</usedStationCount>
          <standardError>0.24</standardError>
          <azimuthalGap>183.0</azimuthalGap>
          <secondaryAzimuthalGap>456.0</secondaryAzimuthalGap>
          <minimumDistance>0.05497</minimumDistance>
          <maximumDistance>0.3675</maximumDistance>
          <medianDistance>0.3154</medianDistance>
        </quality>
        <type>hypocenter</type>
        <evaluationMode>manual</evaluationMode>
        <evaluationStatus>final</evaluationStatus>
        <creationInfo>
          <agencyID>UW</agencyID>
          <creationTime>2016-05-22T23:33:31.000000Z</creationTime>
        </creationInfo>
        <originUncertainty>
          <preferredDescription>confidence ellipsoid</preferredDescription>
          <horizontalUncertainty>1540.0</horizontalUncertainty>
          <confidenceLevel>95.0</confidenceLevel>
          <confidenceEllipsoid>
            <semiMajorAxisLength>7392.0</semiMajorAxisLength>
            <semiMinorAxisLength>1920.0</semiMinorAxisLength>
            <semiIntermediateAxisLength>3216.0</semiIntermediateAxisLength>
            <majorAxisPlunge>60.0</majorAxisPlunge>
            <majorAxisAzimuth>36.0</majorAxisAzimuth>
            <majorAxisRotation>10.0</majorAxisRotation>
          </confidenceEllipsoid>
        </originUncertainty>
        <arrival publicID="quakeml:uw.anss.org/AssocArO/UW/13495933">
          <pickID>quakeml:uw.anss.org/Arrival/UW/13495933</pickID>
          <phase>P</phase>
          <timeCorrection>0.38</timeCorrection>
          <azimuth>324.8</azimuth>
          <distance>0.05497</distance>
          <takeoffAngle>
            <value>90.0</value>
          </takeoffAngle>
          <timeResidual>-0.35</timeResidual>
          <timeWeight>0.12</timeWeight>
          <creationInfo>
            <agencyID>UW</agencyID>
            <creationTime>2016-05-22T23:33:32.000000Z</creationTime>
          </creationInfo>
        </arrival>
        <arrival publicID="quakeml:uw.anss.org/AssocArO/UW/13497428">
          <pickID>quakeml:uw.anss.org/Arrival/UW/13497428</pickID>
          <phase>P</phase>
          <timeCorrection>0.0</timeCorrection>
          <azimuth>45.4</azimuth>
          <distance>0.1628</distance>
          <takeoffAngle>
            <value>90.0</value>
          </takeoffAngle>
          <timeResidual>-0.08</timeResidual>
          <timeWeight>0.12</timeWeight>
          <creationInfo>
            <agencyID>UW</agencyID>
            <creationTime>2016-05-22T23:33:32.000000Z</creationTime>
          </creationInfo>
        </arrival>
        <arrival publicID="quakeml:uw.anss.org/AssocArO/UW/13497433">
          <pickID>quakeml:uw.anss.org/Arrival/UW/13497433</pickID>
          <phase>P</phase>
          <timeCorrection>0.35</timeCorrection>
          <azimuth>329.6</azimuth>
          <distance>0.3015</distance>
          <takeoffAngle>
            <value>57.0</value>
          </takeoffAngle>
          <timeResidual>0.11</timeResidual>
          <timeWeight>0.08</timeWeight>
          <creationInfo>
            <agencyID>UW</agencyID>
            <creationTime>2016-05-22T23:33:32.000000Z</creationTime>
          </creationInfo>
        </arrival>
        <arrival publicID="quakeml:uw.anss.org/AssocArO/UW/13497438">
          <pickID>quakeml:uw.anss.org/Arrival/UW/13497438</pickID>
          <phase>P</phase>
          <timeCorrection>0.15</timeCorrection>
          <azimuth>132.1</azimuth>
          <distance>0.3294</distance>
          <takeoffAngle>
            <value>57.0</value>
          </takeoffAngle>
          <timeResidual>0.03</timeResidual>
          <timeWeight>0.08</timeWeight>
          <creationInfo>
            <agencyID>UW</agencyID>
            <creationTime>2016-05-22T23:33:32.000000Z</creationTime>
          </creationInfo>
        </arrival>
        <arrival publicID="quakeml:uw.anss.org/AssocArO/UW/13497443">
          <pickID>quakeml:uw.anss.org/Arrival/UW/13497443</pickID>
          <phase>P</phase>
          <timeCorrection>0.0</timeCorrection>
          <azimuth>330.3</azimuth>
          <distance>0.3314</distance>
          <takeoffAngle>
            <value>57.0</value>
          </takeoffAngle>
          <timeResidual>0.33</timeResidual>
          <timeWeight>0.12</timeWeight>
          <creationInfo>
            <agencyID>UW</agencyID>
            <creationTime>2016-05-22T23:33:32.000000Z</creationTime>
          </creationInfo>
        </arrival>
        <arrival publicID="quakeml:uw.anss.org/AssocArO/UW/13497448">
          <pickID>quakeml:uw.anss.org/Arrival/UW/13497448</pickID>
          <phase>P</phase>
          <timeCorrection>0.14</timeCorrection>
          <azimuth>142.3</azimuth>
          <distance>0.3675</distance>
          <takeoffAngle>
            <value>57.0</value>
          </takeoffAngle>
          <timeResidual>-0.09</timeResidual>
          <timeWeight>0.08</timeWeight>
          <creationInfo>
            <agencyID>UW</agencyID>
            <creationTime>2016-05-22T23:33:32.000000Z</creationTime>
          </creationInfo>
        </arrival>
      </origin>
      <magnitude publicID="quakeml:uw.anss.org/Netmag/UW/2231033">
        <mag>
          <value>1.2</value>
          <uncertainty>0.061</uncertainty>
        </mag>
        <type>Ml</type>
        <originID>quakeml:uw.anss.org/Origin/UW/2469268</originID>
        <methodID>smi:uw.anss.org/magnitude/RichterMl2</methodID>
        <stationCount>6</stationCount>
        <azimuthalGap>120.2</azimuthalGap>
        <evaluationMode>manual</evaluationMode>
        <evaluationStatus>reviewed</evaluationStatus>
        <stationMagnitudeContribution>
          <stationMagnitudeID>quakeml:uw.anss.org/AssocAmM/UW/6686833</stationMagnitudeID>
          <weight>1.0</weight>
          <residual>-0.14</residual>
        </stationMagnitudeContribution>
        <stationMagnitudeContribution>
          <stationMagnitudeID>quakeml:uw.anss.org/AssocAmM/UW/6686853</stationMagnitudeID>
          <weight>0.0</weight>
          <residual>-0.56</residual>
        </stationMagnitudeContribution>
        <stationMagnitudeContribution>
          <stationMagnitudeID>quakeml:uw.anss.org/AssocAmM/UW/6686858</stationMagnitudeID>
          <weight>1.0</weight>
          <residual>0.11</residual>
        </stationMagnitudeContribution>
        <stationMagnitudeContribution>
          <stationMagnitudeID>quakeml:uw.anss.org/AssocAmM/UW/6686838</stationMagnitudeID>
          <weight>1.0</weight>
          <residual>0.0</residual>
        </stationMagnitudeContribution>
        <stationMagnitudeContribution>
          <stationMagnitudeID>quakeml:uw.anss.org/AssocAmM/UW/6686823</stationMagnitudeID>
          <weight>1.0</weight>
          <residual>-0.04</residual>
        </stationMagnitudeContribution>
        <stationMagnitudeContribution>
          <stationMagnitudeID>quakeml:uw.anss.org/AssocAmM/UW/6686828</stationMagnitudeID>
          <weight>1.0</weight>
          <residual>0.08</residual>
        </stationMagnitudeContribution>
        <stationMagnitudeContribution>
          <stationMagnitudeID>quakeml:uw.anss.org/AssocAmM/UW/6686863</stationMagnitudeID>
          <weight>1.0</weight>
          <residual>0.02</residual>
        </stationMagnitudeContribution>
        <stationMagnitudeContribution>
          <stationMagnitudeID>quakeml:uw.anss.org/AssocAmM/UW/6686868</stationMagnitudeID>
          <weight>1.0</weight>
          <residual>-0.1</residual>
        </stationMagnitudeContribution>
        <stationMagnitudeContribution>
          <stationMagnitudeID>quakeml:uw.anss.org/AssocAmM/UW/6686843</stationMagnitudeID>
          <weight>0.0</weight>
          <residual>0.26</residual>
        </stationMagnitudeContribution>
        <stationMagnitudeContribution>
          <stationMagnitudeID>quakeml:uw.anss.org/AssocAmM/UW/6686848</stationMagnitudeID>
          <weight>1.0</weight>
          <residual>0.0</residual>
        </stationMagnitudeContribution>
        <creationInfo>
          <agencyID>UW</agencyID>
          <creationTime>2016-05-22T23:33:32.000000Z</creationTime>
        </creationInfo>
      </magnitude>
      <stationMagnitude publicID="quakeml:uw.anss.org/AssocAmM/UW/6686823">
        <originID>quakeml:uw.anss.org/Origin/UW/2469268</originID>
        <mag>
          <value>1.16</value>
        </mag>
        <type>ML</type>
        <amplitudeID>quakeml:uw.anss.org/Amp/UW/6686823</amplitudeID>
        <waveformID networkCode="UW" stationCode="SHUK" locationCode="" channelCode="BHN"></waveformID>
      </stationMagnitude>
      <stationMagnitude publicID="quakeml:uw.anss.org/AssocAmM/UW/6686828">
        <originID>quakeml:uw.anss.org/Origin/UW/2469268</originID>
        <mag>
          <value>1.28</value>
        </mag>
        <type>ML</type>
        <amplitudeID>quakeml:uw.anss.org/Amp/UW/6686828</amplitudeID>
        <waveformID networkCode="UW" stationCode="SHUK" locationCode="" channelCode="BHE"></waveformID>
      </stationMagnitude>
      <stationMagnitude publicID="quakeml:uw.anss.org/AssocAmM/UW/6686833">
        <originID>quakeml:uw.anss.org/Origin/UW/2469268</originID>
        <mag>
          <value>1.06</value>
        </mag>
        <type>ML</type>
        <amplitudeID>quakeml:uw.anss.org/Amp/UW/6686833</amplitudeID>
        <waveformID networkCode="UW" stationCode="PASS" locationCode="" channelCode="HHN"></waveformID>
      </stationMagnitude>
      <stationMagnitude publicID="quakeml:uw.anss.org/AssocAmM/UW/6686838">
        <originID>quakeml:uw.anss.org/Origin/UW/2469268</originID>
        <mag>
          <value>1.2</value>
        </mag>
        <type>ML</type>
        <amplitudeID>quakeml:uw.anss.org/Amp/UW/6686838</amplitudeID>
        <waveformID networkCode="UW" stationCode="PASS" locationCode="" channelCode="HHE"></waveformID>
      </stationMagnitude>
      <stationMagnitude publicID="quakeml:uw.anss.org/AssocAmM/UW/6686843">
        <originID>quakeml:uw.anss.org/Origin/UW/2469268</originID>
        <mag>
          <value>1.46</value>
        </mag>
        <type>ML</type>
        <amplitudeID>quakeml:uw.anss.org/Amp/UW/6686843</amplitudeID>
        <waveformID networkCode="UW" stationCode="MRBL" locationCode="" channelCode="HHN"></waveformID>
      </stationMagnitude>
      <stationMagnitude publicID="quakeml:uw.anss.org/AssocAmM/UW/6686848">
        <originID>quakeml:uw.anss.org/Origin/UW/2469268</originID>
        <mag>
          <value>1.2</value>
        </mag>
        <type>ML</type>
        <amplitudeID>quakeml:uw.anss.org/Amp/UW/6686848</amplitudeID>
        <waveformID networkCode="UW" stationCode="MRBL" locationCode="" channelCode="HHE"></waveformID>
      </stationMagnitude>
      <stationMagnitude publicID="quakeml:uw.anss.org/AssocAmM/UW/6686853">
        <originID>quakeml:uw.anss.org/Origin/UW/2469268</originID>
        <mag>
          <value>0.64</value>
        </mag>
        <type>ML</type>
        <amplitudeID>quakeml:uw.anss.org/Amp/UW/6686853</amplitudeID>
        <waveformID networkCode="CN" stationCode="VDB" locationCode="" channelCode="EHZ"></waveformID>
      </stationMagnitude>
      <stationMagnitude publicID="quakeml:uw.anss.org/AssocAmM/UW/6686858">
        <originID>quakeml:uw.anss.org/Origin/UW/2469268</originID>
        <mag>
          <value>1.31</value>
        </mag>
        <type>ML</type>
        <amplitudeID>quakeml:uw.anss.org/Amp/UW/6686858</amplitudeID>
        <waveformID networkCode="UW" stationCode="CMW" locationCode="" channelCode="EHZ"></waveformID>
      </stationMagnitude>
      <stationMagnitude publicID="quakeml:uw.anss.org/AssocAmM/UW/6686863">
        <originID>quakeml:uw.anss.org/Origin/UW/2469268</originID>
        <mag>
          <value>1.22</value>
        </mag>
        <type>ML</type>
        <amplitudeID>quakeml:uw.anss.org/Amp/UW/6686863</amplitudeID>
        <waveformID networkCode="UW" stationCode="RPW" locationCode="" channelCode="EHZ"></waveformID>
      </stationMagnitude>
      <stationMagnitude publicID="quakeml:uw.anss.org/AssocAmM/UW/6686868">
        <originID>quakeml:uw.anss.org/Origin/UW/2469268</originID>
        <mag>
          <value>1.1</value>
        </mag>
        <type>ML</type>
        <amplitudeID>quakeml:uw.anss.org/Amp/UW/6686868</amplitudeID>
        <waveformID networkCode="UW" stationCode="GPW" locationCode="" channelCode="EHZ"></waveformID>
      </stationMagnitude>
      <pick publicID="quakeml:uw.anss.org/Arrival/UW/13495933">
        <time>
          <value>2016-05-22T04:17:20.760000Z</value>
          <uncertainty>0.06</uncertainty>
        </time>
        <waveformID networkCode="UW" stationCode="MBW" locationCode="" channelCode="EHZ"></waveformID>
        <onset>impulsive</onset>
        <polarity>negative</polarity>
        <evaluationMode>manual</evaluationMode>
        <evaluationStatus>reviewed</evaluationStatus>
        <creationInfo>
          <agencyID>UW</agencyID>
          <creationTime>2016-05-22T15:42:04.000000Z</creationTime>
        </creationInfo>
      </pick>
      <pick publicID="quakeml:uw.anss.org/Arrival/UW/13497428">
        <time>
          <value>2016-05-22T04:17:22.860000Z</value>
          <uncertainty>0.06</uncertainty>
        </time>
        <waveformID networkCode="UW" stationCode="SHUK" locationCode="" channelCode="BHZ"></waveformID>
        <onset>impulsive</onset>
        <polarity>negative</polarity>
        <evaluationMode>manual</evaluationMode>
        <evaluationStatus>reviewed</evaluationStatus>
        <creationInfo>
          <agencyID>UW</agencyID>
          <creationTime>2016-05-22T23:33:32.000000Z</creationTime>
        </creationInfo>
      </pick>
      <pick publicID="quakeml:uw.anss.org/Arrival/UW/13497433">
        <time>
          <value>2016-05-22T04:17:26.090000Z</value>
          <uncertainty>0.15</uncertainty>
        </time>
        <waveformID networkCode="UW" stationCode="PASS" locationCode="" channelCode="HHZ"></waveformID>
        <onset>emergent</onset>
        <polarity>undecidable</polarity>
        <evaluationMode>manual</evaluationMode>
        <evaluationStatus>reviewed</evaluationStatus>
        <creationInfo>
          <agencyID>UW</agencyID>
          <creationTime>2016-05-22T23:33:32.000000Z</creationTime>
        </creationInfo>
      </pick>
      <pick publicID="quakeml:uw.anss.org/Arrival/UW/13497438">
        <time>
          <value>2016-05-22T04:17:26.300000Z</value>
          <uncertainty>0.15</uncertainty>
        </time>
        <waveformID networkCode="UW" stationCode="MRBL" locationCode="" channelCode="HHZ"></waveformID>
        <onset>emergent</onset>
        <polarity>undecidable</polarity>
        <evaluationMode>manual</evaluationMode>
        <evaluationStatus>reviewed</evaluationStatus>
        <creationInfo>
          <agencyID>UW</agencyID>
          <creationTime>2016-05-22T23:33:32.000000Z</creationTime>
        </creationInfo>
      </pick>
      <pick publicID="quakeml:uw.anss.org/Arrival/UW/13497443">
        <time>
          <value>2016-05-22T04:17:26.480000Z</value>
          <uncertainty>0.06</uncertainty>
        </time>
        <waveformID networkCode="CN" stationCode="VDB" locationCode="" channelCode="EHZ"></waveformID>
        <onset>impulsive</onset>
        <polarity>positive</polarity>
        <evaluationMode>manual</evaluationMode>
        <evaluationStatus>reviewed</evaluationStatus>
        <creationInfo>
          <agencyID>UW</agencyID>
          <creationTime>2016-05-22T23:33:32.000000Z</creationTime>
        </creationInfo>
      </pick>
      <pick publicID="quakeml:uw.anss.org/Arrival/UW/13497448">
        <time>
          <value>2016-05-22T04:17:26.840000Z</value>
          <uncertainty>0.15</uncertainty>
        </time>
        <waveformID networkCode="UW" stationCode="RPW" locationCode="" channelCode="EHZ"></waveformID>
        <onset>emergent</onset>
        <polarity>undecidable</polarity>
        <evaluationMode>manual</evaluationMode>
        <evaluationStatus>reviewed</evaluationStatus>
        <creationInfo>
          <agencyID>UW</agencyID>
          <creationTime>2016-05-22T23:33:32.000000Z</creationTime>
        </creationInfo>
      </pick>
      <amplitude publicID="quakeml:uw.anss.org/Amp/UW/6686853">
        <genericAmplitude>
          <value>2.2471e-05</value>
        </genericAmplitude>
        <type>AML</type>
        <category>point</category>
        <unit>m</unit>
        <waveformID networkCode="CN" stationCode="VDB" locationCode="" channelCode="EHZ"></waveformID>
        <magnitudeHint>ML</magnitudeHint>
        <evaluationMode>manual</evaluationMode>
        <evaluationStatus>reviewed</evaluationStatus>
      </amplitude>
      <amplitude publicID="quakeml:uw.anss.org/Amp/UW/6686858">
        <genericAmplitude>
          <value>3.1625e-05</value>
        </genericAmplitude>
        <type>AML</type>
        <category>point</category>
        <unit>m</unit>
        <waveformID networkCode="UW" stationCode="CMW" locationCode="" channelCode="EHZ"></waveformID>
        <magnitudeHint>ML</magnitudeHint>
        <evaluationMode>manual</evaluationMode>
        <evaluationStatus>reviewed</evaluationStatus>
      </amplitude>
      <amplitude publicID="quakeml:uw.anss.org/Amp/UW/6686868">
        <genericAmplitude>
          <value>3.2922e-05</value>
        </genericAmplitude>
        <type>AML</type>
        <category>point</category>
        <unit>m</unit>
        <waveformID networkCode="UW" stationCode="GPW" locationCode="" channelCode="EHZ"></waveformID>
        <magnitudeHint>ML</magnitudeHint>
        <evaluationMode>manual</evaluationMode>
        <evaluationStatus>reviewed</evaluationStatus>
      </amplitude>
      <amplitude publicID="quakeml:uw.anss.org/Amp/UW/6686848">
        <genericAmplitude>
          <value>0.00011774</value>
        </genericAmplitude>
        <type>AML</type>
        <category>point</category>
        <unit>m</unit>
        <waveformID networkCode="UW" stationCode="MRBL" locationCode="" channelCode="HHE"></waveformID>
        <magnitudeHint>ML</magnitudeHint>
        <evaluationMode>manual</evaluationMode>
        <evaluationStatus>reviewed</evaluationStatus>
      </amplitude>
      <amplitude publicID="quakeml:uw.anss.org/Amp/UW/6686843">
        <genericAmplitude>
          <value>0.00021435</value>
