<?xml version='1.0' encoding='utf-8'?>
<q:quakeml xmlns="http://quakeml.org/xmlns/bed/1.2" xmlns:q="http://quakeml.org/xmlns/quakeml/1.2" xmlns:ns0="http://anss.org/xmlns/catalog/0.1">
  <eventParameters publicID="smi:local/0e126192-9ba7-48e1-8428-037b71030803">
    <event publicID="quakeml:uw.anss.org/Event/UW/10678898" ns0:datasource="uw" ns0:dataid="uw10678898" ns0:eventsource="uw" ns0:eventid="10678898">
      <preferredOriginID>quakeml:uw.anss.org/Origin/UW/961153</preferredOriginID>
      <preferredMagnitudeID>quakeml:uw.anss.org/Netmag/UW/751998</preferredMagnitudeID>
      <type>earthquake</type>
      <creationInfo>
        <agencyID>UW</agencyID>
        <creationTime>2012-03-05T18:05:44.000000Z</creationTime>
        <version>3</version>
      </creationInfo>
      <origin publicID="quakeml:uw.anss.org/Origin/UW/961153" ns0:datasource="uw" ns0:dataid="uw10678898" ns0:eventsource="uw" ns0:eventid="10678898">
        <time>
          <value>2005-12-01T13:30:03.130000Z</value>
          <uncertainty>0.11</uncertainty>
        </time>
        <latitude>
          <value>48.7931667</value>
          <uncertainty>0.82</uncertainty>
        </latitude>
        <longitude>
          <value>-122.0211667</value>
          <uncertainty>0.65</uncertainty>
        </longitude>
        <depth>
          <value>13194.0</value>
          <uncertainty>1360.0</uncertainty>
        </depth>
        <depthType>from location</depthType>
        <timeFixed>false</timeFixed>
        <epicenterFixed>false</epicenterFixed>
        <methodID>smi:uw.anss.org/origin/spong</methodID>
        <quality>
          <associatedPhaseCount>6</associatedPhaseCount>
          <usedPhaseCount>6</usedPhaseCount>
          <associatedStationCount>4</associatedStationCount>
          <usedStationCount>0</usedStationCount>
          <standardError>0.1</standardError>
          <azimuthalGap>172.0</azimuthalGap>
        </quality>
        <type>hypocenter</type>
        <evaluationMode>manual</evaluationMode>
        <evaluationStatus>final</evaluationStatus>
        <creationInfo>
          <agencyID>UW</agencyID>
          <creationTime>2012-03-05T18:05:44.000000Z</creationTime>
        </creationInfo>
        <originUncertainty>
          <preferredDescription>horizontal uncertainty</preferredDescription>
          <horizontalUncertainty>1046.0</horizontalUncertainty>
        </originUncertainty>
        <arrival publicID="quakeml:uw.anss.org/AssocArO/UW/8880308">
          <pickID>quakeml:uw.anss.org/Arrival/UW/8880308</pickID>
          <phase>P</phase>
          <azimuth>174.0</azimuth>
          <timeResidual>0.16</timeResidual>
          <creationInfo>
            <agencyID>UW</agencyID>
            <creationTime>2012-03-05T18:05:44.000000Z</creationTime>
          </creationInfo>
        </arrival>
        <arrival publicID="quakeml:uw.anss.org/AssocArO/UW/8880313">
          <pickID>quakeml:uw.anss.org/Arrival/UW/8880313</pickID>
          <phase>S</phase>
          <azimuth>174.0</azimuth>
          <timeResidual>-0.12</timeResidual>
          <creationInfo>
            <agencyID>UW</agencyID>
            <creationTime>2012-03-05T18:05:44.000000Z</creationTime>
          </creationInfo>
        </arrival>
        <arrival publicID="quakeml:uw.anss.org/AssocArO/UW/8880318">
          <pickID>quakeml:uw.anss.org/Arrival/UW/8880318</pickID>
          <phase>P</phase>
          <azimuth>96.7</azimuth>
          <distance>0.08009</distance>
          <timeResidual>0.04</timeResidual>
          <creationInfo>
            <agencyID>UW</agencyID>
            <creationTime>2012-03-05T18:05:44.000000Z</creationTime>
          </creationInfo>
        </arrival>
        <arrival publicID="quakeml:uw.anss.org/AssocArO/UW/8880323">
          <pickID>quakeml:uw.anss.org/Arrival/UW/8880323</pickID>
          <phase>P</phase>
          <distance>0.2393</distance>
          <timeResidual>-0.15</timeResidual>
          <creationInfo>
            <agencyID>UW</agencyID>
            <creationTime>2012-03-05T18:05:44.000000Z</creationTime>
          </creationInfo>
        </arrival>
        <arrival publicID="quakeml:uw.anss.org/AssocArO/UW/8880333">
          <pickID>quakeml:uw.anss.org/Arrival/UW/8880333</pickID>
          <phase>P</phase>
          <azimuth>135.7</azimuth>
          <distance>0.4818</distance>
          <timeResidual>0.03</timeResidual>
          <creationInfo>
            <agencyID>UW</agencyID>
            <creationTime>2012-03-05T18:05:44.000000Z</creationTime>
          </creationInfo>
        </arrival>
        <arrival publicID="quakeml:uw.anss.org/AssocArO/UW/8880338">
          <pickID>quakeml:uw.anss.org/Arrival/UW/8880338</pickID>
          <phase>S</phase>
          <azimuth>135.7</azimuth>
          <distance>0.4818</distance>
          <timeResidual>-0.03</timeResidual>
          <creationInfo>
            <agencyID>UW</agencyID>
            <creationTime>2012-03-05T18:05:44.000000Z</creationTime>
          </creationInfo>
        </arrival>
      </origin>
      <magnitude publicID="quakeml:uw.anss.org/Netmag/UW/751998">
        <mag>
          <value>0.4</value>
          <uncertainty>0.05</uncertainty>
        </mag>
        <type>Md</type>
        <originID>quakeml:uw.anss.org/Origin/UW/961153</originID>
        <methodID>smi:uw.anss.org/magnitude/Crosson</methodID>
        <stationCount>2</stationCount>
        <evaluationMode>manual</evaluationMode>
        <evaluationStatus>final</evaluationStatus>
        <stationMagnitudeContribution>
          <stationMagnitudeID>quakeml:uw.anss.org/AssocCoM/UW/2073518</stationMagnitudeID>
          <weight>1.0</weight>
          <residual>0.18</residual>
        </stationMagnitudeContribution>
        <stationMagnitudeContribution>
          <stationMagnitudeID>quakeml:uw.anss.org/AssocCoM/UW/2073513</stationMagnitudeID>
          <weight>1.0</weight>
          <residual>-0.31</residual>
        </stationMagnitudeContribution>
        <creationInfo>
          <agencyID>UW</agencyID>
          <creationTime>2012-03-05T18:05:44.000000Z</creationTime>
        </creationInfo>
      </magnitude>
      <stationMagnitude publicID="quakeml:uw.anss.org/AssocCoM/UW/2073513">
        <originID>quakeml:uw.anss.org/Origin/UW/961153</originID>
        <mag>
          <value>0.09</value>
        </mag>
        <type>MD</type>
        <amplitudeID>quakeml:uw.anss.org/Coda/UW/2073513</amplitudeID>
        <waveformID networkCode="UW" stationCode="MBW" locationCode="" channelCode="EHZ"></waveformID>
      </stationMagnitude>
      <stationMagnitude publicID="quakeml:uw.anss.org/AssocCoM/UW/2073518">
        <originID>quakeml:uw.anss.org/Origin/UW/961153</originID>
        <mag>
          <value>0.58</value>
        </mag>
        <type>MD</type>
        <amplitudeID>quakeml:uw.anss.org/Coda/UW/2073518</amplitudeID>
        <waveformID networkCode="UW" stationCode="RPW" locationCode="" channelCode="EHZ"></waveformID>
      </stationMagnitude>
      <pick publicID="quakeml:uw.anss.org/Arrival/UW/8880308">
        <time>
          <value>2005-12-01T13:30:14.040000Z</value>
          <uncertainty>0.06</uncertainty>
        </time>
        <waveformID networkCode="UW" stationCode="JCW" locationCode="" channelCode="EHZ"></waveformID>
        <polarity>undecidable</polarity>
        <evaluationMode>manual</evaluationMode>
        <evaluationStatus>final</evaluationStatus>
        <creationInfo>
          <agencyID>UW</agencyID>
          <creationTime>2012-03-05T18:05:44.000000Z</creationTime>
        </creationInfo>
      </pick>
      <pick publicID="quakeml:uw.anss.org/Arrival/UW/8880313">
        <time>
          <value>2005-12-01T13:30:22.150000Z</value>
          <uncertainty>0.06</uncertainty>
        </time>
        <waveformID networkCode="UW" stationCode="JCW" locationCode="" channelCode="EHZ"></waveformID>
        <polarity>undecidable</polarity>
        <evaluationMode>manual</evaluationMode>
        <evaluationStatus>final</evaluationStatus>
        <creationInfo>
          <agencyID>UW</agencyID>
          <creationTime>2012-03-05T18:05:44.000000Z</creationTime>
        </creationInfo>
      </pick>
      <pick publicID="quakeml:uw.anss.org/Arrival/UW/8880318">
        <time>
          <value>2005-12-01T13:30:06.230000Z</value>
          <uncertainty>0.03</uncertainty>
        </time>
        <waveformID networkCode="UW" stationCode="MBW" locationCode="" channelCode="EHZ"></waveformID>
        <polarity>undecidable</polarity>
        <evaluationMode>manual</evaluationMode>
        <evaluationStatus>final</evaluationStatus>
        <creationInfo>
          <agencyID>UW</agencyID>
          <creationTime>2012-03-05T18:05:44.000000Z</creationTime>
        </creationInfo>
      </pick>
      <pick publicID="quakeml:uw.anss.org/Arrival/UW/8880323">
        <time>
          <value>2005-12-01T13:30:07.850000Z</value>
          <uncertainty>0.14</uncertainty>
        </time>
        <waveformID networkCode="CN" stationCode="VDB" locationCode="" channelCode="EHZ"></waveformID>
        <polarity>undecidable</polarity>
        <evaluationMode>manual</evaluationMode>
        <evaluationStatus>final</evaluationStatus>
        <creationInfo>
          <agencyID>UW</agencyID>
          <creationTime>2012-03-05T18:05:44.000000Z</creationTime>
        </creationInfo>
      </pick>
      <pick publicID="quakeml:uw.anss.org/Arrival/UW/8880333">
        <time>
          <value>2005-12-01T13:30:12.170000Z</value>
          <uncertainty>0.02</uncertainty>
        </time>
        <waveformID networkCode="UW" stationCode="RPW" locationCode="" channelCode="EHZ"></waveformID>
        <polarity>undecidable</polarity>
        <evaluationMode>manual</evaluationMode>
        <evaluationStatus>final</evaluationStatus>
        <creationInfo>
          <agencyID>UW</agencyID>
          <creationTime>2012-03-05T18:05:44.000000Z</creationTime>
        </creationInfo>
      </pick>
      <pick publicID="quakeml:uw.anss.org/Arrival/UW/8880338">
        <time>
          <value>2005-12-01T13:30:19.130000Z</value>
          <uncertainty>0.02</uncertainty>
        </time>
        <waveformID networkCode="UW" stationCode="RPW" locationCode="" channelCode="EHZ"></waveformID>
        <polarity>undecidable</polarity>
        <evaluationMode>manual</evaluationMode>
        <evaluationStatus>final</evaluationStatus>
        <creationInfo>
          <agencyID>UW</agencyID>
          <creationTime>2012-03-05T18:05:44.000000Z</creationTime>
        </creationInfo>
      </pick>
      <amplitude publicID="quakeml:uw.anss.org/Coda/UW/2073513">
        <genericAmplitude>
          <value>8.0</value>
        </genericAmplitude>
        <type>END</type>
        <category>duration</category>
        <unit>s</unit>
        <waveformID networkCode="UW" stationCode="MBW" locationCode="" channelCode="EHZ"></waveformID>
        <magnitudeHint>MD</magnitudeHint>
        <evaluationMode>manual</evaluationMode>
        <evaluationStatus>final</evaluationStatus>
      </amplitude>
      <amplitude publicID="quakeml:uw.anss.org/Coda/UW/2073518">
        <genericAmplitude>
          <value>12.0</value>
        </genericAmplitude>
        <type>END</type>
        <category>duration</category>
        <unit>s</unit>
        <waveformID networkCode="UW" stationCode="RPW" locationCode="" channelCode="EHZ"></waveformID>
        <magnitudeHint>MD</magnitudeHint>
        <evaluationMode>manual</evaluationMode>
        <evaluationStatus>final</evaluationStatus>
      </amplitude>
    </event>
  </eventParameters>
</q:quakeml>
