<?xml version='1.0' encoding='utf-8'?>
<q:quakeml xmlns="http://quakeml.org/xmlns/bed/1.2" xmlns:q="http://quakeml.org/xmlns/quakeml/1.2" xmlns:ns0="http://anss.org/xmlns/catalog/0.1">
  <eventParameters publicID="smi:local/217a3d24-86d7-4afc-871f-57faf5f37c1c">
    <event publicID="quakeml:uw.anss.org/Event/UW/10682238" ns0:datasource="uw" ns0:dataid="uw10682238" ns0:eventsource="uw" ns0:eventid="10682238">
      <preferredOriginID>quakeml:uw.anss.org/Origin/UW/964493</preferredOriginID>
      <preferredMagnitudeID>quakeml:uw.anss.org/Netmag/UW/754618</preferredMagnitudeID>
      <type>earthquake</type>
      <creationInfo>
        <agencyID>UW</agencyID>
        <creationTime>2012-03-05T18:13:40.000000Z</creationTime>
        <version>3</version>
      </creationInfo>
      <origin publicID="quakeml:uw.anss.org/Origin/UW/964493" ns0:datasource="uw" ns0:dataid="uw10682238" ns0:eventsource="uw" ns0:eventid="10682238">
        <time>
          <value>2005-12-09T14:12:59.480000Z</value>
        </time>
        <latitude>
          <value>48.8473333</value>
          <uncertainty>0.01</uncertainty>
        </latitude>
        <longitude>
          <value>-122.1513333</value>
          <uncertainty>0.04</uncertainty>
        </longitude>
        <depth>
          <value>1200.0</value>
          <uncertainty>80.0</uncertainty>
        </depth>
        <depthType>operator assigned</depthType>
        <timeFixed>false</timeFixed>
        <epicenterFixed>false</epicenterFixed>
        <methodID>smi:uw.anss.org/origin/spong</methodID>
        <quality>
          <associatedPhaseCount>33</associatedPhaseCount>
          <usedPhaseCount>17</usedPhaseCount>
          <associatedStationCount>30</associatedStationCount>
          <usedStationCount>0</usedStationCount>
          <standardError>0.18</standardError>
          <azimuthalGap>106.0</azimuthalGap>
        </quality>
        <type>hypocenter</type>
        <evaluationMode>manual</evaluationMode>
        <evaluationStatus>final</evaluationStatus>
        <creationInfo>
          <agencyID>UW</agencyID>
          <creationTime>2012-03-05T18:13:40.000000Z</creationTime>
        </creationInfo>
        <originUncertainty>
          <preferredDescription>horizontal uncertainty</preferredDescription>
          <horizontalUncertainty>41.0</horizontalUncertainty>
        </originUncertainty>
        <arrival publicID="quakeml:uw.anss.org/AssocArO/UW/8914863">
          <pickID>quakeml:uw.anss.org/Arrival/UW/8914863</pickID>
          <phase>P</phase>
          <azimuth>207.0</azimuth>
          <distance>1.343</distance>
          <timeResidual>-0.05</timeResidual>
          <creationInfo>
            <agencyID>UW</agencyID>
            <creationTime>2012-03-05T18:13:40.000000Z</creationTime>
          </creationInfo>
        </arrival>
        <arrival publicID="quakeml:uw.anss.org/AssocArO/UW/8914868">
          <pickID>quakeml:uw.anss.org/Arrival/UW/8914868</pickID>
          <phase>P</phase>
          <azimuth>122.2</azimuth>
          <distance>1.434</distance>
          <timeResidual>0.93</timeResidual>
          <creationInfo>
            <agencyID>UW</agencyID>
            <creationTime>2012-03-05T18:13:40.000000Z</creationTime>
          </creationInfo>
        </arrival>
        <arrival publicID="quakeml:uw.anss.org/AssocArO/UW/8914873">
          <pickID>quakeml:uw.anss.org/Arrival/UW/8914873</pickID>
          <phase>P</phase>
          <azimuth>182.6</azimuth>
          <distance>1.809</distance>
          <timeResidual>0.46</timeResidual>
          <creationInfo>
            <agencyID>UW</agencyID>
            <creationTime>2012-03-05T18:13:40.000000Z</creationTime>
          </creationInfo>
        </arrival>
        <arrival publicID="quakeml:uw.anss.org/AssocArO/UW/8914878">
          <pickID>quakeml:uw.anss.org/Arrival/UW/8914878</pickID>
          <phase>P</phase>
          <azimuth>245.7</azimuth>
          <distance>0.1923</distance>
          <timeResidual>0.15</timeResidual>
          <creationInfo>
            <agencyID>UW</agencyID>
            <creationTime>2012-03-05T18:13:40.000000Z</creationTime>
          </creationInfo>
        </arrival>
        <arrival publicID="quakeml:uw.anss.org/AssocArO/UW/8914883">
          <pickID>quakeml:uw.anss.org/Arrival/UW/8914883</pickID>
          <phase>P</phase>
          <distance>0.1818</distance>
          <timeResidual>-0.05</timeResidual>
          <creationInfo>
            <agencyID>UW</agencyID>
            <creationTime>2012-03-05T18:13:40.000000Z</creationTime>
          </creationInfo>
        </arrival>
        <arrival publicID="quakeml:uw.anss.org/AssocArO/UW/8914888">
          <pickID>quakeml:uw.anss.org/Arrival/UW/8914888</pickID>
          <phase>S</phase>
          <distance>0.1818</distance>
          <timeResidual>0.76</timeResidual>
          <creationInfo>
            <agencyID>UW</agencyID>
            <creationTime>2012-03-05T18:13:40.000000Z</creationTime>
          </creationInfo>
        </arrival>
        <arrival publicID="quakeml:uw.anss.org/AssocArO/UW/8914893">
          <pickID>quakeml:uw.anss.org/Arrival/UW/8914893</pickID>
          <phase>P</phase>
          <azimuth>130.2</azimuth>
          <distance>2.271</distance>
          <timeResidual>2.57</timeResidual>
          <creationInfo>
            <agencyID>UW</agencyID>
            <creationTime>2012-03-05T18:13:40.000000Z</creationTime>
          </creationInfo>
        </arrival>
        <arrival publicID="quakeml:uw.anss.org/AssocArO/UW/8914898">
          <pickID>quakeml:uw.anss.org/Arrival/UW/8914898</pickID>
          <phase>P</phase>
          <azimuth>177.2</azimuth>
          <distance>0.4247</distance>
          <timeResidual>-0.37</timeResidual>
          <creationInfo>
            <agencyID>UW</agencyID>
            <creationTime>2012-03-05T18:13:40.000000Z</creationTime>
          </creationInfo>
        </arrival>
        <arrival publicID="quakeml:uw.anss.org/AssocArO/UW/8914903">
          <pickID>quakeml:uw.anss.org/Arrival/UW/8914903</pickID>
          <phase>P</phase>
          <azimuth>171.6</azimuth>
          <timeResidual>0.3</timeResidual>
          <creationInfo>
            <agencyID>UW</agencyID>
            <creationTime>2012-03-05T18:13:40.000000Z</creationTime>
          </creationInfo>
        </arrival>
        <arrival publicID="quakeml:uw.anss.org/AssocArO/UW/8914908">
          <pickID>quakeml:uw.anss.org/Arrival/UW/8914908</pickID>
          <phase>P</phase>
          <azimuth>176.4</azimuth>
          <distance>1.908</distance>
          <timeResidual>0.51</timeResidual>
          <creationInfo>
            <agencyID>UW</agencyID>
            <creationTime>2012-03-05T18:13:40.000000Z</creationTime>
          </creationInfo>
        </arrival>
        <arrival publicID="quakeml:uw.anss.org/AssocArO/UW/8914913">
          <pickID>quakeml:uw.anss.org/Arrival/UW/8914913</pickID>
          <phase>P</phase>
          <azimuth>127.3</azimuth>
          <distance>1.864</distance>
          <timeResidual>1.58</timeResidual>
          <creationInfo>
            <agencyID>UW</agencyID>
            <creationTime>2012-03-05T18:13:40.000000Z</creationTime>
          </creationInfo>
        </arrival>
        <arrival publicID="quakeml:uw.anss.org/AssocArO/UW/8914918">
          <pickID>quakeml:uw.anss.org/Arrival/UW/8914918</pickID>
          <phase>P</phase>
          <azimuth>170.5</azimuth>
          <distance>1.408</distance>
          <timeResidual>0.68</timeResidual>
          <creationInfo>
            <agencyID>UW</agencyID>
            <creationTime>2012-03-05T18:13:40.000000Z</creationTime>
          </creationInfo>
        </arrival>
        <arrival publicID="quakeml:uw.anss.org/AssocArO/UW/8914923">
          <pickID>quakeml:uw.anss.org/Arrival/UW/8914923</pickID>
          <phase>P</phase>
          <azimuth>133.3</azimuth>
          <distance>0.5812</distance>
          <timeResidual>0.06</timeResidual>
          <creationInfo>
            <agencyID>UW</agencyID>
            <creationTime>2012-03-05T18:13:40.000000Z</creationTime>
          </creationInfo>
        </arrival>
        <arrival publicID="quakeml:uw.anss.org/AssocArO/UW/8914928">
          <pickID>quakeml:uw.anss.org/Arrival/UW/8914928</pickID>
          <phase>P</phase>
          <azimuth>111.0</azimuth>
          <distance>0.1773</distance>
          <timeResidual>-0.01</timeResidual>
          <creationInfo>
            <agencyID>UW</agencyID>
            <creationTime>2012-03-05T18:13:40.000000Z</creationTime>
          </creationInfo>
        </arrival>
        <arrival publicID="quakeml:uw.anss.org/AssocArO/UW/8914933">
          <pickID>quakeml:uw.anss.org/Arrival/UW/8914933</pickID>
          <phase>P</phase>
          <azimuth>225.6</azimuth>
          <distance>1.463</distance>
          <timeResidual>0.25</timeResidual>
          <creationInfo>
            <agencyID>UW</agencyID>
            <creationTime>2012-03-05T18:13:40.000000Z</creationTime>
          </creationInfo>
        </arrival>
        <arrival publicID="quakeml:uw.anss.org/AssocArO/UW/8914938">
          <pickID>quakeml:uw.anss.org/Arrival/UW/8914938</pickID>
          <phase>P</phase>
          <azimuth>251.0</azimuth>
          <distance>0.3891</distance>
          <timeResidual>-0.11</timeResidual>
          <creationInfo>
            <agencyID>UW</agencyID>
            <creationTime>2012-03-05T18:13:40.000000Z</creationTime>
          </creationInfo>
        </arrival>
        <arrival publicID="quakeml:uw.anss.org/AssocArO/UW/8914943">
          <pickID>quakeml:uw.anss.org/Arrival/UW/8914943</pickID>
          <phase>P</phase>
          <azimuth>167.1</azimuth>
          <timeResidual>0.22</timeResidual>
          <creationInfo>
            <agencyID>UW</agencyID>
            <creationTime>2012-03-05T18:13:40.000000Z</creationTime>
          </creationInfo>
        </arrival>
        <arrival publicID="quakeml:uw.anss.org/AssocArO/UW/8914948">
          <pickID>quakeml:uw.anss.org/Arrival/UW/8914948</pickID>
          <phase>P</phase>
          <azimuth>229.1</azimuth>
          <distance>1.198</distance>
          <timeResidual>-0.17</timeResidual>
          <creationInfo>
            <agencyID>UW</agencyID>
            <creationTime>2012-03-05T18:13:40.000000Z</creationTime>
          </creationInfo>
        </arrival>
        <arrival publicID="quakeml:uw.anss.org/AssocArO/UW/8914953">
          <pickID>quakeml:uw.anss.org/Arrival/UW/8914953</pickID>
          <phase>S</phase>
          <azimuth>229.1</azimuth>
          <distance>1.198</distance>
          <timeResidual>-0.84</timeResidual>
          <creationInfo>
            <agencyID>UW</agencyID>
            <creationTime>2012-03-05T18:13:40.000000Z</creationTime>
          </creationInfo>
        </arrival>
        <arrival publicID="quakeml:uw.anss.org/AssocArO/UW/8914958">
          <pickID>quakeml:uw.anss.org/Arrival/UW/8914958</pickID>
          <phase>P</phase>
          <azimuth>170.2</azimuth>
          <timeResidual>0.37</timeResidual>
          <creationInfo>
            <agencyID>UW</agencyID>
            <creationTime>2012-03-05T18:13:40.000000Z</creationTime>
          </creationInfo>
        </arrival>
        <arrival publicID="quakeml:uw.anss.org/AssocArO/UW/8914963">
          <pickID>quakeml:uw.anss.org/Arrival/UW/8914963</pickID>
          <phase>P</phase>
          <azimuth>139.1</azimuth>
          <distance>1.303</distance>
          <timeResidual>0.31</timeResidual>
          <creationInfo>
            <agencyID>UW</agencyID>
            <creationTime>2012-03-05T18:13:40.000000Z</creationTime>
          </creationInfo>
        </arrival>
        <arrival publicID="quakeml:uw.anss.org/AssocArO/UW/8914968">
          <pickID>quakeml:uw.anss.org/Arrival/UW/8914968</pickID>
          <phase>P</phase>
          <azimuth>235.9</azimuth>
          <timeResidual>-0.07</timeResidual>
          <creationInfo>
            <agencyID>UW</agencyID>
            <creationTime>2012-03-05T18:13:40.000000Z</creationTime>
          </creationInfo>
        </arrival>
        <arrival publicID="quakeml:uw.anss.org/AssocArO/UW/8914973">
          <pickID>quakeml:uw.anss.org/Arrival/UW/8914973</pickID>
          <phase>P</phase>
          <azimuth>137.0</azimuth>
          <distance>0.9937</distance>
          <timeResidual>0.35</timeResidual>
          <creationInfo>
            <agencyID>UW</agencyID>
            <creationTime>2012-03-05T18:13:40.000000Z</creationTime>
          </creationInfo>
        </arrival>
        <arrival publicID="quakeml:uw.anss.org/AssocArO/UW/8914978">
          <pickID>quakeml:uw.anss.org/Arrival/UW/8914978</pickID>
          <phase>P</phase>
          <azimuth>264.3</azimuth>
          <distance>0.6788</distance>
          <timeResidual>0.07</timeResidual>
          <creationInfo>
            <agencyID>UW</agencyID>
            <creationTime>2012-03-05T18:13:40.000000Z</creationTime>
          </creationInfo>
        </arrival>
        <arrival publicID="quakeml:uw.anss.org/AssocArO/UW/8914983">
          <pickID>quakeml:uw.anss.org/Arrival/UW/8914983</pickID>
          <phase>P</phase>
          <azimuth>166.2</azimuth>
          <distance>1.075</distance>
          <timeResidual>0.76</timeResidual>
          <creationInfo>
            <agencyID>UW</agencyID>
            <creationTime>2012-03-05T18:13:40.000000Z</creationTime>
          </creationInfo>
        </arrival>
        <arrival publicID="quakeml:uw.anss.org/AssocArO/UW/8914988">
          <pickID>quakeml:uw.anss.org/Arrival/UW/8914988</pickID>
          <phase>P</phase>
          <azimuth>125.8</azimuth>
          <distance>1.752</distance>
          <timeResidual>1.36</timeResidual>
          <creationInfo>
            <agencyID>UW</agencyID>
            <creationTime>2012-03-05T18:13:40.000000Z</creationTime>
          </creationInfo>
        </arrival>
        <arrival publicID="quakeml:uw.anss.org/AssocArO/UW/8914993">
          <pickID>quakeml:uw.anss.org/Arrival/UW/8914993</pickID>
          <phase>P</phase>
          <azimuth>213.3</azimuth>
          <distance>1.004</distance>
          <timeResidual>0.84</timeResidual>
          <creationInfo>
            <agencyID>UW</agencyID>
            <creationTime>2012-03-05T18:13:40.000000Z</creationTime>
          </creationInfo>
        </arrival>
        <arrival publicID="quakeml:uw.anss.org/AssocArO/UW/8914998">
          <pickID>quakeml:uw.anss.org/Arrival/UW/8914998</pickID>
          <phase>P</phase>
          <azimuth>147.7</azimuth>
          <distance>1.976</distance>
          <timeResidual>0.66</timeResidual>
          <creationInfo>
            <agencyID>UW</agencyID>
            <creationTime>2012-03-05T18:13:40.000000Z</creationTime>
          </creationInfo>
        </arrival>
        <arrival publicID="quakeml:uw.anss.org/AssocArO/UW/8915003">
          <pickID>quakeml:uw.anss.org/Arrival/UW/8915003</pickID>
          <phase>P</phase>
          <azimuth>217.9</azimuth>
          <distance>0.9776</distance>
          <timeResidual>0.69</timeResidual>
          <creationInfo>
            <agencyID>UW</agencyID>
            <creationTime>2012-03-05T18:13:40.000000Z</creationTime>
          </creationInfo>
        </arrival>
        <arrival publicID="quakeml:uw.anss.org/AssocArO/UW/8915008">
          <pickID>quakeml:uw.anss.org/Arrival/UW/8915008</pickID>
          <phase>P</phase>
          <azimuth>228.7</azimuth>
          <distance>1.124</distance>
          <timeResidual>0.18</timeResidual>
          <creationInfo>
            <agencyID>UW</agencyID>
            <creationTime>2012-03-05T18:13:40.000000Z</creationTime>
          </creationInfo>
        </arrival>
        <arrival publicID="quakeml:uw.anss.org/AssocArO/UW/8915013">
          <pickID>quakeml:uw.anss.org/Arrival/UW/8915013</pickID>
          <phase>S</phase>
          <azimuth>228.7</azimuth>
          <distance>1.124</distance>
          <timeResidual>0.06</timeResidual>
          <creationInfo>
            <agencyID>UW</agencyID>
            <creationTime>2012-03-05T18:13:40.000000Z</creationTime>
          </creationInfo>
        </arrival>
        <arrival publicID="quakeml:uw.anss.org/AssocArO/UW/8915018">
          <pickID>quakeml:uw.anss.org/Arrival/UW/8915018</pickID>
          <phase>P</phase>
          <azimuth>249.7</azimuth>
          <distance>0.4812</distance>
          <timeResidual>0.0</timeResidual>
          <creationInfo>
            <agencyID>UW</agencyID>
            <creationTime>2012-03-05T18:13:40.000000Z</creationTime>
          </creationInfo>
        </arrival>
        <arrival publicID="quakeml:uw.anss.org/AssocArO/UW/8915023">
          <pickID>quakeml:uw.anss.org/Arrival/UW/8915023</pickID>
          <phase>P</phase>
          <azimuth>175.5</azimuth>
          <distance>1.015</distance>
          <timeResidual>0.91</timeResidual>
          <creationInfo>
            <agencyID>UW</agencyID>
            <creationTime>2012-03-05T18:13:40.000000Z</creationTime>
          </creationInfo>
        </arrival>
      </origin>
      <magnitude publicID="quakeml:uw.anss.org/Netmag/UW/754618">
        <mag>
          <value>2.6</value>
          <uncertainty>0.02</uncertainty>
        </mag>
        <type>Md</type>
        <originID>quakeml:uw.anss.org/Origin/UW/964493</originID>
        <methodID>smi:uw.anss.org/magnitude/Crosson</methodID>
        <stationCount>10</stationCount>
        <evaluationMode>manual</evaluationMode>
        <evaluationStatus>final</evaluationStatus>
        <stationMagnitudeContribution>
          <stationMagnitudeID>quakeml:uw.anss.org/AssocCoM/UW/2082258</stationMagnitudeID>
          <weight>1.0</weight>
          <residual>-0.37</residual>
        </stationMagnitudeContribution>
        <stationMagnitudeContribution>
          <stationMagnitudeID>quakeml:uw.anss.org/AssocCoM/UW/2082223</stationMagnitudeID>
          <weight>1.0</weight>
          <residual>0.35</residual>
        </stationMagnitudeContribution>
        <stationMagnitudeContribution>
          <stationMagnitudeID>quakeml:uw.anss.org/AssocCoM/UW/2082228</stationMagnitudeID>
          <weight>1.0</weight>
          <residual>-0.13</residual>
        </stationMagnitudeContribution>
        <stationMagnitudeContribution>
          <stationMagnitudeID>quakeml:uw.anss.org/AssocCoM/UW/2082238</stationMagnitudeID>
          <weight>1.0</weight>
          <residual>0.16</residual>
        </stationMagnitudeContribution>
        <stationMagnitudeContribution>
          <stationMagnitudeID>quakeml:uw.anss.org/AssocCoM/UW/2082248</stationMagnitudeID>
          <weight>1.0</weight>
          <residual>0.23</residual>
        </stationMagnitudeContribution>
        <stationMagnitudeContribution>
          <stationMagnitudeID>quakeml:uw.anss.org/AssocCoM/UW/2082253</stationMagnitudeID>
          <weight>1.0</weight>
          <residual>-0.2</residual>
        </stationMagnitudeContribution>
        <stationMagnitudeContribution>
          <stationMagnitudeID>quakeml:uw.anss.org/AssocCoM/UW/2082233</stationMagnitudeID>
          <weight>1.0</weight>
          <residual>-0.34</residual>
        </stationMagnitudeContribution>
        <stationMagnitudeContribution>
          <stationMagnitudeID>quakeml:uw.anss.org/AssocCoM/UW/2082213</stationMagnitudeID>
          <weight>1.0</weight>
          <residual>0.16</residual>
        </stationMagnitudeContribution>
        <stationMagnitudeContribution>
          <stationMagnitudeID>quakeml:uw.anss.org/AssocCoM/UW/2082243</stationMagnitudeID>
          <weight>1.0</weight>
          <residual>0.05</residual>
        </stationMagnitudeContribution>
        <stationMagnitudeContribution>
          <stationMagnitudeID>quakeml:uw.anss.org/AssocCoM/UW/2082218</stationMagnitudeID>
          <weight>1.0</weight>
          <residual>-0.27</residual>
        </stationMagnitudeContribution>
        <creationInfo>
