<?xml version='1.0' encoding='utf-8'?>
<q:quakeml xmlns="http://quakeml.org/xmlns/bed/1.2" xmlns:q="http://quakeml.org/xmlns/quakeml/1.2" xmlns:ns0="http://anss.org/xmlns/catalog/0.1">
  <eventParameters publicID="smi:local/ca187103-ec91-4778-abc8-48534863f902">
    <event publicID="quakeml:uw.anss.org/Event/UW/10687753" ns0:datasource="uw" ns0:dataid="uw10687753" ns0:eventsource="uw" ns0:eventid="10687753">
      <preferredOriginID>quakeml:uw.anss.org/Origin/UW/970008</preferredOriginID>
      <preferredMagnitudeID>quakeml:uw.anss.org/Netmag/UW/758783</preferredMagnitudeID>
      <type>earthquake</type>
      <creationInfo>
        <agencyID>UW</agencyID>
        <creationTime>2012-03-05T18:30:18.000000Z</creationTime>
        <version>3</version>
      </creationInfo>
      <origin publicID="quakeml:uw.anss.org/Origin/UW/970008" ns0:datasource="uw" ns0:dataid="uw10687753" ns0:eventsource="uw" ns0:eventid="10687753">
        <time>
          <value>2005-12-29T08:42:26.390000Z</value>
          <uncertainty>0.16</uncertainty>
        </time>
        <latitude>
          <value>48.8631667</value>
          <uncertainty>0.91</uncertainty>
        </latitude>
        <longitude>
          <value>-122.141</value>
          <uncertainty>1.34</uncertainty>
        </longitude>
        <depth>
          <value>530.0</value>
          <uncertainty>2300.0</uncertainty>
        </depth>
        <depthType>from location</depthType>
        <timeFixed>false</timeFixed>
        <epicenterFixed>false</epicenterFixed>
        <methodID>smi:uw.anss.org/origin/spong</methodID>
        <quality>
          <associatedPhaseCount>31</associatedPhaseCount>
          <usedPhaseCount>22</usedPhaseCount>
          <associatedStationCount>28</associatedStationCount>
          <usedStationCount>0</usedStationCount>
          <standardError>0.5</standardError>
          <azimuthalGap>107.0</azimuthalGap>
        </quality>
        <type>hypocenter</type>
        <evaluationMode>manual</evaluationMode>
        <evaluationStatus>final</evaluationStatus>
        <creationInfo>
          <agencyID>UW</agencyID>
          <creationTime>2012-03-05T18:30:18.000000Z</creationTime>
        </creationInfo>
        <originUncertainty>
          <preferredDescription>horizontal uncertainty</preferredDescription>
          <horizontalUncertainty>1620.0</horizontalUncertainty>
        </originUncertainty>
        <arrival publicID="quakeml:uw.anss.org/AssocArO/UW/8974943">
          <pickID>quakeml:uw.anss.org/Arrival/UW/8974943</pickID>
          <phase>P</phase>
          <azimuth>207.0</azimuth>
          <distance>1.361</distance>
          <timeResidual>0.06</timeResidual>
          <creationInfo>
            <agencyID>UW</agencyID>
            <creationTime>2012-03-05T18:30:18.000000Z</creationTime>
          </creationInfo>
        </arrival>
        <arrival publicID="quakeml:uw.anss.org/AssocArO/UW/8974948">
          <pickID>quakeml:uw.anss.org/Arrival/UW/8974948</pickID>
          <phase>P</phase>
          <azimuth>122.9</azimuth>
          <distance>1.437</distance>
          <timeResidual>1.04</timeResidual>
          <creationInfo>
            <agencyID>UW</agencyID>
            <creationTime>2012-03-05T18:30:18.000000Z</creationTime>
          </creationInfo>
        </arrival>
        <arrival publicID="quakeml:uw.anss.org/AssocArO/UW/8974953">
          <pickID>quakeml:uw.anss.org/Arrival/UW/8974953</pickID>
          <phase>P</phase>
          <azimuth>182.8</azimuth>
          <distance>1.825</distance>
          <timeResidual>0.41</timeResidual>
          <creationInfo>
            <agencyID>UW</agencyID>
            <creationTime>2012-03-05T18:30:18.000000Z</creationTime>
          </creationInfo>
        </arrival>
        <arrival publicID="quakeml:uw.anss.org/AssocArO/UW/8974958">
          <pickID>quakeml:uw.anss.org/Arrival/UW/8974958</pickID>
          <phase>P</phase>
          <azimuth>135.6</azimuth>
          <distance>1.746</distance>
          <timeResidual>1.69</timeResidual>
          <creationInfo>
            <agencyID>UW</agencyID>
            <creationTime>2012-03-05T18:30:18.000000Z</creationTime>
          </creationInfo>
        </arrival>
        <arrival publicID="quakeml:uw.anss.org/AssocArO/UW/8974963">
          <pickID>quakeml:uw.anss.org/Arrival/UW/8974963</pickID>
          <phase>P</phase>
          <azimuth>242.4</azimuth>
          <distance>0.2053</distance>
          <timeResidual>0.12</timeResidual>
          <creationInfo>
            <agencyID>UW</agencyID>
            <creationTime>2012-03-05T18:30:18.000000Z</creationTime>
          </creationInfo>
        </arrival>
        <arrival publicID="quakeml:uw.anss.org/AssocArO/UW/8974968">
          <pickID>quakeml:uw.anss.org/Arrival/UW/8974968</pickID>
          <phase>P</phase>
          <azimuth>172.2</azimuth>
          <timeResidual>0.64</timeResidual>
          <creationInfo>
            <agencyID>UW</agencyID>
            <creationTime>2012-03-05T18:30:18.000000Z</creationTime>
          </creationInfo>
        </arrival>
        <arrival publicID="quakeml:uw.anss.org/AssocArO/UW/8974973">
          <pickID>quakeml:uw.anss.org/Arrival/UW/8974973</pickID>
          <phase>P</phase>
          <distance>0.165</distance>
          <timeResidual>0.05</timeResidual>
          <creationInfo>
            <agencyID>UW</agencyID>
            <creationTime>2012-03-05T18:30:18.000000Z</creationTime>
          </creationInfo>
        </arrival>
        <arrival publicID="quakeml:uw.anss.org/AssocArO/UW/8974978">
          <pickID>quakeml:uw.anss.org/Arrival/UW/8974978</pickID>
          <phase>P</phase>
          <azimuth>178.2</azimuth>
          <distance>0.4402</distance>
          <timeResidual>-0.47</timeResidual>
          <creationInfo>
            <agencyID>UW</agencyID>
            <creationTime>2012-03-05T18:30:18.000000Z</creationTime>
          </creationInfo>
        </arrival>
        <arrival publicID="quakeml:uw.anss.org/AssocArO/UW/8974983">
          <pickID>quakeml:uw.anss.org/Arrival/UW/8974983</pickID>
          <phase>P</phase>
          <azimuth>176.6</azimuth>
          <distance>1.924</distance>
          <timeResidual>0.32</timeResidual>
          <creationInfo>
            <agencyID>UW</agencyID>
            <creationTime>2012-03-05T18:30:18.000000Z</creationTime>
          </creationInfo>
        </arrival>
        <arrival publicID="quakeml:uw.anss.org/AssocArO/UW/8974988">
          <pickID>quakeml:uw.anss.org/Arrival/UW/8974988</pickID>
          <phase>P</phase>
          <azimuth>170.8</azimuth>
          <distance>1.422</distance>
          <timeResidual>0.59</timeResidual>
          <creationInfo>
            <agencyID>UW</agencyID>
            <creationTime>2012-03-05T18:30:18.000000Z</creationTime>
          </creationInfo>
        </arrival>
        <arrival publicID="quakeml:uw.anss.org/AssocArO/UW/8974993">
          <pickID>quakeml:uw.anss.org/Arrival/UW/8974993</pickID>
          <phase>P</phase>
          <azimuth>134.9</azimuth>
          <distance>0.5873</distance>
          <timeResidual>-0.01</timeResidual>
          <creationInfo>
            <agencyID>UW</agencyID>
            <creationTime>2012-03-05T18:30:18.000000Z</creationTime>
          </creationInfo>
        </arrival>
        <arrival publicID="quakeml:uw.anss.org/AssocArO/UW/8974998">
          <pickID>quakeml:uw.anss.org/Arrival/UW/8974998</pickID>
          <phase>P</phase>
          <azimuth>116.6</azimuth>
          <distance>0.1775</distance>
          <timeResidual>-0.05</timeResidual>
          <creationInfo>
            <agencyID>UW</agencyID>
            <creationTime>2012-03-05T18:30:18.000000Z</creationTime>
          </creationInfo>
        </arrival>
        <arrival publicID="quakeml:uw.anss.org/AssocArO/UW/8975003">
          <pickID>quakeml:uw.anss.org/Arrival/UW/8975003</pickID>
          <phase>P</phase>
          <azimuth>121.5</azimuth>
          <distance>2.168</distance>
          <timeResidual>2.91</timeResidual>
          <creationInfo>
            <agencyID>UW</agencyID>
            <creationTime>2012-03-05T18:30:18.000000Z</creationTime>
          </creationInfo>
        </arrival>
        <arrival publicID="quakeml:uw.anss.org/AssocArO/UW/8975008">
          <pickID>quakeml:uw.anss.org/Arrival/UW/8975008</pickID>
          <phase>P</phase>
          <azimuth>249.2</azimuth>
          <distance>0.4009</distance>
          <timeResidual>-0.19</timeResidual>
          <creationInfo>
            <agencyID>UW</agencyID>
            <creationTime>2012-03-05T18:30:18.000000Z</creationTime>
          </creationInfo>
        </arrival>
        <arrival publicID="quakeml:uw.anss.org/AssocArO/UW/8975013">
          <pickID>quakeml:uw.anss.org/Arrival/UW/8975013</pickID>
          <phase>S</phase>
          <azimuth>249.2</azimuth>
          <distance>0.4009</distance>
          <timeResidual>0.21</timeResidual>
          <creationInfo>
            <agencyID>UW</agencyID>
            <creationTime>2012-03-05T18:30:18.000000Z</creationTime>
          </creationInfo>
        </arrival>
        <arrival publicID="quakeml:uw.anss.org/AssocArO/UW/8975018">
          <pickID>quakeml:uw.anss.org/Arrival/UW/8975018</pickID>
          <phase>P</phase>
          <azimuth>168.0</azimuth>
          <timeResidual>0.14</timeResidual>
          <creationInfo>
            <agencyID>UW</agencyID>
            <creationTime>2012-03-05T18:30:18.000000Z</creationTime>
          </creationInfo>
        </arrival>
        <arrival publicID="quakeml:uw.anss.org/AssocArO/UW/8975023">
          <pickID>quakeml:uw.anss.org/Arrival/UW/8975023</pickID>
          <phase>P</phase>
          <azimuth>228.8</azimuth>
          <distance>1.214</distance>
          <timeResidual>-0.31</timeResidual>
          <creationInfo>
            <agencyID>UW</agencyID>
            <creationTime>2012-03-05T18:30:18.000000Z</creationTime>
          </creationInfo>
        </arrival>
        <arrival publicID="quakeml:uw.anss.org/AssocArO/UW/8975028">
          <pickID>quakeml:uw.anss.org/Arrival/UW/8975028</pickID>
          <phase>S</phase>
          <azimuth>228.8</azimuth>
          <distance>1.214</distance>
          <timeResidual>-0.81</timeResidual>
          <creationInfo>
            <agencyID>UW</agencyID>
            <creationTime>2012-03-05T18:30:18.000000Z</creationTime>
          </creationInfo>
        </arrival>
        <arrival publicID="quakeml:uw.anss.org/AssocArO/UW/8975033">
          <pickID>quakeml:uw.anss.org/Arrival/UW/8975033</pickID>
          <phase>P</phase>
          <azimuth>170.5</azimuth>
          <timeResidual>0.39</timeResidual>
          <creationInfo>
            <agencyID>UW</agencyID>
            <creationTime>2012-03-05T18:30:18.000000Z</creationTime>
          </creationInfo>
        </arrival>
        <arrival publicID="quakeml:uw.anss.org/AssocArO/UW/8975038">
          <pickID>quakeml:uw.anss.org/Arrival/UW/8975038</pickID>
          <phase>P</phase>
          <azimuth>139.8</azimuth>
          <distance>1.311</distance>
          <timeResidual>0.29</timeResidual>
          <creationInfo>
            <agencyID>UW</agencyID>
            <creationTime>2012-03-05T18:30:18.000000Z</creationTime>
          </creationInfo>
        </arrival>
        <arrival publicID="quakeml:uw.anss.org/AssocArO/UW/8975043">
          <pickID>quakeml:uw.anss.org/Arrival/UW/8975043</pickID>
          <phase>P</phase>
          <azimuth>235.5</azimuth>
          <timeResidual>-0.21</timeResidual>
          <creationInfo>
            <agencyID>UW</agencyID>
            <creationTime>2012-03-05T18:30:18.000000Z</creationTime>
          </creationInfo>
        </arrival>
        <arrival publicID="quakeml:uw.anss.org/AssocArO/UW/8975048">
          <pickID>quakeml:uw.anss.org/Arrival/UW/8975048</pickID>
          <phase>P</phase>
          <azimuth>137.9</azimuth>
          <distance>1.001</distance>
          <timeResidual>0.21</timeResidual>
          <creationInfo>
            <agencyID>UW</agencyID>
            <creationTime>2012-03-05T18:30:18.000000Z</creationTime>
          </creationInfo>
        </arrival>
        <arrival publicID="quakeml:uw.anss.org/AssocArO/UW/8975053">
          <pickID>quakeml:uw.anss.org/Arrival/UW/8975053</pickID>
          <phase>P</phase>
          <azimuth>263.0</azimuth>
          <distance>0.6873</distance>
          <timeResidual>0.14</timeResidual>
          <creationInfo>
            <agencyID>UW</agencyID>
            <creationTime>2012-03-05T18:30:18.000000Z</creationTime>
          </creationInfo>
        </arrival>
        <arrival publicID="quakeml:uw.anss.org/AssocArO/UW/8975058">
          <pickID>quakeml:uw.anss.org/Arrival/UW/8975058</pickID>
          <phase>P</phase>
          <azimuth>73.7</azimuth>
          <distance>1.716</distance>
          <timeResidual>2.25</timeResidual>
          <creationInfo>
            <agencyID>UW</agencyID>
            <creationTime>2012-03-05T18:30:18.000000Z</creationTime>
          </creationInfo>
        </arrival>
        <arrival publicID="quakeml:uw.anss.org/AssocArO/UW/8975063">
          <pickID>quakeml:uw.anss.org/Arrival/UW/8975063</pickID>
          <phase>P</phase>
          <azimuth>166.7</azimuth>
          <distance>1.089</distance>
          <timeResidual>1.09</timeResidual>
          <creationInfo>
            <agencyID>UW</agencyID>
            <creationTime>2012-03-05T18:30:18.000000Z</creationTime>
          </creationInfo>
        </arrival>
        <arrival publicID="quakeml:uw.anss.org/AssocArO/UW/8975068">
          <pickID>quakeml:uw.anss.org/Arrival/UW/8975068</pickID>
          <phase>P</phase>
          <azimuth>126.4</azimuth>
          <distance>1.756</distance>
          <timeResidual>1.4</timeResidual>
          <creationInfo>
            <agencyID>UW</agencyID>
            <creationTime>2012-03-05T18:30:18.000000Z</creationTime>
          </creationInfo>
        </arrival>
        <arrival publicID="quakeml:uw.anss.org/AssocArO/UW/8975073">
          <pickID>quakeml:uw.anss.org/Arrival/UW/8975073</pickID>
          <phase>P</phase>
          <azimuth>213.1</azimuth>
          <distance>1.021</distance>
          <timeResidual>0.76</timeResidual>
          <creationInfo>
            <agencyID>UW</agencyID>
            <creationTime>2012-03-05T18:30:18.000000Z</creationTime>
          </creationInfo>
        </arrival>
        <arrival publicID="quakeml:uw.anss.org/AssocArO/UW/8975078">
          <pickID>quakeml:uw.anss.org/Arrival/UW/8975078</pickID>
          <phase>P</phase>
          <azimuth>148.1</azimuth>
          <distance>1.986</distance>
          <timeResidual>1.01</timeResidual>
          <creationInfo>
            <agencyID>UW</agencyID>
            <creationTime>2012-03-05T18:30:18.000000Z</creationTime>
          </creationInfo>
        </arrival>
        <arrival publicID="quakeml:uw.anss.org/AssocArO/UW/8975083">
          <pickID>quakeml:uw.anss.org/Arrival/UW/8975083</pickID>
          <phase>P</phase>
          <azimuth>217.6</azimuth>
          <distance>0.9943</distance>
          <timeResidual>0.84</timeResidual>
          <creationInfo>
            <agencyID>UW</agencyID>
            <creationTime>2012-03-05T18:30:18.000000Z</creationTime>
          </creationInfo>
        </arrival>
        <arrival publicID="quakeml:uw.anss.org/AssocArO/UW/8975088">
          <pickID>quakeml:uw.anss.org/Arrival/UW/8975088</pickID>
          <phase>S</phase>
          <azimuth>217.6</azimuth>
          <distance>0.9943</distance>
          <timeResidual>1.46</timeResidual>
          <creationInfo>
            <agencyID>UW</agencyID>
            <creationTime>2012-03-05T18:30:18.000000Z</creationTime>
          </creationInfo>
        </arrival>
        <arrival publicID="quakeml:uw.anss.org/AssocArO/UW/8975093">
          <pickID>quakeml:uw.anss.org/Arrival/UW/8975093</pickID>
          <phase>P</phase>
          <azimuth>248.3</azimuth>
          <distance>0.4933</distance>
          <timeResidual>-0.12</timeResidual>
          <creationInfo>
            <agencyID>UW</agencyID>
            <creationTime>2012-03-05T18:30:18.000000Z</creationTime>
          </creationInfo>
        </arrival>
      </origin>
      <magnitude publicID="quakeml:uw.anss.org/Netmag/UW/758783">
        <mag>
          <value>2.5</value>
          <uncertainty>0.04</uncertainty>
        </mag>
        <type>Md</type>
        <originID>quakeml:uw.anss.org/Origin/UW/970008</originID>
        <methodID>smi:uw.anss.org/magnitude/Crosson</methodID>
        <stationCount>6</stationCount>
        <evaluationMode>manual</evaluationMode>
        <evaluationStatus>final</evaluationStatus>
        <stationMagnitudeContribution>
          <stationMagnitudeID>quakeml:uw.anss.org/AssocCoM/UW/2096103</stationMagnitudeID>
          <weight>1.0</weight>
          <residual>0.07</residual>
        </stationMagnitudeContribution>
        <stationMagnitudeContribution>
          <stationMagnitudeID>quakeml:uw.anss.org/AssocCoM/UW/2096108</stationMagnitudeID>
          <weight>1.0</weight>
          <residual>-0.07</residual>
        </stationMagnitudeContribution>
        <stationMagnitudeContribution>
          <stationMagnitudeID>quakeml:uw.anss.org/AssocCoM/UW/2096113</stationMagnitudeID>
          <weight>1.0</weight>
          <residual>-0.14</residual>
        </stationMagnitudeContribution>
        <stationMagnitudeContribution>
          <stationMagnitudeID>quakeml:uw.anss.org/AssocCoM/UW/2096098</stationMagnitudeID>
          <weight>1.0</weight>
          <residual>0.03</residual>
        </stationMagnitudeContribution>
        <stationMagnitudeContribution>
          <stationMagnitudeID>quakeml:uw.anss.org/AssocCoM/UW/2096123</stationMagnitudeID>
          <weight>1.0</weight>
          <residual>-0.07</residual>
        </stationMagnitudeContribution>
        <stationMagnitudeContribution>
          <stationMagnitudeID>quakeml:uw.anss.org/AssocCoM/UW/2096118</stationMagnitudeID>
          <weight>1.0</weight>
          <residual>-0.03</residual>
        </stationMagnitudeContribution>
        <creationInfo>
          <agencyID>UW</agencyID>
          <creationTime>2012-03-05T18:30:18.000000Z</creationTime>
        </creationInfo>
      </magnitude>
      <stationMagnitude publicID="quakeml:uw.anss.org/AssocCoM/UW/2096098">
        <originID>quakeml:uw.anss.org/Origin/UW/970008</originID>
        <mag>
          <value>2.53</value>
        </mag>
        <type>MD</type>
        <amplitudeID>quakeml:uw.anss.org/Coda/UW/2096098</amplitudeID>
        <waveformID networkCode="UW" stationCode="HDW" locationCode="" channelCode="EHZ"></waveformID>
      </stationMagnitude>
      <stationMagnitude publicID="quakeml:uw.anss.org/AssocCoM/UW/2096103">
        <originID>quakeml:uw.anss.org/Origin/UW/970008</originID>
        <mag>
          <value>2.57</value>
        </mag>
        <type>MD</type>
        <amplitudeID>quakeml:uw.anss.org/Coda/UW/2096103</amplitudeID>
        <waveformID networkCode="CN" stationCode="VDB" locationCode="" channelCode="EHZ"></waveformID>
      </stationMagnitude>
      <stationMagnitude publicID="quakeml:uw.anss.org/AssocCoM/UW/2096108">
        <originID>quakeml:uw.anss.org/Origin/UW/970008</originID>
        <mag>
          <value>2.43</value>
        </mag>
        <type>MD</type>
        <amplitudeID>quakeml:uw.anss.org/Coda/UW/2096108</amplitudeID>
        <waveformID networkCode="UW" stationCode="CMW" locationCode="" channelCode="EHZ"></waveformID>
      </stationMagnitude>
      <stationMagnitude publicID="quakeml:uw.anss.org/AssocCoM/UW/2096113">
        <originID>quakeml:uw.anss.org/Origin/UW/970008</originID>
        <mag>
          <value>2.36</value>
        </mag>
        <type>MD</type>
        <amplitudeID>quakeml:uw.anss.org/Coda/UW/2096113</amplitudeID>
