<?xml version='1.0' encoding='utf-8'?>
<q:quakeml xmlns="http://quakeml.org/xmlns/bed/1.2" xmlns:q="http://quakeml.org/xmlns/quakeml/1.2" xmlns:ns0="http://anss.org/xmlns/catalog/0.1">
  <eventParameters publicID="smi:local/02a7224d-52b8-4019-9395-e6da415fb08f">
    <event publicID="quakeml:uw.anss.org/Event/UW/10652628" ns0:datasource="uw" ns0:dataid="uw10652628" ns0:eventsource="uw" ns0:eventid="10652628">
      <preferredOriginID>quakeml:uw.anss.org/Origin/UW/934883</preferredOriginID>
      <preferredMagnitudeID>quakeml:uw.anss.org/Netmag/UW/730423</preferredMagnitudeID>
      <type>earthquake</type>
      <creationInfo>
        <agencyID>UW</agencyID>
        <creationTime>2012-03-05T17:10:16.000000Z</creationTime>
        <version>3</version>
      </creationInfo>
      <origin publicID="quakeml:uw.anss.org/Origin/UW/934883" ns0:datasource="uw" ns0:dataid="uw10652628" ns0:eventsource="uw" ns0:eventid="10652628">
        <time>
          <value>2005-06-01T02:44:52.930000Z</value>
          <uncertainty>0.1</uncertainty>
        </time>
        <latitude>
          <value>48.5353333</value>
          <uncertainty>0.66</uncertainty>
        </latitude>
        <longitude>
          <value>-122.2931667</value>
          <uncertainty>0.53</uncertainty>
        </longitude>
        <depth>
          <value>11274.0</value>
          <uncertainty>2320.0</uncertainty>
        </depth>
        <depthType>from location</depthType>
        <timeFixed>false</timeFixed>
        <epicenterFixed>false</epicenterFixed>
        <methodID>smi:uw.anss.org/origin/spong</methodID>
        <quality>
          <associatedPhaseCount>16</associatedPhaseCount>
          <usedPhaseCount>16</usedPhaseCount>
          <associatedStationCount>14</associatedStationCount>
          <usedStationCount>0</usedStationCount>
          <standardError>0.25</standardError>
          <azimuthalGap>69.0</azimuthalGap>
        </quality>
        <type>hypocenter</type>
        <evaluationMode>manual</evaluationMode>
        <evaluationStatus>final</evaluationStatus>
        <creationInfo>
          <agencyID>UW</agencyID>
          <creationTime>2012-03-05T17:10:16.000000Z</creationTime>
        </creationInfo>
        <originUncertainty>
          <preferredDescription>horizontal uncertainty</preferredDescription>
          <horizontalUncertainty>846.0</horizontalUncertainty>
        </originUncertainty>
        <arrival publicID="quakeml:uw.anss.org/AssocArO/UW/8607548">
          <pickID>quakeml:uw.anss.org/Arrival/UW/8607548</pickID>
          <phase>P</phase>
          <azimuth>210.1</azimuth>
          <distance>1.024</distance>
          <timeResidual>-0.32</timeResidual>
          <creationInfo>
            <agencyID>UW</agencyID>
            <creationTime>2012-03-05T17:10:16.000000Z</creationTime>
          </creationInfo>
        </arrival>
        <arrival publicID="quakeml:uw.anss.org/AssocArO/UW/8607553">
          <pickID>quakeml:uw.anss.org/Arrival/UW/8607553</pickID>
          <phase>P</phase>
          <azimuth>304.1</azimuth>
          <distance>0.3308</distance>
          <timeResidual>-0.36</timeResidual>
          <creationInfo>
            <agencyID>UW</agencyID>
            <creationTime>2012-03-05T17:10:16.000000Z</creationTime>
          </creationInfo>
        </arrival>
        <arrival publicID="quakeml:uw.anss.org/AssocArO/UW/8607558">
          <pickID>quakeml:uw.anss.org/Arrival/UW/8607558</pickID>
          <phase>P</phase>
          <azimuth>144.3</azimuth>
          <timeResidual>0.08</timeResidual>
          <creationInfo>
            <agencyID>UW</agencyID>
            <creationTime>2012-03-05T17:10:16.000000Z</creationTime>
          </creationInfo>
        </arrival>
        <arrival publicID="quakeml:uw.anss.org/AssocArO/UW/8607563">
          <pickID>quakeml:uw.anss.org/Arrival/UW/8607563</pickID>
          <phase>P</phase>
          <azimuth>200.3</azimuth>
          <distance>1.035</distance>
          <timeResidual>0.08</timeResidual>
          <creationInfo>
            <agencyID>UW</agencyID>
            <creationTime>2012-03-05T17:10:16.000000Z</creationTime>
          </creationInfo>
        </arrival>
        <arrival publicID="quakeml:uw.anss.org/AssocArO/UW/8607568">
          <pickID>quakeml:uw.anss.org/Arrival/UW/8607568</pickID>
          <phase>S</phase>
          <azimuth>200.3</azimuth>
          <distance>1.035</distance>
          <timeResidual>-0.24</timeResidual>
          <creationInfo>
            <agencyID>UW</agencyID>
            <creationTime>2012-03-05T17:10:16.000000Z</creationTime>
          </creationInfo>
        </arrival>
        <arrival publicID="quakeml:uw.anss.org/AssocArO/UW/8607573">
          <pickID>quakeml:uw.anss.org/Arrival/UW/8607573</pickID>
          <phase>P</phase>
          <azimuth>99.3</azimuth>
          <distance>0.525</distance>
          <timeResidual>0.34</timeResidual>
          <creationInfo>
            <agencyID>UW</agencyID>
            <creationTime>2012-03-05T17:10:16.000000Z</creationTime>
          </creationInfo>
        </arrival>
        <arrival publicID="quakeml:uw.anss.org/AssocArO/UW/8607578">
          <pickID>quakeml:uw.anss.org/Arrival/UW/8607578</pickID>
          <phase>P</phase>
          <azimuth>222.6</azimuth>
          <timeResidual>0.23</timeResidual>
          <creationInfo>
            <agencyID>UW</agencyID>
            <creationTime>2012-03-05T17:10:16.000000Z</creationTime>
          </creationInfo>
        </arrival>
        <arrival publicID="quakeml:uw.anss.org/AssocArO/UW/8607583">
          <pickID>quakeml:uw.anss.org/Arrival/UW/8607583</pickID>
          <phase>P</phase>
          <azimuth>340.8</azimuth>
          <distance>0.2469</distance>
          <timeResidual>0.5</timeResidual>
          <creationInfo>
            <agencyID>UW</agencyID>
            <creationTime>2012-03-05T17:10:16.000000Z</creationTime>
          </creationInfo>
        </arrival>
        <arrival publicID="quakeml:uw.anss.org/AssocArO/UW/8607588">
          <pickID>quakeml:uw.anss.org/Arrival/UW/8607588</pickID>
          <phase>S</phase>
          <azimuth>154.2</azimuth>
          <distance>0.9335</distance>
          <timeResidual>-0.26</timeResidual>
          <creationInfo>
            <agencyID>UW</agencyID>
            <creationTime>2012-03-05T17:10:16.000000Z</creationTime>
          </creationInfo>
        </arrival>
        <arrival publicID="quakeml:uw.anss.org/AssocArO/UW/8607593">
          <pickID>quakeml:uw.anss.org/Arrival/UW/8607593</pickID>
          <phase>P</phase>
          <azimuth>154.3</azimuth>
          <distance>0.8119</distance>
          <timeResidual>0.23</timeResidual>
          <creationInfo>
            <agencyID>UW</agencyID>
            <creationTime>2012-03-05T17:10:16.000000Z</creationTime>
          </creationInfo>
        </arrival>
        <arrival publicID="quakeml:uw.anss.org/AssocArO/UW/8607598">
          <pickID>quakeml:uw.anss.org/Arrival/UW/8607598</pickID>
          <phase>P</phase>
          <azimuth>292.1</azimuth>
          <distance>0.3858</distance>
          <timeResidual>-0.26</timeResidual>
          <creationInfo>
            <agencyID>UW</agencyID>
            <creationTime>2012-03-05T17:10:16.000000Z</creationTime>
          </creationInfo>
        </arrival>
        <arrival publicID="quakeml:uw.anss.org/AssocArO/UW/8607603">
          <pickID>quakeml:uw.anss.org/Arrival/UW/8607603</pickID>
          <phase>P</phase>
          <distance>0.5071</distance>
          <timeResidual>-0.14</timeResidual>
          <creationInfo>
            <agencyID>UW</agencyID>
            <creationTime>2012-03-05T17:10:16.000000Z</creationTime>
          </creationInfo>
        </arrival>
        <arrival publicID="quakeml:uw.anss.org/AssocArO/UW/8607608">
          <pickID>quakeml:uw.anss.org/Arrival/UW/8607608</pickID>
          <phase>P</phase>
          <azimuth>134.2</azimuth>
          <distance>0.1605</distance>
          <timeResidual>-0.28</timeResidual>
          <creationInfo>
            <agencyID>UW</agencyID>
            <creationTime>2012-03-05T17:10:16.000000Z</creationTime>
          </creationInfo>
        </arrival>
        <arrival publicID="quakeml:uw.anss.org/AssocArO/UW/8607613">
          <pickID>quakeml:uw.anss.org/Arrival/UW/8607613</pickID>
          <phase>S</phase>
          <azimuth>134.2</azimuth>
          <distance>0.1605</distance>
          <timeResidual>0.16</timeResidual>
          <creationInfo>
            <agencyID>UW</agencyID>
            <creationTime>2012-03-05T17:10:16.000000Z</creationTime>
          </creationInfo>
        </arrival>
        <arrival publicID="quakeml:uw.anss.org/AssocArO/UW/8607618">
          <pickID>quakeml:uw.anss.org/Arrival/UW/8607618</pickID>
          <phase>P</phase>
          <azimuth>220.8</azimuth>
          <distance>0.6972</distance>
          <timeResidual>0.22</timeResidual>
          <creationInfo>
            <agencyID>UW</agencyID>
            <creationTime>2012-03-05T17:10:16.000000Z</creationTime>
          </creationInfo>
        </arrival>
        <arrival publicID="quakeml:uw.anss.org/AssocArO/UW/8607623">
          <pickID>quakeml:uw.anss.org/Arrival/UW/8607623</pickID>
          <phase>P</phase>
          <azimuth>46.0</azimuth>
          <distance>0.3598</distance>
          <timeResidual>-0.15</timeResidual>
          <creationInfo>
            <agencyID>UW</agencyID>
            <creationTime>2012-03-05T17:10:16.000000Z</creationTime>
          </creationInfo>
        </arrival>
      </origin>
      <magnitude publicID="quakeml:uw.anss.org/Netmag/UW/730423">
        <mag>
          <value>1.6</value>
          <uncertainty>0.04</uncertainty>
        </mag>
        <type>Md</type>
        <originID>quakeml:uw.anss.org/Origin/UW/934883</originID>
        <methodID>smi:uw.anss.org/magnitude/Crosson</methodID>
        <stationCount>3</stationCount>
        <evaluationMode>manual</evaluationMode>
        <evaluationStatus>final</evaluationStatus>
        <stationMagnitudeContribution>
          <stationMagnitudeID>quakeml:uw.anss.org/AssocCoM/UW/2006923</stationMagnitudeID>
          <weight>1.0</weight>
          <residual>-0.27</residual>
        </stationMagnitudeContribution>
        <stationMagnitudeContribution>
          <stationMagnitudeID>quakeml:uw.anss.org/AssocCoM/UW/2006928</stationMagnitudeID>
          <weight>1.0</weight>
          <residual>-0.02</residual>
        </stationMagnitudeContribution>
        <stationMagnitudeContribution>
          <stationMagnitudeID>quakeml:uw.anss.org/AssocCoM/UW/2006918</stationMagnitudeID>
          <weight>1.0</weight>
          <residual>0.18</residual>
        </stationMagnitudeContribution>
        <creationInfo>
          <agencyID>UW</agencyID>
          <creationTime>2012-03-05T17:10:16.000000Z</creationTime>
        </creationInfo>
      </magnitude>
      <stationMagnitude publicID="quakeml:uw.anss.org/AssocCoM/UW/2006918">
        <originID>quakeml:uw.anss.org/Origin/UW/934883</originID>
        <mag>
          <value>1.78</value>
        </mag>
        <type>MD</type>
        <amplitudeID>quakeml:uw.anss.org/Coda/UW/2006918</amplitudeID>
        <waveformID networkCode="UW" stationCode="HDW" locationCode="" channelCode="EHZ"></waveformID>
      </stationMagnitude>
      <stationMagnitude publicID="quakeml:uw.anss.org/AssocCoM/UW/2006923">
        <originID>quakeml:uw.anss.org/Origin/UW/934883</originID>
        <mag>
          <value>1.33</value>
        </mag>
        <type>MD</type>
        <amplitudeID>quakeml:uw.anss.org/Coda/UW/2006923</amplitudeID>
        <waveformID networkCode="CN" stationCode="VDB" locationCode="" channelCode="EHZ"></waveformID>
      </stationMagnitude>
      <stationMagnitude publicID="quakeml:uw.anss.org/AssocCoM/UW/2006928">
        <originID>quakeml:uw.anss.org/Origin/UW/934883</originID>
        <mag>
          <value>1.58</value>
        </mag>
        <type>MD</type>
        <amplitudeID>quakeml:uw.anss.org/Coda/UW/2006928</amplitudeID>
        <waveformID networkCode="UW" stationCode="MBW" locationCode="" channelCode="EHZ"></waveformID>
      </stationMagnitude>
      <pick publicID="quakeml:uw.anss.org/Arrival/UW/8607548">
        <time>
          <value>2005-06-01T02:45:10.390000Z</value>
          <uncertainty>0.04</uncertainty>
        </time>
        <waveformID networkCode="UW" stationCode="HDW" locationCode="" channelCode="EHZ"></waveformID>
        <polarity>undecidable</polarity>
        <evaluationMode>manual</evaluationMode>
        <evaluationStatus>final</evaluationStatus>
        <creationInfo>
          <agencyID>UW</agencyID>
          <creationTime>2012-03-05T17:10:16.000000Z</creationTime>
        </creationInfo>
      </pick>
      <pick publicID="quakeml:uw.anss.org/Arrival/UW/8607553">
        <time>
          <value>2005-06-01T02:44:58.800000Z</value>
          <uncertainty>0.03</uncertainty>
        </time>
        <waveformID networkCode="TA" stationCode="A04A" locationCode="" channelCode="BHZ"></waveformID>
        <polarity>negative</polarity>
        <evaluationMode>manual</evaluationMode>
        <evaluationStatus>final</evaluationStatus>
        <creationInfo>
          <agencyID>UW</agencyID>
          <creationTime>2012-03-05T17:10:16.000000Z</creationTime>
        </creationInfo>
      </pick>
      <pick publicID="quakeml:uw.anss.org/Arrival/UW/8607558">
        <time>
          <value>2005-06-01T02:45:00.660000Z</value>
          <uncertainty>0.04</uncertainty>
        </time>
        <waveformID networkCode="UW" stationCode="JCW" locationCode="" channelCode="EHZ"></waveformID>
        <polarity>undecidable</polarity>
        <evaluationMode>manual</evaluationMode>
        <evaluationStatus>final</evaluationStatus>
        <creationInfo>
          <agencyID>UW</agencyID>
          <creationTime>2012-03-05T17:10:16.000000Z</creationTime>
        </creationInfo>
      </pick>
      <pick publicID="quakeml:uw.anss.org/Arrival/UW/8607563">
        <time>
          <value>2005-06-01T02:45:10.890000Z</value>
          <uncertainty>0.04</uncertainty>
        </time>
        <waveformID networkCode="UW" stationCode="GNW" locationCode="" channelCode="BHZ"></waveformID>
        <polarity>undecidable</polarity>
        <evaluationMode>manual</evaluationMode>
        <evaluationStatus>final</evaluationStatus>
        <creationInfo>
          <agencyID>UW</agencyID>
          <creationTime>2012-03-05T17:10:16.000000Z</creationTime>
        </creationInfo>
      </pick>
      <pick publicID="quakeml:uw.anss.org/Arrival/UW/8607568">
        <time>
          <value>2005-06-01T02:45:24.530000Z</value>
          <uncertainty>0.1</uncertainty>
        </time>
        <waveformID networkCode="UW" stationCode="GNW" locationCode="" channelCode="BHE"></waveformID>
        <polarity>undecidable</polarity>
        <evaluationMode>manual</evaluationMode>
        <evaluationStatus>final</evaluationStatus>
        <creationInfo>
          <agencyID>UW</agencyID>
          <creationTime>2012-03-05T17:10:16.000000Z</creationTime>
        </creationInfo>
      </pick>
      <pick publicID="quakeml:uw.anss.org/Arrival/UW/8607573">
        <time>
          <value>2005-06-01T02:45:02.960000Z</value>
          <uncertainty>0.05</uncertainty>
        </time>
        <waveformID networkCode="UW" stationCode="RPW" locationCode="" channelCode="EHZ"></waveformID>
        <polarity>undecidable</polarity>
        <evaluationMode>manual</evaluationMode>
        <evaluationStatus>final</evaluationStatus>
        <creationInfo>
          <agencyID>UW</agencyID>
          <creationTime>2012-03-05T17:10:16.000000Z</creationTime>
        </creationInfo>
      </pick>
      <pick publicID="quakeml:uw.anss.org/Arrival/UW/8607578">
        <time>
          <value>2005-06-01T02:44:59.450000Z</value>
          <uncertainty>0.04</uncertainty>
        </time>
        <waveformID networkCode="UW" stationCode="SVOH" locationCode="" channelCode="EHZ"></waveformID>
        <polarity>undecidable</polarity>
        <evaluationMode>manual</evaluationMode>
        <evaluationStatus>final</evaluationStatus>
        <creationInfo>
          <agencyID>UW</agencyID>
          <creationTime>2012-03-05T17:10:16.000000Z</creationTime>
        </creationInfo>
      </pick>
      <pick publicID="quakeml:uw.anss.org/Arrival/UW/8607583">
        <time>
          <value>2005-06-01T02:44:57.740000Z</value>
          <uncertainty>0.02</uncertainty>
        </time>
        <waveformID networkCode="UW" stationCode="SBES" locationCode="" channelCode="EHZ"></waveformID>
        <polarity>undecidable</polarity>
        <evaluationMode>manual</evaluationMode>
        <evaluationStatus>final</evaluationStatus>
        <creationInfo>
          <agencyID>UW</agencyID>
          <creationTime>2012-03-05T17:10:16.000000Z</creationTime>
        </creationInfo>
      </pick>
      <pick publicID="quakeml:uw.anss.org/Arrival/UW/8607588">
        <time>
          <value>2005-06-01T02:45:21.830000Z</value>
          <uncertainty>0.02</uncertainty>
        </time>
        <waveformID networkCode="UW" stationCode="TTW" locationCode="" channelCode="BHN"></waveformID>
        <polarity>undecidable</polarity>
        <evaluationMode>manual</evaluationMode>
        <evaluationStatus>final</evaluationStatus>
        <creationInfo>
          <agencyID>UW</agencyID>
          <creationTime>2012-03-05T17:10:16.000000Z</creationTime>
        </creationInfo>
      </pick>
      <pick publicID="quakeml:uw.anss.org/Arrival/UW/8607593">
        <time>
          <value>2005-06-01T02:45:07.480000Z</value>
          <uncertainty>0.05</uncertainty>
        </time>
        <waveformID networkCode="UW" stationCode="HTW" locationCode="" channelCode="EHZ"></waveformID>
        <polarity>negative</polarity>
        <evaluationMode>manual</evaluationMode>
        <evaluationStatus>final</evaluationStatus>
        <creationInfo>
          <agencyID>UW</agencyID>
          <creationTime>2012-03-05T17:10:16.000000Z</creationTime>
        </creationInfo>
      </pick>
      <pick publicID="quakeml:uw.anss.org/Arrival/UW/8607598">
        <time>
          <value>2005-06-01T02:44:59.730000Z</value>
          <uncertainty>0.04</uncertainty>
        </time>
        <waveformID networkCode="UW" stationCode="MCW" locationCode="" channelCode="EHZ"></waveformID>
        <polarity>undecidable</polarity>
        <evaluationMode>manual</evaluationMode>
        <evaluationStatus>final</evaluationStatus>
        <creationInfo>
          <agencyID>UW</agencyID>
          <creationTime>2012-03-05T17:10:16.000000Z</creationTime>
        </creationInfo>
      </pick>
      <pick publicID="quakeml:uw.anss.org/Arrival/UW/8607603">
        <time>
          <value>2005-06-01T02:45:01.980000Z</value>
          <uncertainty>0.04</uncertainty>
        </time>
        <waveformID networkCode="CN" stationCode="VDB" locationCode="" channelCode="EHZ"></waveformID>
        <polarity>negative</polarity>
        <evaluationMode>manual</evaluationMode>
        <evaluationStatus>final</evaluationStatus>
        <creationInfo>
          <agencyID>UW</agencyID>
          <creationTime>2012-03-05T17:10:16.000000Z</creationTime>
        </creationInfo>
      </pick>
      <pick publicID="quakeml:uw.anss.org/Arrival/UW/8607608">
        <time>
          <value>2005-06-01T02:44:56.460000Z</value>
          <uncertainty>0.01</uncertainty>
        </time>
        <waveformID networkCode="UW" stationCode="CMW" locationCode="" channelCode="EHZ"></waveformID>
        <polarity>negative</polarity>
        <evaluationMode>manual</evaluationMode>
        <evaluationStatus>final</evaluationStatus>
        <creationInfo>
          <agencyID>UW</agencyID>
          <creationTime>2012-03-05T17:10:16.000000Z</creationTime>
        </creationInfo>
      </pick>
      <pick publicID="quakeml:uw.anss.org/Arrival/UW/8607613">
        <time>
