<?xml version='1.0' encoding='utf-8'?>
<q:quakeml xmlns="http://quakeml.org/xmlns/bed/1.2" xmlns:q="http://quakeml.org/xmlns/quakeml/1.2" xmlns:ns0="http://anss.org/xmlns/catalog/0.1">
  <eventParameters publicID="smi:local/7923a448-a351-4443-9839-3fbd40784c90">
    <event publicID="quakeml:uw.anss.org/Event/UW/10684038" ns0:datasource="uw" ns0:dataid="uw10684038" ns0:eventsource="uw" ns0:eventid="10684038">
      <preferredOriginID>quakeml:uw.anss.org/Origin/UW/966293</preferredOriginID>
      <preferredMagnitudeID>quakeml:uw.anss.org/Netmag/UW/755983</preferredMagnitudeID>
      <type>earthquake</type>
      <creationInfo>
        <agencyID>UW</agencyID>
        <creationTime>2012-03-05T18:18:33.000000Z</creationTime>
        <version>3</version>
      </creationInfo>
      <origin publicID="quakeml:uw.anss.org/Origin/UW/966293" ns0:datasource="uw" ns0:dataid="uw10684038" ns0:eventsource="uw" ns0:eventid="10684038">
        <time>
          <value>2005-11-23T20:53:15.300000Z</value>
          <uncertainty>0.02</uncertainty>
        </time>
        <latitude>
          <value>48.8538333</value>
          <uncertainty>0.08</uncertainty>
        </latitude>
        <longitude>
          <value>-122.138</value>
          <uncertainty>0.09</uncertainty>
        </longitude>
        <depth>
          <value>-710.0</value>
          <uncertainty>220.0</uncertainty>
        </depth>
        <depthType>operator assigned</depthType>
        <timeFixed>false</timeFixed>
        <epicenterFixed>false</epicenterFixed>
        <methodID>smi:uw.anss.org/origin/spong</methodID>
        <quality>
          <associatedPhaseCount>72</associatedPhaseCount>
          <usedPhaseCount>31</usedPhaseCount>
          <associatedStationCount>70</associatedStationCount>
          <usedStationCount>0</usedStationCount>
          <standardError>0.42</standardError>
          <azimuthalGap>106.0</azimuthalGap>
        </quality>
        <type>hypocenter</type>
        <evaluationMode>manual</evaluationMode>
        <evaluationStatus>final</evaluationStatus>
        <creationInfo>
          <agencyID>UW</agencyID>
          <creationTime>2012-03-05T18:18:33.000000Z</creationTime>
        </creationInfo>
        <originUncertainty>
          <preferredDescription>horizontal uncertainty</preferredDescription>
          <horizontalUncertainty>120.0</horizontalUncertainty>
        </originUncertainty>
        <arrival publicID="quakeml:uw.anss.org/AssocArO/UW/8933773">
          <pickID>quakeml:uw.anss.org/Arrival/UW/8933773</pickID>
          <phase>P</phase>
          <azimuth>207.2</azimuth>
          <distance>1.353</distance>
          <timeResidual>-0.22</timeResidual>
          <creationInfo>
            <agencyID>UW</agencyID>
            <creationTime>2012-03-05T18:18:33.000000Z</creationTime>
          </creationInfo>
        </arrival>
        <arrival publicID="quakeml:uw.anss.org/AssocArO/UW/8933778">
          <pickID>quakeml:uw.anss.org/Arrival/UW/8933778</pickID>
          <phase>P</phase>
          <azimuth>156.9</azimuth>
          <distance>2.299</distance>
          <timeResidual>-0.3</timeResidual>
          <creationInfo>
            <agencyID>UW</agencyID>
            <creationTime>2012-03-05T18:18:33.000000Z</creationTime>
          </creationInfo>
        </arrival>
        <arrival publicID="quakeml:uw.anss.org/AssocArO/UW/8933783">
          <pickID>quakeml:uw.anss.org/Arrival/UW/8933783</pickID>
          <phase>P</phase>
          <azimuth>122.7</azimuth>
          <distance>1.43</distance>
          <timeResidual>0.51</timeResidual>
          <creationInfo>
            <agencyID>UW</agencyID>
            <creationTime>2012-03-05T18:18:33.000000Z</creationTime>
          </creationInfo>
        </arrival>
        <arrival publicID="quakeml:uw.anss.org/AssocArO/UW/8933788">
          <pickID>quakeml:uw.anss.org/Arrival/UW/8933788</pickID>
          <phase>P</phase>
          <azimuth>182.9</azimuth>
          <distance>1.816</distance>
          <timeResidual>0.0</timeResidual>
          <creationInfo>
            <agencyID>UW</agencyID>
            <creationTime>2012-03-05T18:18:33.000000Z</creationTime>
          </creationInfo>
        </arrival>
        <arrival publicID="quakeml:uw.anss.org/AssocArO/UW/8933793">
          <pickID>quakeml:uw.anss.org/Arrival/UW/8933793</pickID>
          <phase>P</phase>
          <azimuth>199.8</azimuth>
          <distance>1.37</distance>
          <timeResidual>-0.03</timeResidual>
          <creationInfo>
            <agencyID>UW</agencyID>
            <creationTime>2012-03-05T18:18:33.000000Z</creationTime>
          </creationInfo>
        </arrival>
        <arrival publicID="quakeml:uw.anss.org/AssocArO/UW/8933798">
          <pickID>quakeml:uw.anss.org/Arrival/UW/8933798</pickID>
          <phase>P</phase>
          <azimuth>174.3</azimuth>
          <timeResidual>0.19</timeResidual>
          <creationInfo>
            <agencyID>UW</agencyID>
            <creationTime>2012-03-05T18:18:33.000000Z</creationTime>
          </creationInfo>
        </arrival>
        <arrival publicID="quakeml:uw.anss.org/AssocArO/UW/8933803">
          <pickID>quakeml:uw.anss.org/Arrival/UW/8933803</pickID>
          <phase>P</phase>
          <azimuth>185.8</azimuth>
          <timeResidual>1.41</timeResidual>
          <creationInfo>
            <agencyID>UW</agencyID>
            <creationTime>2012-03-05T18:18:33.000000Z</creationTime>
          </creationInfo>
        </arrival>
        <arrival publicID="quakeml:uw.anss.org/AssocArO/UW/8933808">
          <pickID>quakeml:uw.anss.org/Arrival/UW/8933808</pickID>
          <phase>P</phase>
          <azimuth>240.0</azimuth>
          <distance>1.551</distance>
          <timeResidual>-1.09</timeResidual>
          <creationInfo>
            <agencyID>UW</agencyID>
            <creationTime>2012-03-05T18:18:33.000000Z</creationTime>
          </creationInfo>
        </arrival>
        <arrival publicID="quakeml:uw.anss.org/AssocArO/UW/8933813">
          <pickID>quakeml:uw.anss.org/Arrival/UW/8933813</pickID>
          <phase>P</phase>
          <azimuth>245.0</azimuth>
          <distance>0.203</distance>
          <timeResidual>0.14</timeResidual>
          <creationInfo>
            <agencyID>UW</agencyID>
            <creationTime>2012-03-05T18:18:33.000000Z</creationTime>
          </creationInfo>
        </arrival>
        <arrival publicID="quakeml:uw.anss.org/AssocArO/UW/8933818">
          <pickID>quakeml:uw.anss.org/Arrival/UW/8933818</pickID>
          <phase>P</phase>
          <azimuth>173.9</azimuth>
          <timeResidual>0.14</timeResidual>
          <creationInfo>
            <agencyID>UW</agencyID>
            <creationTime>2012-03-05T18:18:33.000000Z</creationTime>
          </creationInfo>
        </arrival>
        <arrival publicID="quakeml:uw.anss.org/AssocArO/UW/8933823">
          <pickID>quakeml:uw.anss.org/Arrival/UW/8933823</pickID>
          <phase>P</phase>
          <azimuth>235.9</azimuth>
          <timeResidual>-0.29</timeResidual>
          <creationInfo>
            <agencyID>UW</agencyID>
            <creationTime>2012-03-05T18:18:33.000000Z</creationTime>
          </creationInfo>
        </arrival>
        <arrival publicID="quakeml:uw.anss.org/AssocArO/UW/8933828">
          <pickID>quakeml:uw.anss.org/Arrival/UW/8933828</pickID>
          <phase>P</phase>
          <azimuth>172.0</azimuth>
          <distance>2.003</distance>
          <timeResidual>0.23</timeResidual>
          <creationInfo>
            <agencyID>UW</agencyID>
            <creationTime>2012-03-05T18:18:33.000000Z</creationTime>
          </creationInfo>
        </arrival>
        <arrival publicID="quakeml:uw.anss.org/AssocArO/UW/8933833">
          <pickID>quakeml:uw.anss.org/Arrival/UW/8933833</pickID>
          <phase>P</phase>
          <azimuth>172.2</azimuth>
          <timeResidual>0.22</timeResidual>
          <creationInfo>
            <agencyID>UW</agencyID>
            <creationTime>2012-03-05T18:18:33.000000Z</creationTime>
          </creationInfo>
        </arrival>
        <arrival publicID="quakeml:uw.anss.org/AssocArO/UW/8933838">
          <pickID>quakeml:uw.anss.org/Arrival/UW/8933838</pickID>
          <phase>P</phase>
          <azimuth>219.5</azimuth>
          <distance>1.047</distance>
          <timeResidual>0.28</timeResidual>
          <creationInfo>
            <agencyID>UW</agencyID>
            <creationTime>2012-03-05T18:18:33.000000Z</creationTime>
          </creationInfo>
        </arrival>
        <arrival publicID="quakeml:uw.anss.org/AssocArO/UW/8933843">
          <pickID>quakeml:uw.anss.org/Arrival/UW/8933843</pickID>
          <phase>P</phase>
          <azimuth>153.2</azimuth>
          <distance>1.917</distance>
          <timeResidual>1.03</timeResidual>
          <creationInfo>
            <agencyID>UW</agencyID>
            <creationTime>2012-03-05T18:18:33.000000Z</creationTime>
          </creationInfo>
        </arrival>
        <arrival publicID="quakeml:uw.anss.org/AssocArO/UW/8933848">
          <pickID>quakeml:uw.anss.org/Arrival/UW/8933848</pickID>
          <phase>P</phase>
          <azimuth>183.2</azimuth>
          <distance>1.136</distance>
          <timeResidual>0.82</timeResidual>
          <creationInfo>
            <agencyID>UW</agencyID>
            <creationTime>2012-03-05T18:18:33.000000Z</creationTime>
          </creationInfo>
        </arrival>
        <arrival publicID="quakeml:uw.anss.org/AssocArO/UW/8933853">
          <pickID>quakeml:uw.anss.org/Arrival/UW/8933853</pickID>
          <phase>P</phase>
          <azimuth>178.4</azimuth>
          <distance>0.4308</distance>
          <timeResidual>-0.65</timeResidual>
          <creationInfo>
            <agencyID>UW</agencyID>
            <creationTime>2012-03-05T18:18:33.000000Z</creationTime>
          </creationInfo>
        </arrival>
        <arrival publicID="quakeml:uw.anss.org/AssocArO/UW/8933858">
          <pickID>quakeml:uw.anss.org/Arrival/UW/8933858</pickID>
          <phase>P</phase>
          <azimuth>181.0</azimuth>
          <distance>2.393</distance>
          <timeResidual>0.45</timeResidual>
          <creationInfo>
            <agencyID>UW</agencyID>
            <creationTime>2012-03-05T18:18:33.000000Z</creationTime>
          </creationInfo>
        </arrival>
        <arrival publicID="quakeml:uw.anss.org/AssocArO/UW/8933863">
          <pickID>quakeml:uw.anss.org/Arrival/UW/8933863</pickID>
          <phase>P</phase>
          <azimuth>172.0</azimuth>
          <timeResidual>-0.06</timeResidual>
          <creationInfo>
            <agencyID>UW</agencyID>
            <creationTime>2012-03-05T18:18:33.000000Z</creationTime>
          </creationInfo>
        </arrival>
        <arrival publicID="quakeml:uw.anss.org/AssocArO/UW/8933868">
          <pickID>quakeml:uw.anss.org/Arrival/UW/8933868</pickID>
          <phase>P</phase>
          <azimuth>150.8</azimuth>
          <timeResidual>-0.07</timeResidual>
          <creationInfo>
            <agencyID>UW</agencyID>
            <creationTime>2012-03-05T18:18:33.000000Z</creationTime>
          </creationInfo>
        </arrival>
        <arrival publicID="quakeml:uw.anss.org/AssocArO/UW/8933873">
          <pickID>quakeml:uw.anss.org/Arrival/UW/8933873</pickID>
          <phase>P</phase>
          <azimuth>181.1</azimuth>
          <distance>1.543</distance>
          <timeResidual>-0.31</timeResidual>
          <creationInfo>
            <agencyID>UW</agencyID>
            <creationTime>2012-03-05T18:18:33.000000Z</creationTime>
          </creationInfo>
        </arrival>
        <arrival publicID="quakeml:uw.anss.org/AssocArO/UW/8933878">
          <pickID>quakeml:uw.anss.org/Arrival/UW/8933878</pickID>
          <phase>P</phase>
          <azimuth>176.6</azimuth>
          <distance>1.914</distance>
          <timeResidual>-0.04</timeResidual>
          <creationInfo>
            <agencyID>UW</agencyID>
            <creationTime>2012-03-05T18:18:33.000000Z</creationTime>
          </creationInfo>
        </arrival>
        <arrival publicID="quakeml:uw.anss.org/AssocArO/UW/8933883">
          <pickID>quakeml:uw.anss.org/Arrival/UW/8933883</pickID>
          <phase>P</phase>
          <azimuth>172.2</azimuth>
          <distance>2.727</distance>
          <timeResidual>0.66</timeResidual>
          <creationInfo>
            <agencyID>UW</agencyID>
            <creationTime>2012-03-05T18:18:33.000000Z</creationTime>
          </creationInfo>
        </arrival>
        <arrival publicID="quakeml:uw.anss.org/AssocArO/UW/8933888">
          <pickID>quakeml:uw.anss.org/Arrival/UW/8933888</pickID>
          <phase>P</phase>
          <azimuth>170.9</azimuth>
          <distance>1.413</distance>
          <timeResidual>0.29</timeResidual>
          <creationInfo>
            <agencyID>UW</agencyID>
            <creationTime>2012-03-05T18:18:33.000000Z</creationTime>
          </creationInfo>
        </arrival>
        <arrival publicID="quakeml:uw.anss.org/AssocArO/UW/8933893">
          <pickID>quakeml:uw.anss.org/Arrival/UW/8933893</pickID>
          <phase>P</phase>
          <azimuth>134.3</azimuth>
          <distance>0.5793</distance>
          <timeResidual>-0.39</timeResidual>
          <creationInfo>
            <agencyID>UW</agencyID>
            <creationTime>2012-03-05T18:18:33.000000Z</creationTime>
          </creationInfo>
        </arrival>
        <arrival publicID="quakeml:uw.anss.org/AssocArO/UW/8933898">
          <pickID>quakeml:uw.anss.org/Arrival/UW/8933898</pickID>
          <phase>P</phase>
          <azimuth>171.0</azimuth>
          <distance>2.325</distance>
          <timeResidual>0.26</timeResidual>
          <creationInfo>
            <agencyID>UW</agencyID>
            <creationTime>2012-03-05T18:18:33.000000Z</creationTime>
          </creationInfo>
        </arrival>
        <arrival publicID="quakeml:uw.anss.org/AssocArO/UW/8933903">
          <pickID>quakeml:uw.anss.org/Arrival/UW/8933903</pickID>
          <phase>P</phase>
          <azimuth>169.2</azimuth>
          <distance>2.194</distance>
          <timeResidual>-0.12</timeResidual>
          <creationInfo>
            <agencyID>UW</agencyID>
            <creationTime>2012-03-05T18:18:33.000000Z</creationTime>
          </creationInfo>
        </arrival>
        <arrival publicID="quakeml:uw.anss.org/AssocArO/UW/8933908">
          <pickID>quakeml:uw.anss.org/Arrival/UW/8933908</pickID>
          <phase>P</phase>
          <azimuth>222.7</azimuth>
          <timeResidual>0.36</timeResidual>
          <creationInfo>
            <agencyID>UW</agencyID>
            <creationTime>2012-03-05T18:18:33.000000Z</creationTime>
          </creationInfo>
        </arrival>
        <arrival publicID="quakeml:uw.anss.org/AssocArO/UW/8933913">
          <pickID>quakeml:uw.anss.org/Arrival/UW/8933913</pickID>
          <phase>P</phase>
          <azimuth>165.4</azimuth>
          <distance>1.198</distance>
          <timeResidual>0.23</timeResidual>
          <creationInfo>
            <agencyID>UW</agencyID>
            <creationTime>2012-03-05T18:18:33.000000Z</creationTime>
          </creationInfo>
        </arrival>
        <arrival publicID="quakeml:uw.anss.org/AssocArO/UW/8933918">
          <pickID>quakeml:uw.anss.org/Arrival/UW/8933918</pickID>
          <phase>S</phase>
          <azimuth>165.4</azimuth>
          <distance>1.198</distance>
          <timeResidual>0.8</timeResidual>
          <creationInfo>
            <agencyID>UW</agencyID>
            <creationTime>2012-03-05T18:18:33.000000Z</creationTime>
          </creationInfo>
        </arrival>
        <arrival publicID="quakeml:uw.anss.org/AssocArO/UW/8933923">
          <pickID>quakeml:uw.anss.org/Arrival/UW/8933923</pickID>
          <phase>P</phase>
          <azimuth>191.8</azimuth>
          <timeResidual>-0.18</timeResidual>
          <creationInfo>
            <agencyID>UW</agencyID>
            <creationTime>2012-03-05T18:18:33.000000Z</creationTime>
          </creationInfo>
        </arrival>
        <arrival publicID="quakeml:uw.anss.org/AssocArO/UW/8933928">
          <pickID>quakeml:uw.anss.org/Arrival/UW/8933928</pickID>
          <phase>P</phase>
          <azimuth>154.5</azimuth>
          <distance>2.569</distance>
          <timeResidual>0.24</timeResidual>
          <creationInfo>
            <agencyID>UW</agencyID>
            <creationTime>2012-03-05T18:18:33.000000Z</creationTime>
          </creationInfo>
        </arrival>
        <arrival publicID="quakeml:uw.anss.org/AssocArO/UW/8933933">
          <pickID>quakeml:uw.anss.org/Arrival/UW/8933933</pickID>
          <phase>P</phase>
          <azimuth>114.1</azimuth>
          <distance>0.1717</distance>
          <timeResidual>-0.23</timeResidual>
          <creationInfo>
            <agencyID>UW</agencyID>
            <creationTime>2012-03-05T18:18:33.000000Z</creationTime>
          </creationInfo>
        </arrival>
        <arrival publicID="quakeml:uw.anss.org/AssocArO/UW/8933938">
          <pickID>quakeml:uw.anss.org/Arrival/UW/8933938</pickID>
          <phase>P</phase>
          <azimuth>225.7</azimuth>
          <distance>1.474</distance>
          <timeResidual>-0.1</timeResidual>
          <creationInfo>
            <agencyID>UW</agencyID>
            <creationTime>2012-03-05T18:18:33.000000Z</creationTime>
          </creationInfo>
        </arrival>
        <arrival publicID="quakeml:uw.anss.org/AssocArO/UW/8933943">
          <pickID>quakeml:uw.anss.org/Arrival/UW/8933943</pickID>
          <phase>P</phase>
          <azimuth>183.8</azimuth>
          <distance>1.171</distance>
          <timeResidual>0.76</timeResidual>
          <creationInfo>
            <agencyID>UW</agencyID>
            <creationTime>2012-03-05T18:18:33.000000Z</creationTime>
          </creationInfo>
        </arrival>
        <arrival publicID="quakeml:uw.anss.org/AssocArO/UW/8933948">
          <pickID>quakeml:uw.anss.org/Arrival/UW/8933948</pickID>
          <phase>P</phase>
          <azimuth>183.2</azimuth>
          <distance>2.553</distance>
          <timeResidual>0.53</timeResidual>
          <creationInfo>
            <agencyID>UW</agencyID>
            <creationTime>2012-03-05T18:18:33.000000Z</creationTime>
          </creationInfo>
        </arrival>
        <arrival publicID="quakeml:uw.anss.org/AssocArO/UW/8933953">
          <pickID>quakeml:uw.anss.org/Arrival/UW/8933953</pickID>
          <phase>P</phase>
          <azimuth>250.5</azimuth>
          <distance>0.3995</distance>
          <timeResidual>-0.22</timeResidual>
          <creationInfo>
            <agencyID>UW</agencyID>
            <creationTime>2012-03-05T18:18:33.000000Z</creationTime>
          </creationInfo>
        </arrival>
        <arrival publicID="quakeml:uw.anss.org/AssocArO/UW/8933958">
          <pickID>quakeml:uw.anss.org/Arrival/UW/8933958</pickID>
          <phase>P</phase>
          <azimuth>168.0</azimuth>
          <timeResidual>-0.09</timeResidual>
          <creationInfo>
            <agencyID>UW</agencyID>
            <creationTime>2012-03-05T18:18:33.000000Z</creationTime>
          </creationInfo>
        </arrival>
        <arrival publicID="quakeml:uw.anss.org/AssocArO/UW/8933963">
          <pickID>quakeml:uw.anss.org/Arrival/UW/8933963</pickID>
          <phase>P</phase>
          <azimuth>135.4</azimuth>
          <distance>1.738</distance>
          <timeResidual>0.48</timeResidual>
          <creationInfo>
            <agencyID>UW</agencyID>
            <creationTime>2012-03-05T18:18:33.000000Z</creationTime>
          </creationInfo>
        </arrival>
        <arrival publicID="quakeml:uw.anss.org/AssocArO/UW/8933968">
          <pickID>quakeml:uw.anss.org/Arrival/UW/8933968</pickID>
          <phase>P</phase>
          <azimuth>229.2</azimuth>
          <distance>1.209</distance>
