<?xml version='1.0' encoding='utf-8'?>
<q:quakeml xmlns="http://quakeml.org/xmlns/bed/1.2" xmlns:q="http://quakeml.org/xmlns/quakeml/1.2" xmlns:ns0="http://anss.org/xmlns/catalog/0.1">
  <eventParameters publicID="smi:local/9f967639-0441-4acc-8a8e-2972cac9bf2d">
    <event publicID="quakeml:uw.anss.org/Event/UW/10624203" ns0:datasource="uw" ns0:dataid="uw10624203" ns0:eventsource="uw" ns0:eventid="10624203">
      <preferredOriginID>quakeml:uw.anss.org/Origin/UW/906458</preferredOriginID>
      <preferredMagnitudeID>quakeml:uw.anss.org/Netmag/UW/705228</preferredMagnitudeID>
      <type>earthquake</type>
      <creationInfo>
        <agencyID>UW</agencyID>
        <creationTime>2012-03-05T16:09:08.000000Z</creationTime>
        <version>3</version>
      </creationInfo>
      <origin publicID="quakeml:uw.anss.org/Origin/UW/906458" ns0:datasource="uw" ns0:dataid="uw10624203" ns0:eventsource="uw" ns0:eventid="10624203">
        <time>
          <value>2005-02-06T08:53:53.480000Z</value>
          <uncertainty>0.02</uncertainty>
        </time>
        <latitude>
          <value>48.7523333</value>
          <uncertainty>0.05</uncertainty>
        </latitude>
        <longitude>
          <value>-121.1606667</value>
          <uncertainty>0.08</uncertainty>
        </longitude>
        <depth>
          <value>-761.0</value>
          <uncertainty>190.0</uncertainty>
        </depth>
        <depthType>operator assigned</depthType>
        <timeFixed>false</timeFixed>
        <epicenterFixed>false</epicenterFixed>
        <methodID>smi:uw.anss.org/origin/spong</methodID>
        <quality>
          <associatedPhaseCount>50</associatedPhaseCount>
          <usedPhaseCount>29</usedPhaseCount>
          <associatedStationCount>46</associatedStationCount>
          <usedStationCount>0</usedStationCount>
          <standardError>0.25</standardError>
          <azimuthalGap>127.0</azimuthalGap>
        </quality>
        <type>hypocenter</type>
        <evaluationMode>manual</evaluationMode>
        <evaluationStatus>final</evaluationStatus>
        <creationInfo>
          <agencyID>UW</agencyID>
          <creationTime>2012-03-05T16:09:08.000000Z</creationTime>
        </creationInfo>
        <originUncertainty>
          <preferredDescription>horizontal uncertainty</preferredDescription>
          <horizontalUncertainty>94.0</horizontalUncertainty>
        </originUncertainty>
        <arrival publicID="quakeml:uw.anss.org/AssocArO/UW/8326393">
          <pickID>quakeml:uw.anss.org/Arrival/UW/8326393</pickID>
          <phase>P</phase>
          <azimuth>141.1</azimuth>
          <distance>0.8742</distance>
          <timeResidual>-0.27</timeResidual>
          <creationInfo>
            <agencyID>UW</agencyID>
            <creationTime>2012-03-05T16:09:08.000000Z</creationTime>
          </creationInfo>
        </arrival>
        <arrival publicID="quakeml:uw.anss.org/AssocArO/UW/8326398">
          <pickID>quakeml:uw.anss.org/Arrival/UW/8326398</pickID>
          <phase>P</phase>
          <azimuth>253.4</azimuth>
          <distance>1.017</distance>
          <timeResidual>0.26</timeResidual>
          <creationInfo>
            <agencyID>UW</agencyID>
            <creationTime>2012-03-05T16:09:08.000000Z</creationTime>
          </creationInfo>
        </arrival>
        <arrival publicID="quakeml:uw.anss.org/AssocArO/UW/8326403">
          <pickID>quakeml:uw.anss.org/Arrival/UW/8326403</pickID>
          <phase>P</phase>
          <azimuth>154.0</azimuth>
          <distance>1.275</distance>
          <timeResidual>0.11</timeResidual>
          <creationInfo>
            <agencyID>UW</agencyID>
            <creationTime>2012-03-05T16:09:08.000000Z</creationTime>
          </creationInfo>
        </arrival>
        <arrival publicID="quakeml:uw.anss.org/AssocArO/UW/8326408">
          <pickID>quakeml:uw.anss.org/Arrival/UW/8326408</pickID>
          <phase>P</phase>
          <azimuth>193.6</azimuth>
          <timeResidual>0.35</timeResidual>
          <creationInfo>
            <agencyID>UW</agencyID>
            <creationTime>2012-03-05T16:09:08.000000Z</creationTime>
          </creationInfo>
        </arrival>
        <arrival publicID="quakeml:uw.anss.org/AssocArO/UW/8326413">
          <pickID>quakeml:uw.anss.org/Arrival/UW/8326413</pickID>
          <phase>P</phase>
          <azimuth>228.6</azimuth>
          <distance>1.115</distance>
          <timeResidual>1.33</timeResidual>
          <creationInfo>
            <agencyID>UW</agencyID>
            <creationTime>2012-03-05T16:09:08.000000Z</creationTime>
          </creationInfo>
        </arrival>
        <arrival publicID="quakeml:uw.anss.org/AssocArO/UW/8326418">
          <pickID>quakeml:uw.anss.org/Arrival/UW/8326418</pickID>
          <phase>P</phase>
          <azimuth>245.2</azimuth>
          <timeResidual>0.75</timeResidual>
          <creationInfo>
            <agencyID>UW</agencyID>
            <creationTime>2012-03-05T16:09:08.000000Z</creationTime>
          </creationInfo>
        </arrival>
        <arrival publicID="quakeml:uw.anss.org/AssocArO/UW/8326423">
          <pickID>quakeml:uw.anss.org/Arrival/UW/8326423</pickID>
          <phase>S</phase>
          <azimuth>245.2</azimuth>
          <timeResidual>0.07</timeResidual>
          <creationInfo>
            <agencyID>UW</agencyID>
            <creationTime>2012-03-05T16:09:08.000000Z</creationTime>
          </creationInfo>
        </arrival>
        <arrival publicID="quakeml:uw.anss.org/AssocArO/UW/8326428">
          <pickID>quakeml:uw.anss.org/Arrival/UW/8326428</pickID>
          <phase>P</phase>
          <azimuth>271.6</azimuth>
          <distance>0.831</distance>
          <timeResidual>0.38</timeResidual>
          <creationInfo>
            <agencyID>UW</agencyID>
            <creationTime>2012-03-05T16:09:08.000000Z</creationTime>
          </creationInfo>
        </arrival>
        <arrival publicID="quakeml:uw.anss.org/AssocArO/UW/8326433">
          <pickID>quakeml:uw.anss.org/Arrival/UW/8326433</pickID>
          <phase>P</phase>
          <distance>0.6795</distance>
          <timeResidual>-0.14</timeResidual>
          <creationInfo>
            <agencyID>UW</agencyID>
            <creationTime>2012-03-05T16:09:08.000000Z</creationTime>
          </creationInfo>
        </arrival>
        <arrival publicID="quakeml:uw.anss.org/AssocArO/UW/8326438">
          <pickID>quakeml:uw.anss.org/Arrival/UW/8326438</pickID>
          <phase>P</phase>
          <azimuth>173.0</azimuth>
          <distance>1.627</distance>
          <timeResidual>1.0</timeResidual>
          <creationInfo>
            <agencyID>UW</agencyID>
            <creationTime>2012-03-05T16:09:08.000000Z</creationTime>
          </creationInfo>
        </arrival>
        <arrival publicID="quakeml:uw.anss.org/AssocArO/UW/8326443">
          <pickID>quakeml:uw.anss.org/Arrival/UW/8326443</pickID>
          <phase>P</phase>
          <azimuth>142.6</azimuth>
          <distance>1.747</distance>
          <timeResidual>0.75</timeResidual>
          <creationInfo>
            <agencyID>UW</agencyID>
            <creationTime>2012-03-05T16:09:08.000000Z</creationTime>
          </creationInfo>
        </arrival>
        <arrival publicID="quakeml:uw.anss.org/AssocArO/UW/8326448">
          <pickID>quakeml:uw.anss.org/Arrival/UW/8326448</pickID>
          <phase>P</phase>
          <azimuth>243.0</azimuth>
          <distance>0.7171</distance>
          <timeResidual>-0.17</timeResidual>
          <creationInfo>
            <agencyID>UW</agencyID>
            <creationTime>2012-03-05T16:09:08.000000Z</creationTime>
          </creationInfo>
        </arrival>
        <arrival publicID="quakeml:uw.anss.org/AssocArO/UW/8326453">
          <pickID>quakeml:uw.anss.org/Arrival/UW/8326453</pickID>
          <phase>P</phase>
          <azimuth>195.6</azimuth>
          <timeResidual>0.07</timeResidual>
          <creationInfo>
            <agencyID>UW</agencyID>
            <creationTime>2012-03-05T16:09:08.000000Z</creationTime>
          </creationInfo>
        </arrival>
        <arrival publicID="quakeml:uw.anss.org/AssocArO/UW/8326458">
          <pickID>quakeml:uw.anss.org/Arrival/UW/8326458</pickID>
          <phase>P</phase>
          <azimuth>217.4</azimuth>
          <distance>2.222</distance>
          <timeResidual>-0.07</timeResidual>
          <creationInfo>
            <agencyID>UW</agencyID>
            <creationTime>2012-03-05T16:09:08.000000Z</creationTime>
          </creationInfo>
        </arrival>
        <arrival publicID="quakeml:uw.anss.org/AssocArO/UW/8326463">
          <pickID>quakeml:uw.anss.org/Arrival/UW/8326463</pickID>
          <phase>P</phase>
          <azimuth>192.5</azimuth>
          <distance>2.05</distance>
          <timeResidual>0.19</timeResidual>
          <creationInfo>
            <agencyID>UW</agencyID>
            <creationTime>2012-03-05T16:09:08.000000Z</creationTime>
          </creationInfo>
        </arrival>
        <arrival publicID="quakeml:uw.anss.org/AssocArO/UW/8326468">
          <pickID>quakeml:uw.anss.org/Arrival/UW/8326468</pickID>
          <phase>P</phase>
          <azimuth>217.7</azimuth>
          <distance>0.3846</distance>
          <timeResidual>-0.1</timeResidual>
          <creationInfo>
            <agencyID>UW</agencyID>
            <creationTime>2012-03-05T16:09:08.000000Z</creationTime>
          </creationInfo>
        </arrival>
        <arrival publicID="quakeml:uw.anss.org/AssocArO/UW/8326473">
          <pickID>quakeml:uw.anss.org/Arrival/UW/8326473</pickID>
          <phase>P</phase>
          <azimuth>187.2</azimuth>
          <distance>2.071</distance>
          <timeResidual>-0.37</timeResidual>
          <creationInfo>
            <agencyID>UW</agencyID>
            <creationTime>2012-03-05T16:09:08.000000Z</creationTime>
          </creationInfo>
        </arrival>
        <arrival publicID="quakeml:uw.anss.org/AssocArO/UW/8326478">
          <pickID>quakeml:uw.anss.org/Arrival/UW/8326478</pickID>
          <phase>P</phase>
          <azimuth>198.6</azimuth>
          <distance>1.116</distance>
          <timeResidual>-0.14</timeResidual>
          <creationInfo>
            <agencyID>UW</agencyID>
            <creationTime>2012-03-05T16:09:08.000000Z</creationTime>
          </creationInfo>
        </arrival>
        <arrival publicID="quakeml:uw.anss.org/AssocArO/UW/8326483">
          <pickID>quakeml:uw.anss.org/Arrival/UW/8326483</pickID>
          <phase>P</phase>
          <azimuth>284.7</azimuth>
          <distance>0.6687</distance>
          <timeResidual>0.01</timeResidual>
          <creationInfo>
            <agencyID>UW</agencyID>
            <creationTime>2012-03-05T16:09:08.000000Z</creationTime>
          </creationInfo>
        </arrival>
        <arrival publicID="quakeml:uw.anss.org/AssocArO/UW/8326488">
          <pickID>quakeml:uw.anss.org/Arrival/UW/8326488</pickID>
          <phase>S</phase>
          <azimuth>284.7</azimuth>
          <distance>0.6687</distance>
          <timeResidual>-0.6</timeResidual>
          <creationInfo>
            <agencyID>UW</agencyID>
            <creationTime>2012-03-05T16:09:08.000000Z</creationTime>
          </creationInfo>
        </arrival>
        <arrival publicID="quakeml:uw.anss.org/AssocArO/UW/8326493">
          <pickID>quakeml:uw.anss.org/Arrival/UW/8326493</pickID>
          <phase>P</phase>
          <azimuth>147.6</azimuth>
          <distance>2.121</distance>
          <timeResidual>1.26</timeResidual>
          <creationInfo>
            <agencyID>UW</agencyID>
            <creationTime>2012-03-05T16:09:08.000000Z</creationTime>
          </creationInfo>
        </arrival>
        <arrival publicID="quakeml:uw.anss.org/AssocArO/UW/8326498">
          <pickID>quakeml:uw.anss.org/Arrival/UW/8326498</pickID>
          <phase>P</phase>
          <azimuth>156.0</azimuth>
          <distance>1.95</distance>
          <timeResidual>0.85</timeResidual>
          <creationInfo>
            <agencyID>UW</agencyID>
            <creationTime>2012-03-05T16:09:08.000000Z</creationTime>
          </creationInfo>
        </arrival>
        <arrival publicID="quakeml:uw.anss.org/AssocArO/UW/8326503">
          <pickID>quakeml:uw.anss.org/Arrival/UW/8326503</pickID>
          <phase>P</phase>
          <azimuth>261.1</azimuth>
          <distance>1.246</distance>
          <timeResidual>0.56</timeResidual>
          <creationInfo>
            <agencyID>UW</agencyID>
            <creationTime>2012-03-05T16:09:08.000000Z</creationTime>
          </creationInfo>
        </arrival>
        <arrival publicID="quakeml:uw.anss.org/AssocArO/UW/8326508">
          <pickID>quakeml:uw.anss.org/Arrival/UW/8326508</pickID>
          <phase>P</phase>
          <azimuth>131.2</azimuth>
          <distance>1.578</distance>
          <timeResidual>0.62</timeResidual>
          <creationInfo>
            <agencyID>UW</agencyID>
            <creationTime>2012-03-05T16:09:08.000000Z</creationTime>
          </creationInfo>
        </arrival>
        <arrival publicID="quakeml:uw.anss.org/AssocArO/UW/8326513">
          <pickID>quakeml:uw.anss.org/Arrival/UW/8326513</pickID>
          <phase>P</phase>
          <azimuth>167.4</azimuth>
          <distance>1.535</distance>
          <timeResidual>0.41</timeResidual>
          <creationInfo>
            <agencyID>UW</agencyID>
            <creationTime>2012-03-05T16:09:08.000000Z</creationTime>
          </creationInfo>
        </arrival>
        <arrival publicID="quakeml:uw.anss.org/AssocArO/UW/8326518">
          <pickID>quakeml:uw.anss.org/Arrival/UW/8326518</pickID>
          <phase>P</phase>
          <azimuth>268.7</azimuth>
          <distance>1.024</distance>
          <timeResidual>0.07</timeResidual>
          <creationInfo>
            <agencyID>UW</agencyID>
            <creationTime>2012-03-05T16:09:08.000000Z</creationTime>
          </creationInfo>
        </arrival>
        <arrival publicID="quakeml:uw.anss.org/AssocArO/UW/8326523">
          <pickID>quakeml:uw.anss.org/Arrival/UW/8326523</pickID>
          <phase>P</phase>
          <azimuth>222.7</azimuth>
          <timeResidual>-0.06</timeResidual>
          <creationInfo>
            <agencyID>UW</agencyID>
            <creationTime>2012-03-05T16:09:08.000000Z</creationTime>
          </creationInfo>
        </arrival>
        <arrival publicID="quakeml:uw.anss.org/AssocArO/UW/8326528">
          <pickID>quakeml:uw.anss.org/Arrival/UW/8326528</pickID>
          <phase>P</phase>
          <azimuth>205.7</azimuth>
          <distance>1.595</distance>
          <timeResidual>0.85</timeResidual>
          <creationInfo>
            <agencyID>UW</agencyID>
            <creationTime>2012-03-05T16:09:08.000000Z</creationTime>
          </creationInfo>
        </arrival>
        <arrival publicID="quakeml:uw.anss.org/AssocArO/UW/8326533">
          <pickID>quakeml:uw.anss.org/Arrival/UW/8326533</pickID>
          <phase>P</phase>
          <azimuth>167.6</azimuth>
          <distance>1.887</distance>
          <timeResidual>-0.84</timeResidual>
          <creationInfo>
            <agencyID>UW</agencyID>
            <creationTime>2012-03-05T16:09:08.000000Z</creationTime>
          </creationInfo>
        </arrival>
        <arrival publicID="quakeml:uw.anss.org/AssocArO/UW/8326538">
          <pickID>quakeml:uw.anss.org/Arrival/UW/8326538</pickID>
          <phase>P</phase>
          <azimuth>190.9</azimuth>
          <timeResidual>-0.18</timeResidual>
          <creationInfo>
            <agencyID>UW</agencyID>
            <creationTime>2012-03-05T16:09:08.000000Z</creationTime>
          </creationInfo>
        </arrival>
        <arrival publicID="quakeml:uw.anss.org/AssocArO/UW/8326543">
          <pickID>quakeml:uw.anss.org/Arrival/UW/8326543</pickID>
          <phase>P</phase>
          <azimuth>211.7</azimuth>
          <timeResidual>0.78</timeResidual>
          <creationInfo>
            <agencyID>UW</agencyID>
            <creationTime>2012-03-05T16:09:08.000000Z</creationTime>
          </creationInfo>
        </arrival>
        <arrival publicID="quakeml:uw.anss.org/AssocArO/UW/8326548">
          <pickID>quakeml:uw.anss.org/Arrival/UW/8326548</pickID>
          <phase>P</phase>
          <azimuth>247.3</azimuth>
          <distance>1.636</distance>
          <timeResidual>0.1</timeResidual>
          <creationInfo>
            <agencyID>UW</agencyID>
            <creationTime>2012-03-05T16:09:08.000000Z</creationTime>
          </creationInfo>
        </arrival>
        <arrival publicID="quakeml:uw.anss.org/AssocArO/UW/8326553">
          <pickID>quakeml:uw.anss.org/Arrival/UW/8326553</pickID>
          <phase>P</phase>
          <azimuth>129.2</azimuth>
          <distance>1.202</distance>
          <timeResidual>0.06</timeResidual>
          <creationInfo>
            <agencyID>UW</agencyID>
            <creationTime>2012-03-05T16:09:08.000000Z</creationTime>
          </creationInfo>
        </arrival>
        <arrival publicID="quakeml:uw.anss.org/AssocArO/UW/8326558">
          <pickID>quakeml:uw.anss.org/Arrival/UW/8326558</pickID>
          <phase>P</phase>
          <azimuth>238.9</azimuth>
          <distance>1.42</distance>
          <timeResidual>0.44</timeResidual>
          <creationInfo>
            <agencyID>UW</agencyID>
            <creationTime>2012-03-05T16:09:08.000000Z</creationTime>
          </creationInfo>
        </arrival>
        <arrival publicID="quakeml:uw.anss.org/AssocArO/UW/8326563">
          <pickID>quakeml:uw.anss.org/Arrival/UW/8326563</pickID>
          <phase>P</phase>
          <azimuth>229.5</azimuth>
          <distance>0.7906</distance>
          <timeResidual>0.04</timeResidual>
          <creationInfo>
            <agencyID>UW</agencyID>
            <creationTime>2012-03-05T16:09:08.000000Z</creationTime>
          </creationInfo>
        </arrival>
        <arrival publicID="quakeml:uw.anss.org/AssocArO/UW/8326568">
          <pickID>quakeml:uw.anss.org/Arrival/UW/8326568</pickID>
          <phase>S</phase>
          <azimuth>229.5</azimuth>
          <distance>0.7906</distance>
          <timeResidual>0.1</timeResidual>
          <creationInfo>
            <agencyID>UW</agencyID>
            <creationTime>2012-03-05T16:09:08.000000Z</creationTime>
          </creationInfo>
        </arrival>
        <arrival publicID="quakeml:uw.anss.org/AssocArO/UW/8326573">
          <pickID>quakeml:uw.anss.org/Arrival/UW/8326573</pickID>
          <phase>P</phase>
          <azimuth>155.7</azimuth>
          <distance>2.125</distance>
          <timeResidual>1.46</timeResidual>
          <creationInfo>
            <agencyID>UW</agencyID>
            <creationTime>2012-03-05T16:09:08.000000Z</creationTime>
          </creationInfo>
        </arrival>
        <arrival publicID="quakeml:uw.anss.org/AssocArO/UW/8326578">
          <pickID>quakeml:uw.anss.org/Arrival/UW/8326578</pickID>
          <phase>P</phase>
          <azimuth>142.2</azimuth>
          <distance>1.327</distance>
          <timeResidual>-0.09</timeResidual>
          <creationInfo>
            <agencyID>UW</agencyID>
            <creationTime>2012-03-05T16:09:08.000000Z</creationTime>
          </creationInfo>
        </arrival>
        <arrival publicID="quakeml:uw.anss.org/AssocArO/UW/8326583">
          <pickID>quakeml:uw.anss.org/Arrival/UW/8326583</pickID>
          <phase>P</phase>
          <azimuth>222.6</azimuth>
          <distance>1.625</distance>
          <timeResidual>0.03</timeResidual>
          <creationInfo>
            <agencyID>UW</agencyID>
            <creationTime>2012-03-05T16:09:08.000000Z</creationTime>
          </creationInfo>
        </arrival>
        <arrival publicID="quakeml:uw.anss.org/AssocArO/UW/8326588">
          <pickID>quakeml:uw.anss.org/Arrival/UW/8326588</pickID>
          <phase>P</phase>
          <azimuth>201.0</azimuth>
