<?xml version='1.0' encoding='utf-8'?>
<q:quakeml xmlns="http://quakeml.org/xmlns/bed/1.2" xmlns:q="http://quakeml.org/xmlns/quakeml/1.2" xmlns:ns0="http://anss.org/xmlns/catalog/0.1">
  <eventParameters publicID="smi:local/89bb88c9-bcdb-41fc-91f0-8ad13516484b">
    <event publicID="quakeml:uw.anss.org/Event/UW/10671218" ns0:datasource="uw" ns0:dataid="uw10671218" ns0:eventsource="uw" ns0:eventid="10671218">
      <preferredOriginID>quakeml:uw.anss.org/Origin/UW/2466098</preferredOriginID>
      <preferredMagnitudeID>quakeml:uw.anss.org/Netmag/UW/993043</preferredMagnitudeID>
      <type>earthquake</type>
      <creationInfo>
        <agencyID>UW</agencyID>
        <creationTime>2016-05-18T01:24:52.000000Z</creationTime>
        <version>9</version>
      </creationInfo>
      <origin publicID="quakeml:uw.anss.org/Origin/UW/1248943" ns0:datasource="uw" ns0:dataid="uw10671218" ns0:eventsource="uw" ns0:eventid="10671218">
        <time>
          <value>2005-08-02T08:02:18.120000Z</value>
        </time>
        <latitude>
          <value>48.7806667</value>
        </latitude>
        <longitude>
          <value>-121.8</value>
        </longitude>
        <depth>
          <value>23450.0</value>
          <uncertainty>1000.0</uncertainty>
        </depth>
        <depthType>from location</depthType>
        <timeFixed>false</timeFixed>
        <epicenterFixed>false</epicenterFixed>
        <methodID>smi:uw.anss.org/origin/HYP2000</methodID>
        <quality>
          <associatedPhaseCount>10</associatedPhaseCount>
          <usedPhaseCount>8</usedPhaseCount>
          <associatedStationCount>7</associatedStationCount>
          <usedStationCount>6</usedStationCount>
          <standardError>0.05</standardError>
          <azimuthalGap>189.0</azimuthalGap>
        </quality>
        <type>hypocenter</type>
        <evaluationMode>manual</evaluationMode>
        <evaluationStatus>final</evaluationStatus>
        <creationInfo>
          <agencyID>UW</agencyID>
          <creationTime>2012-09-03T16:18:29.000000Z</creationTime>
        </creationInfo>
        <originUncertainty>
          <preferredDescription>confidence ellipsoid</preferredDescription>
          <horizontalUncertainty>740.0</horizontalUncertainty>
          <confidenceLevel>95.0</confidenceLevel>
          <confidenceEllipsoid>
            <semiMajorAxisLength>2520.0</semiMajorAxisLength>
            <semiMinorAxisLength>936.0</semiMinorAxisLength>
            <semiIntermediateAxisLength>1800.0</semiIntermediateAxisLength>
            <majorAxisPlunge>72.0</majorAxisPlunge>
            <majorAxisAzimuth>21.0</majorAxisAzimuth>
            <majorAxisRotation>49.0</majorAxisRotation>
          </confidenceEllipsoid>
        </originUncertainty>
        <arrival publicID="quakeml:uw.anss.org/AssocArO/UW/11149963">
          <pickID>quakeml:uw.anss.org/Arrival/UW/11149963</pickID>
          <phase>S</phase>
          <timeCorrection>0.57</timeCorrection>
          <azimuth>272.8</azimuth>
          <distance>0.06681</distance>
          <takeoffAngle>
            <value>161.0</value>
          </takeoffAngle>
          <timeResidual>2.29</timeResidual>
          <timeWeight>0.0</timeWeight>
          <creationInfo>
            <agencyID>UW</agencyID>
            <creationTime>2012-09-03T16:18:29.000000Z</creationTime>
          </creationInfo>
        </arrival>
        <arrival publicID="quakeml:uw.anss.org/AssocArO/UW/11149968">
          <pickID>quakeml:uw.anss.org/Arrival/UW/11149968</pickID>
          <phase>S</phase>
          <timeCorrection>0.34</timeCorrection>
          <azimuth>150.3</azimuth>
          <distance>0.3828</distance>
          <takeoffAngle>
            <value>112.0</value>
          </takeoffAngle>
          <timeResidual>0.07</timeResidual>
          <timeWeight>0.07</timeWeight>
          <creationInfo>
            <agencyID>UW</agencyID>
            <creationTime>2012-09-03T16:18:29.000000Z</creationTime>
          </creationInfo>
        </arrival>
        <arrival publicID="quakeml:uw.anss.org/AssocArO/UW/11149973">
          <pickID>quakeml:uw.anss.org/Arrival/UW/11149973</pickID>
          <phase>P</phase>
          <timeCorrection>0.29</timeCorrection>
          <azimuth>210.8</azimuth>
          <distance>0.4159</distance>
          <takeoffAngle>
            <value>110.0</value>
          </takeoffAngle>
          <timeResidual>0.07</timeResidual>
          <timeWeight>0.1</timeWeight>
          <creationInfo>
            <agencyID>UW</agencyID>
            <creationTime>2012-09-03T16:18:29.000000Z</creationTime>
          </creationInfo>
        </arrival>
        <arrival publicID="quakeml:uw.anss.org/AssocArO/UW/11149978">
          <pickID>quakeml:uw.anss.org/Arrival/UW/11149978</pickID>
          <phase>S</phase>
          <timeCorrection>0.52</timeCorrection>
          <azimuth>210.8</azimuth>
          <distance>0.4159</distance>
          <takeoffAngle>
            <value>110.0</value>
          </takeoffAngle>
          <timeResidual>-0.04</timeResidual>
          <timeWeight>0.07</timeWeight>
          <creationInfo>
            <agencyID>UW</agencyID>
            <creationTime>2012-09-03T16:18:29.000000Z</creationTime>
          </creationInfo>
        </arrival>
        <arrival publicID="quakeml:uw.anss.org/AssocArO/UW/8799053">
          <pickID>quakeml:uw.anss.org/Arrival/UW/8799053</pickID>
          <phase>P</phase>
          <timeCorrection>-0.06</timeCorrection>
          <azimuth>188.3</azimuth>
          <takeoffAngle>
            <value>101.0</value>
          </takeoffAngle>
          <timeResidual>0.0</timeResidual>
          <timeWeight>0.13</timeWeight>
          <creationInfo>
            <agencyID>UW</agencyID>
            <creationTime>2012-09-03T16:18:29.000000Z</creationTime>
          </creationInfo>
        </arrival>
        <arrival publicID="quakeml:uw.anss.org/AssocArO/UW/8799058">
          <pickID>quakeml:uw.anss.org/Arrival/UW/8799058</pickID>
          <phase>P</phase>
          <timeCorrection>0.19</timeCorrection>
          <azimuth>150.3</azimuth>
          <distance>0.3828</distance>
          <takeoffAngle>
            <value>112.0</value>
          </takeoffAngle>
          <timeResidual>0.0</timeResidual>
          <timeWeight>0.1</timeWeight>
          <creationInfo>
            <agencyID>UW</agencyID>
            <creationTime>2012-09-03T16:18:29.000000Z</creationTime>
          </creationInfo>
        </arrival>
        <arrival publicID="quakeml:uw.anss.org/AssocArO/UW/8799063">
          <pickID>quakeml:uw.anss.org/Arrival/UW/8799063</pickID>
          <phase>P</phase>
          <timeCorrection>0.0</timeCorrection>
          <azimuth>178.8</azimuth>
          <distance>0.9778</distance>
          <takeoffAngle>
            <value>94.0</value>
          </takeoffAngle>
          <timeResidual>-0.1</timeResidual>
          <timeWeight>0.1</timeWeight>
          <creationInfo>
            <agencyID>UW</agencyID>
            <creationTime>2012-09-03T16:18:29.000000Z</creationTime>
          </creationInfo>
        </arrival>
        <arrival publicID="quakeml:uw.anss.org/AssocArO/UW/8799068">
          <pickID>quakeml:uw.anss.org/Arrival/UW/8799068</pickID>
          <phase>P</phase>
          <timeCorrection>-0.08</timeCorrection>
          <azimuth>261.9</azimuth>
          <distance>0.6912</distance>
          <takeoffAngle>
            <value>98.0</value>
          </takeoffAngle>
          <timeResidual>0.77</timeResidual>
          <timeWeight>0.0</timeWeight>
          <creationInfo>
            <agencyID>UW</agencyID>
            <creationTime>2012-09-03T16:18:29.000000Z</creationTime>
          </creationInfo>
        </arrival>
        <arrival publicID="quakeml:uw.anss.org/AssocArO/UW/8799073">
          <pickID>quakeml:uw.anss.org/Arrival/UW/8799073</pickID>
          <phase>P</phase>
          <timeCorrection>0.0</timeCorrection>
          <distance>0.3166</distance>
          <takeoffAngle>
            <value>118.0</value>
          </takeoffAngle>
          <timeResidual>0.03</timeResidual>
          <timeWeight>0.1</timeWeight>
          <creationInfo>
            <agencyID>UW</agencyID>
            <creationTime>2012-09-03T16:18:29.000000Z</creationTime>
          </creationInfo>
        </arrival>
        <arrival publicID="quakeml:uw.anss.org/AssocArO/UW/8799083">
          <pickID>quakeml:uw.anss.org/Arrival/UW/8799083</pickID>
          <phase>P</phase>
          <timeCorrection>0.32</timeCorrection>
          <azimuth>272.8</azimuth>
          <distance>0.06681</distance>
          <takeoffAngle>
            <value>161.0</value>
          </takeoffAngle>
          <timeResidual>-0.04</timeResidual>
          <timeWeight>0.13</timeWeight>
          <creationInfo>
            <agencyID>UW</agencyID>
            <creationTime>2012-09-03T16:18:29.000000Z</creationTime>
          </creationInfo>
        </arrival>
      </origin>
      <origin publicID="quakeml:uw.anss.org/Origin/UW/2466098" ns0:datasource="uw" ns0:dataid="uw10671218" ns0:eventsource="uw" ns0:eventid="10671218">
        <time>
          <value>2005-08-02T08:02:16.850000Z</value>
        </time>
        <latitude>
          <value>48.813</value>
        </latitude>
        <longitude>
          <value>-121.7485</value>
        </longitude>
        <depth>
          <value>34020.0</value>
          <uncertainty>31610.0</uncertainty>
        </depth>
        <depthType>operator assigned</depthType>
        <timeFixed>false</timeFixed>
        <epicenterFixed>false</epicenterFixed>
        <methodID>smi:uw.anss.org/origin/HYP2000</methodID>
        <quality>
          <associatedPhaseCount>10</associatedPhaseCount>
          <usedPhaseCount>10</usedPhaseCount>
          <associatedStationCount>7</associatedStationCount>
          <usedStationCount>7</usedStationCount>
          <standardError>0.58</standardError>
          <azimuthalGap>203.0</azimuthalGap>
        </quality>
        <type>hypocenter</type>
        <evaluationMode>manual</evaluationMode>
        <evaluationStatus>final</evaluationStatus>
        <creationInfo>
          <agencyID>UW</agencyID>
          <creationTime>2016-05-18T01:24:52.000000Z</creationTime>
        </creationInfo>
        <originUncertainty>
          <preferredDescription>confidence ellipsoid</preferredDescription>
          <horizontalUncertainty>4200.0</horizontalUncertainty>
          <confidenceLevel>95.0</confidenceLevel>
          <confidenceEllipsoid>
            <semiMajorAxisLength>75864.0</semiMajorAxisLength>
            <semiMinorAxisLength>5352.0</semiMinorAxisLength>
            <semiIntermediateAxisLength>10080.0</semiIntermediateAxisLength>
            <majorAxisPlunge>90.0</majorAxisPlunge>
            <majorAxisAzimuth>0.0</majorAxisAzimuth>
            <majorAxisRotation>59.0</majorAxisRotation>
          </confidenceEllipsoid>
        </originUncertainty>
        <arrival publicID="quakeml:uw.anss.org/AssocArO/UW/11149968">
          <pickID>quakeml:uw.anss.org/Arrival/UW/11149968</pickID>
          <phase>S</phase>
          <timeCorrection>0.26</timeCorrection>
          <azimuth>157.0</azimuth>
          <distance>0.3967</distance>
          <takeoffAngle>
            <value>124.0</value>
          </takeoffAngle>
          <timeResidual>-0.36</timeResidual>
          <timeWeight>0.07</timeWeight>
          <creationInfo>
            <agencyID>UW</agencyID>
            <creationTime>2016-05-18T01:24:53.000000Z</creationTime>
          </creationInfo>
        </arrival>
        <arrival publicID="quakeml:uw.anss.org/AssocArO/UW/11149973">
          <pickID>quakeml:uw.anss.org/Arrival/UW/11149973</pickID>
          <phase>P</phase>
          <timeCorrection>0.22</timeCorrection>
          <azimuth>212.4</azimuth>
          <distance>0.4613</distance>
          <takeoffAngle>
            <value>120.0</value>
          </takeoffAngle>
          <timeResidual>0.04</timeResidual>
          <timeWeight>0.1</timeWeight>
          <creationInfo>
            <agencyID>UW</agencyID>
            <creationTime>2016-05-18T01:24:53.000000Z</creationTime>
          </creationInfo>
        </arrival>
        <arrival publicID="quakeml:uw.anss.org/AssocArO/UW/11149978">
          <pickID>quakeml:uw.anss.org/Arrival/UW/11149978</pickID>
          <phase>S</phase>
          <timeCorrection>0.39</timeCorrection>
          <azimuth>212.4</azimuth>
          <distance>0.4613</distance>
          <takeoffAngle>
            <value>120.0</value>
          </takeoffAngle>
          <timeResidual>-1.08</timeResidual>
          <timeWeight>0.07</timeWeight>
          <creationInfo>
            <agencyID>UW</agencyID>
            <creationTime>2016-05-18T01:24:53.000000Z</creationTime>
          </creationInfo>
        </arrival>
        <arrival publicID="quakeml:uw.anss.org/AssocArO/UW/13489033">
          <pickID>quakeml:uw.anss.org/Arrival/UW/13489033</pickID>
          <phase>P</phase>
          <timeCorrection>0.39</timeCorrection>
          <azimuth>253.9</azimuth>
          <distance>0.1049</distance>
          <takeoffAngle>
            <value>160.0</value>
          </takeoffAngle>
          <timeResidual>-0.62</timeResidual>
          <timeWeight>0.13</timeWeight>
          <creationInfo>
            <agencyID>UW</agencyID>
            <creationTime>2016-05-18T01:24:53.000000Z</creationTime>
          </creationInfo>
        </arrival>
        <arrival publicID="quakeml:uw.anss.org/AssocArO/UW/13489038">
          <pickID>quakeml:uw.anss.org/Arrival/UW/13489038</pickID>
          <phase>S</phase>
          <timeCorrection>0.69</timeCorrection>
          <azimuth>253.9</azimuth>
          <distance>0.1049</distance>
          <takeoffAngle>
            <value>160.0</value>
          </takeoffAngle>
          <timeResidual>-0.86</timeResidual>
          <timeWeight>0.1</timeWeight>
          <creationInfo>
            <agencyID>UW</agencyID>
            <creationTime>2016-05-18T01:24:53.000000Z</creationTime>
          </creationInfo>
        </arrival>
        <arrival publicID="quakeml:uw.anss.org/AssocArO/UW/8799053">
          <pickID>quakeml:uw.anss.org/Arrival/UW/8799053</pickID>
          <phase>P</phase>
          <timeCorrection>-0.05</timeCorrection>
          <azimuth>190.9</azimuth>
          <takeoffAngle>
            <value>111.0</value>
          </takeoffAngle>
          <timeResidual>0.2</timeResidual>
          <timeWeight>0.13</timeWeight>
          <creationInfo>
            <agencyID>UW</agencyID>
            <creationTime>2016-05-18T01:24:53.000000Z</creationTime>
          </creationInfo>
        </arrival>
        <arrival publicID="quakeml:uw.anss.org/AssocArO/UW/8799058">
          <pickID>quakeml:uw.anss.org/Arrival/UW/8799058</pickID>
          <phase>P</phase>
          <timeCorrection>0.14</timeCorrection>
          <azimuth>157.0</azimuth>
          <distance>0.3967</distance>
          <takeoffAngle>
            <value>124.0</value>
          </takeoffAngle>
          <timeResidual>0.32</timeResidual>
          <timeWeight>0.1</timeWeight>
          <creationInfo>
            <agencyID>UW</agencyID>
            <creationTime>2016-05-18T01:24:53.000000Z</creationTime>
          </creationInfo>
        </arrival>
        <arrival publicID="quakeml:uw.anss.org/AssocArO/UW/8799063">
          <pickID>quakeml:uw.anss.org/Arrival/UW/8799063</pickID>
          <phase>P</phase>
          <timeCorrection>-0.01</timeCorrection>
          <azimuth>180.8</azimuth>
          <distance>1.01</distance>
          <takeoffAngle>
            <value>100.0</value>
          </takeoffAngle>
          <timeResidual>0.48</timeResidual>
          <timeWeight>0.1</timeWeight>
          <creationInfo>
            <agencyID>UW</agencyID>
            <creationTime>2016-05-18T01:24:53.000000Z</creationTime>
          </creationInfo>
        </arrival>
        <arrival publicID="quakeml:uw.anss.org/AssocArO/UW/8799068">
          <pickID>quakeml:uw.anss.org/Arrival/UW/8799068</pickID>
          <phase>P</phase>
          <timeCorrection>-0.05</timeCorrection>
          <azimuth>259.8</azimuth>
          <distance>0.73</distance>
          <takeoffAngle>
            <value>107.0</value>
          </takeoffAngle>
          <timeResidual>1.02</timeResidual>
          <timeWeight>0.1</timeWeight>
          <creationInfo>
            <agencyID>UW</agencyID>
            <creationTime>2016-05-18T01:24:53.000000Z</creationTime>
          </creationInfo>
        </arrival>
        <arrival publicID="quakeml:uw.anss.org/AssocArO/UW/8799073">
          <pickID>quakeml:uw.anss.org/Arrival/UW/8799073</pickID>
          <phase>P</phase>
          <timeCorrection>0.0</timeCorrection>
          <distance>0.3164</distance>
          <takeoffAngle>
            <value>131.0</value>
          </takeoffAngle>
          <timeResidual>0.34</timeResidual>
          <timeWeight>0.1</timeWeight>
          <creationInfo>
            <agencyID>UW</agencyID>
            <creationTime>2016-05-18T01:24:53.000000Z</creationTime>
          </creationInfo>
        </arrival>
      </origin>
      <magnitude publicID="quakeml:uw.anss.org/Netmag/UW/993043">
        <mag>
          <value>0.89</value>
          <uncertainty>0.096</uncertainty>
        </mag>
        <type>Md</type>
        <originID>quakeml:uw.anss.org/Origin/UW/1248943</originID>
        <methodID>smi:uw.anss.org/magnitude/HypoinvMd</methodID>
        <stationCount>3</stationCount>
        <azimuthalGap>237.7</azimuthalGap>
        <evaluationMode>manual</evaluationMode>
        <evaluationStatus>reviewed</evaluationStatus>
        <stationMagnitudeContribution>
          <stationMagnitudeID>quakeml:uw.anss.org/AssocCoM/UW/2710843</stationMagnitudeID>
          <weight>1.0</weight>
          <residual>0.0</residual>
        </stationMagnitudeContribution>
        <stationMagnitudeContribution>
          <stationMagnitudeID>quakeml:uw.anss.org/AssocCoM/UW/2710838</stationMagnitudeID>
          <weight>1.0</weight>
          <residual>-0.09</residual>
        </stationMagnitudeContribution>
        <stationMagnitudeContribution>
          <stationMagnitudeID>quakeml:uw.anss.org/AssocCoM/UW/2710848</stationMagnitudeID>
          <weight>1.0</weight>
          <residual>0.9</residual>
        </stationMagnitudeContribution>
        <creationInfo>
          <agencyID>UW</agencyID>
          <creationTime>2012-09-03T16:18:29.000000Z</creationTime>
        </creationInfo>
      </magnitude>
      <stationMagnitude publicID="quakeml:uw.anss.org/AssocCoM/UW/2710838">
        <originID>quakeml:uw.anss.org/Origin/UW/1248943</originID>
        <mag>
          <value>0.8</value>
        </mag>
        <type>MD</type>
        <amplitudeID>quakeml:uw.anss.org/Coda/UW/2710838</amplitudeID>
        <waveformID networkCode="UW" stationCode="MBW" locationCode="" channelCode="EHZ"></waveformID>
      </stationMagnitude>
      <stationMagnitude publicID="quakeml:uw.anss.org/AssocCoM/UW/2710843">
        <originID>quakeml:uw.anss.org/Origin/UW/1248943</originID>
        <mag>
          <value>0.89</value>
        </mag>
        <type>MD</type>
        <amplitudeID>quakeml:uw.anss.org/Coda/UW/2710843</amplitudeID>
        <waveformID networkCode="UW" stationCode="RPW" locationCode="" channelCode="EHZ"></waveformID>
      </stationMagnitude>
      <stationMagnitude publicID="quakeml:uw.anss.org/AssocCoM/UW/2710848">
        <originID>quakeml:uw.anss.org/Origin/UW/1248943</originID>
        <mag>
          <value>1.79</value>
        </mag>
        <type>MD</type>
        <amplitudeID>quakeml:uw.anss.org/Coda/UW/2710848</amplitudeID>
        <waveformID networkCode="UW" stationCode="CMW" locationCode="" channelCode="EHZ"></waveformID>
      </stationMagnitude>
      <pick publicID="quakeml:uw.anss.org/Arrival/UW/11149963">
        <time>
          <value>2005-08-02T08:02:27.850000Z</value>
          <uncertainty>0.3</uncertainty>
