<?xml version='1.0' encoding='utf-8'?>
<q:quakeml xmlns="http://quakeml.org/xmlns/bed/1.2" xmlns:q="http://quakeml.org/xmlns/quakeml/1.2" xmlns:ns0="http://anss.org/xmlns/catalog/0.1">
  <eventParameters publicID="smi:local/e2c1d9f6-d182-4d04-a3ef-dfd622cab077">
    <event publicID="quakeml:uw.anss.org/Event/UW/10682208" ns0:datasource="uw" ns0:dataid="uw10682208" ns0:eventsource="uw" ns0:eventid="10682208">
      <preferredOriginID>quakeml:uw.anss.org/Origin/UW/964463</preferredOriginID>
      <preferredMagnitudeID>quakeml:uw.anss.org/Netmag/UW/754598</preferredMagnitudeID>
      <type>earthquake</type>
      <creationInfo>
        <agencyID>UW</agencyID>
        <creationTime>2012-03-05T18:13:35.000000Z</creationTime>
        <version>3</version>
      </creationInfo>
      <origin publicID="quakeml:uw.anss.org/Origin/UW/964463" ns0:datasource="uw" ns0:dataid="uw10682208" ns0:eventsource="uw" ns0:eventid="10682208">
        <time>
          <value>2005-08-18T02:25:25.680000Z</value>
          <uncertainty>0.01</uncertainty>
        </time>
        <latitude>
          <value>48.718</value>
          <uncertainty>0.05</uncertainty>
        </latitude>
        <longitude>
          <value>-122.4085</value>
          <uncertainty>0.06</uncertainty>
        </longitude>
        <depth>
          <value>15120.0</value>
          <uncertainty>60.0</uncertainty>
        </depth>
        <depthType>operator assigned</depthType>
        <timeFixed>false</timeFixed>
        <epicenterFixed>false</epicenterFixed>
        <methodID>smi:uw.anss.org/origin/spong</methodID>
        <quality>
          <associatedPhaseCount>32</associatedPhaseCount>
          <usedPhaseCount>25</usedPhaseCount>
          <associatedStationCount>25</associatedStationCount>
          <usedStationCount>0</usedStationCount>
          <standardError>0.34</standardError>
          <azimuthalGap>83.0</azimuthalGap>
        </quality>
        <type>hypocenter</type>
        <evaluationMode>manual</evaluationMode>
        <evaluationStatus>final</evaluationStatus>
        <creationInfo>
          <agencyID>UW</agencyID>
          <creationTime>2012-03-05T18:13:35.000000Z</creationTime>
        </creationInfo>
        <originUncertainty>
          <preferredDescription>horizontal uncertainty</preferredDescription>
          <horizontalUncertainty>78.0</horizontalUncertainty>
        </originUncertainty>
        <arrival publicID="quakeml:uw.anss.org/AssocArO/UW/8914568">
          <pickID>quakeml:uw.anss.org/Arrival/UW/8914568</pickID>
          <phase>P</phase>
          <azimuth>202.2</azimuth>
          <distance>1.155</distance>
          <timeResidual>0.0</timeResidual>
          <creationInfo>
            <agencyID>UW</agencyID>
            <creationTime>2012-03-05T18:13:35.000000Z</creationTime>
          </creationInfo>
        </arrival>
        <arrival publicID="quakeml:uw.anss.org/AssocArO/UW/8914573">
          <pickID>quakeml:uw.anss.org/Arrival/UW/8914573</pickID>
          <phase>P</phase>
          <azimuth>114.5</azimuth>
          <distance>1.523</distance>
          <timeResidual>1.38</timeResidual>
          <creationInfo>
            <agencyID>UW</agencyID>
            <creationTime>2012-03-05T18:13:35.000000Z</creationTime>
          </creationInfo>
        </arrival>
        <arrival publicID="quakeml:uw.anss.org/AssocArO/UW/8914578">
          <pickID>quakeml:uw.anss.org/Arrival/UW/8914578</pickID>
          <phase>P</phase>
          <azimuth>128.0</azimuth>
          <distance>1.781</distance>
          <timeResidual>1.31</timeResidual>
          <creationInfo>
            <agencyID>UW</agencyID>
            <creationTime>2012-03-05T18:13:35.000000Z</creationTime>
          </creationInfo>
        </arrival>
        <arrival publicID="quakeml:uw.anss.org/AssocArO/UW/8914583">
          <pickID>quakeml:uw.anss.org/Arrival/UW/8914583</pickID>
          <phase>P</phase>
          <azimuth>354.1</azimuth>
          <distance>0.05045</distance>
          <timeResidual>-0.14</timeResidual>
          <creationInfo>
            <agencyID>UW</agencyID>
            <creationTime>2012-03-05T18:13:35.000000Z</creationTime>
          </creationInfo>
        </arrival>
        <arrival publicID="quakeml:uw.anss.org/AssocArO/UW/8914588">
          <pickID>quakeml:uw.anss.org/Arrival/UW/8914588</pickID>
          <phase>S</phase>
          <azimuth>354.1</azimuth>
          <distance>0.05045</distance>
          <timeResidual>0.3</timeResidual>
          <creationInfo>
            <agencyID>UW</agencyID>
            <creationTime>2012-03-05T18:13:35.000000Z</creationTime>
          </creationInfo>
        </arrival>
        <arrival publicID="quakeml:uw.anss.org/AssocArO/UW/8914593">
          <pickID>quakeml:uw.anss.org/Arrival/UW/8914593</pickID>
          <phase>P</phase>
          <distance>0.3686</distance>
          <timeResidual>0.04</timeResidual>
          <creationInfo>
            <agencyID>UW</agencyID>
            <creationTime>2012-03-05T18:13:35.000000Z</creationTime>
          </creationInfo>
        </arrival>
        <arrival publicID="quakeml:uw.anss.org/AssocArO/UW/8914598">
          <pickID>quakeml:uw.anss.org/Arrival/UW/8914598</pickID>
          <phase>P</phase>
          <azimuth>147.0</azimuth>
          <distance>0.3514</distance>
          <timeResidual>-0.4</timeResidual>
          <creationInfo>
            <agencyID>UW</agencyID>
            <creationTime>2012-03-05T18:13:35.000000Z</creationTime>
          </creationInfo>
        </arrival>
        <arrival publicID="quakeml:uw.anss.org/AssocArO/UW/8914603">
          <pickID>quakeml:uw.anss.org/Arrival/UW/8914603</pickID>
          <phase>S</phase>
          <azimuth>147.0</azimuth>
          <distance>0.3514</distance>
          <timeResidual>-0.09</timeResidual>
          <creationInfo>
            <agencyID>UW</agencyID>
            <creationTime>2012-03-05T18:13:35.000000Z</creationTime>
          </creationInfo>
        </arrival>
        <arrival publicID="quakeml:uw.anss.org/AssocArO/UW/8914608">
          <pickID>quakeml:uw.anss.org/Arrival/UW/8914608</pickID>
          <phase>P</phase>
          <azimuth>164.6</azimuth>
          <timeResidual>0.21</timeResidual>
          <creationInfo>
            <agencyID>UW</agencyID>
            <creationTime>2012-03-05T18:13:35.000000Z</creationTime>
          </creationInfo>
        </arrival>
        <arrival publicID="quakeml:uw.anss.org/AssocArO/UW/8914613">
          <pickID>quakeml:uw.anss.org/Arrival/UW/8914613</pickID>
          <phase>P</phase>
          <azimuth>193.7</azimuth>
          <distance>1.188</distance>
          <timeResidual>0.33</timeResidual>
          <creationInfo>
            <agencyID>UW</agencyID>
            <creationTime>2012-03-05T18:13:35.000000Z</creationTime>
          </creationInfo>
        </arrival>
        <arrival publicID="quakeml:uw.anss.org/AssocArO/UW/8914618">
          <pickID>quakeml:uw.anss.org/Arrival/UW/8914618</pickID>
          <phase>S</phase>
          <azimuth>193.7</azimuth>
          <distance>1.188</distance>
          <timeResidual>0.12</timeResidual>
          <creationInfo>
            <agencyID>UW</agencyID>
            <creationTime>2012-03-05T18:13:35.000000Z</creationTime>
          </creationInfo>
        </arrival>
        <arrival publicID="quakeml:uw.anss.org/AssocArO/UW/8914623">
          <pickID>quakeml:uw.anss.org/Arrival/UW/8914623</pickID>
          <phase>P</phase>
          <azimuth>168.2</azimuth>
          <distance>2.01</distance>
          <timeResidual>1.21</timeResidual>
          <creationInfo>
            <agencyID>UW</agencyID>
            <creationTime>2012-03-05T18:13:35.000000Z</creationTime>
          </creationInfo>
        </arrival>
        <arrival publicID="quakeml:uw.anss.org/AssocArO/UW/8914628">
          <pickID>quakeml:uw.anss.org/Arrival/UW/8914628</pickID>
          <phase>P</phase>
          <azimuth>162.1</azimuth>
          <distance>1.322</distance>
          <timeResidual>0.53</timeResidual>
          <creationInfo>
            <agencyID>UW</agencyID>
            <creationTime>2012-03-05T18:13:35.000000Z</creationTime>
          </creationInfo>
        </arrival>
        <arrival publicID="quakeml:uw.anss.org/AssocArO/UW/8914633">
          <pickID>quakeml:uw.anss.org/Arrival/UW/8914633</pickID>
          <phase>P</phase>
          <azimuth>114.2</azimuth>
          <distance>0.652</distance>
          <timeResidual>-0.09</timeResidual>
          <creationInfo>
            <agencyID>UW</agencyID>
            <creationTime>2012-03-05T18:13:35.000000Z</creationTime>
          </creationInfo>
        </arrival>
        <arrival publicID="quakeml:uw.anss.org/AssocArO/UW/8914638">
          <pickID>quakeml:uw.anss.org/Arrival/UW/8914638</pickID>
          <phase>S</phase>
          <azimuth>114.2</azimuth>
          <distance>0.652</distance>
          <timeResidual>-0.36</timeResidual>
          <creationInfo>
            <agencyID>UW</agencyID>
            <creationTime>2012-03-05T18:13:35.000000Z</creationTime>
          </creationInfo>
        </arrival>
        <arrival publicID="quakeml:uw.anss.org/AssocArO/UW/8914643">
          <pickID>quakeml:uw.anss.org/Arrival/UW/8914643</pickID>
          <phase>P</phase>
          <azimuth>154.7</azimuth>
          <distance>1.131</distance>
          <timeResidual>0.85</timeResidual>
          <creationInfo>
            <agencyID>UW</agencyID>
            <creationTime>2012-03-05T18:13:35.000000Z</creationTime>
          </creationInfo>
        </arrival>
        <arrival publicID="quakeml:uw.anss.org/AssocArO/UW/8914648">
          <pickID>quakeml:uw.anss.org/Arrival/UW/8914648</pickID>
          <phase>P</phase>
          <azimuth>78.7</azimuth>
          <distance>0.3423</distance>
          <timeResidual>0.05</timeResidual>
          <creationInfo>
            <agencyID>UW</agencyID>
            <creationTime>2012-03-05T18:13:35.000000Z</creationTime>
          </creationInfo>
        </arrival>
        <arrival publicID="quakeml:uw.anss.org/AssocArO/UW/8914653">
          <pickID>quakeml:uw.anss.org/Arrival/UW/8914653</pickID>
          <phase>P</phase>
          <azimuth>224.2</azimuth>
          <distance>1.251</distance>
          <timeResidual>0.41</timeResidual>
          <creationInfo>
            <agencyID>UW</agencyID>
            <creationTime>2012-03-05T18:13:35.000000Z</creationTime>
          </creationInfo>
        </arrival>
        <arrival publicID="quakeml:uw.anss.org/AssocArO/UW/8914658">
          <pickID>quakeml:uw.anss.org/Arrival/UW/8914658</pickID>
          <phase>P</phase>
          <azimuth>270.6</azimuth>
          <distance>0.1977</distance>
          <timeResidual>-0.3</timeResidual>
          <creationInfo>
            <agencyID>UW</agencyID>
            <creationTime>2012-03-05T18:13:35.000000Z</creationTime>
          </creationInfo>
        </arrival>
        <arrival publicID="quakeml:uw.anss.org/AssocArO/UW/8914663">
          <pickID>quakeml:uw.anss.org/Arrival/UW/8914663</pickID>
          <phase>S</phase>
          <azimuth>270.6</azimuth>
          <distance>0.1977</distance>
          <timeResidual>0.06</timeResidual>
          <creationInfo>
            <agencyID>UW</agencyID>
            <creationTime>2012-03-05T18:13:35.000000Z</creationTime>
          </creationInfo>
        </arrival>
        <arrival publicID="quakeml:uw.anss.org/AssocArO/UW/8914668">
          <pickID>quakeml:uw.anss.org/Arrival/UW/8914668</pickID>
          <phase>P</phase>
          <azimuth>148.4</azimuth>
          <timeResidual>0.2</timeResidual>
          <creationInfo>
            <agencyID>UW</agencyID>
            <creationTime>2012-03-05T18:13:35.000000Z</creationTime>
          </creationInfo>
        </arrival>
        <arrival publicID="quakeml:uw.anss.org/AssocArO/UW/8914673">
          <pickID>quakeml:uw.anss.org/Arrival/UW/8914673</pickID>
          <phase>S</phase>
          <azimuth>148.4</azimuth>
          <timeResidual>0.47</timeResidual>
          <creationInfo>
            <agencyID>UW</agencyID>
            <creationTime>2012-03-05T18:13:35.000000Z</creationTime>
          </creationInfo>
        </arrival>
        <arrival publicID="quakeml:uw.anss.org/AssocArO/UW/8914678">
          <pickID>quakeml:uw.anss.org/Arrival/UW/8914678</pickID>
          <phase>P</phase>
          <azimuth>164.2</azimuth>
          <timeResidual>0.53</timeResidual>
          <creationInfo>
            <agencyID>UW</agencyID>
            <creationTime>2012-03-05T18:13:35.000000Z</creationTime>
          </creationInfo>
        </arrival>
        <arrival publicID="quakeml:uw.anss.org/AssocArO/UW/8914683">
          <pickID>quakeml:uw.anss.org/Arrival/UW/8914683</pickID>
          <phase>P</phase>
          <azimuth>140.8</azimuth>
          <distance>1.875</distance>
          <timeResidual>1.4</timeResidual>
          <creationInfo>
            <agencyID>UW</agencyID>
            <creationTime>2012-03-05T18:13:35.000000Z</creationTime>
          </creationInfo>
        </arrival>
        <arrival publicID="quakeml:uw.anss.org/AssocArO/UW/8914688">
          <pickID>quakeml:uw.anss.org/Arrival/UW/8914688</pickID>
          <phase>P</phase>
          <azimuth>239.0</azimuth>
          <distance>1.307</distance>
          <timeResidual>0.24</timeResidual>
          <creationInfo>
            <agencyID>UW</agencyID>
            <creationTime>2012-03-05T18:13:35.000000Z</creationTime>
          </creationInfo>
        </arrival>
        <arrival publicID="quakeml:uw.anss.org/AssocArO/UW/8914693">
          <pickID>quakeml:uw.anss.org/Arrival/UW/8914693</pickID>
          <phase>P</phase>
          <azimuth>236.4</azimuth>
          <timeResidual>0.15</timeResidual>
          <creationInfo>
            <agencyID>UW</agencyID>
            <creationTime>2012-03-05T18:13:35.000000Z</creationTime>
          </creationInfo>
        </arrival>
        <arrival publicID="quakeml:uw.anss.org/AssocArO/UW/8914698">
          <pickID>quakeml:uw.anss.org/Arrival/UW/8914698</pickID>
          <phase>P</phase>
          <azimuth>154.8</azimuth>
          <distance>1.01</distance>
          <timeResidual>0.57</timeResidual>
          <creationInfo>
            <agencyID>UW</agencyID>
            <creationTime>2012-03-05T18:13:35.000000Z</creationTime>
          </creationInfo>
        </arrival>
        <arrival publicID="quakeml:uw.anss.org/AssocArO/UW/8914703">
          <pickID>quakeml:uw.anss.org/Arrival/UW/8914703</pickID>
          <phase>P</phase>
          <azimuth>141.3</azimuth>
          <distance>1.97</distance>
          <timeResidual>0.94</timeResidual>
          <creationInfo>
            <agencyID>UW</agencyID>
            <creationTime>2012-03-05T18:13:35.000000Z</creationTime>
          </creationInfo>
        </arrival>
        <arrival publicID="quakeml:uw.anss.org/AssocArO/UW/8914708">
          <pickID>quakeml:uw.anss.org/Arrival/UW/8914708</pickID>
          <phase>P</phase>
          <azimuth>213.6</azimuth>
          <distance>0.773</distance>
          <timeResidual>0.69</timeResidual>
          <creationInfo>
            <agencyID>UW</agencyID>
            <creationTime>2012-03-05T18:13:35.000000Z</creationTime>
          </creationInfo>
        </arrival>
        <arrival publicID="quakeml:uw.anss.org/AssocArO/UW/8914713">
          <pickID>quakeml:uw.anss.org/Arrival/UW/8914713</pickID>
          <phase>P</phase>
          <azimuth>227.6</azimuth>
          <distance>0.9112</distance>
          <timeResidual>0.51</timeResidual>
          <creationInfo>
            <agencyID>UW</agencyID>
            <creationTime>2012-03-05T18:13:35.000000Z</creationTime>
          </creationInfo>
        </arrival>
        <arrival publicID="quakeml:uw.anss.org/AssocArO/UW/8914718">
          <pickID>quakeml:uw.anss.org/Arrival/UW/8914718</pickID>
          <phase>P</phase>
          <azimuth>262.2</azimuth>
          <distance>0.2837</distance>
          <timeResidual>-0.06</timeResidual>
          <creationInfo>
            <agencyID>UW</agencyID>
            <creationTime>2012-03-05T18:13:35.000000Z</creationTime>
          </creationInfo>
        </arrival>
        <arrival publicID="quakeml:uw.anss.org/AssocArO/UW/8914723">
          <pickID>quakeml:uw.anss.org/Arrival/UW/8914723</pickID>
          <phase>S</phase>
          <azimuth>262.2</azimuth>
          <distance>0.2837</distance>
          <timeResidual>0.22</timeResidual>
          <creationInfo>
            <agencyID>UW</agencyID>
            <creationTime>2012-03-05T18:13:35.000000Z</creationTime>
          </creationInfo>
        </arrival>
      </origin>
      <magnitude publicID="quakeml:uw.anss.org/Netmag/UW/754598">
        <mag>
          <value>2.1</value>
          <uncertainty>0.04</uncertainty>
        </mag>
        <type>Md</type>
        <originID>quakeml:uw.anss.org/Origin/UW/964463</originID>
        <methodID>smi:uw.anss.org/magnitude/Crosson</methodID>
        <stationCount>8</stationCount>
        <evaluationMode>manual</evaluationMode>
        <evaluationStatus>final</evaluationStatus>
        <stationMagnitudeContribution>
          <stationMagnitudeID>quakeml:uw.anss.org/AssocCoM/UW/2082133</stationMagnitudeID>
          <weight>1.0</weight>
          <residual>-0.28</residual>
        </stationMagnitudeContribution>
        <stationMagnitudeContribution>
          <stationMagnitudeID>quakeml:uw.anss.org/AssocCoM/UW/2082123</stationMagnitudeID>
          <weight>1.0</weight>
          <residual>0.39</residual>
        </stationMagnitudeContribution>
        <stationMagnitudeContribution>
          <stationMagnitudeID>quakeml:uw.anss.org/AssocCoM/UW/2082148</stationMagnitudeID>
          <weight>1.0</weight>
          <residual>0.1</residual>
        </stationMagnitudeContribution>
        <stationMagnitudeContribution>
          <stationMagnitudeID>quakeml:uw.anss.org/AssocCoM/UW/2082138</stationMagnitudeID>
          <weight>1.0</weight>
          <residual>0.28</residual>
        </stationMagnitudeContribution>
        <stationMagnitudeContribution>
          <stationMagnitudeID>quakeml:uw.anss.org/AssocCoM/UW/2082143</stationMagnitudeID>
          <weight>1.0</weight>
          <residual>0.07</residual>
        </stationMagnitudeContribution>
        <stationMagnitudeContribution>
          <stationMagnitudeID>quakeml:uw.anss.org/AssocCoM/UW/2082153</stationMagnitudeID>
          <weight>1.0</weight>
          <residual>-0.07</residual>
        </stationMagnitudeContribution>
        <stationMagnitudeContribution>
          <stationMagnitudeID>quakeml:uw.anss.org/AssocCoM/UW/2082128</stationMagnitudeID>
          <weight>1.0</weight>
          <residual>-1.02</residual>
        </stationMagnitudeContribution>
        <stationMagnitudeContribution>
          <stationMagnitudeID>quakeml:uw.anss.org/AssocCoM/UW/2082158</stationMagnitudeID>
          <weight>1.0</weight>
          <residual>-0.21</residual>
        </stationMagnitudeContribution>
        <creationInfo>
          <agencyID>UW</agencyID>
          <creationTime>2012-03-05T18:13:35.000000Z</creationTime>
        </creationInfo>
      </magnitude>
      <stationMagnitude publicID="quakeml:uw.anss.org/AssocCoM/UW/2082123">
        <originID>quakeml:uw.anss.org/Origin/UW/964463</originID>
        <mag>
          <value>2.49</value>
        </mag>
        <type>MD</type>
        <amplitudeID>quakeml:uw.anss.org/Coda/UW/2082123</amplitudeID>
        <waveformID networkCode="UW" stationCode="HDW" locationCode="" channelCode="EHZ"></waveformID>
      </stationMagnitude>
      <stationMagnitude publicID="quakeml:uw.anss.org/AssocCoM/UW/2082128">
        <originID>quakeml:uw.anss.org/Origin/UW/964463</originID>
        <mag>
          <value>1.08</value>
        </mag>
        <type>MD</type>
        <amplitudeID>quakeml:uw.anss.org/Coda/UW/2082128</amplitudeID>
