<?xml version='1.0' encoding='utf-8'?>
<q:quakeml xmlns="http://quakeml.org/xmlns/bed/1.2" xmlns:q="http://quakeml.org/xmlns/quakeml/1.2" xmlns:ns0="http://anss.org/xmlns/catalog/0.1">
  <eventParameters publicID="smi:local/584483c8-6588-45e4-bcf2-80d3569bc3c4">
    <event publicID="quakeml:uw.anss.org/Event/UW/10592393" ns0:datasource="uw" ns0:dataid="uw10592393" ns0:eventsource="uw" ns0:eventid="10592393">
      <preferredOriginID>quakeml:uw.anss.org/Origin/UW/874638</preferredOriginID>
      <preferredMagnitudeID>quakeml:uw.anss.org/Netmag/UW/686248</preferredMagnitudeID>
      <type>earthquake</type>
      <creationInfo>
        <agencyID>UW</agencyID>
        <creationTime>2012-03-05T14:42:25.000000Z</creationTime>
        <version>3</version>
      </creationInfo>
      <origin publicID="quakeml:uw.anss.org/Origin/UW/874638" ns0:datasource="uw" ns0:dataid="uw10592393" ns0:eventsource="uw" ns0:eventid="10592393">
        <time>
          <value>2003-08-20T07:59:05.820000Z</value>
          <uncertainty>0.19</uncertainty>
        </time>
        <latitude>
          <value>48.8435</value>
          <uncertainty>0.74</uncertainty>
        </latitude>
        <longitude>
          <value>-122.2588333</value>
          <uncertainty>0.94</uncertainty>
        </longitude>
        <depth>
          <value>13171.0</value>
          <uncertainty>2180.0</uncertainty>
        </depth>
        <depthType>from location</depthType>
        <timeFixed>false</timeFixed>
        <epicenterFixed>false</epicenterFixed>
        <methodID>smi:uw.anss.org/origin/spong</methodID>
        <quality>
          <associatedPhaseCount>10</associatedPhaseCount>
          <usedPhaseCount>9</usedPhaseCount>
          <associatedStationCount>8</associatedStationCount>
          <usedStationCount>0</usedStationCount>
          <standardError>0.24</standardError>
          <azimuthalGap>155.0</azimuthalGap>
        </quality>
        <type>hypocenter</type>
        <evaluationMode>manual</evaluationMode>
        <evaluationStatus>final</evaluationStatus>
        <creationInfo>
          <agencyID>UW</agencyID>
          <creationTime>2012-03-05T14:42:25.000000Z</creationTime>
        </creationInfo>
        <originUncertainty>
          <preferredDescription>horizontal uncertainty</preferredDescription>
          <horizontalUncertainty>1196.0</horizontalUncertainty>
        </originUncertainty>
        <arrival publicID="quakeml:uw.anss.org/AssocArO/UW/8034088">
          <pickID>quakeml:uw.anss.org/Arrival/UW/8034088</pickID>
          <phase>P</phase>
          <azimuth>161.2</azimuth>
          <timeResidual>0.62</timeResidual>
          <creationInfo>
            <agencyID>UW</agencyID>
            <creationTime>2012-03-05T14:42:25.000000Z</creationTime>
          </creationInfo>
        </arrival>
        <arrival publicID="quakeml:uw.anss.org/AssocArO/UW/8034093">
          <pickID>quakeml:uw.anss.org/Arrival/UW/8034093</pickID>
          <phase>P</phase>
          <azimuth>128.5</azimuth>
          <distance>0.6325</distance>
          <timeResidual>-0.03</timeResidual>
          <creationInfo>
            <agencyID>UW</agencyID>
            <creationTime>2012-03-05T14:42:25.000000Z</creationTime>
          </creationInfo>
        </arrival>
        <arrival publicID="quakeml:uw.anss.org/AssocArO/UW/8034098">
          <pickID>quakeml:uw.anss.org/Arrival/UW/8034098</pickID>
          <phase>S</phase>
          <azimuth>128.5</azimuth>
          <distance>0.6325</distance>
          <timeResidual>-0.24</timeResidual>
          <creationInfo>
            <agencyID>UW</agencyID>
            <creationTime>2012-03-05T14:42:25.000000Z</creationTime>
          </creationInfo>
        </arrival>
        <arrival publicID="quakeml:uw.anss.org/AssocArO/UW/8034103">
          <pickID>quakeml:uw.anss.org/Arrival/UW/8034103</pickID>
          <phase>P</phase>
          <azimuth>234.1</azimuth>
          <distance>0.1286</distance>
          <timeResidual>-0.02</timeResidual>
          <creationInfo>
            <agencyID>UW</agencyID>
            <creationTime>2012-03-05T14:42:25.000000Z</creationTime>
          </creationInfo>
        </arrival>
        <arrival publicID="quakeml:uw.anss.org/AssocArO/UW/8034108">
          <pickID>quakeml:uw.anss.org/Arrival/UW/8034108</pickID>
          <phase>P</phase>
          <azimuth>46.3</azimuth>
          <distance>0.1063</distance>
          <timeResidual>0.1</timeResidual>
          <creationInfo>
            <agencyID>UW</agencyID>
            <creationTime>2012-03-05T14:42:25.000000Z</creationTime>
          </creationInfo>
        </arrival>
        <arrival publicID="quakeml:uw.anss.org/AssocArO/UW/8034113">
          <pickID>quakeml:uw.anss.org/Arrival/UW/8034113</pickID>
          <phase>P</phase>
          <azimuth>162.4</azimuth>
          <distance>1.091</distance>
          <timeResidual>1.11</timeResidual>
          <creationInfo>
            <agencyID>UW</agencyID>
            <creationTime>2012-03-05T14:42:25.000000Z</creationTime>
          </creationInfo>
        </arrival>
        <arrival publicID="quakeml:uw.anss.org/AssocArO/UW/8034118">
          <pickID>quakeml:uw.anss.org/Arrival/UW/8034118</pickID>
          <phase>P</phase>
          <distance>0.2097</distance>
          <timeResidual>-0.08</timeResidual>
          <creationInfo>
            <agencyID>UW</agencyID>
            <creationTime>2012-03-05T14:42:25.000000Z</creationTime>
          </creationInfo>
        </arrival>
        <arrival publicID="quakeml:uw.anss.org/AssocArO/UW/8034123">
          <pickID>quakeml:uw.anss.org/Arrival/UW/8034123</pickID>
          <phase>P</phase>
          <azimuth>167.6</azimuth>
          <distance>0.4303</distance>
          <timeResidual>-0.18</timeResidual>
          <creationInfo>
            <agencyID>UW</agencyID>
            <creationTime>2012-03-05T14:42:25.000000Z</creationTime>
          </creationInfo>
        </arrival>
        <arrival publicID="quakeml:uw.anss.org/AssocArO/UW/8034128">
          <pickID>quakeml:uw.anss.org/Arrival/UW/8034128</pickID>
          <phase>P</phase>
          <azimuth>104.1</azimuth>
          <distance>0.244</distance>
          <timeResidual>-0.19</timeResidual>
          <creationInfo>
            <agencyID>UW</agencyID>
            <creationTime>2012-03-05T14:42:25.000000Z</creationTime>
          </creationInfo>
        </arrival>
        <arrival publicID="quakeml:uw.anss.org/AssocArO/UW/8034133">
          <pickID>quakeml:uw.anss.org/Arrival/UW/8034133</pickID>
          <phase>S</phase>
          <azimuth>104.1</azimuth>
          <distance>0.244</distance>
          <timeResidual>0.21</timeResidual>
          <creationInfo>
            <agencyID>UW</agencyID>
            <creationTime>2012-03-05T14:42:25.000000Z</creationTime>
          </creationInfo>
        </arrival>
      </origin>
      <magnitude publicID="quakeml:uw.anss.org/Netmag/UW/686248">
        <mag>
          <value>1.5</value>
          <uncertainty>0.05</uncertainty>
        </mag>
        <type>Md</type>
        <originID>quakeml:uw.anss.org/Origin/UW/874638</originID>
        <methodID>smi:uw.anss.org/magnitude/Crosson</methodID>
        <stationCount>5</stationCount>
        <evaluationMode>manual</evaluationMode>
        <evaluationStatus>final</evaluationStatus>
        <stationMagnitudeContribution>
          <stationMagnitudeID>quakeml:uw.anss.org/AssocCoM/UW/1870583</stationMagnitudeID>
          <weight>1.0</weight>
          <residual>0.16</residual>
        </stationMagnitudeContribution>
        <stationMagnitudeContribution>
          <stationMagnitudeID>quakeml:uw.anss.org/AssocCoM/UW/1870588</stationMagnitudeID>
          <weight>1.0</weight>
          <residual>-0.07</residual>
        </stationMagnitudeContribution>
        <stationMagnitudeContribution>
          <stationMagnitudeID>quakeml:uw.anss.org/AssocCoM/UW/1870593</stationMagnitudeID>
          <weight>1.0</weight>
          <residual>0.16</residual>
        </stationMagnitudeContribution>
        <stationMagnitudeContribution>
          <stationMagnitudeID>quakeml:uw.anss.org/AssocCoM/UW/1870598</stationMagnitudeID>
          <weight>1.0</weight>
          <residual>-0.29</residual>
        </stationMagnitudeContribution>
        <stationMagnitudeContribution>
          <stationMagnitudeID>quakeml:uw.anss.org/AssocCoM/UW/1870603</stationMagnitudeID>
          <weight>1.0</weight>
          <residual>-0.23</residual>
        </stationMagnitudeContribution>
        <creationInfo>
          <agencyID>UW</agencyID>
          <creationTime>2012-03-05T14:42:25.000000Z</creationTime>
        </creationInfo>
      </magnitude>
      <stationMagnitude publicID="quakeml:uw.anss.org/AssocCoM/UW/1870583">
        <originID>quakeml:uw.anss.org/Origin/UW/874638</originID>
        <mag>
          <value>1.66</value>
        </mag>
        <type>MD</type>
        <amplitudeID>quakeml:uw.anss.org/Coda/UW/1870583</amplitudeID>
        <waveformID networkCode="UW" stationCode="JCW" locationCode="" channelCode="EHZ"></waveformID>
      </stationMagnitude>
      <stationMagnitude publicID="quakeml:uw.anss.org/AssocCoM/UW/1870588">
        <originID>quakeml:uw.anss.org/Origin/UW/874638</originID>
        <mag>
          <value>1.43</value>
        </mag>
        <type>MD</type>
        <amplitudeID>quakeml:uw.anss.org/Coda/UW/1870588</amplitudeID>
        <waveformID networkCode="UW" stationCode="RPW" locationCode="" channelCode="EHZ"></waveformID>
      </stationMagnitude>
      <stationMagnitude publicID="quakeml:uw.anss.org/AssocCoM/UW/1870593">
        <originID>quakeml:uw.anss.org/Origin/UW/874638</originID>
        <mag>
          <value>1.66</value>
        </mag>
        <type>MD</type>
        <amplitudeID>quakeml:uw.anss.org/Coda/UW/1870593</amplitudeID>
        <waveformID networkCode="CN" stationCode="VDB" locationCode="" channelCode="EHZ"></waveformID>
      </stationMagnitude>
      <stationMagnitude publicID="quakeml:uw.anss.org/AssocCoM/UW/1870598">
        <originID>quakeml:uw.anss.org/Origin/UW/874638</originID>
        <mag>
          <value>1.21</value>
        </mag>
        <type>MD</type>
        <amplitudeID>quakeml:uw.anss.org/Coda/UW/1870598</amplitudeID>
        <waveformID networkCode="UW" stationCode="CMW" locationCode="" channelCode="EHZ"></waveformID>
      </stationMagnitude>
      <stationMagnitude publicID="quakeml:uw.anss.org/AssocCoM/UW/1870603">
        <originID>quakeml:uw.anss.org/Origin/UW/874638</originID>
        <mag>
          <value>1.27</value>
        </mag>
        <type>MD</type>
        <amplitudeID>quakeml:uw.anss.org/Coda/UW/1870603</amplitudeID>
        <waveformID networkCode="UW" stationCode="MBW" locationCode="" channelCode="EHZ"></waveformID>
      </stationMagnitude>
      <pick publicID="quakeml:uw.anss.org/Arrival/UW/8034088">
        <time>
          <value>2003-08-20T07:59:18.600000Z</value>
          <uncertainty>0.09</uncertainty>
        </time>
        <waveformID networkCode="UW" stationCode="JCW" locationCode="" channelCode="EHZ"></waveformID>
        <polarity>undecidable</polarity>
        <evaluationMode>manual</evaluationMode>
        <evaluationStatus>final</evaluationStatus>
        <creationInfo>
          <agencyID>UW</agencyID>
          <creationTime>2012-03-05T14:42:25.000000Z</creationTime>
        </creationInfo>
      </pick>
      <pick publicID="quakeml:uw.anss.org/Arrival/UW/8034093">
        <time>
          <value>2003-08-20T07:59:17.320000Z</value>
          <uncertainty>0.04</uncertainty>
        </time>
        <waveformID networkCode="UW" stationCode="RPW" locationCode="" channelCode="EHZ"></waveformID>
        <polarity>undecidable</polarity>
        <evaluationMode>manual</evaluationMode>
        <evaluationStatus>final</evaluationStatus>
        <creationInfo>
          <agencyID>UW</agencyID>
          <creationTime>2012-03-05T14:42:25.000000Z</creationTime>
        </creationInfo>
      </pick>
      <pick publicID="quakeml:uw.anss.org/Arrival/UW/8034098">
        <time>
          <value>2003-08-20T07:59:26.100000Z</value>
          <uncertainty>0.03</uncertainty>
        </time>
        <waveformID networkCode="UW" stationCode="RPW" locationCode="" channelCode="EHZ"></waveformID>
        <polarity>undecidable</polarity>
        <evaluationMode>manual</evaluationMode>
        <evaluationStatus>final</evaluationStatus>
        <creationInfo>
          <agencyID>UW</agencyID>
          <creationTime>2012-03-05T14:42:25.000000Z</creationTime>
        </creationInfo>
      </pick>
      <pick publicID="quakeml:uw.anss.org/Arrival/UW/8034103">
        <time>
          <value>2003-08-20T07:59:08.500000Z</value>
          <uncertainty>0.04</uncertainty>
        </time>
        <waveformID networkCode="UW" stationCode="SBES" locationCode="" channelCode="EHZ"></waveformID>
        <polarity>undecidable</polarity>
        <evaluationMode>manual</evaluationMode>
        <evaluationStatus>final</evaluationStatus>
        <creationInfo>
          <agencyID>UW</agencyID>
          <creationTime>2012-03-05T14:42:25.000000Z</creationTime>
        </creationInfo>
      </pick>
      <pick publicID="quakeml:uw.anss.org/Arrival/UW/8034108">
        <time>
          <value>2003-08-20T07:59:08.920000Z</value>
          <uncertainty>0.03</uncertainty>
        </time>
        <waveformID networkCode="UW" stationCode="MBKE" locationCode="" channelCode="ENZ"></waveformID>
        <polarity>undecidable</polarity>
        <evaluationMode>manual</evaluationMode>
        <evaluationStatus>final</evaluationStatus>
        <creationInfo>
          <agencyID>UW</agencyID>
          <creationTime>2012-03-05T14:42:25.000000Z</creationTime>
        </creationInfo>
      </pick>
      <pick publicID="quakeml:uw.anss.org/Arrival/UW/8034113">
        <time>
          <value>2003-08-20T07:59:25.900000Z</value>
          <uncertainty>0.06</uncertainty>
        </time>
        <waveformID networkCode="UW" stationCode="HTW" locationCode="" channelCode="EHZ"></waveformID>
        <polarity>undecidable</polarity>
        <evaluationMode>manual</evaluationMode>
        <evaluationStatus>final</evaluationStatus>
        <creationInfo>
          <agencyID>UW</agencyID>
          <creationTime>2012-03-05T14:42:25.000000Z</creationTime>
        </creationInfo>
      </pick>
      <pick publicID="quakeml:uw.anss.org/Arrival/UW/8034118">
        <time>
          <value>2003-08-20T07:59:10.150000Z</value>
          <uncertainty>0.03</uncertainty>
        </time>
        <waveformID networkCode="CN" stationCode="VDB" locationCode="" channelCode="EHZ"></waveformID>
        <polarity>undecidable</polarity>
        <evaluationMode>manual</evaluationMode>
        <evaluationStatus>final</evaluationStatus>
        <creationInfo>
          <agencyID>UW</agencyID>
          <creationTime>2012-03-05T14:42:25.000000Z</creationTime>
        </creationInfo>
      </pick>
      <pick publicID="quakeml:uw.anss.org/Arrival/UW/8034123">
        <time>
          <value>2003-08-20T07:59:13.880000Z</value>
          <uncertainty>0.05</uncertainty>
        </time>
        <waveformID networkCode="UW" stationCode="CMW" locationCode="" channelCode="EHZ"></waveformID>
        <polarity>undecidable</polarity>
        <evaluationMode>manual</evaluationMode>
        <evaluationStatus>final</evaluationStatus>
        <creationInfo>
          <agencyID>UW</agencyID>
          <creationTime>2012-03-05T14:42:25.000000Z</creationTime>
        </creationInfo>
      </pick>
      <pick publicID="quakeml:uw.anss.org/Arrival/UW/8034128">
        <time>
          <value>2003-08-20T07:59:10.900000Z</value>
          <uncertainty>0.04</uncertainty>
        </time>
        <waveformID networkCode="UW" stationCode="MBW" locationCode="" channelCode="EHZ"></waveformID>
        <polarity>undecidable</polarity>
        <evaluationMode>manual</evaluationMode>
        <evaluationStatus>final</evaluationStatus>
        <creationInfo>
          <agencyID>UW</agencyID>
          <creationTime>2012-03-05T14:42:25.000000Z</creationTime>
        </creationInfo>
      </pick>
      <pick publicID="quakeml:uw.anss.org/Arrival/UW/8034133">
        <time>
          <value>2003-08-20T07:59:15.400000Z</value>
          <uncertainty>0.05</uncertainty>
        </time>
        <waveformID networkCode="UW" stationCode="MBW" locationCode="" channelCode="EHZ"></waveformID>
        <polarity>undecidable</polarity>
        <evaluationMode>manual</evaluationMode>
        <evaluationStatus>final</evaluationStatus>
        <creationInfo>
          <agencyID>UW</agencyID>
          <creationTime>2012-03-05T14:42:25.000000Z</creationTime>
        </creationInfo>
      </pick>
      <amplitude publicID="quakeml:uw.anss.org/Coda/UW/1870593">
        <genericAmplitude>
          <value>29.0</value>
        </genericAmplitude>
        <type>END</type>
        <category>duration</category>
        <unit>s</unit>
        <waveformID networkCode="CN" stationCode="VDB" locationCode="" channelCode="EHZ"></waveformID>
        <magnitudeHint>MD</magnitudeHint>
        <evaluationMode>manual</evaluationMode>
        <evaluationStatus>final</evaluationStatus>
      </amplitude>
      <amplitude publicID="quakeml:uw.anss.org/Coda/UW/1870598">
        <genericAmplitude>
          <value>20.0</value>
        </genericAmplitude>
        <type>END</type>
        <category>duration</category>
        <unit>s</unit>
        <waveformID networkCode="UW" stationCode="CMW" locationCode="" channelCode="EHZ"></waveformID>
        <magnitudeHint>MD</magnitudeHint>
        <evaluationMode>manual</evaluationMode>
        <evaluationStatus>final</evaluationStatus>
      </amplitude>
      <amplitude publicID="quakeml:uw.anss.org/Coda/UW/1870583">
        <genericAmplitude>
          <value>29.0</value>
        </genericAmplitude>
        <type>END</type>
        <category>duration</category>
        <unit>s</unit>
        <waveformID networkCode="UW" stationCode="JCW" locationCode="" channelCode="EHZ"></waveformID>
        <magnitudeHint>MD</magnitudeHint>
        <evaluationMode>manual</evaluationMode>
        <evaluationStatus>final</evaluationStatus>
      </amplitude>
      <amplitude publicID="quakeml:uw.anss.org/Coda/UW/1870603">
        <genericAmplitude>
          <value>21.0</value>
        </genericAmplitude>
        <type>END</type>
        <category>duration</category>
        <unit>s</unit>
        <waveformID networkCode="UW" stationCode="MBW" locationCode="" channelCode="EHZ"></waveformID>
        <magnitudeHint>MD</magnitudeHint>
        <evaluationMode>manual</evaluationMode>
        <evaluationStatus>final</evaluationStatus>
      </amplitude>
      <amplitude publicID="quakeml:uw.anss.org/Coda/UW/1870588">
        <genericAmplitude>
          <value>24.0</value>
        </genericAmplitude>
        <type>END</type>
        <category>duration</category>
        <unit>s</unit>
        <waveformID networkCode="UW" stationCode="RPW" locationCode="" channelCode="EHZ"></waveformID>
        <magnitudeHint>MD</magnitudeHint>
        <evaluationMode>manual</evaluationMode>
        <evaluationStatus>final</evaluationStatus>
      </amplitude>
    </event>
  </eventParameters>
</q:quakeml>
