<?xml version='1.0' encoding='utf-8'?>
<q:quakeml xmlns="http://quakeml.org/xmlns/bed/1.2" xmlns:q="http://quakeml.org/xmlns/quakeml/1.2" xmlns:ns0="http://anss.org/xmlns/catalog/0.1">
  <eventParameters publicID="smi:local/b2de4530-3fb2-441d-84e2-ad518c484904">
    <event publicID="quakeml:uw.anss.org/Event/UW/10603843" ns0:datasource="uw" ns0:dataid="uw10603843" ns0:eventsource="uw" ns0:eventid="10603843">
      <preferredOriginID>quakeml:uw.anss.org/Origin/UW/886098</preferredOriginID>
      <preferredMagnitudeID>quakeml:uw.anss.org/Netmag/UW/692153</preferredMagnitudeID>
      <type>earthquake</type>
      <creationInfo>
        <agencyID>UW</agencyID>
        <creationTime>2012-03-05T15:14:07.000000Z</creationTime>
        <version>3</version>
      </creationInfo>
      <origin publicID="quakeml:uw.anss.org/Origin/UW/886098" ns0:datasource="uw" ns0:dataid="uw10603843" ns0:eventsource="uw" ns0:eventid="10603843">
        <time>
          <value>2003-10-31T14:34:17.560000Z</value>
          <uncertainty>0.43</uncertainty>
        </time>
        <latitude>
          <value>48.8085</value>
          <uncertainty>2.81</uncertainty>
        </latitude>
        <longitude>
          <value>-121.3483333</value>
          <uncertainty>1.35</uncertainty>
        </longitude>
        <depth>
          <value>-652.0</value>
          <uncertainty>13550.0</uncertainty>
        </depth>
        <depthType>operator assigned</depthType>
        <timeFixed>false</timeFixed>
        <epicenterFixed>true</epicenterFixed>
        <methodID>smi:uw.anss.org/origin/spong</methodID>
        <quality>
          <associatedPhaseCount>29</associatedPhaseCount>
          <usedPhaseCount>21</usedPhaseCount>
          <associatedStationCount>26</associatedStationCount>
          <usedStationCount>0</usedStationCount>
          <standardError>0.37</standardError>
          <azimuthalGap>132.0</azimuthalGap>
        </quality>
        <type>hypocenter</type>
        <evaluationMode>manual</evaluationMode>
        <evaluationStatus>final</evaluationStatus>
        <creationInfo>
          <agencyID>UW</agencyID>
          <creationTime>2012-03-05T15:14:07.000000Z</creationTime>
        </creationInfo>
        <originUncertainty>
          <preferredDescription>horizontal uncertainty</preferredDescription>
          <horizontalUncertainty>3117.0</horizontalUncertainty>
        </originUncertainty>
        <arrival publicID="quakeml:uw.anss.org/AssocArO/UW/8135913">
          <pickID>quakeml:uw.anss.org/Arrival/UW/8135913</pickID>
          <phase>P</phase>
          <azimuth>225.1</azimuth>
          <distance>1.628</distance>
          <timeResidual>0.29</timeResidual>
          <creationInfo>
            <agencyID>UW</agencyID>
            <creationTime>2012-03-05T15:14:07.000000Z</creationTime>
          </creationInfo>
        </arrival>
        <arrival publicID="quakeml:uw.anss.org/AssocArO/UW/8135918">
          <pickID>quakeml:uw.anss.org/Arrival/UW/8135918</pickID>
          <phase>P</phase>
          <azimuth>137.5</azimuth>
          <distance>0.9979</distance>
          <timeResidual>-0.61</timeResidual>
          <creationInfo>
            <agencyID>UW</agencyID>
            <creationTime>2012-03-05T15:14:07.000000Z</creationTime>
          </creationInfo>
        </arrival>
        <arrival publicID="quakeml:uw.anss.org/AssocArO/UW/8135923">
          <pickID>quakeml:uw.anss.org/Arrival/UW/8135923</pickID>
          <phase>P</phase>
          <azimuth>150.3</azimuth>
          <distance>1.383</distance>
          <timeResidual>0.33</timeResidual>
          <creationInfo>
            <agencyID>UW</agencyID>
            <creationTime>2012-03-05T15:14:07.000000Z</creationTime>
          </creationInfo>
        </arrival>
        <arrival publicID="quakeml:uw.anss.org/AssocArO/UW/8135928">
          <pickID>quakeml:uw.anss.org/Arrival/UW/8135928</pickID>
          <phase>P</phase>
          <distance>0.5433</distance>
          <timeResidual>-0.06</timeResidual>
          <creationInfo>
            <agencyID>UW</agencyID>
            <creationTime>2012-03-05T15:14:07.000000Z</creationTime>
          </creationInfo>
        </arrival>
        <arrival publicID="quakeml:uw.anss.org/AssocArO/UW/8135933">
          <pickID>quakeml:uw.anss.org/Arrival/UW/8135933</pickID>
          <phase>S</phase>
          <distance>0.5433</distance>
          <timeResidual>-0.17</timeResidual>
          <creationInfo>
            <agencyID>UW</agencyID>
            <creationTime>2012-03-05T15:14:07.000000Z</creationTime>
          </creationInfo>
        </arrival>
        <arrival publicID="quakeml:uw.anss.org/AssocArO/UW/8135938">
          <pickID>quakeml:uw.anss.org/Arrival/UW/8135938</pickID>
          <phase>P</phase>
          <azimuth>145.7</azimuth>
          <distance>2.384</distance>
          <timeResidual>3.04</timeResidual>
          <creationInfo>
            <agencyID>UW</agencyID>
            <creationTime>2012-03-05T15:14:07.000000Z</creationTime>
          </creationInfo>
        </arrival>
        <arrival publicID="quakeml:uw.anss.org/AssocArO/UW/8135943">
          <pickID>quakeml:uw.anss.org/Arrival/UW/8135943</pickID>
          <phase>P</phase>
          <azimuth>140.5</azimuth>
          <distance>1.868</distance>
          <timeResidual>0.29</timeResidual>
          <creationInfo>
            <agencyID>UW</agencyID>
            <creationTime>2012-03-05T15:14:07.000000Z</creationTime>
          </creationInfo>
        </arrival>
        <arrival publicID="quakeml:uw.anss.org/AssocArO/UW/8135948">
          <pickID>quakeml:uw.anss.org/Arrival/UW/8135948</pickID>
          <phase>P</phase>
          <azimuth>233.3</azimuth>
          <distance>0.641</distance>
          <timeResidual>0.23</timeResidual>
          <creationInfo>
            <agencyID>UW</agencyID>
            <creationTime>2012-03-05T15:14:07.000000Z</creationTime>
          </creationInfo>
        </arrival>
        <arrival publicID="quakeml:uw.anss.org/AssocArO/UW/8135953">
          <pickID>quakeml:uw.anss.org/Arrival/UW/8135953</pickID>
          <phase>P</phase>
          <azimuth>218.9</azimuth>
          <distance>1.59</distance>
          <timeResidual>0.29</timeResidual>
          <creationInfo>
            <agencyID>UW</agencyID>
            <creationTime>2012-03-05T15:14:07.000000Z</creationTime>
          </creationInfo>
        </arrival>
        <arrival publicID="quakeml:uw.anss.org/AssocArO/UW/8135958">
          <pickID>quakeml:uw.anss.org/Arrival/UW/8135958</pickID>
          <phase>P</phase>
          <azimuth>192.9</azimuth>
          <distance>1.913</distance>
          <timeResidual>0.67</timeResidual>
          <creationInfo>
            <agencyID>UW</agencyID>
            <creationTime>2012-03-05T15:14:07.000000Z</creationTime>
          </creationInfo>
        </arrival>
        <arrival publicID="quakeml:uw.anss.org/AssocArO/UW/8135963">
          <pickID>quakeml:uw.anss.org/Arrival/UW/8135963</pickID>
          <phase>P</phase>
          <azimuth>168.5</azimuth>
          <distance>0.7052</distance>
          <timeResidual>-0.21</timeResidual>
          <creationInfo>
            <agencyID>UW</agencyID>
            <creationTime>2012-03-05T15:14:07.000000Z</creationTime>
          </creationInfo>
        </arrival>
        <arrival publicID="quakeml:uw.anss.org/AssocArO/UW/8135968">
          <pickID>quakeml:uw.anss.org/Arrival/UW/8135968</pickID>
          <phase>P</phase>
          <azimuth>192.9</azimuth>
          <distance>1.384</distance>
          <timeResidual>0.54</timeResidual>
          <creationInfo>
            <agencyID>UW</agencyID>
            <creationTime>2012-03-05T15:14:07.000000Z</creationTime>
          </creationInfo>
        </arrival>
        <arrival publicID="quakeml:uw.anss.org/AssocArO/UW/8135973">
          <pickID>quakeml:uw.anss.org/Arrival/UW/8135973</pickID>
          <phase>P</phase>
          <azimuth>197.0</azimuth>
          <distance>0.3772</distance>
          <timeResidual>-0.16</timeResidual>
          <creationInfo>
            <agencyID>UW</agencyID>
            <creationTime>2012-03-05T15:14:07.000000Z</creationTime>
          </creationInfo>
        </arrival>
        <arrival publicID="quakeml:uw.anss.org/AssocArO/UW/8135978">
          <pickID>quakeml:uw.anss.org/Arrival/UW/8135978</pickID>
          <phase>S</phase>
          <azimuth>197.0</azimuth>
          <distance>0.3772</distance>
          <timeResidual>-0.01</timeResidual>
          <creationInfo>
            <agencyID>UW</agencyID>
            <creationTime>2012-03-05T15:14:07.000000Z</creationTime>
          </creationInfo>
        </arrival>
        <arrival publicID="quakeml:uw.anss.org/AssocArO/UW/8135983">
          <pickID>quakeml:uw.anss.org/Arrival/UW/8135983</pickID>
          <phase>P</phase>
          <azimuth>183.5</azimuth>
          <distance>2.115</distance>
          <timeResidual>1.48</timeResidual>
          <creationInfo>
            <agencyID>UW</agencyID>
            <creationTime>2012-03-05T15:14:07.000000Z</creationTime>
          </creationInfo>
        </arrival>
        <arrival publicID="quakeml:uw.anss.org/AssocArO/UW/8135988">
          <pickID>quakeml:uw.anss.org/Arrival/UW/8135988</pickID>
          <phase>P</phase>
          <azimuth>191.7</azimuth>
          <distance>1.138</distance>
          <timeResidual>0.26</timeResidual>
          <creationInfo>
            <agencyID>UW</agencyID>
            <creationTime>2012-03-05T15:14:07.000000Z</creationTime>
          </creationInfo>
        </arrival>
        <arrival publicID="quakeml:uw.anss.org/AssocArO/UW/8135993">
          <pickID>quakeml:uw.anss.org/Arrival/UW/8135993</pickID>
          <phase>P</phase>
          <azimuth>266.3</azimuth>
          <distance>0.3662</distance>
          <timeResidual>-0.36</timeResidual>
          <creationInfo>
            <agencyID>UW</agencyID>
            <creationTime>2012-03-05T15:14:07.000000Z</creationTime>
          </creationInfo>
        </arrival>
        <arrival publicID="quakeml:uw.anss.org/AssocArO/UW/8135998">
          <pickID>quakeml:uw.anss.org/Arrival/UW/8135998</pickID>
          <phase>S</phase>
          <azimuth>266.3</azimuth>
          <distance>0.3662</distance>
          <timeResidual>-0.67</timeResidual>
          <creationInfo>
            <agencyID>UW</agencyID>
            <creationTime>2012-03-05T15:14:07.000000Z</creationTime>
          </creationInfo>
        </arrival>
        <arrival publicID="quakeml:uw.anss.org/AssocArO/UW/8136003">
          <pickID>quakeml:uw.anss.org/Arrival/UW/8136003</pickID>
          <phase>P</phase>
          <azimuth>129.8</azimuth>
          <distance>1.709</distance>
          <timeResidual>1.34</timeResidual>
          <creationInfo>
            <agencyID>UW</agencyID>
            <creationTime>2012-03-05T15:14:07.000000Z</creationTime>
          </creationInfo>
        </arrival>
        <arrival publicID="quakeml:uw.anss.org/AssocArO/UW/8136008">
          <pickID>quakeml:uw.anss.org/Arrival/UW/8136008</pickID>
          <phase>P</phase>
          <azimuth>212.3</azimuth>
          <timeResidual>0.03</timeResidual>
          <creationInfo>
            <agencyID>UW</agencyID>
            <creationTime>2012-03-05T15:14:07.000000Z</creationTime>
          </creationInfo>
        </arrival>
        <arrival publicID="quakeml:uw.anss.org/AssocArO/UW/8136013">
          <pickID>quakeml:uw.anss.org/Arrival/UW/8136013</pickID>
          <phase>P</phase>
          <azimuth>127.9</azimuth>
          <distance>2.269</distance>
          <timeResidual>1.71</timeResidual>
          <creationInfo>
            <agencyID>UW</agencyID>
            <creationTime>2012-03-05T15:14:07.000000Z</creationTime>
          </creationInfo>
        </arrival>
        <arrival publicID="quakeml:uw.anss.org/AssocArO/UW/8136018">
          <pickID>quakeml:uw.anss.org/Arrival/UW/8136018</pickID>
          <phase>P</phase>
          <azimuth>161.8</azimuth>
          <distance>1.002</distance>
          <timeResidual>-0.1</timeResidual>
          <creationInfo>
            <agencyID>UW</agencyID>
            <creationTime>2012-03-05T15:14:07.000000Z</creationTime>
          </creationInfo>
        </arrival>
        <arrival publicID="quakeml:uw.anss.org/AssocArO/UW/8136023">
          <pickID>quakeml:uw.anss.org/Arrival/UW/8136023</pickID>
          <phase>P</phase>
          <azimuth>247.7</azimuth>
          <timeResidual>0.63</timeResidual>
          <creationInfo>
            <agencyID>UW</agencyID>
            <creationTime>2012-03-05T15:14:07.000000Z</creationTime>
          </creationInfo>
        </arrival>
        <arrival publicID="quakeml:uw.anss.org/AssocArO/UW/8136028">
          <pickID>quakeml:uw.anss.org/Arrival/UW/8136028</pickID>
          <phase>P</phase>
          <azimuth>139.6</azimuth>
          <distance>1.449</distance>
          <timeResidual>-0.21</timeResidual>
          <creationInfo>
            <agencyID>UW</agencyID>
            <creationTime>2012-03-05T15:14:07.000000Z</creationTime>
          </creationInfo>
        </arrival>
        <arrival publicID="quakeml:uw.anss.org/AssocArO/UW/8136033">
          <pickID>quakeml:uw.anss.org/Arrival/UW/8136033</pickID>
          <phase>P</phase>
          <azimuth>217.8</azimuth>
          <distance>1.587</distance>
          <timeResidual>0.41</timeResidual>
          <creationInfo>
            <agencyID>UW</agencyID>
            <creationTime>2012-03-05T15:14:07.000000Z</creationTime>
          </creationInfo>
        </arrival>
        <arrival publicID="quakeml:uw.anss.org/AssocArO/UW/8136038">
          <pickID>quakeml:uw.anss.org/Arrival/UW/8136038</pickID>
          <phase>P</phase>
          <azimuth>65.2</azimuth>
          <distance>1.244</distance>
          <timeResidual>1.05</timeResidual>
          <creationInfo>
            <agencyID>UW</agencyID>
            <creationTime>2012-03-05T15:14:07.000000Z</creationTime>
          </creationInfo>
        </arrival>
        <arrival publicID="quakeml:uw.anss.org/AssocArO/UW/8136043">
          <pickID>quakeml:uw.anss.org/Arrival/UW/8136043</pickID>
          <phase>P</phase>
          <azimuth>195.7</azimuth>
          <distance>1.044</distance>
          <timeResidual>0.35</timeResidual>
          <creationInfo>
            <agencyID>UW</agencyID>
            <creationTime>2012-03-05T15:14:07.000000Z</creationTime>
          </creationInfo>
        </arrival>
        <arrival publicID="quakeml:uw.anss.org/AssocArO/UW/8136048">
          <pickID>quakeml:uw.anss.org/Arrival/UW/8136048</pickID>
          <phase>P</phase>
          <azimuth>138.6</azimuth>
          <distance>1.33</distance>
          <timeResidual>-0.05</timeResidual>
          <creationInfo>
            <agencyID>UW</agencyID>
            <creationTime>2012-03-05T15:14:07.000000Z</creationTime>
          </creationInfo>
        </arrival>
        <arrival publicID="quakeml:uw.anss.org/AssocArO/UW/8136053">
          <pickID>quakeml:uw.anss.org/Arrival/UW/8136053</pickID>
          <phase>P</phase>
          <azimuth>162.7</azimuth>
          <distance>1.715</distance>
          <timeResidual>0.53</timeResidual>
          <creationInfo>
            <agencyID>UW</agencyID>
            <creationTime>2012-03-05T15:14:07.000000Z</creationTime>
          </creationInfo>
        </arrival>
      </origin>
      <magnitude publicID="quakeml:uw.anss.org/Netmag/UW/692153">
        <mag>
          <value>1.9</value>
          <uncertainty>0.04</uncertainty>
        </mag>
        <type>Md</type>
        <originID>quakeml:uw.anss.org/Origin/UW/886098</originID>
        <methodID>smi:uw.anss.org/magnitude/Crosson</methodID>
        <stationCount>5</stationCount>
        <evaluationMode>manual</evaluationMode>
        <evaluationStatus>final</evaluationStatus>
        <stationMagnitudeContribution>
          <stationMagnitudeID>quakeml:uw.anss.org/AssocCoM/UW/1890578</stationMagnitudeID>
          <weight>1.0</weight>
          <residual>0.16</residual>
        </stationMagnitudeContribution>
        <stationMagnitudeContribution>
          <stationMagnitudeID>quakeml:uw.anss.org/AssocCoM/UW/1890568</stationMagnitudeID>
          <weight>1.0</weight>
          <residual>-0.32</residual>
        </stationMagnitudeContribution>
        <stationMagnitudeContribution>
          <stationMagnitudeID>quakeml:uw.anss.org/AssocCoM/UW/1890558</stationMagnitudeID>
          <weight>1.0</weight>
          <residual>0.33</residual>
        </stationMagnitudeContribution>
        <stationMagnitudeContribution>
          <stationMagnitudeID>quakeml:uw.anss.org/AssocCoM/UW/1890563</stationMagnitudeID>
          <weight>1.0</weight>
          <residual>0.09</residual>
        </stationMagnitudeContribution>
        <stationMagnitudeContribution>
          <stationMagnitudeID>quakeml:uw.anss.org/AssocCoM/UW/1890573</stationMagnitudeID>
          <weight>1.0</weight>
          <residual>-0.12</residual>
        </stationMagnitudeContribution>
        <creationInfo>
          <agencyID>UW</agencyID>
          <creationTime>2012-03-05T15:14:07.000000Z</creationTime>
        </creationInfo>
      </magnitude>
      <stationMagnitude publicID="quakeml:uw.anss.org/AssocCoM/UW/1890558">
        <originID>quakeml:uw.anss.org/Origin/UW/886098</originID>
        <mag>
          <value>2.23</value>
        </mag>
        <type>MD</type>
        <amplitudeID>quakeml:uw.anss.org/Coda/UW/1890558</amplitudeID>
        <waveformID networkCode="CN" stationCode="VDB" locationCode="" channelCode="EHZ"></waveformID>
      </stationMagnitude>
      <stationMagnitude publicID="quakeml:uw.anss.org/AssocCoM/UW/1890563">
        <originID>quakeml:uw.anss.org/Origin/UW/886098</originID>
        <mag>
          <value>1.99</value>
        </mag>
        <type>MD</type>
        <amplitudeID>quakeml:uw.anss.org/Coda/UW/1890563</amplitudeID>
        <waveformID networkCode="UW" stationCode="RPW" locationCode="" channelCode="EHZ"></waveformID>
      </stationMagnitude>
      <stationMagnitude publicID="quakeml:uw.anss.org/AssocCoM/UW/1890568">
        <originID>quakeml:uw.anss.org/Origin/UW/886098</originID>
        <mag>
          <value>1.58</value>
        </mag>
        <type>MD</type>
        <amplitudeID>quakeml:uw.anss.org/Coda/UW/1890568</amplitudeID>
        <waveformID networkCode="UW" stationCode="MBW" locationCode="" channelCode="EHZ"></waveformID>
      </stationMagnitude>
      <stationMagnitude publicID="quakeml:uw.anss.org/AssocCoM/UW/1890573">
        <originID>quakeml:uw.anss.org/Origin/UW/886098</originID>
        <mag>
          <value>1.78</value>
        </mag>
        <type>MD</type>
        <amplitudeID>quakeml:uw.anss.org/Coda/UW/1890573</amplitudeID>
        <waveformID networkCode="UW" stationCode="JCW" locationCode="" channelCode="EHZ"></waveformID>
      </stationMagnitude>
      <stationMagnitude publicID="quakeml:uw.anss.org/AssocCoM/UW/1890578">
        <originID>quakeml:uw.anss.org/Origin/UW/886098</originID>
        <mag>
          <value>2.06</value>
        </mag>
        <type>MD</type>
        <amplitudeID>quakeml:uw.anss.org/Coda/UW/1890578</amplitudeID>
        <waveformID networkCode="UW" stationCode="WRW" locationCode="" channelCode="EHZ"></waveformID>
      </stationMagnitude>
      <pick publicID="quakeml:uw.anss.org/Arrival/UW/8135913">
        <time>
          <value>2003-10-31T14:34:46.390000Z</value>
          <uncertainty>0.03</uncertainty>
        </time>
        <waveformID networkCode="UW" stationCode="HDW" locationCode="" channelCode="EHZ"></waveformID>
        <polarity>positive</polarity>
        <evaluationMode>manual</evaluationMode>
        <evaluationStatus>final</evaluationStatus>
        <creationInfo>
          <agencyID>UW</agencyID>
          <creationTime>2012-03-05T15:14:07.000000Z</creationTime>
        </creationInfo>
      </pick>
