<?xml version='1.0' encoding='utf-8'?>
<q:quakeml xmlns="http://quakeml.org/xmlns/bed/1.2" xmlns:q="http://quakeml.org/xmlns/quakeml/1.2" xmlns:ns0="http://anss.org/xmlns/catalog/0.1">
  <eventParameters publicID="smi:local/02c76c6f-2783-4d7d-a075-3c10f3df1bc1">
    <event publicID="quakeml:uw.anss.org/Event/UW/10580118" ns0:datasource="uw" ns0:dataid="uw10580118" ns0:eventsource="uw" ns0:eventid="10580118">
      <preferredOriginID>quakeml:uw.anss.org/Origin/UW/862358</preferredOriginID>
      <preferredMagnitudeID>quakeml:uw.anss.org/Netmag/UW/679273</preferredMagnitudeID>
      <type>earthquake</type>
      <creationInfo>
        <agencyID>UW</agencyID>
        <creationTime>2012-03-05T13:59:22.000000Z</creationTime>
        <version>3</version>
      </creationInfo>
      <origin publicID="quakeml:uw.anss.org/Origin/UW/862358" ns0:datasource="uw" ns0:dataid="uw10580118" ns0:eventsource="uw" ns0:eventid="10580118">
        <time>
          <value>2003-03-17T06:56:00.360000Z</value>
          <uncertainty>0.08</uncertainty>
        </time>
        <latitude>
          <value>48.5333333</value>
          <uncertainty>0.43</uncertainty>
        </latitude>
        <longitude>
          <value>-122.3686667</value>
          <uncertainty>0.55</uncertainty>
        </longitude>
        <depth>
          <value>17413.0</value>
          <uncertainty>1190.0</uncertainty>
        </depth>
        <depthType>from location</depthType>
        <timeFixed>false</timeFixed>
        <epicenterFixed>false</epicenterFixed>
        <methodID>smi:uw.anss.org/origin/spong</methodID>
        <quality>
          <associatedPhaseCount>32</associatedPhaseCount>
          <usedPhaseCount>22</usedPhaseCount>
          <associatedStationCount>25</associatedStationCount>
          <usedStationCount>0</usedStationCount>
          <standardError>0.21</standardError>
          <azimuthalGap>107.0</azimuthalGap>
        </quality>
        <type>hypocenter</type>
        <evaluationMode>manual</evaluationMode>
        <evaluationStatus>final</evaluationStatus>
        <creationInfo>
          <agencyID>UW</agencyID>
          <creationTime>2012-03-05T13:59:22.000000Z</creationTime>
        </creationInfo>
        <originUncertainty>
          <preferredDescription>horizontal uncertainty</preferredDescription>
          <horizontalUncertainty>698.0</horizontalUncertainty>
        </originUncertainty>
        <arrival publicID="quakeml:uw.anss.org/AssocArO/UW/7919528">
          <pickID>quakeml:uw.anss.org/Arrival/UW/7919528</pickID>
          <phase>P</phase>
          <azimuth>245.1</azimuth>
          <distance>0.1888</distance>
          <timeResidual>0.01</timeResidual>
          <creationInfo>
            <agencyID>UW</agencyID>
            <creationTime>2012-03-05T13:59:22.000000Z</creationTime>
          </creationInfo>
        </arrival>
        <arrival publicID="quakeml:uw.anss.org/AssocArO/UW/7919533">
          <pickID>quakeml:uw.anss.org/Arrival/UW/7919533</pickID>
          <phase>S</phase>
          <azimuth>245.1</azimuth>
          <distance>0.1888</distance>
          <timeResidual>-0.13</timeResidual>
          <creationInfo>
            <agencyID>UW</agencyID>
            <creationTime>2012-03-05T13:59:22.000000Z</creationTime>
          </creationInfo>
        </arrival>
        <arrival publicID="quakeml:uw.anss.org/AssocArO/UW/7919538">
          <pickID>quakeml:uw.anss.org/Arrival/UW/7919538</pickID>
          <phase>P</phase>
          <azimuth>197.6</azimuth>
          <distance>1.017</distance>
          <timeResidual>-0.52</timeResidual>
          <creationInfo>
            <agencyID>UW</agencyID>
            <creationTime>2012-03-05T13:59:22.000000Z</creationTime>
          </creationInfo>
        </arrival>
        <arrival publicID="quakeml:uw.anss.org/AssocArO/UW/7919543">
          <pickID>quakeml:uw.anss.org/Arrival/UW/7919543</pickID>
          <phase>S</phase>
          <azimuth>197.6</azimuth>
          <distance>1.017</distance>
          <timeResidual>-0.78</timeResidual>
          <creationInfo>
            <agencyID>UW</agencyID>
            <creationTime>2012-03-05T13:59:22.000000Z</creationTime>
          </creationInfo>
        </arrival>
        <arrival publicID="quakeml:uw.anss.org/AssocArO/UW/7919548">
          <pickID>quakeml:uw.anss.org/Arrival/UW/7919548</pickID>
          <phase>P</phase>
          <azimuth>183.1</azimuth>
          <distance>0.5216</distance>
          <timeResidual>0.34</timeResidual>
          <creationInfo>
            <agencyID>UW</agencyID>
            <creationTime>2012-03-05T13:59:22.000000Z</creationTime>
          </creationInfo>
        </arrival>
        <arrival publicID="quakeml:uw.anss.org/AssocArO/UW/7919553">
          <pickID>quakeml:uw.anss.org/Arrival/UW/7919553</pickID>
          <phase>P</phase>
          <azimuth>215.8</azimuth>
          <timeResidual>0.04</timeResidual>
          <creationInfo>
            <agencyID>UW</agencyID>
            <creationTime>2012-03-05T13:59:22.000000Z</creationTime>
          </creationInfo>
        </arrival>
        <arrival publicID="quakeml:uw.anss.org/AssocArO/UW/7919563">
          <pickID>quakeml:uw.anss.org/Arrival/UW/7919563</pickID>
          <phase>S</phase>
          <azimuth>215.8</azimuth>
          <timeResidual>0.39</timeResidual>
          <creationInfo>
            <agencyID>UW</agencyID>
            <creationTime>2012-03-05T13:59:22.000000Z</creationTime>
          </creationInfo>
        </arrival>
        <arrival publicID="quakeml:uw.anss.org/AssocArO/UW/7919573">
          <pickID>quakeml:uw.anss.org/Arrival/UW/7919573</pickID>
          <phase>P</phase>
          <azimuth>352.4</azimuth>
          <distance>0.2371</distance>
          <timeResidual>1.1</timeResidual>
          <creationInfo>
            <agencyID>UW</agencyID>
            <creationTime>2012-03-05T13:59:22.000000Z</creationTime>
          </creationInfo>
        </arrival>
        <arrival publicID="quakeml:uw.anss.org/AssocArO/UW/7919588">
          <pickID>quakeml:uw.anss.org/Arrival/UW/7919588</pickID>
          <phase>P</phase>
          <azimuth>165.3</azimuth>
          <distance>1.718</distance>
          <timeResidual>-0.22</timeResidual>
          <creationInfo>
            <agencyID>UW</agencyID>
            <creationTime>2012-03-05T13:59:22.000000Z</creationTime>
          </creationInfo>
        </arrival>
        <arrival publicID="quakeml:uw.anss.org/AssocArO/UW/7919598">
          <pickID>quakeml:uw.anss.org/Arrival/UW/7919598</pickID>
          <phase>P</phase>
          <distance>0.5236</distance>
          <timeResidual>0.08</timeResidual>
          <creationInfo>
            <agencyID>UW</agencyID>
            <creationTime>2012-03-05T13:59:22.000000Z</creationTime>
          </creationInfo>
        </arrival>
        <arrival publicID="quakeml:uw.anss.org/AssocArO/UW/7919608">
          <pickID>quakeml:uw.anss.org/Arrival/UW/7919608</pickID>
          <phase>P</phase>
          <azimuth>163.7</azimuth>
          <timeResidual>-0.65</timeResidual>
          <creationInfo>
            <agencyID>UW</agencyID>
            <creationTime>2012-03-05T13:59:22.000000Z</creationTime>
          </creationInfo>
        </arrival>
        <arrival publicID="quakeml:uw.anss.org/AssocArO/UW/7919613">
          <pickID>quakeml:uw.anss.org/Arrival/UW/7919613</pickID>
          <phase>P</phase>
          <azimuth>160.5</azimuth>
          <distance>1.139</distance>
          <timeResidual>-0.22</timeResidual>
          <creationInfo>
            <agencyID>UW</agencyID>
            <creationTime>2012-03-05T13:59:22.000000Z</creationTime>
          </creationInfo>
        </arrival>
        <arrival publicID="quakeml:uw.anss.org/AssocArO/UW/7919618">
          <pickID>quakeml:uw.anss.org/Arrival/UW/7919618</pickID>
          <phase>P</phase>
          <azimuth>98.2</azimuth>
          <distance>0.5743</distance>
          <timeResidual>0.15</timeResidual>
          <creationInfo>
            <agencyID>UW</agencyID>
            <creationTime>2012-03-05T13:59:22.000000Z</creationTime>
          </creationInfo>
        </arrival>
        <arrival publicID="quakeml:uw.anss.org/AssocArO/UW/7919658">
          <pickID>quakeml:uw.anss.org/Arrival/UW/7919658</pickID>
          <phase>S</phase>
          <azimuth>151.4</azimuth>
          <distance>0.9547</distance>
          <timeResidual>-0.73</timeResidual>
          <creationInfo>
            <agencyID>UW</agencyID>
            <creationTime>2012-03-05T13:59:22.000000Z</creationTime>
          </creationInfo>
        </arrival>
        <arrival publicID="quakeml:uw.anss.org/AssocArO/UW/7919668">
          <pickID>quakeml:uw.anss.org/Arrival/UW/7919668</pickID>
          <phase>P</phase>
          <azimuth>192.3</azimuth>
          <distance>0.7289</distance>
          <timeResidual>-0.11</timeResidual>
          <creationInfo>
            <agencyID>UW</agencyID>
            <creationTime>2012-03-05T13:59:22.000000Z</creationTime>
          </creationInfo>
        </arrival>
        <arrival publicID="quakeml:uw.anss.org/AssocArO/UW/7919678">
          <pickID>quakeml:uw.anss.org/Arrival/UW/7919678</pickID>
          <phase>P</phase>
          <azimuth>271.9</azimuth>
          <distance>0.4286</distance>
          <timeResidual>-0.16</timeResidual>
          <creationInfo>
            <agencyID>UW</agencyID>
            <creationTime>2012-03-05T13:59:22.000000Z</creationTime>
          </creationInfo>
        </arrival>
        <arrival publicID="quakeml:uw.anss.org/AssocArO/UW/7919688">
          <pickID>quakeml:uw.anss.org/Arrival/UW/7919688</pickID>
          <phase>P</phase>
          <azimuth>50.8</azimuth>
          <distance>0.3988</distance>
          <timeResidual>0.1</timeResidual>
          <creationInfo>
            <agencyID>UW</agencyID>
            <creationTime>2012-03-05T13:59:22.000000Z</creationTime>
          </creationInfo>
        </arrival>
        <arrival publicID="quakeml:uw.anss.org/AssocArO/UW/7919703">
          <pickID>quakeml:uw.anss.org/Arrival/UW/7919703</pickID>
          <phase>P</phase>
          <azimuth>138.9</azimuth>
          <timeResidual>-0.16</timeResidual>
          <creationInfo>
            <agencyID>UW</agencyID>
            <creationTime>2012-03-05T13:59:22.000000Z</creationTime>
          </creationInfo>
        </arrival>
        <arrival publicID="quakeml:uw.anss.org/AssocArO/UW/7919728">
          <pickID>quakeml:uw.anss.org/Arrival/UW/7919728</pickID>
          <phase>P</phase>
          <azimuth>163.3</azimuth>
          <timeResidual>-0.28</timeResidual>
          <creationInfo>
            <agencyID>UW</agencyID>
            <creationTime>2012-03-05T13:59:22.000000Z</creationTime>
          </creationInfo>
        </arrival>
        <arrival publicID="quakeml:uw.anss.org/AssocArO/UW/7919733">
          <pickID>quakeml:uw.anss.org/Arrival/UW/7919733</pickID>
          <phase>S</phase>
          <azimuth>163.3</azimuth>
          <timeResidual>-1.17</timeResidual>
          <creationInfo>
            <agencyID>UW</agencyID>
            <creationTime>2012-03-05T13:59:22.000000Z</creationTime>
          </creationInfo>
        </arrival>
        <arrival publicID="quakeml:uw.anss.org/AssocArO/UW/7919738">
          <pickID>quakeml:uw.anss.org/Arrival/UW/7919738</pickID>
          <phase>P</phase>
          <azimuth>217.6</azimuth>
          <distance>0.6638</distance>
          <timeResidual>0.05</timeResidual>
          <creationInfo>
            <agencyID>UW</agencyID>
            <creationTime>2012-03-05T13:59:22.000000Z</creationTime>
          </creationInfo>
        </arrival>
        <arrival publicID="quakeml:uw.anss.org/AssocArO/UW/7919743">
          <pickID>quakeml:uw.anss.org/Arrival/UW/7919743</pickID>
          <phase>P</phase>
          <azimuth>145.3</azimuth>
          <distance>0.3615</distance>
          <timeResidual>-0.11</timeResidual>
          <creationInfo>
            <agencyID>UW</agencyID>
            <creationTime>2012-03-05T13:59:22.000000Z</creationTime>
          </creationInfo>
        </arrival>
        <arrival publicID="quakeml:uw.anss.org/AssocArO/UW/7919748">
          <pickID>quakeml:uw.anss.org/Arrival/UW/7919748</pickID>
          <phase>S</phase>
          <azimuth>145.3</azimuth>
          <distance>0.3615</distance>
          <timeResidual>0.06</timeResidual>
          <creationInfo>
            <agencyID>UW</agencyID>
            <creationTime>2012-03-05T13:59:22.000000Z</creationTime>
          </creationInfo>
        </arrival>
        <arrival publicID="quakeml:uw.anss.org/AssocArO/UW/7919753">
          <pickID>quakeml:uw.anss.org/Arrival/UW/7919753</pickID>
          <phase>P</phase>
          <azimuth>116.5</azimuth>
          <distance>0.9206</distance>
          <timeResidual>0.35</timeResidual>
          <creationInfo>
            <agencyID>UW</agencyID>
            <creationTime>2012-03-05T13:59:22.000000Z</creationTime>
          </creationInfo>
        </arrival>
        <arrival publicID="quakeml:uw.anss.org/AssocArO/UW/7919758">
          <pickID>quakeml:uw.anss.org/Arrival/UW/7919758</pickID>
          <phase>P</phase>
          <azimuth>177.5</azimuth>
          <distance>1.494</distance>
          <timeResidual>-0.37</timeResidual>
          <creationInfo>
            <agencyID>UW</agencyID>
            <creationTime>2012-03-05T13:59:22.000000Z</creationTime>
          </creationInfo>
        </arrival>
        <arrival publicID="quakeml:uw.anss.org/AssocArO/UW/7919763">
          <pickID>quakeml:uw.anss.org/Arrival/UW/7919763</pickID>
          <phase>P</phase>
          <azimuth>151.0</azimuth>
          <distance>0.8332</distance>
          <timeResidual>0.01</timeResidual>
          <creationInfo>
            <agencyID>UW</agencyID>
            <creationTime>2012-03-05T13:59:22.000000Z</creationTime>
          </creationInfo>
        </arrival>
        <arrival publicID="quakeml:uw.anss.org/AssocArO/UW/7919768">
          <pickID>quakeml:uw.anss.org/Arrival/UW/7919768</pickID>
          <phase>S</phase>
          <azimuth>151.0</azimuth>
          <distance>0.8332</distance>
          <timeResidual>-0.53</timeResidual>
          <creationInfo>
            <agencyID>UW</agencyID>
            <creationTime>2012-03-05T13:59:22.000000Z</creationTime>
          </creationInfo>
        </arrival>
        <arrival publicID="quakeml:uw.anss.org/AssocArO/UW/7919773">
          <pickID>quakeml:uw.anss.org/Arrival/UW/7919773</pickID>
          <phase>P</phase>
          <azimuth>224.8</azimuth>
          <distance>0.646</distance>
          <timeResidual>0.4</timeResidual>
          <creationInfo>
            <agencyID>UW</agencyID>
            <creationTime>2012-03-05T13:59:22.000000Z</creationTime>
          </creationInfo>
        </arrival>
        <arrival publicID="quakeml:uw.anss.org/AssocArO/UW/7919778">
          <pickID>quakeml:uw.anss.org/Arrival/UW/7919778</pickID>
          <phase>S</phase>
          <azimuth>224.8</azimuth>
          <distance>0.646</distance>
          <timeResidual>1.04</timeResidual>
          <creationInfo>
            <agencyID>UW</agencyID>
            <creationTime>2012-03-05T13:59:22.000000Z</creationTime>
          </creationInfo>
        </arrival>
        <arrival publicID="quakeml:uw.anss.org/AssocArO/UW/7919783">
          <pickID>quakeml:uw.anss.org/Arrival/UW/7919783</pickID>
          <phase>S</phase>
          <azimuth>238.4</azimuth>
          <distance>0.8209</distance>
          <timeResidual>-0.21</timeResidual>
          <creationInfo>
            <agencyID>UW</agencyID>
            <creationTime>2012-03-05T13:59:22.000000Z</creationTime>
          </creationInfo>
        </arrival>
        <arrival publicID="quakeml:uw.anss.org/AssocArO/UW/7919788">
          <pickID>quakeml:uw.anss.org/Arrival/UW/7919788</pickID>
          <phase>P</phase>
          <azimuth>295.6</azimuth>
          <distance>0.3407</distance>
          <timeResidual>0.7</timeResidual>
          <creationInfo>
            <agencyID>UW</agencyID>
            <creationTime>2012-03-05T13:59:22.000000Z</creationTime>
          </creationInfo>
        </arrival>
        <arrival publicID="quakeml:uw.anss.org/AssocArO/UW/7919793">
          <pickID>quakeml:uw.anss.org/Arrival/UW/7919793</pickID>
          <phase>P</phase>
          <azimuth>162.1</azimuth>
          <distance>0.7331</distance>
          <timeResidual>-0.02</timeResidual>
          <creationInfo>
            <agencyID>UW</agencyID>
            <creationTime>2012-03-05T13:59:22.000000Z</creationTime>
          </creationInfo>
        </arrival>
      </origin>
      <magnitude publicID="quakeml:uw.anss.org/Netmag/UW/679273">
        <mag>
          <value>1.5</value>
          <uncertainty>0.03</uncertainty>
        </mag>
        <type>Md</type>
        <originID>quakeml:uw.anss.org/Origin/UW/862358</originID>
        <methodID>smi:uw.anss.org/magnitude/Crosson</methodID>
        <stationCount>11</stationCount>
        <evaluationMode>manual</evaluationMode>
        <evaluationStatus>final</evaluationStatus>
        <stationMagnitudeContribution>
          <stationMagnitudeID>quakeml:uw.anss.org/AssocCoM/UW/1845833</stationMagnitudeID>
          <weight>1.0</weight>
          <residual>-0.29</residual>
        </stationMagnitudeContribution>
        <stationMagnitudeContribution>
          <stationMagnitudeID>quakeml:uw.anss.org/AssocCoM/UW/1845793</stationMagnitudeID>
          <weight>1.0</weight>
          <residual>0.16</residual>
        </stationMagnitudeContribution>
        <stationMagnitudeContribution>
          <stationMagnitudeID>quakeml:uw.anss.org/AssocCoM/UW/1845828</stationMagnitudeID>
          <weight>1.0</weight>
          <residual>0.39</residual>
        </stationMagnitudeContribution>
        <stationMagnitudeContribution>
          <stationMagnitudeID>quakeml:uw.anss.org/AssocCoM/UW/1845788</stationMagnitudeID>
          <weight>1.0</weight>
          <residual>-0.73</residual>
        </stationMagnitudeContribution>
        <stationMagnitudeContribution>
          <stationMagnitudeID>quakeml:uw.anss.org/AssocCoM/UW/1845803</stationMagnitudeID>
          <weight>1.0</weight>
          <residual>0.08</residual>
        </stationMagnitudeContribution>
        <stationMagnitudeContribution>
          <stationMagnitudeID>quakeml:uw.anss.org/AssocCoM/UW/1845823</stationMagnitudeID>
          <weight>1.0</weight>
          <residual>0.32</residual>
        </stationMagnitudeContribution>
        <stationMagnitudeContribution>
          <stationMagnitudeID>quakeml:uw.anss.org/AssocCoM/UW/1845783</stationMagnitudeID>
          <weight>1.0</weight>
          <residual>-0.42</residual>
        </stationMagnitudeContribution>
        <stationMagnitudeContribution>
          <stationMagnitudeID>quakeml:uw.anss.org/AssocCoM/UW/1845798</stationMagnitudeID>
          <weight>1.0</weight>
          <residual>0.12</residual>
        </stationMagnitudeContribution>
        <stationMagnitudeContribution>
          <stationMagnitudeID>quakeml:uw.anss.org/AssocCoM/UW/1845808</stationMagnitudeID>
          <weight>1.0</weight>
          <residual>-0.17</residual>
        </stationMagnitudeContribution>
        <stationMagnitudeContribution>
          <stationMagnitudeID>quakeml:uw.anss.org/AssocCoM/UW/1845818</stationMagnitudeID>
          <weight>1.0</weight>
          <residual>-0.35</residual>
        </stationMagnitudeContribution>
        <stationMagnitudeContribution>
          <stationMagnitudeID>quakeml:uw.anss.org/AssocCoM/UW/1845813</stationMagnitudeID>
          <weight>1.0</weight>
          <residual>-0.02</residual>
        </stationMagnitudeContribution>
        <creationInfo>
          <agencyID>UW</agencyID>
          <creationTime>2012-03-05T13:59:22.000000Z</creationTime>
        </creationInfo>
      </magnitude>
