<?xml version='1.0' encoding='utf-8'?>
<q:quakeml xmlns="http://quakeml.org/xmlns/bed/1.2" xmlns:q="http://quakeml.org/xmlns/quakeml/1.2" xmlns:ns0="http://anss.org/xmlns/catalog/0.1">
  <eventParameters publicID="smi:local/5e3a3b1e-ac5b-469c-8587-85c3d6b455b7">
    <event publicID="quakeml:uw.anss.org/Event/UW/10581038" ns0:datasource="uw" ns0:dataid="uw10581038" ns0:eventsource="uw" ns0:eventid="10581038">
      <preferredOriginID>quakeml:uw.anss.org/Origin/UW/863278</preferredOriginID>
      <preferredMagnitudeID>quakeml:uw.anss.org/Netmag/UW/679868</preferredMagnitudeID>
      <type>earthquake</type>
      <creationInfo>
        <agencyID>UW</agencyID>
        <creationTime>2012-03-05T14:01:43.000000Z</creationTime>
        <version>3</version>
      </creationInfo>
      <origin publicID="quakeml:uw.anss.org/Origin/UW/863278" ns0:datasource="uw" ns0:dataid="uw10581038" ns0:eventsource="uw" ns0:eventid="10581038">
        <time>
          <value>2003-03-18T09:10:07.850000Z</value>
          <uncertainty>0.03</uncertainty>
        </time>
        <latitude>
          <value>49.1586667</value>
          <uncertainty>0.09</uncertainty>
        </latitude>
        <longitude>
          <value>-122.1391667</value>
          <uncertainty>0.19</uncertainty>
        </longitude>
        <depth>
          <value>5310.0</value>
          <uncertainty>220.0</uncertainty>
        </depth>
        <depthType>operator assigned</depthType>
        <timeFixed>false</timeFixed>
        <epicenterFixed>false</epicenterFixed>
        <methodID>smi:uw.anss.org/origin/spong</methodID>
        <quality>
          <associatedPhaseCount>29</associatedPhaseCount>
          <usedPhaseCount>15</usedPhaseCount>
          <associatedStationCount>25</associatedStationCount>
          <usedStationCount>0</usedStationCount>
          <standardError>0.39</standardError>
          <azimuthalGap>283.0</azimuthalGap>
        </quality>
        <type>hypocenter</type>
        <evaluationMode>manual</evaluationMode>
        <evaluationStatus>final</evaluationStatus>
        <creationInfo>
          <agencyID>UW</agencyID>
          <creationTime>2012-03-05T14:01:43.000000Z</creationTime>
        </creationInfo>
        <originUncertainty>
          <preferredDescription>horizontal uncertainty</preferredDescription>
          <horizontalUncertainty>210.0</horizontalUncertainty>
        </originUncertainty>
        <arrival publicID="quakeml:uw.anss.org/AssocArO/UW/7930423">
          <pickID>quakeml:uw.anss.org/Arrival/UW/7930423</pickID>
          <phase>P</phase>
          <azimuth>159.6</azimuth>
          <distance>2.583</distance>
          <timeResidual>2.36</timeResidual>
          <creationInfo>
            <agencyID>UW</agencyID>
            <creationTime>2012-03-05T14:01:43.000000Z</creationTime>
          </creationInfo>
        </arrival>
        <arrival publicID="quakeml:uw.anss.org/AssocArO/UW/7930428">
          <pickID>quakeml:uw.anss.org/Arrival/UW/7930428</pickID>
          <phase>S</phase>
          <azimuth>131.8</azimuth>
          <distance>1.616</distance>
          <timeResidual>1.6</timeResidual>
          <creationInfo>
            <agencyID>UW</agencyID>
            <creationTime>2012-03-05T14:01:43.000000Z</creationTime>
          </creationInfo>
        </arrival>
        <arrival publicID="quakeml:uw.anss.org/AssocArO/UW/7930438">
          <pickID>quakeml:uw.anss.org/Arrival/UW/7930438</pickID>
          <phase>P</phase>
          <azimuth>182.5</azimuth>
          <distance>2.121</distance>
          <timeResidual>0.3</timeResidual>
          <creationInfo>
            <agencyID>UW</agencyID>
            <creationTime>2012-03-05T14:01:43.000000Z</creationTime>
          </creationInfo>
        </arrival>
        <arrival publicID="quakeml:uw.anss.org/AssocArO/UW/7930453">
          <pickID>quakeml:uw.anss.org/Arrival/UW/7930453</pickID>
          <phase>S</phase>
          <azimuth>196.2</azimuth>
          <distance>1.66</distance>
          <timeResidual>-1.37</timeResidual>
          <creationInfo>
            <agencyID>UW</agencyID>
            <creationTime>2012-03-05T14:01:43.000000Z</creationTime>
          </creationInfo>
        </arrival>
        <arrival publicID="quakeml:uw.anss.org/AssocArO/UW/7930458">
          <pickID>quakeml:uw.anss.org/Arrival/UW/7930458</pickID>
          <phase>P</phase>
          <azimuth>205.1</azimuth>
          <distance>0.4315</distance>
          <timeResidual>0.23</timeResidual>
          <creationInfo>
            <agencyID>UW</agencyID>
            <creationTime>2012-03-05T14:01:43.000000Z</creationTime>
          </creationInfo>
        </arrival>
        <arrival publicID="quakeml:uw.anss.org/AssocArO/UW/7930468">
          <pickID>quakeml:uw.anss.org/Arrival/UW/7930468</pickID>
          <phase>S</phase>
          <azimuth>205.1</azimuth>
          <distance>0.4315</distance>
          <timeResidual>0.15</timeResidual>
          <creationInfo>
            <agencyID>UW</agencyID>
            <creationTime>2012-03-05T14:01:43.000000Z</creationTime>
          </creationInfo>
        </arrival>
        <arrival publicID="quakeml:uw.anss.org/AssocArO/UW/7930473">
          <pickID>quakeml:uw.anss.org/Arrival/UW/7930473</pickID>
          <phase>P</phase>
          <azimuth>173.1</azimuth>
          <distance>2.306</distance>
          <timeResidual>0.49</timeResidual>
          <creationInfo>
            <agencyID>UW</agencyID>
            <creationTime>2012-03-05T14:01:43.000000Z</creationTime>
          </creationInfo>
        </arrival>
        <arrival publicID="quakeml:uw.anss.org/AssocArO/UW/7930483">
          <pickID>quakeml:uw.anss.org/Arrival/UW/7930483</pickID>
          <phase>P</phase>
          <distance>0.1348</distance>
          <timeResidual>-0.06</timeResidual>
          <creationInfo>
            <agencyID>UW</agencyID>
            <creationTime>2012-03-05T14:01:43.000000Z</creationTime>
          </creationInfo>
        </arrival>
        <arrival publicID="quakeml:uw.anss.org/AssocArO/UW/7930498">
          <pickID>quakeml:uw.anss.org/Arrival/UW/7930498</pickID>
          <phase>P</phase>
          <azimuth>173.2</azimuth>
          <timeResidual>0.09</timeResidual>
          <creationInfo>
            <agencyID>UW</agencyID>
            <creationTime>2012-03-05T14:01:43.000000Z</creationTime>
          </creationInfo>
        </arrival>
        <arrival publicID="quakeml:uw.anss.org/AssocArO/UW/7930503">
          <pickID>quakeml:uw.anss.org/Arrival/UW/7930503</pickID>
          <phase>P</phase>
          <azimuth>172.5</azimuth>
          <distance>1.715</distance>
          <timeResidual>0.52</timeResidual>
          <creationInfo>
            <agencyID>UW</agencyID>
            <creationTime>2012-03-05T14:01:43.000000Z</creationTime>
          </creationInfo>
        </arrival>
        <arrival publicID="quakeml:uw.anss.org/AssocArO/UW/7930523">
          <pickID>quakeml:uw.anss.org/Arrival/UW/7930523</pickID>
          <phase>P</phase>
          <azimuth>149.7</azimuth>
          <distance>0.8222</distance>
          <timeResidual>0.25</timeResidual>
          <creationInfo>
            <agencyID>UW</agencyID>
            <creationTime>2012-03-05T14:01:43.000000Z</creationTime>
          </creationInfo>
        </arrival>
        <arrival publicID="quakeml:uw.anss.org/AssocArO/UW/7930528">
          <pickID>quakeml:uw.anss.org/Arrival/UW/7930528</pickID>
          <phase>S</phase>
          <azimuth>149.7</azimuth>
          <distance>0.8222</distance>
          <timeResidual>-0.72</timeResidual>
          <creationInfo>
            <agencyID>UW</agencyID>
            <creationTime>2012-03-05T14:01:43.000000Z</creationTime>
          </creationInfo>
        </arrival>
        <arrival publicID="quakeml:uw.anss.org/AssocArO/UW/7930533">
          <pickID>quakeml:uw.anss.org/Arrival/UW/7930533</pickID>
          <phase>P</phase>
          <azimuth>168.3</azimuth>
          <distance>1.496</distance>
          <timeResidual>1.26</timeResidual>
          <creationInfo>
            <agencyID>UW</agencyID>
            <creationTime>2012-03-05T14:01:43.000000Z</creationTime>
          </creationInfo>
        </arrival>
        <arrival publicID="quakeml:uw.anss.org/AssocArO/UW/7930538">
          <pickID>quakeml:uw.anss.org/Arrival/UW/7930538</pickID>
          <phase>S</phase>
          <azimuth>168.3</azimuth>
          <distance>1.496</distance>
          <timeResidual>-0.13</timeResidual>
          <creationInfo>
            <agencyID>UW</agencyID>
            <creationTime>2012-03-05T14:01:43.000000Z</creationTime>
          </creationInfo>
        </arrival>
        <arrival publicID="quakeml:uw.anss.org/AssocArO/UW/7930543">
          <pickID>quakeml:uw.anss.org/Arrival/UW/7930543</pickID>
          <phase>P</phase>
          <azimuth>180.3</azimuth>
          <distance>0.2425</distance>
          <timeResidual>-0.22</timeResidual>
          <creationInfo>
            <agencyID>UW</agencyID>
            <creationTime>2012-03-05T14:01:43.000000Z</creationTime>
          </creationInfo>
        </arrival>
        <arrival publicID="quakeml:uw.anss.org/AssocArO/UW/7930548">
          <pickID>quakeml:uw.anss.org/Arrival/UW/7930548</pickID>
          <phase>P</phase>
          <azimuth>223.5</azimuth>
          <distance>0.8423</distance>
          <timeResidual>-0.38</timeResidual>
          <creationInfo>
            <agencyID>UW</agencyID>
            <creationTime>2012-03-05T14:01:43.000000Z</creationTime>
          </creationInfo>
        </arrival>
        <arrival publicID="quakeml:uw.anss.org/AssocArO/UW/7930553">
          <pickID>quakeml:uw.anss.org/Arrival/UW/7930553</pickID>
          <phase>S</phase>
          <azimuth>223.5</azimuth>
          <distance>0.8423</distance>
          <timeResidual>-1.75</timeResidual>
          <creationInfo>
            <agencyID>UW</agencyID>
            <creationTime>2012-03-05T14:01:43.000000Z</creationTime>
          </creationInfo>
        </arrival>
        <arrival publicID="quakeml:uw.anss.org/AssocArO/UW/7930558">
          <pickID>quakeml:uw.anss.org/Arrival/UW/7930558</pickID>
          <phase>P</phase>
          <azimuth>157.3</azimuth>
          <distance>0.4067</distance>
          <timeResidual>-0.05</timeResidual>
          <creationInfo>
            <agencyID>UW</agencyID>
            <creationTime>2012-03-05T14:01:43.000000Z</creationTime>
          </creationInfo>
        </arrival>
        <arrival publicID="quakeml:uw.anss.org/AssocArO/UW/7930563">
          <pickID>quakeml:uw.anss.org/Arrival/UW/7930563</pickID>
          <phase>P</phase>
          <azimuth>171.7</azimuth>
          <timeResidual>0.43</timeResidual>
          <creationInfo>
            <agencyID>UW</agencyID>
            <creationTime>2012-03-05T14:01:43.000000Z</creationTime>
          </creationInfo>
        </arrival>
        <arrival publicID="quakeml:uw.anss.org/AssocArO/UW/7930568">
          <pickID>quakeml:uw.anss.org/Arrival/UW/7930568</pickID>
          <phase>P</phase>
          <azimuth>171.8</azimuth>
          <timeResidual>0.52</timeResidual>
          <creationInfo>
            <agencyID>UW</agencyID>
            <creationTime>2012-03-05T14:01:43.000000Z</creationTime>
          </creationInfo>
        </arrival>
        <arrival publicID="quakeml:uw.anss.org/AssocArO/UW/7930573">
          <pickID>quakeml:uw.anss.org/Arrival/UW/7930573</pickID>
          <phase>P</phase>
          <azimuth>146.9</azimuth>
          <distance>1.548</distance>
          <timeResidual>0.75</timeResidual>
          <creationInfo>
            <agencyID>UW</agencyID>
            <creationTime>2012-03-05T14:01:43.000000Z</creationTime>
          </creationInfo>
        </arrival>
        <arrival publicID="quakeml:uw.anss.org/AssocArO/UW/7930578">
          <pickID>quakeml:uw.anss.org/Arrival/UW/7930578</pickID>
          <phase>P</phase>
          <azimuth>225.7</azimuth>
          <timeResidual>-0.3</timeResidual>
          <creationInfo>
            <agencyID>UW</agencyID>
            <creationTime>2012-03-05T14:01:43.000000Z</creationTime>
          </creationInfo>
        </arrival>
        <arrival publicID="quakeml:uw.anss.org/AssocArO/UW/7930583">
          <pickID>quakeml:uw.anss.org/Arrival/UW/7930583</pickID>
          <phase>P</phase>
          <azimuth>176.7</azimuth>
          <distance>0.9247</distance>
          <timeResidual>0.58</timeResidual>
          <creationInfo>
            <agencyID>UW</agencyID>
            <creationTime>2012-03-05T14:01:43.000000Z</creationTime>
          </creationInfo>
        </arrival>
        <arrival publicID="quakeml:uw.anss.org/AssocArO/UW/7930588">
          <pickID>quakeml:uw.anss.org/Arrival/UW/7930588</pickID>
          <phase>P</phase>
          <azimuth>147.2</azimuth>
          <distance>1.235</distance>
          <timeResidual>0.57</timeResidual>
          <creationInfo>
            <agencyID>UW</agencyID>
            <creationTime>2012-03-05T14:01:43.000000Z</creationTime>
          </creationInfo>
        </arrival>
        <arrival publicID="quakeml:uw.anss.org/AssocArO/UW/7930593">
          <pickID>quakeml:uw.anss.org/Arrival/UW/7930593</pickID>
          <phase>P</phase>
          <azimuth>169.6</azimuth>
          <distance>1.378</distance>
          <timeResidual>0.76</timeResidual>
          <creationInfo>
            <agencyID>UW</agencyID>
            <creationTime>2012-03-05T14:01:43.000000Z</creationTime>
          </creationInfo>
        </arrival>
        <arrival publicID="quakeml:uw.anss.org/AssocArO/UW/7930598">
          <pickID>quakeml:uw.anss.org/Arrival/UW/7930598</pickID>
          <phase>P</phase>
          <azimuth>205.9</azimuth>
          <distance>1.279</distance>
          <timeResidual>0.25</timeResidual>
          <creationInfo>
            <agencyID>UW</agencyID>
            <creationTime>2012-03-05T14:01:43.000000Z</creationTime>
          </creationInfo>
        </arrival>
        <arrival publicID="quakeml:uw.anss.org/AssocArO/UW/7930603">
          <pickID>quakeml:uw.anss.org/Arrival/UW/7930603</pickID>
          <phase>P</phase>
          <azimuth>209.3</azimuth>
          <distance>1.242</distance>
          <timeResidual>0.52</timeResidual>
          <creationInfo>
            <agencyID>UW</agencyID>
            <creationTime>2012-03-05T14:01:43.000000Z</creationTime>
          </creationInfo>
        </arrival>
        <arrival publicID="quakeml:uw.anss.org/AssocArO/UW/7930613">
          <pickID>quakeml:uw.anss.org/Arrival/UW/7930613</pickID>
          <phase>S</phase>
          <azimuth>219.0</azimuth>
          <distance>1.355</distance>
          <timeResidual>-1.34</timeResidual>
          <creationInfo>
            <agencyID>UW</agencyID>
            <creationTime>2012-03-05T14:01:43.000000Z</creationTime>
          </creationInfo>
        </arrival>
        <arrival publicID="quakeml:uw.anss.org/AssocArO/UW/7930618">
          <pickID>quakeml:uw.anss.org/Arrival/UW/7930618</pickID>
          <phase>P</phase>
          <azimuth>223.8</azimuth>
          <distance>0.6631</distance>
          <timeResidual>-0.19</timeResidual>
          <creationInfo>
            <agencyID>UW</agencyID>
            <creationTime>2012-03-05T14:01:43.000000Z</creationTime>
          </creationInfo>
        </arrival>
      </origin>
      <magnitude publicID="quakeml:uw.anss.org/Netmag/UW/679868">
        <mag>
          <value>2.0</value>
          <uncertainty>0.02</uncertainty>
        </mag>
        <type>Md</type>
        <originID>quakeml:uw.anss.org/Origin/UW/863278</originID>
        <methodID>smi:uw.anss.org/magnitude/Crosson</methodID>
        <stationCount>8</stationCount>
        <evaluationMode>manual</evaluationMode>
        <evaluationStatus>final</evaluationStatus>
        <stationMagnitudeContribution>
          <stationMagnitudeID>quakeml:uw.anss.org/AssocCoM/UW/1848058</stationMagnitudeID>
          <weight>1.0</weight>
          <residual>0.03</residual>
        </stationMagnitudeContribution>
        <stationMagnitudeContribution>
          <stationMagnitudeID>quakeml:uw.anss.org/AssocCoM/UW/1848053</stationMagnitudeID>
          <weight>1.0</weight>
          <residual>-0.14</residual>
        </stationMagnitudeContribution>
        <stationMagnitudeContribution>
          <stationMagnitudeID>quakeml:uw.anss.org/AssocCoM/UW/1848068</stationMagnitudeID>
          <weight>1.0</weight>
          <residual>0.06</residual>
        </stationMagnitudeContribution>
        <stationMagnitudeContribution>
          <stationMagnitudeID>quakeml:uw.anss.org/AssocCoM/UW/1848048</stationMagnitudeID>
          <weight>1.0</weight>
          <residual>-0.25</residual>
        </stationMagnitudeContribution>
        <stationMagnitudeContribution>
          <stationMagnitudeID>quakeml:uw.anss.org/AssocCoM/UW/1848028</stationMagnitudeID>
          <weight>1.0</weight>
          <residual>-0.62</residual>
        </stationMagnitudeContribution>
        <stationMagnitudeContribution>
          <stationMagnitudeID>quakeml:uw.anss.org/AssocCoM/UW/1848073</stationMagnitudeID>
          <weight>1.0</weight>
          <residual>-0.38</residual>
        </stationMagnitudeContribution>
        <stationMagnitudeContribution>
          <stationMagnitudeID>quakeml:uw.anss.org/AssocCoM/UW/1848038</stationMagnitudeID>
          <weight>1.0</weight>
          <residual>0.79</residual>
        </stationMagnitudeContribution>
        <stationMagnitudeContribution>
          <stationMagnitudeID>quakeml:uw.anss.org/AssocCoM/UW/1848063</stationMagnitudeID>
          <weight>1.0</weight>
          <residual>0.26</residual>
        </stationMagnitudeContribution>
        <creationInfo>
          <agencyID>UW</agencyID>
          <creationTime>2012-03-05T14:01:43.000000Z</creationTime>
        </creationInfo>
      </magnitude>
      <stationMagnitude publicID="quakeml:uw.anss.org/AssocCoM/UW/1848028">
        <originID>quakeml:uw.anss.org/Origin/UW/863278</originID>
        <mag>
          <value>1.38</value>
        </mag>
        <type>MD</type>
        <amplitudeID>quakeml:uw.anss.org/Coda/UW/1848028</amplitudeID>
        <waveformID networkCode="UW" stationCode="SBES" locationCode="" channelCode="EHZ"></waveformID>
      </stationMagnitude>
      <stationMagnitude publicID="quakeml:uw.anss.org/AssocCoM/UW/1848038">
        <originID>quakeml:uw.anss.org/Origin/UW/863278</originID>
        <mag>
          <value>2.79</value>
        </mag>
        <type>MD</type>
        <amplitudeID>quakeml:uw.anss.org/Coda/UW/1848038</amplitudeID>
        <waveformID networkCode="CN" stationCode="VDB" locationCode="" channelCode="EHZ"></waveformID>
      </stationMagnitude>
      <stationMagnitude publicID="quakeml:uw.anss.org/AssocCoM/UW/1848048">
        <originID>quakeml:uw.anss.org/Origin/UW/863278</originID>
        <mag>
          <value>1.75</value>
        </mag>
        <type>MD</type>
        <amplitudeID>quakeml:uw.anss.org/Coda/UW/1848048</amplitudeID>
        <waveformID networkCode="UW" stationCode="RPW" locationCode="" channelCode="EHZ"></waveformID>
      </stationMagnitude>
      <stationMagnitude publicID="quakeml:uw.anss.org/AssocCoM/UW/1848053">
        <originID>quakeml:uw.anss.org/Origin/UW/863278</originID>
        <mag>
          <value>1.86</value>
        </mag>
        <type>MD</type>
        <amplitudeID>quakeml:uw.anss.org/Coda/UW/1848053</amplitudeID>
        <waveformID networkCode="UW" stationCode="MBW" locationCode="" channelCode="EHZ"></waveformID>
      </stationMagnitude>
      <stationMagnitude publicID="quakeml:uw.anss.org/AssocCoM/UW/1848058">
        <originID>quakeml:uw.anss.org/Origin/UW/863278</originID>
        <mag>
          <value>2.03</value>
        </mag>
        <type>MD</type>
        <amplitudeID>quakeml:uw.anss.org/Coda/UW/1848058</amplitudeID>
