<?xml version='1.0' encoding='utf-8'?>
<q:quakeml xmlns="http://quakeml.org/xmlns/bed/1.2" xmlns:q="http://quakeml.org/xmlns/quakeml/1.2" xmlns:ns0="http://anss.org/xmlns/catalog/0.1">
  <eventParameters publicID="smi:local/8bef8bd9-5f71-40e6-8ab8-2eb09e4abbb2">
    <event publicID="quakeml:uw.anss.org/Event/UW/61868306" ns0:datasource="uw" ns0:dataid="uw61868306" ns0:eventsource="uw" ns0:eventid="61868306">
      <preferredOriginID>quakeml:uw.anss.org/Origin/UW/3215268</preferredOriginID>
      <preferredMagnitudeID>quakeml:uw.anss.org/Netmag/UW/3189883</preferredMagnitudeID>
      <type>earthquake</type>
      <creationInfo>
        <agencyID>UW</agencyID>
        <creationTime>2022-12-24T02:22:56.000000Z</creationTime>
        <version>2</version>
      </creationInfo>
      <origin publicID="quakeml:uw.anss.org/Origin/UW/3215268" ns0:datasource="uw" ns0:dataid="uw61868306" ns0:eventsource="uw" ns0:eventid="61868306">
        <time>
          <value>2022-08-01T19:49:22.150000Z</value>
        </time>
        <latitude>
          <value>48.799</value>
        </latitude>
        <longitude>
          <value>-121.83133333333333</value>
        </longitude>
        <depth>
          <value>-920.0</value>
          <uncertainty>9110.0</uncertainty>
        </depth>
        <depthType>from location</depthType>
        <timeFixed>false</timeFixed>
        <epicenterFixed>false</epicenterFixed>
        <methodID>smi:uw.anss.org/origin/HYP2000</methodID>
        <quality>
          <associatedPhaseCount>8</associatedPhaseCount>
          <usedPhaseCount>7</usedPhaseCount>
          <associatedStationCount>5</associatedStationCount>
          <usedStationCount>5</usedStationCount>
          <standardError>0.19</standardError>
          <azimuthalGap>169.0</azimuthalGap>
          <secondaryAzimuthalGap>483.0</secondaryAzimuthalGap>
          <minimumDistance>0.04845</minimumDistance>
          <maximumDistance>0.6075</maximumDistance>
          <medianDistance>0.247</medianDistance>
        </quality>
        <type>hypocenter</type>
        <evaluationMode>manual</evaluationMode>
        <evaluationStatus>final</evaluationStatus>
        <creationInfo>
          <agencyID>UW</agencyID>
          <creationTime>2022-12-24T02:22:52.000000Z</creationTime>
        </creationInfo>
        <originUncertainty>
          <preferredDescription>confidence ellipsoid</preferredDescription>
          <horizontalUncertainty>5620.0</horizontalUncertainty>
          <confidenceLevel>95.0</confidenceLevel>
          <confidenceEllipsoid>
            <semiMajorAxisLength>25680.0</semiMajorAxisLength>
            <semiMinorAxisLength>816.0</semiMinorAxisLength>
            <semiIntermediateAxisLength>1536.0</semiIntermediateAxisLength>
            <majorAxisPlunge>58.0</majorAxisPlunge>
            <majorAxisAzimuth>333.0</majorAxisAzimuth>
            <majorAxisRotation>0.0</majorAxisRotation>
          </confidenceEllipsoid>
        </originUncertainty>
        <arrival publicID="quakeml:uw.anss.org/AssocArO/UW/16261733">
          <pickID>quakeml:uw.anss.org/Arrival/UW/16261733</pickID>
          <phase>P</phase>
          <timeCorrection>0.38</timeCorrection>
          <azimuth>252.11503506254553</azimuth>
          <distance>0.04845</distance>
          <takeoffAngle>
            <value>90.0</value>
          </takeoffAngle>
          <timeResidual>-0.25</timeResidual>
          <timeWeight>0.1</timeWeight>
          <creationInfo>
            <agencyID>UW</agencyID>
            <creationTime>2022-12-24T02:22:56.000000Z</creationTime>
          </creationInfo>
        </arrival>
        <arrival publicID="quakeml:uw.anss.org/AssocArO/UW/16261738">
          <pickID>quakeml:uw.anss.org/Arrival/UW/16261738</pickID>
          <phase>P</phase>
          <timeCorrection>0.0</timeCorrection>
          <azimuth>62.03073482217576</azimuth>
          <distance>0.1153</distance>
          <takeoffAngle>
            <value>90.0</value>
          </takeoffAngle>
          <timeResidual>0.99</timeResidual>
          <timeWeight>0.0</timeWeight>
          <creationInfo>
            <agencyID>UW</agencyID>
            <creationTime>2022-12-24T02:22:56.000000Z</creationTime>
          </creationInfo>
        </arrival>
        <arrival publicID="quakeml:uw.anss.org/AssocArO/UW/16261743">
          <pickID>quakeml:uw.anss.org/Arrival/UW/16261743</pickID>
          <phase>S</phase>
          <timeCorrection>0.0</timeCorrection>
          <azimuth>62.03073482217576</azimuth>
          <distance>0.1153</distance>
          <takeoffAngle>
            <value>90.0</value>
          </takeoffAngle>
          <timeResidual>-0.15</timeResidual>
          <timeWeight>0.14</timeWeight>
          <creationInfo>
            <agencyID>UW</agencyID>
            <creationTime>2022-12-24T02:22:56.000000Z</creationTime>
          </creationInfo>
        </arrival>
        <arrival publicID="quakeml:uw.anss.org/AssocArO/UW/16261748">
          <pickID>quakeml:uw.anss.org/Arrival/UW/16261748</pickID>
          <phase>P</phase>
          <timeCorrection>0.0</timeCorrection>
          <azimuth>242.08850240767657</azimuth>
          <distance>0.247</distance>
          <takeoffAngle>
            <value>90.0</value>
          </takeoffAngle>
          <timeResidual>0.12</timeResidual>
          <timeWeight>0.1</timeWeight>
          <creationInfo>
            <agencyID>UW</agencyID>
            <creationTime>2022-12-24T02:22:56.000000Z</creationTime>
          </creationInfo>
        </arrival>
        <arrival publicID="quakeml:uw.anss.org/AssocArO/UW/16261753">
          <pickID>quakeml:uw.anss.org/Arrival/UW/16261753</pickID>
          <phase>S</phase>
          <timeCorrection>0.0</timeCorrection>
          <azimuth>242.08850240767657</azimuth>
          <distance>0.247</distance>
          <takeoffAngle>
            <value>90.0</value>
          </takeoffAngle>
          <timeResidual>-0.09</timeResidual>
          <timeWeight>0.1</timeWeight>
          <creationInfo>
            <agencyID>UW</agencyID>
            <creationTime>2022-12-24T02:22:56.000000Z</creationTime>
          </creationInfo>
        </arrival>
        <arrival publicID="quakeml:uw.anss.org/AssocArO/UW/16261758">
          <pickID>quakeml:uw.anss.org/Arrival/UW/16261758</pickID>
          <phase>P</phase>
          <timeCorrection>0.0</timeCorrection>
          <azimuth>150.24089591681485</azimuth>
          <distance>0.4081</distance>
          <takeoffAngle>
            <value>57.0</value>
          </takeoffAngle>
          <timeResidual>-0.15</timeResidual>
          <timeWeight>0.1</timeWeight>
          <creationInfo>
            <agencyID>UW</agencyID>
            <creationTime>2022-12-24T02:22:56.000000Z</creationTime>
          </creationInfo>
        </arrival>
        <arrival publicID="quakeml:uw.anss.org/AssocArO/UW/16261763">
          <pickID>quakeml:uw.anss.org/Arrival/UW/16261763</pickID>
          <phase>S</phase>
          <timeCorrection>0.0</timeCorrection>
          <azimuth>150.24089591681485</azimuth>
          <distance>0.4081</distance>
          <takeoffAngle>
            <value>57.0</value>
          </takeoffAngle>
          <timeResidual>-0.1</timeResidual>
          <timeWeight>0.1</timeWeight>
          <creationInfo>
            <agencyID>UW</agencyID>
            <creationTime>2022-12-24T02:22:56.000000Z</creationTime>
          </creationInfo>
        </arrival>
        <arrival publicID="quakeml:uw.anss.org/AssocArO/UW/16261768">
          <pickID>quakeml:uw.anss.org/Arrival/UW/16261768</pickID>
          <phase>P</phase>
          <timeCorrection>-0.06</timeCorrection>
          <azimuth>186.05958275460497</azimuth>
          <distance>0.6075</distance>
          <takeoffAngle>
            <value>57.0</value>
          </takeoffAngle>
          <timeResidual>0.39</timeResidual>
          <timeWeight>0.08</timeWeight>
          <creationInfo>
            <agencyID>UW</agencyID>
            <creationTime>2022-12-24T02:22:56.000000Z</creationTime>
          </creationInfo>
        </arrival>
      </origin>
      <magnitude publicID="quakeml:uw.anss.org/Netmag/UW/3189883">
        <mag>
          <value>1.53</value>
          <uncertainty>0.1605896430379654</uncertainty>
        </mag>
        <type>Ml</type>
        <originID>quakeml:uw.anss.org/Origin/UW/3215268</originID>
        <methodID>smi:uw.anss.org/magnitude/RichterMl2</methodID>
        <stationCount>4</stationCount>
        <azimuthalGap>179.9422324144992</azimuthalGap>
        <evaluationMode>manual</evaluationMode>
        <evaluationStatus>reviewed</evaluationStatus>
        <stationMagnitudeContribution>
          <stationMagnitudeID>quakeml:uw.anss.org/AssocAmM/UW/14580818</stationMagnitudeID>
          <weight>1.0</weight>
          <residual>0.36</residual>
        </stationMagnitudeContribution>
        <stationMagnitudeContribution>
          <stationMagnitudeID>quakeml:uw.anss.org/AssocAmM/UW/14580768</stationMagnitudeID>
          <weight>1.0</weight>
          <residual>-0.28</residual>
        </stationMagnitudeContribution>
        <stationMagnitudeContribution>
          <stationMagnitudeID>quakeml:uw.anss.org/AssocAmM/UW/14580788</stationMagnitudeID>
          <weight>1.0</weight>
          <residual>0.11</residual>
        </stationMagnitudeContribution>
        <stationMagnitudeContribution>
          <stationMagnitudeID>quakeml:uw.anss.org/AssocAmM/UW/14580813</stationMagnitudeID>
          <weight>1.0</weight>
          <residual>-0.16</residual>
        </stationMagnitudeContribution>
        <stationMagnitudeContribution>
          <stationMagnitudeID>quakeml:uw.anss.org/AssocAmM/UW/14580783</stationMagnitudeID>
          <weight>1.0</weight>
          <residual>0.0</residual>
        </stationMagnitudeContribution>
        <stationMagnitudeContribution>
          <stationMagnitudeID>quakeml:uw.anss.org/AssocAmM/UW/14580803</stationMagnitudeID>
          <weight>1.0</weight>
          <residual>0.15</residual>
        </stationMagnitudeContribution>
        <stationMagnitudeContribution>
          <stationMagnitudeID>quakeml:uw.anss.org/AssocAmM/UW/14580778</stationMagnitudeID>
          <weight>1.0</weight>
          <residual>-0.19</residual>
        </stationMagnitudeContribution>
        <stationMagnitudeContribution>
          <stationMagnitudeID>quakeml:uw.anss.org/AssocAmM/UW/14580773</stationMagnitudeID>
          <weight>1.0</weight>
          <residual>-0.11</residual>
        </stationMagnitudeContribution>
        <stationMagnitudeContribution>
          <stationMagnitudeID>quakeml:uw.anss.org/AssocAmM/UW/14580798</stationMagnitudeID>
          <weight>1.0</weight>
          <residual>0.18</residual>
        </stationMagnitudeContribution>
        <stationMagnitudeContribution>
          <stationMagnitudeID>quakeml:uw.anss.org/AssocAmM/UW/14580808</stationMagnitudeID>
          <weight>1.0</weight>
          <residual>-0.23</residual>
        </stationMagnitudeContribution>
        <stationMagnitudeContribution>
          <stationMagnitudeID>quakeml:uw.anss.org/AssocAmM/UW/14580793</stationMagnitudeID>
          <weight>1.0</weight>
          <residual>0.1</residual>
        </stationMagnitudeContribution>
        <creationInfo>
          <agencyID>UW</agencyID>
          <creationTime>2022-12-24T02:22:56.000000Z</creationTime>
        </creationInfo>
      </magnitude>
      <stationMagnitude publicID="quakeml:uw.anss.org/AssocAmM/UW/14580768">
        <originID>quakeml:uw.anss.org/Origin/UW/3215268</originID>
        <mag>
          <value>1.25</value>
        </mag>
        <type>ML</type>
        <amplitudeID>quakeml:uw.anss.org/Amp/UW/14580768</amplitudeID>
        <waveformID networkCode="UW" stationCode="SHUK" locationCode="" channelCode="ENN"></waveformID>
      </stationMagnitude>
      <stationMagnitude publicID="quakeml:uw.anss.org/AssocAmM/UW/14580773">
        <originID>quakeml:uw.anss.org/Origin/UW/3215268</originID>
        <mag>
          <value>1.42</value>
        </mag>
        <type>ML</type>
        <amplitudeID>quakeml:uw.anss.org/Amp/UW/14580773</amplitudeID>
        <waveformID networkCode="UW" stationCode="SHUK" locationCode="" channelCode="ENE"></waveformID>
      </stationMagnitude>
      <stationMagnitude publicID="quakeml:uw.anss.org/AssocAmM/UW/14580778">
        <originID>quakeml:uw.anss.org/Origin/UW/3215268</originID>
        <mag>
          <value>1.34</value>
        </mag>
        <type>ML</type>
        <amplitudeID>quakeml:uw.anss.org/Amp/UW/14580778</amplitudeID>
        <waveformID networkCode="UW" stationCode="SHUK" locationCode="" channelCode="HHN"></waveformID>
      </stationMagnitude>
      <stationMagnitude publicID="quakeml:uw.anss.org/AssocAmM/UW/14580783">
        <originID>quakeml:uw.anss.org/Origin/UW/3215268</originID>
        <mag>
          <value>1.53</value>
        </mag>
        <type>ML</type>
        <amplitudeID>quakeml:uw.anss.org/Amp/UW/14580783</amplitudeID>
        <waveformID networkCode="UW" stationCode="SHUK" locationCode="" channelCode="HHE"></waveformID>
      </stationMagnitude>
      <stationMagnitude publicID="quakeml:uw.anss.org/AssocAmM/UW/14580788">
        <originID>quakeml:uw.anss.org/Origin/UW/3215268</originID>
        <mag>
          <value>1.64</value>
        </mag>
        <type>ML</type>
        <amplitudeID>quakeml:uw.anss.org/Amp/UW/14580788</amplitudeID>
        <waveformID networkCode="UW" stationCode="SAXON" locationCode="" channelCode="ENN"></waveformID>
      </stationMagnitude>
      <stationMagnitude publicID="quakeml:uw.anss.org/AssocAmM/UW/14580793">
        <originID>quakeml:uw.anss.org/Origin/UW/3215268</originID>
        <mag>
          <value>1.63</value>
        </mag>
        <type>ML</type>
        <amplitudeID>quakeml:uw.anss.org/Amp/UW/14580793</amplitudeID>
        <waveformID networkCode="UW" stationCode="SAXON" locationCode="" channelCode="ENE"></waveformID>
      </stationMagnitude>
      <stationMagnitude publicID="quakeml:uw.anss.org/AssocAmM/UW/14580798">
        <originID>quakeml:uw.anss.org/Origin/UW/3215268</originID>
        <mag>
          <value>1.71</value>
        </mag>
        <type>ML</type>
        <amplitudeID>quakeml:uw.anss.org/Amp/UW/14580798</amplitudeID>
        <waveformID networkCode="UW" stationCode="SAXON" locationCode="" channelCode="HHN"></waveformID>
      </stationMagnitude>
      <stationMagnitude publicID="quakeml:uw.anss.org/AssocAmM/UW/14580803">
        <originID>quakeml:uw.anss.org/Origin/UW/3215268</originID>
        <mag>
          <value>1.68</value>
        </mag>
        <type>ML</type>
        <amplitudeID>quakeml:uw.anss.org/Amp/UW/14580803</amplitudeID>
        <waveformID networkCode="UW" stationCode="SAXON" locationCode="" channelCode="HHE"></waveformID>
      </stationMagnitude>
      <stationMagnitude publicID="quakeml:uw.anss.org/AssocAmM/UW/14580808">
        <originID>quakeml:uw.anss.org/Origin/UW/3215268</originID>
        <mag>
          <value>1.3</value>
        </mag>
        <type>ML</type>
        <amplitudeID>quakeml:uw.anss.org/Amp/UW/14580808</amplitudeID>
        <waveformID networkCode="UW" stationCode="RPW2" locationCode="" channelCode="HHN"></waveformID>
      </stationMagnitude>
      <stationMagnitude publicID="quakeml:uw.anss.org/AssocAmM/UW/14580813">
        <originID>quakeml:uw.anss.org/Origin/UW/3215268</originID>
        <mag>
          <value>1.37</value>
        </mag>
        <type>ML</type>
        <amplitudeID>quakeml:uw.anss.org/Amp/UW/14580813</amplitudeID>
        <waveformID networkCode="UW" stationCode="RPW2" locationCode="" channelCode="HHE"></waveformID>
      </stationMagnitude>
      <stationMagnitude publicID="quakeml:uw.anss.org/AssocAmM/UW/14580818">
        <originID>quakeml:uw.anss.org/Origin/UW/3215268</originID>
        <mag>
          <value>1.89</value>
        </mag>
        <type>ML</type>
        <amplitudeID>quakeml:uw.anss.org/Amp/UW/14580818</amplitudeID>
        <waveformID networkCode="UW" stationCode="JCW" locationCode="" channelCode="EHZ"></waveformID>
      </stationMagnitude>
      <pick publicID="quakeml:uw.anss.org/Arrival/UW/16261733">
        <time>
          <value>2022-08-01T19:49:23.280000Z</value>
          <uncertainty>0.15</uncertainty>
        </time>
        <waveformID networkCode="UW" stationCode="MBW" locationCode="01" channelCode="EHZ"></waveformID>
        <onset>emergent</onset>
        <polarity>undecidable</polarity>
        <evaluationMode>manual</evaluationMode>
        <evaluationStatus>reviewed</evaluationStatus>
        <creationInfo>
          <agencyID>UW</agencyID>
          <creationTime>2022-12-24T02:22:56.000000Z</creationTime>
        </creationInfo>
      </pick>
      <pick publicID="quakeml:uw.anss.org/Arrival/UW/16261738">
        <time>
          <value>2022-08-01T19:49:25.510000Z</value>
          <uncertainty>0.15</uncertainty>
        </time>
        <waveformID networkCode="UW" stationCode="SHUK" locationCode="" channelCode="HHZ"></waveformID>
        <onset>emergent</onset>
        <polarity>undecidable</polarity>
        <evaluationMode>manual</evaluationMode>
        <evaluationStatus>reviewed</evaluationStatus>
        <creationInfo>
          <agencyID>UW</agencyID>
          <creationTime>2022-12-24T02:22:56.000000Z</creationTime>
        </creationInfo>
      </pick>
      <pick publicID="quakeml:uw.anss.org/Arrival/UW/16261743">
        <time>
          <value>2022-08-01T19:49:26.220000Z</value>
          <uncertainty>0.06</uncertainty>
        </time>
        <waveformID networkCode="UW" stationCode="SHUK" locationCode="" channelCode="HHN"></waveformID>
        <onset>impulsive</onset>
        <polarity>undecidable</polarity>
        <evaluationMode>manual</evaluationMode>
        <evaluationStatus>reviewed</evaluationStatus>
        <creationInfo>
          <agencyID>UW</agencyID>
          <creationTime>2022-12-24T02:22:56.000000Z</creationTime>
        </creationInfo>
      </pick>
      <pick publicID="quakeml:uw.anss.org/Arrival/UW/16261748">
        <time>
          <value>2022-08-01T19:49:27.350000Z</value>
          <uncertainty>0.15</uncertainty>
        </time>
        <waveformID networkCode="UW" stationCode="SAXON" locationCode="" channelCode="HHZ"></waveformID>
        <onset>emergent</onset>
        <polarity>undecidable</polarity>
        <evaluationMode>manual</evaluationMode>
        <evaluationStatus>reviewed</evaluationStatus>
        <creationInfo>
          <agencyID>UW</agencyID>
          <creationTime>2022-12-24T02:22:56.000000Z</creationTime>
        </creationInfo>
      </pick>
      <pick publicID="quakeml:uw.anss.org/Arrival/UW/16261753">
        <time>
          <value>2022-08-01T19:49:31.100000Z</value>
          <uncertainty>0.15</uncertainty>
        </time>
        <waveformID networkCode="UW" stationCode="SAXON" locationCode="" channelCode="HHN"></waveformID>
        <onset>emergent</onset>
        <polarity>undecidable</polarity>
        <evaluationMode>manual</evaluationMode>
        <evaluationStatus>reviewed</evaluationStatus>
        <creationInfo>
          <agencyID>UW</agencyID>
          <creationTime>2022-12-24T02:22:56.000000Z</creationTime>
        </creationInfo>
      </pick>
      <pick publicID="quakeml:uw.anss.org/Arrival/UW/16261758">
        <time>
          <value>2022-08-01T19:49:29.890000Z</value>
          <uncertainty>0.15</uncertainty>
        </time>
        <waveformID networkCode="UW" stationCode="RPW2" locationCode="" channelCode="HHZ"></waveformID>
        <onset>emergent</onset>
        <polarity>undecidable</polarity>
        <evaluationMode>manual</evaluationMode>
        <evaluationStatus>reviewed</evaluationStatus>
        <creationInfo>
          <agencyID>UW</agencyID>
          <creationTime>2022-12-24T02:22:56.000000Z</creationTime>
        </creationInfo>
      </pick>
      <pick publicID="quakeml:uw.anss.org/Arrival/UW/16261763">
