<?xml version='1.0' encoding='utf-8'?>
<q:quakeml xmlns="http://quakeml.org/xmlns/bed/1.2" xmlns:q="http://quakeml.org/xmlns/quakeml/1.2" xmlns:ns0="http://anss.org/xmlns/catalog/0.1">
  <eventParameters publicID="smi:local/8926e4b4-1fda-40b1-b3a8-6d2223b7d77c">
    <event publicID="quakeml:uw.anss.org/Event/UW/61834661" ns0:datasource="uw" ns0:dataid="uw61834661" ns0:eventsource="uw" ns0:eventid="61834661">
      <preferredOriginID>quakeml:uw.anss.org/Origin/UW/3191678</preferredOriginID>
      <preferredMagnitudeID>quakeml:uw.anss.org/Netmag/UW/3152373</preferredMagnitudeID>
      <type>explosion</type>
      <typeCertainty>suspected</typeCertainty>
      <creationInfo>
        <agencyID>UW</agencyID>
        <creationTime>2022-05-03T21:24:09.000000Z</creationTime>
        <version>3</version>
      </creationInfo>
      <origin publicID="quakeml:uw.anss.org/Origin/UW/3191678" ns0:datasource="uw" ns0:dataid="uw61834661" ns0:eventsource="uw" ns0:eventid="61834661">
        <time>
          <value>2022-04-27T18:44:43.860000Z</value>
        </time>
        <latitude>
          <value>48.641333333333336</value>
        </latitude>
        <longitude>
          <value>-121.729</value>
        </longitude>
        <depth>
          <value>-1030.0</value>
          <uncertainty>31610.0</uncertainty>
        </depth>
        <depthType>operator assigned</depthType>
        <timeFixed>false</timeFixed>
        <epicenterFixed>false</epicenterFixed>
        <methodID>smi:uw.anss.org/origin/HYP2000</methodID>
        <quality>
          <associatedPhaseCount>6</associatedPhaseCount>
          <usedPhaseCount>6</usedPhaseCount>
          <associatedStationCount>4</associatedStationCount>
          <usedStationCount>4</usedStationCount>
          <standardError>0.21</standardError>
          <azimuthalGap>177.0</azimuthalGap>
          <secondaryAzimuthalGap>672.0</secondaryAzimuthalGap>
          <minimumDistance>0.02938</minimumDistance>
          <maximumDistance>0.2382</maximumDistance>
          <medianDistance>0.1985</medianDistance>
        </quality>
        <type>hypocenter</type>
        <evaluationMode>manual</evaluationMode>
        <evaluationStatus>final</evaluationStatus>
        <creationInfo>
          <agencyID>UW</agencyID>
          <creationTime>2022-05-03T21:24:03.000000Z</creationTime>
        </creationInfo>
        <originUncertainty>
          <preferredDescription>confidence ellipsoid</preferredDescription>
          <horizontalUncertainty>980.0</horizontalUncertainty>
          <confidenceLevel>95.0</confidenceLevel>
          <confidenceEllipsoid>
            <semiMajorAxisLength>75864.0</semiMajorAxisLength>
            <semiMinorAxisLength>1416.0</semiMinorAxisLength>
            <semiIntermediateAxisLength>2352.0</semiIntermediateAxisLength>
            <majorAxisPlunge>90.0</majorAxisPlunge>
            <majorAxisAzimuth>0.0</majorAxisAzimuth>
            <majorAxisRotation>46.0</majorAxisRotation>
          </confidenceEllipsoid>
        </originUncertainty>
        <arrival publicID="quakeml:uw.anss.org/AssocArO/UW/15954033">
          <pickID>quakeml:uw.anss.org/Arrival/UW/15954033</pickID>
          <phase>P</phase>
          <timeCorrection>0.0</timeCorrection>
          <azimuth>67.35789124333792</azimuth>
          <distance>0.02938</distance>
          <takeoffAngle>
            <value>90.0</value>
          </takeoffAngle>
          <timeResidual>0.28</timeResidual>
          <timeWeight>0.11</timeWeight>
          <creationInfo>
            <agencyID>UW</agencyID>
            <creationTime>2022-05-03T21:24:09.000000Z</creationTime>
          </creationInfo>
        </arrival>
        <arrival publicID="quakeml:uw.anss.org/AssocArO/UW/15954038">
          <pickID>quakeml:uw.anss.org/Arrival/UW/15954038</pickID>
          <phase>P</phase>
          <timeCorrection>0.38</timeCorrection>
          <azimuth>321.50318119572046</azimuth>
          <distance>0.1825</distance>
          <takeoffAngle>
            <value>90.0</value>
          </takeoffAngle>
          <timeResidual>-0.3</timeResidual>
          <timeWeight>0.08</timeWeight>
          <creationInfo>
            <agencyID>UW</agencyID>
            <creationTime>2022-05-03T21:24:09.000000Z</creationTime>
          </creationInfo>
        </arrival>
        <arrival publicID="quakeml:uw.anss.org/AssocArO/UW/15954043">
          <pickID>quakeml:uw.anss.org/Arrival/UW/15954043</pickID>
          <phase>S</phase>
          <timeCorrection>0.68</timeCorrection>
          <azimuth>321.50318119572046</azimuth>
          <distance>0.1825</distance>
          <takeoffAngle>
            <value>90.0</value>
          </takeoffAngle>
          <timeResidual>0.18</timeResidual>
          <timeWeight>0.11</timeWeight>
          <creationInfo>
            <agencyID>UW</agencyID>
            <creationTime>2022-05-03T21:24:09.000000Z</creationTime>
          </creationInfo>
        </arrival>
        <arrival publicID="quakeml:uw.anss.org/AssocArO/UW/15954048">
          <pickID>quakeml:uw.anss.org/Arrival/UW/15954048</pickID>
          <phase>P</phase>
          <timeCorrection>0.0</timeCorrection>
          <azimuth>9.197421464882098</azimuth>
          <distance>0.2145</distance>
          <takeoffAngle>
            <value>90.0</value>
          </takeoffAngle>
          <timeResidual>-0.04</timeResidual>
          <timeWeight>0.11</timeWeight>
          <creationInfo>
            <agencyID>UW</agencyID>
            <creationTime>2022-05-03T21:24:09.000000Z</creationTime>
          </creationInfo>
        </arrival>
        <arrival publicID="quakeml:uw.anss.org/AssocArO/UW/15954053">
          <pickID>quakeml:uw.anss.org/Arrival/UW/15954053</pickID>
          <phase>S</phase>
          <timeCorrection>0.0</timeCorrection>
          <azimuth>9.197421464882098</azimuth>
          <distance>0.2145</distance>
          <takeoffAngle>
            <value>90.0</value>
          </takeoffAngle>
          <timeResidual>-0.2</timeResidual>
          <timeWeight>0.11</timeWeight>
          <creationInfo>
            <agencyID>UW</agencyID>
            <creationTime>2022-05-03T21:24:09.000000Z</creationTime>
          </creationInfo>
        </arrival>
        <arrival publicID="quakeml:uw.anss.org/AssocArO/UW/15954058">
          <pickID>quakeml:uw.anss.org/Arrival/UW/15954058</pickID>
          <phase>P</phase>
          <timeCorrection>0.0</timeCorrection>
          <azimuth>145.60581396769027</azimuth>
          <distance>0.2382</distance>
          <takeoffAngle>
            <value>90.0</value>
          </takeoffAngle>
          <timeResidual>-0.26</timeResidual>
          <timeWeight>0.08</timeWeight>
          <creationInfo>
            <agencyID>UW</agencyID>
            <creationTime>2022-05-03T21:24:09.000000Z</creationTime>
          </creationInfo>
        </arrival>
      </origin>
      <magnitude publicID="quakeml:uw.anss.org/Netmag/UW/3152373">
        <mag>
          <value>0.36</value>
          <uncertainty>0.024243370211592508</uncertainty>
        </mag>
        <type>Md</type>
        <originID>quakeml:uw.anss.org/Origin/UW/3191678</originID>
        <methodID>smi:uw.anss.org/magnitude/HypoinvMd</methodID>
        <stationCount>3</stationCount>
        <azimuthalGap>175.8973672280302</azimuthalGap>
        <evaluationMode>manual</evaluationMode>
        <evaluationStatus>reviewed</evaluationStatus>
        <stationMagnitudeContribution>
          <stationMagnitudeID>quakeml:uw.anss.org/AssocCoM/UW/6037958</stationMagnitudeID>
          <weight>1.0</weight>
          <residual>0.02</residual>
        </stationMagnitudeContribution>
        <stationMagnitudeContribution>
          <stationMagnitudeID>quakeml:uw.anss.org/AssocCoM/UW/6037968</stationMagnitudeID>
          <weight>1.0</weight>
          <residual>-0.0</residual>
        </stationMagnitudeContribution>
        <stationMagnitudeContribution>
          <stationMagnitudeID>quakeml:uw.anss.org/AssocCoM/UW/6037963</stationMagnitudeID>
          <weight>1.0</weight>
          <residual>-0.06</residual>
        </stationMagnitudeContribution>
        <creationInfo>
          <agencyID>UW</agencyID>
          <creationTime>2022-05-03T21:24:09.000000Z</creationTime>
        </creationInfo>
      </magnitude>
      <stationMagnitude publicID="quakeml:uw.anss.org/AssocCoM/UW/6037958">
        <originID>quakeml:uw.anss.org/Origin/UW/3191678</originID>
        <mag>
          <value>0.38</value>
        </mag>
        <type>MD</type>
        <amplitudeID>quakeml:uw.anss.org/Coda/UW/6037958</amplitudeID>
        <waveformID networkCode="UW" stationCode="MBW" locationCode="01" channelCode="EHZ"></waveformID>
      </stationMagnitude>
      <stationMagnitude publicID="quakeml:uw.anss.org/AssocCoM/UW/6037963">
        <originID>quakeml:uw.anss.org/Origin/UW/3191678</originID>
        <mag>
          <value>0.3</value>
        </mag>
        <type>MD</type>
        <amplitudeID>quakeml:uw.anss.org/Coda/UW/6037963</amplitudeID>
        <waveformID networkCode="UW" stationCode="SHUK" locationCode="" channelCode="HHZ"></waveformID>
      </stationMagnitude>
      <stationMagnitude publicID="quakeml:uw.anss.org/AssocCoM/UW/6037968">
        <originID>quakeml:uw.anss.org/Origin/UW/3191678</originID>
        <mag>
          <value>0.36</value>
        </mag>
        <type>MD</type>
        <amplitudeID>quakeml:uw.anss.org/Coda/UW/6037968</amplitudeID>
        <waveformID networkCode="UW" stationCode="RPW2" locationCode="" channelCode="HHZ"></waveformID>
      </stationMagnitude>
      <pick publicID="quakeml:uw.anss.org/Arrival/UW/15954033">
        <time>
          <value>2022-04-27T18:44:44.740000Z</value>
          <uncertainty>0.06</uncertainty>
        </time>
        <waveformID networkCode="UW" stationCode="PUBD" locationCode="" channelCode="ENZ"></waveformID>
        <onset>impulsive</onset>
        <polarity>negative</polarity>
        <evaluationMode>manual</evaluationMode>
        <evaluationStatus>reviewed</evaluationStatus>
        <creationInfo>
          <agencyID>UW</agencyID>
          <creationTime>2022-05-03T21:24:09.000000Z</creationTime>
        </creationInfo>
      </pick>
      <pick publicID="quakeml:uw.anss.org/Arrival/UW/15954038">
        <time>
          <value>2022-04-27T18:44:47.700000Z</value>
          <uncertainty>0.15</uncertainty>
        </time>
        <waveformID networkCode="UW" stationCode="MBW" locationCode="01" channelCode="EHZ"></waveformID>
        <onset>emergent</onset>
        <polarity>undecidable</polarity>
        <evaluationMode>manual</evaluationMode>
        <evaluationStatus>reviewed</evaluationStatus>
        <creationInfo>
          <agencyID>UW</agencyID>
          <creationTime>2022-05-03T21:24:09.000000Z</creationTime>
        </creationInfo>
      </pick>
      <pick publicID="quakeml:uw.anss.org/Arrival/UW/15954043">
        <time>
          <value>2022-04-27T18:44:51.410000Z</value>
          <uncertainty>0.06</uncertainty>
        </time>
        <waveformID networkCode="UW" stationCode="MBW" locationCode="01" channelCode="EHZ"></waveformID>
        <onset>impulsive</onset>
        <polarity>undecidable</polarity>
        <evaluationMode>manual</evaluationMode>
        <evaluationStatus>reviewed</evaluationStatus>
        <creationInfo>
          <agencyID>UW</agencyID>
          <creationTime>2022-05-03T21:24:09.000000Z</creationTime>
        </creationInfo>
      </pick>
      <pick publicID="quakeml:uw.anss.org/Arrival/UW/15954048">
        <time>
          <value>2022-04-27T18:44:48.230000Z</value>
          <uncertainty>0.06</uncertainty>
        </time>
        <waveformID networkCode="UW" stationCode="SHUK" locationCode="" channelCode="HHZ"></waveformID>
        <onset>impulsive</onset>
        <polarity>undecidable</polarity>
        <evaluationMode>manual</evaluationMode>
        <evaluationStatus>reviewed</evaluationStatus>
        <creationInfo>
          <agencyID>UW</agencyID>
          <creationTime>2022-05-03T21:24:09.000000Z</creationTime>
        </creationInfo>
      </pick>
      <pick publicID="quakeml:uw.anss.org/Arrival/UW/15954053">
        <time>
          <value>2022-04-27T18:44:51.510000Z</value>
          <uncertainty>0.06</uncertainty>
        </time>
        <waveformID networkCode="UW" stationCode="SHUK" locationCode="" channelCode="HHE"></waveformID>
        <onset>impulsive</onset>
        <polarity>undecidable</polarity>
        <evaluationMode>manual</evaluationMode>
        <evaluationStatus>reviewed</evaluationStatus>
        <creationInfo>
          <agencyID>UW</agencyID>
          <creationTime>2022-05-03T21:24:09.000000Z</creationTime>
        </creationInfo>
      </pick>
      <pick publicID="quakeml:uw.anss.org/Arrival/UW/15954058">
        <time>
          <value>2022-04-27T18:44:48.500000Z</value>
          <uncertainty>0.15</uncertainty>
        </time>
        <waveformID networkCode="UW" stationCode="RPW2" locationCode="" channelCode="HHZ"></waveformID>
        <onset>emergent</onset>
        <polarity>undecidable</polarity>
        <evaluationMode>manual</evaluationMode>
        <evaluationStatus>reviewed</evaluationStatus>
        <creationInfo>
          <agencyID>UW</agencyID>
          <creationTime>2022-05-03T21:24:09.000000Z</creationTime>
        </creationInfo>
      </pick>
      <amplitude publicID="quakeml:uw.anss.org/Coda/UW/6037958">
        <genericAmplitude>
          <value>5.0798</value>
        </genericAmplitude>
        <type>END</type>
        <category>duration</category>
        <unit>s</unit>
        <timeWindow>
          <reference>2022-04-27T18:44:47.700000Z</reference>
          <begin>0.0</begin>
          <end>2.0</end>
        </timeWindow>
        <waveformID networkCode="UW" stationCode="MBW" locationCode="01" channelCode="EHZ"></waveformID>
        <magnitudeHint>MD</magnitudeHint>
        <evaluationMode>automatic</evaluationMode>
        <evaluationStatus>preliminary</evaluationStatus>
      </amplitude>
      <amplitude publicID="quakeml:uw.anss.org/Coda/UW/6037968">
        <genericAmplitude>
          <value>4.9803</value>
        </genericAmplitude>
        <type>END</type>
        <category>duration</category>
        <unit>s</unit>
        <timeWindow>
          <reference>2022-04-27T18:44:48.500000Z</reference>
          <begin>0.0</begin>
          <end>2.0</end>
        </timeWindow>
        <waveformID networkCode="UW" stationCode="RPW2" locationCode="" channelCode="HHZ"></waveformID>
        <magnitudeHint>MD</magnitudeHint>
        <evaluationMode>automatic</evaluationMode>
        <evaluationStatus>preliminary</evaluationStatus>
      </amplitude>
      <amplitude publicID="quakeml:uw.anss.org/Coda/UW/6037963">
        <genericAmplitude>
          <value>4.7491</value>
        </genericAmplitude>
        <type>END</type>
        <category>duration</category>
        <unit>s</unit>
        <timeWindow>
          <reference>2022-04-27T18:44:48.230000Z</reference>
          <begin>0.0</begin>
          <end>2.0</end>
        </timeWindow>
        <waveformID networkCode="UW" stationCode="SHUK" locationCode="" channelCode="HHZ"></waveformID>
        <magnitudeHint>MD</magnitudeHint>
        <evaluationMode>automatic</evaluationMode>
        <evaluationStatus>preliminary</evaluationStatus>
      </amplitude>
    </event>
  </eventParameters>
</q:quakeml>
