<?xml version='1.0' encoding='utf-8'?>
<q:quakeml xmlns="http://quakeml.org/xmlns/bed/1.2" xmlns:q="http://quakeml.org/xmlns/quakeml/1.2" xmlns:ns0="http://anss.org/xmlns/catalog/0.1">
  <eventParameters publicID="smi:local/ccd45f93-80d9-4f7f-a781-5668114c6b15">
    <event publicID="quakeml:uw.anss.org/Event/UW/61859502" ns0:datasource="uw" ns0:dataid="uw61859502" ns0:eventsource="uw" ns0:eventid="61859502">
      <preferredOriginID>quakeml:uw.anss.org/Origin/UW/3200508</preferredOriginID>
      <preferredMagnitudeID>quakeml:uw.anss.org/Netmag/UW/3166033</preferredMagnitudeID>
      <type>earthquake</type>
      <creationInfo>
        <agencyID>UW</agencyID>
        <creationTime>2022-08-02T19:37:02.000000Z</creationTime>
        <version>2</version>
      </creationInfo>
      <origin publicID="quakeml:uw.anss.org/Origin/UW/3200508" ns0:datasource="uw" ns0:dataid="uw61859502" ns0:eventsource="uw" ns0:eventid="61859502">
        <time>
          <value>2022-08-02T15:15:29.730000Z</value>
        </time>
        <latitude>
          <value>48.81633333333333</value>
        </latitude>
        <longitude>
          <value>-121.8615</value>
        </longitude>
        <depth>
          <value>-630.0</value>
          <uncertainty>3850.0</uncertainty>
        </depth>
        <depthType>from location</depthType>
        <timeFixed>false</timeFixed>
        <epicenterFixed>false</epicenterFixed>
        <methodID>smi:uw.anss.org/origin/HYP2000</methodID>
        <quality>
          <associatedPhaseCount>8</associatedPhaseCount>
          <usedPhaseCount>8</usedPhaseCount>
          <associatedStationCount>6</associatedStationCount>
          <usedStationCount>6</usedStationCount>
          <standardError>0.43</standardError>
          <azimuthalGap>111.0</azimuthalGap>
          <secondaryAzimuthalGap>492.0</secondaryAzimuthalGap>
          <minimumDistance>0.0417</minimumDistance>
          <maximumDistance>0.4331</maximumDistance>
          <medianDistance>0.2366</medianDistance>
        </quality>
        <type>hypocenter</type>
        <evaluationMode>manual</evaluationMode>
        <evaluationStatus>final</evaluationStatus>
        <creationInfo>
          <agencyID>UW</agencyID>
          <creationTime>2022-08-02T19:36:58.000000Z</creationTime>
        </creationInfo>
        <originUncertainty>
          <preferredDescription>confidence ellipsoid</preferredDescription>
          <horizontalUncertainty>1310.0</horizontalUncertainty>
          <confidenceLevel>95.0</confidenceLevel>
          <confidenceEllipsoid>
            <semiMajorAxisLength>9600.0</semiMajorAxisLength>
            <semiMinorAxisLength>2616.0</semiMinorAxisLength>
            <semiIntermediateAxisLength>3264.0</semiIntermediateAxisLength>
            <majorAxisPlunge>74.0</majorAxisPlunge>
            <majorAxisAzimuth>318.0</majorAxisAzimuth>
            <majorAxisRotation>349.0</majorAxisRotation>
          </confidenceEllipsoid>
        </originUncertainty>
        <arrival publicID="quakeml:uw.anss.org/AssocArO/UW/16066328">
          <pickID>quakeml:uw.anss.org/Arrival/UW/16066328</pickID>
          <phase>P</phase>
          <timeCorrection>0.38</timeCorrection>
          <azimuth>219.21631671307767</azimuth>
          <distance>0.0417</distance>
          <takeoffAngle>
            <value>91.0</value>
          </takeoffAngle>
          <timeResidual>-0.41</timeResidual>
          <timeWeight>0.14</timeWeight>
          <creationInfo>
            <agencyID>UW</agencyID>
            <creationTime>2022-08-02T19:37:02.000000Z</creationTime>
          </creationInfo>
        </arrival>
        <arrival publicID="quakeml:uw.anss.org/AssocArO/UW/16066333">
          <pickID>quakeml:uw.anss.org/Arrival/UW/16066333</pickID>
          <phase>P</phase>
          <timeCorrection>0.0</timeCorrection>
          <azimuth>73.20384005621008</azimuth>
          <distance>0.1272</distance>
          <takeoffAngle>
            <value>90.0</value>
          </takeoffAngle>
          <timeResidual>0.61</timeResidual>
          <timeWeight>0.09</timeWeight>
          <creationInfo>
            <agencyID>UW</agencyID>
            <creationTime>2022-08-02T19:37:02.000000Z</creationTime>
          </creationInfo>
        </arrival>
        <arrival publicID="quakeml:uw.anss.org/AssocArO/UW/16066338">
          <pickID>quakeml:uw.anss.org/Arrival/UW/16066338</pickID>
          <phase>P</phase>
          <timeCorrection>0.35</timeCorrection>
          <azimuth>321.14544810994767</azimuth>
          <distance>0.2344</distance>
          <takeoffAngle>
            <value>90.0</value>
          </takeoffAngle>
          <timeResidual>-0.17</timeResidual>
          <timeWeight>0.14</timeWeight>
          <creationInfo>
            <agencyID>UW</agencyID>
            <creationTime>2022-08-02T19:37:02.000000Z</creationTime>
          </creationInfo>
        </arrival>
        <arrival publicID="quakeml:uw.anss.org/AssocArO/UW/16066343">
          <pickID>quakeml:uw.anss.org/Arrival/UW/16066343</pickID>
          <phase>P</phase>
          <timeCorrection>0.0</timeCorrection>
          <azimuth>236.1291270643049</azimuth>
          <distance>0.2387</distance>
          <takeoffAngle>
            <value>90.0</value>
          </takeoffAngle>
          <timeResidual>0.14</timeResidual>
          <timeWeight>0.09</timeWeight>
          <creationInfo>
            <agencyID>UW</agencyID>
            <creationTime>2022-08-02T19:37:02.000000Z</creationTime>
          </creationInfo>
        </arrival>
        <arrival publicID="quakeml:uw.anss.org/AssocArO/UW/16066348">
          <pickID>quakeml:uw.anss.org/Arrival/UW/16066348</pickID>
          <phase>S</phase>
          <timeCorrection>0.0</timeCorrection>
          <azimuth>236.1291270643049</azimuth>
          <distance>0.2387</distance>
          <takeoffAngle>
            <value>90.0</value>
          </takeoffAngle>
          <timeResidual>0.51</timeResidual>
          <timeWeight>0.09</timeWeight>
          <creationInfo>
            <agencyID>UW</agencyID>
            <creationTime>2022-08-02T19:37:02.000000Z</creationTime>
          </creationInfo>
        </arrival>
        <arrival publicID="quakeml:uw.anss.org/AssocArO/UW/16066353">
          <pickID>quakeml:uw.anss.org/Arrival/UW/16066353</pickID>
          <phase>P</phase>
          <timeCorrection>0.0</timeCorrection>
          <azimuth>205.57720663673172</azimuth>
          <distance>0.3116</distance>
          <takeoffAngle>
            <value>57.0</value>
          </takeoffAngle>
          <timeResidual>0.62</timeResidual>
          <timeWeight>0.09</timeWeight>
          <creationInfo>
            <agencyID>UW</agencyID>
            <creationTime>2022-08-02T19:37:02.000000Z</creationTime>
          </creationInfo>
        </arrival>
        <arrival publicID="quakeml:uw.anss.org/AssocArO/UW/16066358">
          <pickID>quakeml:uw.anss.org/Arrival/UW/16066358</pickID>
          <phase>S</phase>
          <timeCorrection>0.0</timeCorrection>
          <azimuth>205.57720663673172</azimuth>
          <distance>0.3116</distance>
          <takeoffAngle>
            <value>57.0</value>
          </takeoffAngle>
          <timeResidual>-0.15</timeResidual>
          <timeWeight>0.05</timeWeight>
          <creationInfo>
            <agencyID>UW</agencyID>
            <creationTime>2022-08-02T19:37:02.000000Z</creationTime>
          </creationInfo>
        </arrival>
        <arrival publicID="quakeml:uw.anss.org/AssocArO/UW/16066363">
          <pickID>quakeml:uw.anss.org/Arrival/UW/16066363</pickID>
          <phase>P</phase>
          <timeCorrection>0.0</timeCorrection>
          <azimuth>149.07339917208355</azimuth>
          <distance>0.4331</distance>
          <takeoffAngle>
            <value>57.0</value>
          </takeoffAngle>
          <timeResidual>-0.6</timeResidual>
          <timeWeight>0.09</timeWeight>
          <creationInfo>
            <agencyID>UW</agencyID>
            <creationTime>2022-08-02T19:37:02.000000Z</creationTime>
          </creationInfo>
        </arrival>
      </origin>
      <magnitude publicID="quakeml:uw.anss.org/Netmag/UW/3166033">
        <mag>
          <value>1.33</value>
          <uncertainty>0.1254032818851354</uncertainty>
        </mag>
        <type>Ml</type>
        <originID>quakeml:uw.anss.org/Origin/UW/3200508</originID>
        <methodID>smi:uw.anss.org/magnitude/RichterMl2</methodID>
        <stationCount>5</stationCount>
        <azimuthalGap>112.05839194626242</azimuthalGap>
        <evaluationMode>manual</evaluationMode>
        <evaluationStatus>reviewed</evaluationStatus>
        <stationMagnitudeContribution>
          <stationMagnitudeID>quakeml:uw.anss.org/AssocAmM/UW/14125533</stationMagnitudeID>
          <weight>1.0</weight>
          <residual>0.15</residual>
        </stationMagnitudeContribution>
        <stationMagnitudeContribution>
          <stationMagnitudeID>quakeml:uw.anss.org/AssocAmM/UW/14125493</stationMagnitudeID>
          <weight>1.0</weight>
          <residual>-0.25</residual>
        </stationMagnitudeContribution>
        <stationMagnitudeContribution>
          <stationMagnitudeID>quakeml:uw.anss.org/AssocAmM/UW/14125488</stationMagnitudeID>
          <weight>1.0</weight>
          <residual>-0.1</residual>
        </stationMagnitudeContribution>
        <stationMagnitudeContribution>
          <stationMagnitudeID>quakeml:uw.anss.org/AssocAmM/UW/14125543</stationMagnitudeID>
          <weight>1.0</weight>
          <residual>-0.04</residual>
        </stationMagnitudeContribution>
        <stationMagnitudeContribution>
          <stationMagnitudeID>quakeml:uw.anss.org/AssocAmM/UW/14125518</stationMagnitudeID>
          <weight>1.0</weight>
          <residual>0.0</residual>
        </stationMagnitudeContribution>
        <stationMagnitudeContribution>
          <stationMagnitudeID>quakeml:uw.anss.org/AssocAmM/UW/14125508</stationMagnitudeID>
          <weight>1.0</weight>
          <residual>0.09</residual>
        </stationMagnitudeContribution>
        <stationMagnitudeContribution>
          <stationMagnitudeID>quakeml:uw.anss.org/AssocAmM/UW/14125528</stationMagnitudeID>
          <weight>1.0</weight>
          <residual>0.12</residual>
        </stationMagnitudeContribution>
        <stationMagnitudeContribution>
          <stationMagnitudeID>quakeml:uw.anss.org/AssocAmM/UW/14125513</stationMagnitudeID>
          <weight>1.0</weight>
          <residual>0.17</residual>
        </stationMagnitudeContribution>
        <stationMagnitudeContribution>
          <stationMagnitudeID>quakeml:uw.anss.org/AssocAmM/UW/14125503</stationMagnitudeID>
          <weight>1.0</weight>
          <residual>0.11</residual>
        </stationMagnitudeContribution>
        <stationMagnitudeContribution>
          <stationMagnitudeID>quakeml:uw.anss.org/AssocAmM/UW/14125498</stationMagnitudeID>
          <weight>1.0</weight>
          <residual>-0.23</residual>
        </stationMagnitudeContribution>
        <stationMagnitudeContribution>
          <stationMagnitudeID>quakeml:uw.anss.org/AssocAmM/UW/14125538</stationMagnitudeID>
          <weight>1.0</weight>
          <residual>-0.24</residual>
        </stationMagnitudeContribution>
        <stationMagnitudeContribution>
          <stationMagnitudeID>quakeml:uw.anss.org/AssocAmM/UW/14125483</stationMagnitudeID>
          <weight>1.0</weight>
          <residual>-0.18</residual>
        </stationMagnitudeContribution>
        <stationMagnitudeContribution>
          <stationMagnitudeID>quakeml:uw.anss.org/AssocAmM/UW/14125523</stationMagnitudeID>
          <weight>1.0</weight>
          <residual>-0.0</residual>
        </stationMagnitudeContribution>
        <creationInfo>
          <agencyID>UW</agencyID>
          <creationTime>2022-08-02T19:37:02.000000Z</creationTime>
        </creationInfo>
      </magnitude>
      <stationMagnitude publicID="quakeml:uw.anss.org/AssocAmM/UW/14125483">
        <originID>quakeml:uw.anss.org/Origin/UW/3200508</originID>
        <mag>
          <value>1.15</value>
        </mag>
        <type>ML</type>
        <amplitudeID>quakeml:uw.anss.org/Amp/UW/14125483</amplitudeID>
        <waveformID networkCode="UW" stationCode="SHUK" locationCode="" channelCode="HHN"></waveformID>
      </stationMagnitude>
      <stationMagnitude publicID="quakeml:uw.anss.org/AssocAmM/UW/14125488">
        <originID>quakeml:uw.anss.org/Origin/UW/3200508</originID>
        <mag>
          <value>1.23</value>
        </mag>
        <type>ML</type>
        <amplitudeID>quakeml:uw.anss.org/Amp/UW/14125488</amplitudeID>
        <waveformID networkCode="UW" stationCode="SHUK" locationCode="" channelCode="HHE"></waveformID>
      </stationMagnitude>
      <stationMagnitude publicID="quakeml:uw.anss.org/AssocAmM/UW/14125493">
        <originID>quakeml:uw.anss.org/Origin/UW/3200508</originID>
        <mag>
          <value>1.08</value>
        </mag>
        <type>ML</type>
        <amplitudeID>quakeml:uw.anss.org/Amp/UW/14125493</amplitudeID>
        <waveformID networkCode="UW" stationCode="PASS" locationCode="" channelCode="HHN"></waveformID>
      </stationMagnitude>
      <stationMagnitude publicID="quakeml:uw.anss.org/AssocAmM/UW/14125498">
        <originID>quakeml:uw.anss.org/Origin/UW/3200508</originID>
        <mag>
          <value>1.1</value>
        </mag>
        <type>ML</type>
        <amplitudeID>quakeml:uw.anss.org/Amp/UW/14125498</amplitudeID>
        <waveformID networkCode="UW" stationCode="PASS" locationCode="" channelCode="HHE"></waveformID>
      </stationMagnitude>
      <stationMagnitude publicID="quakeml:uw.anss.org/AssocAmM/UW/14125503">
        <originID>quakeml:uw.anss.org/Origin/UW/3200508</originID>
        <mag>
          <value>1.44</value>
        </mag>
        <type>ML</type>
        <amplitudeID>quakeml:uw.anss.org/Amp/UW/14125503</amplitudeID>
        <waveformID networkCode="UW" stationCode="SAXON" locationCode="" channelCode="ENN"></waveformID>
      </stationMagnitude>
      <stationMagnitude publicID="quakeml:uw.anss.org/AssocAmM/UW/14125508">
        <originID>quakeml:uw.anss.org/Origin/UW/3200508</originID>
        <mag>
          <value>1.42</value>
        </mag>
        <type>ML</type>
        <amplitudeID>quakeml:uw.anss.org/Amp/UW/14125508</amplitudeID>
        <waveformID networkCode="UW" stationCode="SAXON" locationCode="" channelCode="HHN"></waveformID>
      </stationMagnitude>
      <stationMagnitude publicID="quakeml:uw.anss.org/AssocAmM/UW/14125513">
        <originID>quakeml:uw.anss.org/Origin/UW/3200508</originID>
        <mag>
          <value>1.5</value>
        </mag>
        <type>ML</type>
        <amplitudeID>quakeml:uw.anss.org/Amp/UW/14125513</amplitudeID>
        <waveformID networkCode="UW" stationCode="SAXON" locationCode="" channelCode="HHE"></waveformID>
      </stationMagnitude>
      <stationMagnitude publicID="quakeml:uw.anss.org/AssocAmM/UW/14125518">
        <originID>quakeml:uw.anss.org/Origin/UW/3200508</originID>
        <mag>
          <value>1.33</value>
        </mag>
        <type>ML</type>
        <amplitudeID>quakeml:uw.anss.org/Amp/UW/14125518</amplitudeID>
        <waveformID networkCode="UW" stationCode="MULN" locationCode="" channelCode="ENN"></waveformID>
      </stationMagnitude>
      <stationMagnitude publicID="quakeml:uw.anss.org/AssocAmM/UW/14125523">
        <originID>quakeml:uw.anss.org/Origin/UW/3200508</originID>
        <mag>
          <value>1.33</value>
        </mag>
        <type>ML</type>
        <amplitudeID>quakeml:uw.anss.org/Amp/UW/14125523</amplitudeID>
        <waveformID networkCode="UW" stationCode="MULN" locationCode="" channelCode="ENE"></waveformID>
      </stationMagnitude>
      <stationMagnitude publicID="quakeml:uw.anss.org/AssocAmM/UW/14125528">
        <originID>quakeml:uw.anss.org/Origin/UW/3200508</originID>
        <mag>
          <value>1.45</value>
        </mag>
        <type>ML</type>
        <amplitudeID>quakeml:uw.anss.org/Amp/UW/14125528</amplitudeID>
        <waveformID networkCode="UW" stationCode="MULN" locationCode="" channelCode="HHN"></waveformID>
      </stationMagnitude>
      <stationMagnitude publicID="quakeml:uw.anss.org/AssocAmM/UW/14125533">
        <originID>quakeml:uw.anss.org/Origin/UW/3200508</originID>
        <mag>
          <value>1.48</value>
        </mag>
        <type>ML</type>
        <amplitudeID>quakeml:uw.anss.org/Amp/UW/14125533</amplitudeID>
        <waveformID networkCode="UW" stationCode="MULN" locationCode="" channelCode="HHE"></waveformID>
      </stationMagnitude>
      <stationMagnitude publicID="quakeml:uw.anss.org/AssocAmM/UW/14125538">
        <originID>quakeml:uw.anss.org/Origin/UW/3200508</originID>
        <mag>
          <value>1.09</value>
        </mag>
        <type>ML</type>
        <amplitudeID>quakeml:uw.anss.org/Amp/UW/14125538</amplitudeID>
        <waveformID networkCode="UW" stationCode="RPW2" locationCode="" channelCode="HHN"></waveformID>
      </stationMagnitude>
      <stationMagnitude publicID="quakeml:uw.anss.org/AssocAmM/UW/14125543">
        <originID>quakeml:uw.anss.org/Origin/UW/3200508</originID>
        <mag>
          <value>1.29</value>
        </mag>
        <type>ML</type>
        <amplitudeID>quakeml:uw.anss.org/Amp/UW/14125543</amplitudeID>
        <waveformID networkCode="UW" stationCode="RPW2" locationCode="" channelCode="HHE"></waveformID>
      </stationMagnitude>
      <pick publicID="quakeml:uw.anss.org/Arrival/UW/16066328">
        <time>
          <value>2022-08-02T15:15:30.560000Z</value>
          <uncertainty>0.06</uncertainty>
        </time>
        <waveformID networkCode="UW" stationCode="MBW" locationCode="01" channelCode="EHZ"></waveformID>
        <onset>impulsive</onset>
        <polarity>negative</polarity>
        <evaluationMode>manual</evaluationMode>
        <evaluationStatus>reviewed</evaluationStatus>
        <creationInfo>
          <agencyID>UW</agencyID>
          <creationTime>2022-08-02T19:37:02.000000Z</creationTime>
        </creationInfo>
      </pick>
      <pick publicID="quakeml:uw.anss.org/Arrival/UW/16066333">
        <time>
          <value>2022-08-02T15:15:32.950000Z</value>
          <uncertainty>0.15</uncertainty>
        </time>
        <waveformID networkCode="UW" stationCode="SHUK" locationCode="" channelCode="HHZ"></waveformID>
        <onset>emergent</onset>
        <polarity>undecidable</polarity>
        <evaluationMode>manual</evaluationMode>
        <evaluationStatus>reviewed</evaluationStatus>
        <creationInfo>
          <agencyID>UW</agencyID>
          <creationTime>2022-08-02T19:37:02.000000Z</creationTime>
        </creationInfo>
      </pick>
      <pick publicID="quakeml:uw.anss.org/Arrival/UW/16066338">
        <time>
          <value>2022-08-02T15:15:34.730000Z</value>
          <uncertainty>0.06</uncertainty>
        </time>
        <waveformID networkCode="UW" stationCode="PASS" locationCode="" channelCode="HHZ"></waveformID>
        <onset>impulsive</onset>
        <polarity>positive</polarity>
        <evaluationMode>manual</evaluationMode>
        <evaluationStatus>reviewed</evaluationStatus>
        <creationInfo>
          <agencyID>UW</agencyID>
          <creationTime>2022-08-02T19:37:02.000000Z</creationTime>
        </creationInfo>
      </pick>
      <pick publicID="quakeml:uw.anss.org/Arrival/UW/16066343">
        <time>
          <value>2022-08-02T15:15:34.780000Z</value>
          <uncertainty>0.15</uncertainty>
        </time>
        <waveformID networkCode="UW" stationCode="SAXON" locationCode="" channelCode="HHZ"></waveformID>
        <onset>emergent</onset>
        <polarity>undecidable</polarity>
        <evaluationMode>manual</evaluationMode>
        <evaluationStatus>reviewed</evaluationStatus>
        <creationInfo>
          <agencyID>UW</agencyID>
          <creationTime>2022-08-02T19:37:02.000000Z</creationTime>
        </creationInfo>
