<?xml version='1.0' encoding='utf-8'?>
<q:quakeml xmlns="http://quakeml.org/xmlns/bed/1.2" xmlns:q="http://quakeml.org/xmlns/quakeml/1.2" xmlns:ns0="http://anss.org/xmlns/catalog/0.1">
  <eventParameters publicID="smi:local/5b3d3c1f-f61e-4cd9-a1f4-a15d8ab85461">
    <event publicID="quakeml:uw.anss.org/Event/UW/61862176" ns0:datasource="uw" ns0:dataid="uw61862176" ns0:eventsource="uw" ns0:eventid="61862176">
      <preferredOriginID>quakeml:uw.anss.org/Origin/UW/3198748</preferredOriginID>
      <preferredMagnitudeID>quakeml:uw.anss.org/Netmag/UW/3163223</preferredMagnitudeID>
      <type>earthquake</type>
      <creationInfo>
        <agencyID>UW</agencyID>
        <creationTime>2022-07-15T16:41:44.000000Z</creationTime>
        <version>2</version>
      </creationInfo>
      <origin publicID="quakeml:uw.anss.org/Origin/UW/3198748" ns0:datasource="uw" ns0:dataid="uw61862176" ns0:eventsource="uw" ns0:eventid="61862176">
        <time>
          <value>2022-07-15T11:46:04.620000Z</value>
        </time>
        <latitude>
          <value>48.782666666666664</value>
        </latitude>
        <longitude>
          <value>-121.85066666666667</value>
        </longitude>
        <depth>
          <value>-710.0</value>
          <uncertainty>2570.0</uncertainty>
        </depth>
        <depthType>from location</depthType>
        <timeFixed>false</timeFixed>
        <epicenterFixed>false</epicenterFixed>
        <methodID>smi:uw.anss.org/origin/HYP2000</methodID>
        <quality>
          <associatedPhaseCount>10</associatedPhaseCount>
          <usedPhaseCount>7</usedPhaseCount>
          <associatedStationCount>8</associatedStationCount>
          <usedStationCount>5</usedStationCount>
          <standardError>0.36</standardError>
          <azimuthalGap>152.0</azimuthalGap>
          <secondaryAzimuthalGap>517.0</secondaryAzimuthalGap>
          <minimumDistance>0.03324</minimumDistance>
          <maximumDistance>1.392</maximumDistance>
          <medianDistance>0.2754</medianDistance>
        </quality>
        <type>hypocenter</type>
        <evaluationMode>manual</evaluationMode>
        <evaluationStatus>final</evaluationStatus>
        <creationInfo>
          <agencyID>UW</agencyID>
          <creationTime>2022-07-15T16:41:40.000000Z</creationTime>
        </creationInfo>
        <originUncertainty>
          <preferredDescription>confidence ellipsoid</preferredDescription>
          <horizontalUncertainty>1300.0</horizontalUncertainty>
          <confidenceLevel>95.0</confidenceLevel>
          <confidenceEllipsoid>
            <semiMajorAxisLength>6912.0</semiMajorAxisLength>
            <semiMinorAxisLength>1848.0</semiMinorAxisLength>
            <semiIntermediateAxisLength>3456.0</semiIntermediateAxisLength>
            <majorAxisPlunge>63.0</majorAxisPlunge>
            <majorAxisAzimuth>338.0</majorAxisAzimuth>
            <majorAxisRotation>346.0</majorAxisRotation>
          </confidenceEllipsoid>
        </originUncertainty>
        <arrival publicID="quakeml:uw.anss.org/AssocArO/UW/16043468">
          <pickID>quakeml:uw.anss.org/Arrival/UW/16043468</pickID>
          <phase>P</phase>
          <timeCorrection>0.38</timeCorrection>
          <azimuth>272.42060324339127</azimuth>
          <distance>0.03324</distance>
          <takeoffAngle>
            <value>90.0</value>
          </takeoffAngle>
          <timeResidual>-0.66</timeResidual>
          <timeWeight>0.14</timeWeight>
          <creationInfo>
            <agencyID>UW</agencyID>
            <creationTime>2022-07-15T16:41:44.000000Z</creationTime>
          </creationInfo>
        </arrival>
        <arrival publicID="quakeml:uw.anss.org/AssocArO/UW/16043473">
          <pickID>quakeml:uw.anss.org/Arrival/UW/16043473</pickID>
          <phase>P</phase>
          <timeCorrection>0.0</timeCorrection>
          <azimuth>58.406175034288424</azimuth>
          <distance>0.1346</distance>
          <takeoffAngle>
            <value>90.0</value>
          </takeoffAngle>
          <timeResidual>-0.02</timeResidual>
          <timeWeight>0.14</timeWeight>
          <creationInfo>
            <agencyID>UW</agencyID>
            <creationTime>2022-07-15T16:41:44.000000Z</creationTime>
          </creationInfo>
        </arrival>
        <arrival publicID="quakeml:uw.anss.org/AssocArO/UW/16043478">
          <pickID>quakeml:uw.anss.org/Arrival/UW/16043478</pickID>
          <phase>P</phase>
          <timeCorrection>0.0</timeCorrection>
          <azimuth>244.20780348343135</azimuth>
          <distance>0.2282</distance>
          <takeoffAngle>
            <value>90.0</value>
          </takeoffAngle>
          <timeResidual>-0.53</timeResidual>
          <timeWeight>0.05</timeWeight>
          <creationInfo>
            <agencyID>UW</agencyID>
            <creationTime>2022-07-15T16:41:44.000000Z</creationTime>
          </creationInfo>
        </arrival>
        <arrival publicID="quakeml:uw.anss.org/AssocArO/UW/16043483">
          <pickID>quakeml:uw.anss.org/Arrival/UW/16043483</pickID>
          <phase>S</phase>
          <timeCorrection>0.0</timeCorrection>
          <azimuth>244.20780348343135</azimuth>
          <distance>0.2282</distance>
          <takeoffAngle>
            <value>90.0</value>
          </takeoffAngle>
          <timeResidual>0.25</timeResidual>
          <timeWeight>0.09</timeWeight>
          <creationInfo>
            <agencyID>UW</agencyID>
            <creationTime>2022-07-15T16:41:44.000000Z</creationTime>
          </creationInfo>
        </arrival>
        <arrival publicID="quakeml:uw.anss.org/AssocArO/UW/16043488">
          <pickID>quakeml:uw.anss.org/Arrival/UW/16043488</pickID>
          <phase>P</phase>
          <timeCorrection>0.35</timeCorrection>
          <azimuth>324.51884305905827</azimuth>
          <distance>0.2656</distance>
          <takeoffAngle>
            <value>57.0</value>
          </takeoffAngle>
          <timeResidual>-0.08</timeResidual>
          <timeWeight>0.09</timeWeight>
          <creationInfo>
            <agencyID>UW</agencyID>
            <creationTime>2022-07-15T16:41:44.000000Z</creationTime>
          </creationInfo>
        </arrival>
        <arrival publicID="quakeml:uw.anss.org/AssocArO/UW/16043493">
          <pickID>quakeml:uw.anss.org/Arrival/UW/16043493</pickID>
          <phase>P</phase>
          <timeCorrection>0.0</timeCorrection>
          <azimuth>209.8100178095863</azimuth>
          <distance>0.2851</distance>
          <takeoffAngle>
            <value>57.0</value>
          </takeoffAngle>
          <timeResidual>0.1</timeResidual>
          <timeWeight>0.09</timeWeight>
          <creationInfo>
            <agencyID>UW</agencyID>
            <creationTime>2022-07-15T16:41:44.000000Z</creationTime>
          </creationInfo>
        </arrival>
        <arrival publicID="quakeml:uw.anss.org/AssocArO/UW/16043498">
          <pickID>quakeml:uw.anss.org/Arrival/UW/16043498</pickID>
          <phase>S</phase>
          <timeCorrection>0.0</timeCorrection>
          <azimuth>209.8100178095863</azimuth>
          <distance>0.2851</distance>
          <takeoffAngle>
            <value>57.0</value>
          </takeoffAngle>
          <timeResidual>-0.18</timeResidual>
          <timeWeight>0.09</timeWeight>
          <creationInfo>
            <agencyID>UW</agencyID>
            <creationTime>2022-07-15T16:41:44.000000Z</creationTime>
          </creationInfo>
        </arrival>
        <arrival publicID="quakeml:uw.anss.org/AssocArO/UW/16043503">
          <pickID>quakeml:uw.anss.org/Arrival/UW/16043503</pickID>
          <phase>P</phase>
          <timeCorrection>0.0</timeCorrection>
          <azimuth>333.7666252471284</azimuth>
          <distance>0.3065</distance>
          <timeResidual>0.0</timeResidual>
          <timeWeight>0.0</timeWeight>
          <creationInfo>
            <agencyID>UW</agencyID>
            <creationTime>2022-07-15T16:41:44.000000Z</creationTime>
          </creationInfo>
        </arrival>
        <arrival publicID="quakeml:uw.anss.org/AssocArO/UW/16043508">
          <pickID>quakeml:uw.anss.org/Arrival/UW/16043508</pickID>
          <phase>P</phase>
          <timeCorrection>-0.72</timeCorrection>
          <azimuth>263.40239786308024</azimuth>
          <distance>1.066</distance>
          <takeoffAngle>
            <value>55.0</value>
          </takeoffAngle>
          <timeResidual>1.54</timeResidual>
          <timeWeight>0.0</timeWeight>
          <creationInfo>
            <agencyID>UW</agencyID>
            <creationTime>2022-07-15T16:41:44.000000Z</creationTime>
          </creationInfo>
        </arrival>
        <arrival publicID="quakeml:uw.anss.org/AssocArO/UW/16043513">
          <pickID>quakeml:uw.anss.org/Arrival/UW/16043513</pickID>
          <phase>P</phase>
          <timeCorrection>-0.13</timeCorrection>
          <azimuth>215.73878782700288</azimuth>
          <distance>1.392</distance>
          <takeoffAngle>
            <value>55.0</value>
          </takeoffAngle>
          <timeResidual>-0.1</timeResidual>
          <timeWeight>0.0</timeWeight>
          <creationInfo>
            <agencyID>UW</agencyID>
            <creationTime>2022-07-15T16:41:44.000000Z</creationTime>
          </creationInfo>
        </arrival>
      </origin>
      <magnitude publicID="quakeml:uw.anss.org/Netmag/UW/3163223">
        <mag>
          <value>1.36</value>
          <uncertainty>0.10918144745853042</uncertainty>
        </mag>
        <type>Ml</type>
        <originID>quakeml:uw.anss.org/Origin/UW/3198748</originID>
        <methodID>smi:uw.anss.org/magnitude/RichterMl2</methodID>
        <stationCount>5</stationCount>
        <azimuthalGap>151.40384277529787</azimuthalGap>
        <evaluationMode>manual</evaluationMode>
        <evaluationStatus>reviewed</evaluationStatus>
        <stationMagnitudeContribution>
          <stationMagnitudeID>quakeml:uw.anss.org/AssocAmM/UW/14091703</stationMagnitudeID>
          <weight>1.0</weight>
          <residual>-0.03</residual>
        </stationMagnitudeContribution>
        <stationMagnitudeContribution>
          <stationMagnitudeID>quakeml:uw.anss.org/AssocAmM/UW/14091718</stationMagnitudeID>
          <weight>1.0</weight>
          <residual>0.19</residual>
        </stationMagnitudeContribution>
        <stationMagnitudeContribution>
          <stationMagnitudeID>quakeml:uw.anss.org/AssocAmM/UW/14091708</stationMagnitudeID>
          <weight>1.0</weight>
          <residual>-0.13</residual>
        </stationMagnitudeContribution>
        <stationMagnitudeContribution>
          <stationMagnitudeID>quakeml:uw.anss.org/AssocAmM/UW/14091688</stationMagnitudeID>
          <weight>1.0</weight>
          <residual>0.19</residual>
        </stationMagnitudeContribution>
        <stationMagnitudeContribution>
          <stationMagnitudeID>quakeml:uw.anss.org/AssocAmM/UW/14091723</stationMagnitudeID>
          <weight>1.0</weight>
          <residual>0.22</residual>
        </stationMagnitudeContribution>
        <stationMagnitudeContribution>
          <stationMagnitudeID>quakeml:uw.anss.org/AssocAmM/UW/14091733</stationMagnitudeID>
          <weight>1.0</weight>
          <residual>-0.08</residual>
        </stationMagnitudeContribution>
        <stationMagnitudeContribution>
          <stationMagnitudeID>quakeml:uw.anss.org/AssocAmM/UW/14091728</stationMagnitudeID>
          <weight>1.0</weight>
          <residual>0.25</residual>
        </stationMagnitudeContribution>
        <stationMagnitudeContribution>
          <stationMagnitudeID>quakeml:uw.anss.org/AssocAmM/UW/14091713</stationMagnitudeID>
          <weight>1.0</weight>
          <residual>0.15</residual>
        </stationMagnitudeContribution>
        <stationMagnitudeContribution>
          <stationMagnitudeID>quakeml:uw.anss.org/AssocAmM/UW/14091698</stationMagnitudeID>
          <weight>1.0</weight>
          <residual>-0.06</residual>
        </stationMagnitudeContribution>
        <stationMagnitudeContribution>
          <stationMagnitudeID>quakeml:uw.anss.org/AssocAmM/UW/14091693</stationMagnitudeID>
          <weight>1.0</weight>
          <residual>0.21</residual>
        </stationMagnitudeContribution>
        <stationMagnitudeContribution>
          <stationMagnitudeID>quakeml:uw.anss.org/AssocAmM/UW/14091668</stationMagnitudeID>
          <weight>1.0</weight>
          <residual>-0.07</residual>
        </stationMagnitudeContribution>
        <stationMagnitudeContribution>
          <stationMagnitudeID>quakeml:uw.anss.org/AssocAmM/UW/14091678</stationMagnitudeID>
          <weight>1.0</weight>
          <residual>0.0</residual>
        </stationMagnitudeContribution>
        <stationMagnitudeContribution>
          <stationMagnitudeID>quakeml:uw.anss.org/AssocAmM/UW/14091663</stationMagnitudeID>
          <weight>1.0</weight>
          <residual>-0.09</residual>
        </stationMagnitudeContribution>
        <stationMagnitudeContribution>
          <stationMagnitudeID>quakeml:uw.anss.org/AssocAmM/UW/14091683</stationMagnitudeID>
          <weight>1.0</weight>
          <residual>0.1</residual>
        </stationMagnitudeContribution>
        <stationMagnitudeContribution>
          <stationMagnitudeID>quakeml:uw.anss.org/AssocAmM/UW/14091673</stationMagnitudeID>
          <weight>1.0</weight>
          <residual>-0.1</residual>
        </stationMagnitudeContribution>
        <creationInfo>
          <agencyID>UW</agencyID>
          <creationTime>2022-07-15T16:41:44.000000Z</creationTime>
        </creationInfo>
      </magnitude>
      <stationMagnitude publicID="quakeml:uw.anss.org/AssocAmM/UW/14091663">
        <originID>quakeml:uw.anss.org/Origin/UW/3198748</originID>
        <mag>
          <value>1.27</value>
        </mag>
        <type>ML</type>
        <amplitudeID>quakeml:uw.anss.org/Amp/UW/14091663</amplitudeID>
        <waveformID networkCode="UW" stationCode="SHUK" locationCode="" channelCode="ENN"></waveformID>
      </stationMagnitude>
      <stationMagnitude publicID="quakeml:uw.anss.org/AssocAmM/UW/14091668">
        <originID>quakeml:uw.anss.org/Origin/UW/3198748</originID>
        <mag>
          <value>1.29</value>
        </mag>
        <type>ML</type>
        <amplitudeID>quakeml:uw.anss.org/Amp/UW/14091668</amplitudeID>
        <waveformID networkCode="UW" stationCode="SHUK" locationCode="" channelCode="ENE"></waveformID>
      </stationMagnitude>
      <stationMagnitude publicID="quakeml:uw.anss.org/AssocAmM/UW/14091673">
        <originID>quakeml:uw.anss.org/Origin/UW/3198748</originID>
        <mag>
          <value>1.26</value>
        </mag>
        <type>ML</type>
        <amplitudeID>quakeml:uw.anss.org/Amp/UW/14091673</amplitudeID>
        <waveformID networkCode="UW" stationCode="SHUK" locationCode="" channelCode="HHN"></waveformID>
      </stationMagnitude>
      <stationMagnitude publicID="quakeml:uw.anss.org/AssocAmM/UW/14091678">
        <originID>quakeml:uw.anss.org/Origin/UW/3198748</originID>
        <mag>
          <value>1.36</value>
        </mag>
        <type>ML</type>
        <amplitudeID>quakeml:uw.anss.org/Amp/UW/14091678</amplitudeID>
        <waveformID networkCode="UW" stationCode="SHUK" locationCode="" channelCode="HHE"></waveformID>
      </stationMagnitude>
      <stationMagnitude publicID="quakeml:uw.anss.org/AssocAmM/UW/14091683">
        <originID>quakeml:uw.anss.org/Origin/UW/3198748</originID>
        <mag>
          <value>1.46</value>
        </mag>
        <type>ML</type>
        <amplitudeID>quakeml:uw.anss.org/Amp/UW/14091683</amplitudeID>
        <waveformID networkCode="UW" stationCode="SAXON" locationCode="" channelCode="ENE"></waveformID>
      </stationMagnitude>
      <stationMagnitude publicID="quakeml:uw.anss.org/AssocAmM/UW/14091688">
        <originID>quakeml:uw.anss.org/Origin/UW/3198748</originID>
        <mag>
          <value>1.55</value>
        </mag>
        <type>ML</type>
        <amplitudeID>quakeml:uw.anss.org/Amp/UW/14091688</amplitudeID>
        <waveformID networkCode="UW" stationCode="SAXON" locationCode="" channelCode="HHN"></waveformID>
      </stationMagnitude>
      <stationMagnitude publicID="quakeml:uw.anss.org/AssocAmM/UW/14091693">
        <originID>quakeml:uw.anss.org/Origin/UW/3198748</originID>
        <mag>
          <value>1.57</value>
        </mag>
        <type>ML</type>
        <amplitudeID>quakeml:uw.anss.org/Amp/UW/14091693</amplitudeID>
        <waveformID networkCode="UW" stationCode="SAXON" locationCode="" channelCode="HHE"></waveformID>
      </stationMagnitude>
      <stationMagnitude publicID="quakeml:uw.anss.org/AssocAmM/UW/14091698">
        <originID>quakeml:uw.anss.org/Origin/UW/3198748</originID>
        <mag>
          <value>1.3</value>
        </mag>
        <type>ML</type>
        <amplitudeID>quakeml:uw.anss.org/Amp/UW/14091698</amplitudeID>
        <waveformID networkCode="UW" stationCode="PASS" locationCode="" channelCode="ENN"></waveformID>
      </stationMagnitude>
      <stationMagnitude publicID="quakeml:uw.anss.org/AssocAmM/UW/14091703">
        <originID>quakeml:uw.anss.org/Origin/UW/3198748</originID>
        <mag>
          <value>1.33</value>
        </mag>
        <type>ML</type>
        <amplitudeID>quakeml:uw.anss.org/Amp/UW/14091703</amplitudeID>
        <waveformID networkCode="UW" stationCode="PASS" locationCode="" channelCode="HHN"></waveformID>
      </stationMagnitude>
      <stationMagnitude publicID="quakeml:uw.anss.org/AssocAmM/UW/14091708">
        <originID>quakeml:uw.anss.org/Origin/UW/3198748</originID>
        <mag>
          <value>1.23</value>
        </mag>
        <type>ML</type>
        <amplitudeID>quakeml:uw.anss.org/Amp/UW/14091708</amplitudeID>
        <waveformID networkCode="UW" stationCode="PASS" locationCode="" channelCode="HHE"></waveformID>
      </stationMagnitude>
      <stationMagnitude publicID="quakeml:uw.anss.org/AssocAmM/UW/14091713">
        <originID>quakeml:uw.anss.org/Origin/UW/3198748</originID>
        <mag>
          <value>1.51</value>
        </mag>
        <type>ML</type>
        <amplitudeID>quakeml:uw.anss.org/Amp/UW/14091713</amplitudeID>
        <waveformID networkCode="UW" stationCode="MULN" locationCode="" channelCode="ENN"></waveformID>
      </stationMagnitude>
      <stationMagnitude publicID="quakeml:uw.anss.org/AssocAmM/UW/14091718">
        <originID>quakeml:uw.anss.org/Origin/UW/3198748</originID>
        <mag>
          <value>1.55</value>
        </mag>
        <type>ML</type>
        <amplitudeID>quakeml:uw.anss.org/Amp/UW/14091718</amplitudeID>
        <waveformID networkCode="UW" stationCode="MULN" locationCode="" channelCode="ENE"></waveformID>
      </stationMagnitude>
      <stationMagnitude publicID="quakeml:uw.anss.org/AssocAmM/UW/14091723">
        <originID>quakeml:uw.anss.org/Origin/UW/3198748</originID>
        <mag>
          <value>1.58</value>
        </mag>
        <type>ML</type>
        <amplitudeID>quakeml:uw.anss.org/Amp/UW/14091723</amplitudeID>
        <waveformID networkCode="UW" stationCode="MULN" locationCode="" channelCode="HHN"></waveformID>
      </stationMagnitude>
      <stationMagnitude publicID="quakeml:uw.anss.org/AssocAmM/UW/14091728">
        <originID>quakeml:uw.anss.org/Origin/UW/3198748</originID>
        <mag>
          <value>1.61</value>
        </mag>
        <type>ML</type>
        <amplitudeID>quakeml:uw.anss.org/Amp/UW/14091728</amplitudeID>
        <waveformID networkCode="UW" stationCode="MULN" locationCode="" channelCode="HHE"></waveformID>
      </stationMagnitude>
      <stationMagnitude publicID="quakeml:uw.anss.org/AssocAmM/UW/14091733">
        <originID>quakeml:uw.anss.org/Origin/UW/3198748</originID>
        <mag>
          <value>1.28</value>
        </mag>
        <type>ML</type>
        <amplitudeID>quakeml:uw.anss.org/Amp/UW/14091733</amplitudeID>
        <waveformID networkCode="PB" stationCode="B011" locationCode="" channelCode="EH2"></waveformID>
