<?xml version='1.0' encoding='utf-8'?>
<q:quakeml xmlns="http://quakeml.org/xmlns/bed/1.2" xmlns:q="http://quakeml.org/xmlns/quakeml/1.2" xmlns:ns0="http://anss.org/xmlns/catalog/0.1">
  <eventParameters publicID="smi:local/717b84e7-d194-45eb-ae49-dbc893e77e8b">
    <event publicID="quakeml:uw.anss.org/Event/UW/10722768" ns0:datasource="uw" ns0:dataid="uw10722768" ns0:eventsource="uw" ns0:eventid="10722768">
      <preferredOriginID>quakeml:uw.anss.org/Origin/UW/1005683</preferredOriginID>
      <preferredMagnitudeID>quakeml:uw.anss.org/Netmag/UW/785488</preferredMagnitudeID>
      <type>earthquake</type>
      <creationInfo>
        <agencyID>UW</agencyID>
        <creationTime>2012-03-06T11:09:47.000000Z</creationTime>
        <version>3</version>
      </creationInfo>
      <origin publicID="quakeml:uw.anss.org/Origin/UW/1005683" ns0:datasource="uw" ns0:dataid="uw10722768" ns0:eventsource="uw" ns0:eventid="10722768">
        <time>
          <value>2007-10-01T03:45:29.260000Z</value>
          <uncertainty>0.17</uncertainty>
        </time>
        <latitude>
          <value>48.8851667</value>
          <uncertainty>0.65</uncertainty>
        </latitude>
        <longitude>
          <value>-122.3391667</value>
          <uncertainty>1.21</uncertainty>
        </longitude>
        <depth>
          <value>12403.0</value>
          <uncertainty>3010.0</uncertainty>
        </depth>
        <depthType>operator assigned</depthType>
        <timeFixed>false</timeFixed>
        <epicenterFixed>true</epicenterFixed>
        <methodID>smi:uw.anss.org/origin/spong</methodID>
        <quality>
          <associatedPhaseCount>58</associatedPhaseCount>
          <usedPhaseCount>43</usedPhaseCount>
          <associatedStationCount>47</associatedStationCount>
          <usedStationCount>0</usedStationCount>
          <standardError>0.61</standardError>
          <azimuthalGap>149.0</azimuthalGap>
        </quality>
        <type>hypocenter</type>
        <evaluationMode>manual</evaluationMode>
        <evaluationStatus>final</evaluationStatus>
        <creationInfo>
          <agencyID>UW</agencyID>
          <creationTime>2012-03-06T11:09:47.000000Z</creationTime>
        </creationInfo>
        <originUncertainty>
          <preferredDescription>horizontal uncertainty</preferredDescription>
          <horizontalUncertainty>1374.0</horizontalUncertainty>
        </originUncertainty>
        <arrival publicID="quakeml:uw.anss.org/AssocArO/UW/9378878">
          <pickID>quakeml:uw.anss.org/Arrival/UW/9378878</pickID>
          <phase>P</phase>
          <azimuth>165.4</azimuth>
          <distance>0.6422</distance>
          <timeResidual>-0.09</timeResidual>
          <creationInfo>
            <agencyID>UW</agencyID>
            <creationTime>2012-03-06T11:09:47.000000Z</creationTime>
          </creationInfo>
        </arrival>
        <arrival publicID="quakeml:uw.anss.org/AssocArO/UW/9378883">
          <pickID>quakeml:uw.anss.org/Arrival/UW/9378883</pickID>
          <phase>P</phase>
          <azimuth>55.8</azimuth>
          <distance>0.2021</distance>
          <timeResidual>0.07</timeResidual>
          <creationInfo>
            <agencyID>UW</agencyID>
            <creationTime>2012-03-06T11:09:47.000000Z</creationTime>
          </creationInfo>
        </arrival>
        <arrival publicID="quakeml:uw.anss.org/AssocArO/UW/9378888">
          <pickID>quakeml:uw.anss.org/Arrival/UW/9378888</pickID>
          <phase>S</phase>
          <azimuth>55.8</azimuth>
          <distance>0.2021</distance>
          <timeResidual>0.23</timeResidual>
          <creationInfo>
            <agencyID>UW</agencyID>
            <creationTime>2012-03-06T11:09:47.000000Z</creationTime>
          </creationInfo>
        </arrival>
        <arrival publicID="quakeml:uw.anss.org/AssocArO/UW/9378893">
          <pickID>quakeml:uw.anss.org/Arrival/UW/9378893</pickID>
          <phase>P</phase>
          <azimuth>120.9</azimuth>
          <distance>1.56</distance>
          <timeResidual>0.93</timeResidual>
          <creationInfo>
            <agencyID>UW</agencyID>
            <creationTime>2012-03-06T11:09:47.000000Z</creationTime>
          </creationInfo>
        </arrival>
        <arrival publicID="quakeml:uw.anss.org/AssocArO/UW/9378898">
          <pickID>quakeml:uw.anss.org/Arrival/UW/9378898</pickID>
          <phase>P</phase>
          <azimuth>178.6</azimuth>
          <distance>1.845</distance>
          <timeResidual>-0.36</timeResidual>
          <creationInfo>
            <agencyID>UW</agencyID>
            <creationTime>2012-03-06T11:09:47.000000Z</creationTime>
          </creationInfo>
        </arrival>
        <arrival publicID="quakeml:uw.anss.org/AssocArO/UW/9378903">
          <pickID>quakeml:uw.anss.org/Arrival/UW/9378903</pickID>
          <phase>P</phase>
          <azimuth>133.1</azimuth>
          <distance>1.855</distance>
          <timeResidual>1.21</timeResidual>
          <creationInfo>
            <agencyID>UW</agencyID>
            <creationTime>2012-03-06T11:09:47.000000Z</creationTime>
          </creationInfo>
        </arrival>
        <arrival publicID="quakeml:uw.anss.org/AssocArO/UW/9378908">
          <pickID>quakeml:uw.anss.org/Arrival/UW/9378908</pickID>
          <phase>P</phase>
          <azimuth>170.6</azimuth>
          <timeResidual>0.26</timeResidual>
          <creationInfo>
            <agencyID>UW</agencyID>
            <creationTime>2012-03-06T11:09:47.000000Z</creationTime>
          </creationInfo>
        </arrival>
        <arrival publicID="quakeml:uw.anss.org/AssocArO/UW/9378913">
          <pickID>quakeml:uw.anss.org/Arrival/UW/9378913</pickID>
          <phase>P</phase>
          <azimuth>198.2</azimuth>
          <timeResidual>0.23</timeResidual>
          <creationInfo>
            <agencyID>UW</agencyID>
            <creationTime>2012-03-06T11:09:47.000000Z</creationTime>
          </creationInfo>
        </arrival>
        <arrival publicID="quakeml:uw.anss.org/AssocArO/UW/9378918">
          <pickID>quakeml:uw.anss.org/Arrival/UW/9378918</pickID>
          <phase>S</phase>
          <azimuth>252.6</azimuth>
          <distance>0.7707</distance>
          <timeResidual>-0.86</timeResidual>
          <creationInfo>
            <agencyID>UW</agencyID>
            <creationTime>2012-03-06T11:09:47.000000Z</creationTime>
          </creationInfo>
        </arrival>
        <arrival publicID="quakeml:uw.anss.org/AssocArO/UW/9378923">
          <pickID>quakeml:uw.anss.org/Arrival/UW/9378923</pickID>
          <phase>P</phase>
          <azimuth>252.6</azimuth>
          <distance>0.7707</distance>
          <timeResidual>-0.23</timeResidual>
          <creationInfo>
            <agencyID>UW</agencyID>
            <creationTime>2012-03-06T11:09:47.000000Z</creationTime>
          </creationInfo>
        </arrival>
        <arrival publicID="quakeml:uw.anss.org/AssocArO/UW/9378928">
          <pickID>quakeml:uw.anss.org/Arrival/UW/9378928</pickID>
          <phase>P</phase>
          <azimuth>230.7</azimuth>
          <timeResidual>-0.01</timeResidual>
          <creationInfo>
            <agencyID>UW</agencyID>
            <creationTime>2012-03-06T11:09:48.000000Z</creationTime>
          </creationInfo>
        </arrival>
        <arrival publicID="quakeml:uw.anss.org/AssocArO/UW/9378933">
          <pickID>quakeml:uw.anss.org/Arrival/UW/9378933</pickID>
          <phase>P</phase>
          <azimuth>82.0</azimuth>
          <distance>1.299</distance>
          <timeResidual>0.98</timeResidual>
          <creationInfo>
            <agencyID>UW</agencyID>
            <creationTime>2012-03-06T11:09:48.000000Z</creationTime>
          </creationInfo>
        </arrival>
        <arrival publicID="quakeml:uw.anss.org/AssocArO/UW/9378938">
          <pickID>quakeml:uw.anss.org/Arrival/UW/9378938</pickID>
          <phase>P</phase>
          <azimuth>134.5</azimuth>
          <distance>1.362</distance>
          <timeResidual>0.39</timeResidual>
          <creationInfo>
            <agencyID>UW</agencyID>
            <creationTime>2012-03-06T11:09:48.000000Z</creationTime>
          </creationInfo>
        </arrival>
        <arrival publicID="quakeml:uw.anss.org/AssocArO/UW/9378943">
          <pickID>quakeml:uw.anss.org/Arrival/UW/9378943</pickID>
          <phase>P</phase>
          <azimuth>212.3</azimuth>
          <distance>0.9941</distance>
          <timeResidual>0.19</timeResidual>
          <creationInfo>
            <agencyID>UW</agencyID>
            <creationTime>2012-03-06T11:09:48.000000Z</creationTime>
          </creationInfo>
        </arrival>
        <arrival publicID="quakeml:uw.anss.org/AssocArO/UW/9378948">
          <pickID>quakeml:uw.anss.org/Arrival/UW/9378948</pickID>
          <phase>P</phase>
          <azimuth>162.5</azimuth>
          <distance>0.4843</distance>
          <timeResidual>-0.25</timeResidual>
          <creationInfo>
            <agencyID>UW</agencyID>
            <creationTime>2012-03-06T11:09:48.000000Z</creationTime>
          </creationInfo>
        </arrival>
        <arrival publicID="quakeml:uw.anss.org/AssocArO/UW/9378953">
          <pickID>quakeml:uw.anss.org/Arrival/UW/9378953</pickID>
          <phase>S</phase>
          <azimuth>162.5</azimuth>
          <distance>0.4843</distance>
          <timeResidual>0.06</timeResidual>
          <creationInfo>
            <agencyID>UW</agencyID>
            <creationTime>2012-03-06T11:09:48.000000Z</creationTime>
          </creationInfo>
        </arrival>
        <arrival publicID="quakeml:uw.anss.org/AssocArO/UW/9378958">
          <pickID>quakeml:uw.anss.org/Arrival/UW/9378958</pickID>
          <phase>P</phase>
          <azimuth>201.4</azimuth>
          <distance>1.327</distance>
          <timeResidual>-0.31</timeResidual>
          <creationInfo>
            <agencyID>UW</agencyID>
            <creationTime>2012-03-06T11:09:48.000000Z</creationTime>
          </creationInfo>
        </arrival>
        <arrival publicID="quakeml:uw.anss.org/AssocArO/UW/9378968">
          <pickID>quakeml:uw.anss.org/Arrival/UW/9378968</pickID>
          <phase>P</phase>
          <azimuth>164.8</azimuth>
          <distance>1.44</distance>
          <timeResidual>0.82</timeResidual>
          <creationInfo>
            <agencyID>UW</agencyID>
            <creationTime>2012-03-06T11:09:48.000000Z</creationTime>
          </creationInfo>
        </arrival>
        <arrival publicID="quakeml:uw.anss.org/AssocArO/UW/9378973">
          <pickID>quakeml:uw.anss.org/Arrival/UW/9378973</pickID>
          <phase>P</phase>
          <azimuth>125.9</azimuth>
          <distance>1.986</distance>
          <timeResidual>1.58</timeResidual>
          <creationInfo>
            <agencyID>UW</agencyID>
            <creationTime>2012-03-06T11:09:48.000000Z</creationTime>
          </creationInfo>
        </arrival>
        <arrival publicID="quakeml:uw.anss.org/AssocArO/UW/9378978">
          <pickID>quakeml:uw.anss.org/Arrival/UW/9378978</pickID>
          <phase>P</phase>
          <azimuth>128.4</azimuth>
          <distance>0.6999</distance>
          <timeResidual>-0.3</timeResidual>
          <creationInfo>
            <agencyID>UW</agencyID>
            <creationTime>2012-03-06T11:09:48.000000Z</creationTime>
          </creationInfo>
        </arrival>
        <arrival publicID="quakeml:uw.anss.org/AssocArO/UW/9378983">
          <pickID>quakeml:uw.anss.org/Arrival/UW/9378983</pickID>
          <phase>S</phase>
          <azimuth>128.4</azimuth>
          <distance>0.6999</distance>
          <timeResidual>-0.75</timeResidual>
          <creationInfo>
            <agencyID>UW</agencyID>
            <creationTime>2012-03-06T11:09:48.000000Z</creationTime>
          </creationInfo>
        </arrival>
        <arrival publicID="quakeml:uw.anss.org/AssocArO/UW/9378988">
          <pickID>quakeml:uw.anss.org/Arrival/UW/9378988</pickID>
          <phase>P</phase>
          <azimuth>76.1</azimuth>
          <distance>0.134</distance>
          <timeResidual>-0.07</timeResidual>
          <creationInfo>
            <agencyID>UW</agencyID>
            <creationTime>2012-03-06T11:09:48.000000Z</creationTime>
          </creationInfo>
        </arrival>
        <arrival publicID="quakeml:uw.anss.org/AssocArO/UW/9378993">
          <pickID>quakeml:uw.anss.org/Arrival/UW/9378993</pickID>
          <phase>P</phase>
          <azimuth>236.1</azimuth>
          <distance>1.454</distance>
          <timeResidual>-0.43</timeResidual>
          <creationInfo>
            <agencyID>UW</agencyID>
            <creationTime>2012-03-06T11:09:48.000000Z</creationTime>
          </creationInfo>
        </arrival>
        <arrival publicID="quakeml:uw.anss.org/AssocArO/UW/9378998">
          <pickID>quakeml:uw.anss.org/Arrival/UW/9378998</pickID>
          <phase>P</phase>
          <azimuth>145.2</azimuth>
          <distance>2.076</distance>
          <timeResidual>0.29</timeResidual>
          <creationInfo>
            <agencyID>UW</agencyID>
            <creationTime>2012-03-06T11:09:48.000000Z</creationTime>
          </creationInfo>
        </arrival>
        <arrival publicID="quakeml:uw.anss.org/AssocArO/UW/9379003">
          <pickID>quakeml:uw.anss.org/Arrival/UW/9379003</pickID>
          <phase>P</phase>
          <azimuth>122.7</azimuth>
          <distance>0.6748</distance>
          <timeResidual>-0.14</timeResidual>
          <creationInfo>
            <agencyID>UW</agencyID>
            <creationTime>2012-03-06T11:09:48.000000Z</creationTime>
          </creationInfo>
        </arrival>
        <arrival publicID="quakeml:uw.anss.org/AssocArO/UW/9379008">
          <pickID>quakeml:uw.anss.org/Arrival/UW/9379008</pickID>
          <phase>P</phase>
          <azimuth>109.2</azimuth>
          <distance>0.3068</distance>
          <timeResidual>-0.28</timeResidual>
          <creationInfo>
            <agencyID>UW</agencyID>
            <creationTime>2012-03-06T11:09:48.000000Z</creationTime>
          </creationInfo>
        </arrival>
        <arrival publicID="quakeml:uw.anss.org/AssocArO/UW/9379013">
          <pickID>quakeml:uw.anss.org/Arrival/UW/9379013</pickID>
          <phase>P</phase>
          <azimuth>235.8</azimuth>
          <distance>0.2942</distance>
          <timeResidual>-0.02</timeResidual>
          <creationInfo>
            <agencyID>UW</agencyID>
            <creationTime>2012-03-06T11:09:48.000000Z</creationTime>
          </creationInfo>
        </arrival>
        <arrival publicID="quakeml:uw.anss.org/AssocArO/UW/9379018">
          <pickID>quakeml:uw.anss.org/Arrival/UW/9379018</pickID>
          <phase>S</phase>
          <azimuth>235.8</azimuth>
          <distance>0.2942</distance>
          <timeResidual>0.25</timeResidual>
          <creationInfo>
            <agencyID>UW</agencyID>
            <creationTime>2012-03-06T11:09:48.000000Z</creationTime>
          </creationInfo>
        </arrival>
        <arrival publicID="quakeml:uw.anss.org/AssocArO/UW/9379023">
          <pickID>quakeml:uw.anss.org/Arrival/UW/9379023</pickID>
          <phase>P</phase>
          <azimuth>158.3</azimuth>
          <timeResidual>0.14</timeResidual>
          <creationInfo>
            <agencyID>UW</agencyID>
            <creationTime>2012-03-06T11:09:48.000000Z</creationTime>
          </creationInfo>
        </arrival>
        <arrival publicID="quakeml:uw.anss.org/AssocArO/UW/9379028">
          <pickID>quakeml:uw.anss.org/Arrival/UW/9379028</pickID>
          <phase>S</phase>
          <azimuth>223.5</azimuth>
          <distance>1.134</distance>
          <timeResidual>-1.05</timeResidual>
          <creationInfo>
            <agencyID>UW</agencyID>
            <creationTime>2012-03-06T11:09:48.000000Z</creationTime>
          </creationInfo>
        </arrival>
        <arrival publicID="quakeml:uw.anss.org/AssocArO/UW/9379033">
          <pickID>quakeml:uw.anss.org/Arrival/UW/9379033</pickID>
          <phase>P</phase>
          <azimuth>223.5</azimuth>
          <distance>1.134</distance>
          <timeResidual>-0.4</timeResidual>
          <creationInfo>
            <agencyID>UW</agencyID>
            <creationTime>2012-03-06T11:09:48.000000Z</creationTime>
          </creationInfo>
        </arrival>
        <arrival publicID="quakeml:uw.anss.org/AssocArO/UW/9379038">
          <pickID>quakeml:uw.anss.org/Arrival/UW/9379038</pickID>
          <phase>P</phase>
          <azimuth>172.0</azimuth>
          <distance>1.714</distance>
          <timeResidual>0.5</timeResidual>
          <creationInfo>
            <agencyID>UW</agencyID>
            <creationTime>2012-03-06T11:09:48.000000Z</creationTime>
          </creationInfo>
        </arrival>
        <arrival publicID="quakeml:uw.anss.org/AssocArO/UW/9379043">
          <pickID>quakeml:uw.anss.org/Arrival/UW/9379043</pickID>
          <phase>P</phase>
          <azimuth>223.5</azimuth>
          <distance>1.134</distance>
          <timeResidual>-0.34</timeResidual>
          <creationInfo>
            <agencyID>UW</agencyID>
            <creationTime>2012-03-06T11:09:48.000000Z</creationTime>
          </creationInfo>
        </arrival>
        <arrival publicID="quakeml:uw.anss.org/AssocArO/UW/9379048">
          <pickID>quakeml:uw.anss.org/Arrival/UW/9379048</pickID>
          <phase>S</phase>
          <azimuth>223.5</azimuth>
          <distance>1.134</distance>
          <timeResidual>-0.98</timeResidual>
          <creationInfo>
            <agencyID>UW</agencyID>
            <creationTime>2012-03-06T11:09:48.000000Z</creationTime>
          </creationInfo>
        </arrival>
        <arrival publicID="quakeml:uw.anss.org/AssocArO/UW/9379053">
          <pickID>quakeml:uw.anss.org/Arrival/UW/9379053</pickID>
          <phase>P</phase>
          <azimuth>69.0</azimuth>
          <distance>0.6045</distance>
          <timeResidual>0.22</timeResidual>
          <creationInfo>
            <agencyID>UW</agencyID>
            <creationTime>2012-03-06T11:09:48.000000Z</creationTime>
          </creationInfo>
        </arrival>
        <arrival publicID="quakeml:uw.anss.org/AssocArO/UW/9379058">
          <pickID>quakeml:uw.anss.org/Arrival/UW/9379058</pickID>
          <phase>S</phase>
          <azimuth>69.0</azimuth>
          <distance>0.6045</distance>
          <timeResidual>-0.24</timeResidual>
          <creationInfo>
            <agencyID>UW</agencyID>
            <creationTime>2012-03-06T11:09:48.000000Z</creationTime>
          </creationInfo>
        </arrival>
        <arrival publicID="quakeml:uw.anss.org/AssocArO/UW/9379063">
          <pickID>quakeml:uw.anss.org/Arrival/UW/9379063</pickID>
          <phase>P</phase>
          <azimuth>170.3</azimuth>
          <timeResidual>0.23</timeResidual>
          <creationInfo>
            <agencyID>UW</agencyID>
            <creationTime>2012-03-06T11:09:48.000000Z</creationTime>
          </creationInfo>
        </arrival>
        <arrival publicID="quakeml:uw.anss.org/AssocArO/UW/9379068">
          <pickID>quakeml:uw.anss.org/Arrival/UW/9379068</pickID>
          <phase>P</phase>
          <azimuth>222.6</azimuth>
          <distance>1.062</distance>
          <timeResidual>0.47</timeResidual>
          <creationInfo>
            <agencyID>UW</agencyID>
            <creationTime>2012-03-06T11:09:48.000000Z</creationTime>
          </creationInfo>
        </arrival>
        <arrival publicID="quakeml:uw.anss.org/AssocArO/UW/9379073">
          <pickID>quakeml:uw.anss.org/Arrival/UW/9379073</pickID>
          <phase>S</phase>
          <azimuth>222.6</azimuth>
          <distance>1.062</distance>
          <timeResidual>-0.06</timeResidual>
          <creationInfo>
            <agencyID>UW</agencyID>
            <creationTime>2012-03-06T11:09:48.000000Z</creationTime>
          </creationInfo>
        </arrival>
        <arrival publicID="quakeml:uw.anss.org/AssocArO/UW/9379078">
