<?xml version='1.0' encoding='utf-8'?>
<q:quakeml xmlns="http://quakeml.org/xmlns/bed/1.2" xmlns:q="http://quakeml.org/xmlns/quakeml/1.2" xmlns:ns0="http://anss.org/xmlns/catalog/0.1">
  <eventParameters publicID="smi:local/15a90c3b-513b-4c2a-88e7-3627ea56e33d">
    <event publicID="quakeml:uw.anss.org/Event/UW/10737798" ns0:datasource="uw" ns0:dataid="uw10737798" ns0:eventsource="uw" ns0:eventid="10737798">
      <preferredOriginID>quakeml:uw.anss.org/Origin/UW/1020713</preferredOriginID>
      <preferredMagnitudeID>quakeml:uw.anss.org/Netmag/UW/795643</preferredMagnitudeID>
      <type>earthquake</type>
      <creationInfo>
        <agencyID>UW</agencyID>
        <creationTime>2012-03-06T12:29:37.000000Z</creationTime>
        <version>3</version>
      </creationInfo>
      <origin publicID="quakeml:uw.anss.org/Origin/UW/1020713" ns0:datasource="uw" ns0:dataid="uw10737798" ns0:eventsource="uw" ns0:eventid="10737798">
        <time>
          <value>2007-12-25T13:12:05.290000Z</value>
          <uncertainty>0.41</uncertainty>
        </time>
        <latitude>
          <value>48.8463333</value>
          <uncertainty>3.36</uncertainty>
        </latitude>
        <longitude>
          <value>-122.0046667</value>
          <uncertainty>2.1</uncertainty>
        </longitude>
        <depth>
          <value>18109.0</value>
          <uncertainty>4110.0</uncertainty>
        </depth>
        <depthType>from location</depthType>
        <timeFixed>false</timeFixed>
        <epicenterFixed>false</epicenterFixed>
        <methodID>smi:uw.anss.org/origin/spong</methodID>
        <quality>
          <associatedPhaseCount>9</associatedPhaseCount>
          <usedPhaseCount>9</usedPhaseCount>
          <associatedStationCount>7</associatedStationCount>
          <usedStationCount>0</usedStationCount>
          <standardError>0.35</standardError>
          <azimuthalGap>151.0</azimuthalGap>
        </quality>
        <type>hypocenter</type>
        <evaluationMode>manual</evaluationMode>
        <evaluationStatus>final</evaluationStatus>
        <creationInfo>
          <agencyID>UW</agencyID>
          <creationTime>2012-03-06T12:29:37.000000Z</creationTime>
        </creationInfo>
        <originUncertainty>
          <preferredDescription>horizontal uncertainty</preferredDescription>
          <horizontalUncertainty>3962.0</horizontalUncertainty>
        </originUncertainty>
        <arrival publicID="quakeml:uw.anss.org/AssocArO/UW/9543383">
          <pickID>quakeml:uw.anss.org/Arrival/UW/9543383</pickID>
          <phase>P</phase>
          <azimuth>340.8</azimuth>
          <distance>0.1611</distance>
          <timeResidual>-0.02</timeResidual>
          <creationInfo>
            <agencyID>UW</agencyID>
            <creationTime>2012-03-06T12:29:37.000000Z</creationTime>
          </creationInfo>
        </arrival>
        <arrival publicID="quakeml:uw.anss.org/AssocArO/UW/9543388">
          <pickID>quakeml:uw.anss.org/Arrival/UW/9543388</pickID>
          <phase>S</phase>
          <azimuth>340.8</azimuth>
          <distance>0.1611</distance>
          <timeResidual>0.09</timeResidual>
          <creationInfo>
            <agencyID>UW</agencyID>
            <creationTime>2012-03-06T12:29:37.000000Z</creationTime>
          </creationInfo>
        </arrival>
        <arrival publicID="quakeml:uw.anss.org/AssocArO/UW/9543393">
          <pickID>quakeml:uw.anss.org/Arrival/UW/9543393</pickID>
          <phase>P</phase>
          <azimuth>175.5</azimuth>
          <timeResidual>0.26</timeResidual>
          <creationInfo>
            <agencyID>UW</agencyID>
            <creationTime>2012-03-06T12:29:37.000000Z</creationTime>
          </creationInfo>
        </arrival>
        <arrival publicID="quakeml:uw.anss.org/AssocArO/UW/9543398">
          <pickID>quakeml:uw.anss.org/Arrival/UW/9543398</pickID>
          <phase>P</phase>
          <azimuth>140.7</azimuth>
          <distance>0.5141</distance>
          <timeResidual>0.45</timeResidual>
          <creationInfo>
            <agencyID>UW</agencyID>
            <creationTime>2012-03-06T12:29:37.000000Z</creationTime>
          </creationInfo>
        </arrival>
        <arrival publicID="quakeml:uw.anss.org/AssocArO/UW/9543403">
          <pickID>quakeml:uw.anss.org/Arrival/UW/9543403</pickID>
          <phase>P</phase>
          <azimuth>308.3</azimuth>
          <distance>0.1145</distance>
          <timeResidual>0.56</timeResidual>
          <creationInfo>
            <agencyID>UW</agencyID>
            <creationTime>2012-03-06T12:29:37.000000Z</creationTime>
          </creationInfo>
        </arrival>
        <arrival publicID="quakeml:uw.anss.org/AssocArO/UW/9543428">
          <pickID>quakeml:uw.anss.org/Arrival/UW/9543428</pickID>
          <phase>P</phase>
          <azimuth>340.3</azimuth>
          <distance>0.1912</distance>
          <timeResidual>-0.15</timeResidual>
          <creationInfo>
            <agencyID>UW</agencyID>
            <creationTime>2012-03-06T12:29:37.000000Z</creationTime>
          </creationInfo>
        </arrival>
        <arrival publicID="quakeml:uw.anss.org/AssocArO/UW/9543438">
          <pickID>quakeml:uw.anss.org/Arrival/UW/9543438</pickID>
          <phase>S</phase>
          <azimuth>340.3</azimuth>
          <distance>0.1912</distance>
          <timeResidual>-0.19</timeResidual>
          <creationInfo>
            <agencyID>UW</agencyID>
            <creationTime>2012-03-06T12:29:37.000000Z</creationTime>
          </creationInfo>
        </arrival>
        <arrival publicID="quakeml:uw.anss.org/AssocArO/UW/9543463">
          <pickID>quakeml:uw.anss.org/Arrival/UW/9543463</pickID>
          <phase>P</phase>
          <azimuth>190.3</azimuth>
          <distance>0.4301</distance>
          <timeResidual>-0.71</timeResidual>
          <creationInfo>
            <agencyID>UW</agencyID>
            <creationTime>2012-03-06T12:29:37.000000Z</creationTime>
          </creationInfo>
        </arrival>
        <arrival publicID="quakeml:uw.anss.org/AssocArO/UW/9543468">
          <pickID>quakeml:uw.anss.org/Arrival/UW/9543468</pickID>
          <phase>P</phase>
          <azimuth>132.4</azimuth>
          <distance>0.09285</distance>
          <timeResidual>-0.13</timeResidual>
          <creationInfo>
            <agencyID>UW</agencyID>
            <creationTime>2012-03-06T12:29:37.000000Z</creationTime>
          </creationInfo>
        </arrival>
      </origin>
      <magnitude publicID="quakeml:uw.anss.org/Netmag/UW/795643">
        <mag>
          <value>1.1</value>
          <uncertainty>0.04</uncertainty>
        </mag>
        <type>Md</type>
        <originID>quakeml:uw.anss.org/Origin/UW/1020713</originID>
        <methodID>smi:uw.anss.org/magnitude/Crosson</methodID>
        <stationCount>3</stationCount>
        <evaluationMode>manual</evaluationMode>
        <evaluationStatus>final</evaluationStatus>
        <stationMagnitudeContribution>
          <stationMagnitudeID>quakeml:uw.anss.org/AssocCoM/UW/2196408</stationMagnitudeID>
          <weight>1.0</weight>
          <residual>-0.52</residual>
        </stationMagnitudeContribution>
        <stationMagnitudeContribution>
          <stationMagnitudeID>quakeml:uw.anss.org/AssocCoM/UW/2196403</stationMagnitudeID>
          <weight>1.0</weight>
          <residual>0.23</residual>
        </stationMagnitudeContribution>
        <stationMagnitudeContribution>
          <stationMagnitudeID>quakeml:uw.anss.org/AssocCoM/UW/2196398</stationMagnitudeID>
          <weight>1.0</weight>
          <residual>0.11</residual>
        </stationMagnitudeContribution>
        <creationInfo>
          <agencyID>UW</agencyID>
          <creationTime>2012-03-06T12:29:37.000000Z</creationTime>
        </creationInfo>
      </magnitude>
      <stationMagnitude publicID="quakeml:uw.anss.org/AssocCoM/UW/2196398">
        <originID>quakeml:uw.anss.org/Origin/UW/1020713</originID>
        <mag>
          <value>1.21</value>
        </mag>
        <type>MD</type>
        <amplitudeID>quakeml:uw.anss.org/Coda/UW/2196398</amplitudeID>
        <waveformID networkCode="UW" stationCode="JCW" locationCode="" channelCode="EHZ"></waveformID>
      </stationMagnitude>
      <stationMagnitude publicID="quakeml:uw.anss.org/AssocCoM/UW/2196403">
        <originID>quakeml:uw.anss.org/Origin/UW/1020713</originID>
        <mag>
          <value>1.33</value>
        </mag>
        <type>MD</type>
        <amplitudeID>quakeml:uw.anss.org/Coda/UW/2196403</amplitudeID>
        <waveformID networkCode="CN" stationCode="VDB" locationCode="" channelCode="EHZ"></waveformID>
      </stationMagnitude>
      <stationMagnitude publicID="quakeml:uw.anss.org/AssocCoM/UW/2196408">
        <originID>quakeml:uw.anss.org/Origin/UW/1020713</originID>
        <mag>
          <value>0.58</value>
        </mag>
        <type>MD</type>
        <amplitudeID>quakeml:uw.anss.org/Coda/UW/2196408</amplitudeID>
        <waveformID networkCode="UW" stationCode="MBW" locationCode="" channelCode="EHZ"></waveformID>
      </stationMagnitude>
      <pick publicID="quakeml:uw.anss.org/Arrival/UW/9543383">
        <time>
          <value>2007-12-25T13:12:09.430000Z</value>
          <uncertainty>0.03</uncertainty>
        </time>
        <waveformID networkCode="TA" stationCode="A05A" locationCode="" channelCode="BHZ"></waveformID>
        <polarity>negative</polarity>
        <evaluationMode>manual</evaluationMode>
        <evaluationStatus>final</evaluationStatus>
        <creationInfo>
          <agencyID>UW</agencyID>
          <creationTime>2012-03-06T12:29:37.000000Z</creationTime>
        </creationInfo>
      </pick>
      <pick publicID="quakeml:uw.anss.org/Arrival/UW/9543388">
        <time>
          <value>2007-12-25T13:12:12.780000Z</value>
          <uncertainty>0.1</uncertainty>
        </time>
        <waveformID networkCode="TA" stationCode="A05A" locationCode="" channelCode="BHE"></waveformID>
        <polarity>undecidable</polarity>
        <evaluationMode>manual</evaluationMode>
        <evaluationStatus>final</evaluationStatus>
        <creationInfo>
          <agencyID>UW</agencyID>
          <creationTime>2012-03-06T12:29:37.000000Z</creationTime>
        </creationInfo>
      </pick>
      <pick publicID="quakeml:uw.anss.org/Arrival/UW/9543393">
        <time>
          <value>2007-12-25T13:12:17.220000Z</value>
          <uncertainty>0.09</uncertainty>
        </time>
        <waveformID networkCode="UW" stationCode="JCW" locationCode="" channelCode="EHZ"></waveformID>
        <polarity>undecidable</polarity>
        <evaluationMode>manual</evaluationMode>
        <evaluationStatus>final</evaluationStatus>
        <creationInfo>
          <agencyID>UW</agencyID>
          <creationTime>2012-03-06T12:29:37.000000Z</creationTime>
        </creationInfo>
      </pick>
      <pick publicID="quakeml:uw.anss.org/Arrival/UW/9543398">
        <time>
          <value>2007-12-25T13:12:15.390000Z</value>
          <uncertainty>0.03</uncertainty>
        </time>
        <waveformID networkCode="UW" stationCode="RPW" locationCode="" channelCode="EHZ"></waveformID>
        <polarity>negative</polarity>
        <evaluationMode>manual</evaluationMode>
        <evaluationStatus>final</evaluationStatus>
        <creationInfo>
          <agencyID>UW</agencyID>
          <creationTime>2012-03-06T12:29:37.000000Z</creationTime>
        </creationInfo>
      </pick>
      <pick publicID="quakeml:uw.anss.org/Arrival/UW/9543403">
        <time>
          <value>2007-12-25T13:12:09.500000Z</value>
          <uncertainty>0.03</uncertainty>
        </time>
        <waveformID networkCode="UW" stationCode="MBKE" locationCode="" channelCode="ENZ"></waveformID>
        <polarity>undecidable</polarity>
        <evaluationMode>manual</evaluationMode>
        <evaluationStatus>final</evaluationStatus>
        <creationInfo>
          <agencyID>UW</agencyID>
          <creationTime>2012-03-06T12:29:37.000000Z</creationTime>
        </creationInfo>
      </pick>
      <pick publicID="quakeml:uw.anss.org/Arrival/UW/9543428">
        <time>
          <value>2007-12-25T13:12:09.670000Z</value>
          <uncertainty>0.02</uncertainty>
        </time>
        <waveformID networkCode="CN" stationCode="VDB" locationCode="" channelCode="EHZ"></waveformID>
        <polarity>negative</polarity>
        <evaluationMode>manual</evaluationMode>
        <evaluationStatus>final</evaluationStatus>
        <creationInfo>
          <agencyID>UW</agencyID>
          <creationTime>2012-03-06T12:29:37.000000Z</creationTime>
        </creationInfo>
      </pick>
      <pick publicID="quakeml:uw.anss.org/Arrival/UW/9543438">
        <time>
          <value>2007-12-25T13:12:13.170000Z</value>
          <uncertainty>0.02</uncertainty>
        </time>
        <waveformID networkCode="CN" stationCode="VDB" locationCode="" channelCode="EHZ"></waveformID>
        <polarity>undecidable</polarity>
        <evaluationMode>manual</evaluationMode>
        <evaluationStatus>final</evaluationStatus>
        <creationInfo>
          <agencyID>UW</agencyID>
          <creationTime>2012-03-06T12:29:37.000000Z</creationTime>
        </creationInfo>
      </pick>
      <pick publicID="quakeml:uw.anss.org/Arrival/UW/9543463">
        <time>
          <value>2007-12-25T13:12:12.980000Z</value>
          <uncertainty>0.04</uncertainty>
        </time>
        <waveformID networkCode="UW" stationCode="CMW" locationCode="" channelCode="EHZ"></waveformID>
        <polarity>undecidable</polarity>
        <evaluationMode>manual</evaluationMode>
        <evaluationStatus>final</evaluationStatus>
        <creationInfo>
          <agencyID>UW</agencyID>
          <creationTime>2012-03-06T12:29:37.000000Z</creationTime>
        </creationInfo>
      </pick>
      <pick publicID="quakeml:uw.anss.org/Arrival/UW/9543468">
        <time>
          <value>2007-12-25T13:12:08.930000Z</value>
          <uncertainty>0.01</uncertainty>
        </time>
        <waveformID networkCode="UW" stationCode="MBW" locationCode="" channelCode="EHZ"></waveformID>
        <polarity>negative</polarity>
        <evaluationMode>manual</evaluationMode>
        <evaluationStatus>final</evaluationStatus>
        <creationInfo>
          <agencyID>UW</agencyID>
          <creationTime>2012-03-06T12:29:37.000000Z</creationTime>
        </creationInfo>
      </pick>
      <amplitude publicID="quakeml:uw.anss.org/Coda/UW/2196403">
        <genericAmplitude>
          <value>22.0</value>
        </genericAmplitude>
        <type>END</type>
        <category>duration</category>
        <unit>s</unit>
        <waveformID networkCode="CN" stationCode="VDB" locationCode="" channelCode="EHZ"></waveformID>
        <magnitudeHint>MD</magnitudeHint>
        <evaluationMode>manual</evaluationMode>
        <evaluationStatus>final</evaluationStatus>
      </amplitude>
      <amplitude publicID="quakeml:uw.anss.org/Coda/UW/2196398">
        <genericAmplitude>
          <value>20.0</value>
        </genericAmplitude>
        <type>END</type>
        <category>duration</category>
        <unit>s</unit>
        <waveformID networkCode="UW" stationCode="JCW" locationCode="" channelCode="EHZ"></waveformID>
        <magnitudeHint>MD</magnitudeHint>
        <evaluationMode>manual</evaluationMode>
        <evaluationStatus>final</evaluationStatus>
      </amplitude>
      <amplitude publicID="quakeml:uw.anss.org/Coda/UW/2196408">
        <genericAmplitude>
          <value>12.0</value>
        </genericAmplitude>
        <type>END</type>
        <category>duration</category>
        <unit>s</unit>
        <waveformID networkCode="UW" stationCode="MBW" locationCode="" channelCode="EHZ"></waveformID>
        <magnitudeHint>MD</magnitudeHint>
        <evaluationMode>manual</evaluationMode>
        <evaluationStatus>final</evaluationStatus>
      </amplitude>
    </event>
  </eventParameters>
</q:quakeml>
