<?xml version='1.0' encoding='utf-8'?>
<q:quakeml xmlns="http://quakeml.org/xmlns/bed/1.2" xmlns:q="http://quakeml.org/xmlns/quakeml/1.2" xmlns:ns0="http://anss.org/xmlns/catalog/0.1">
  <eventParameters publicID="smi:local/ecb36755-8144-4efb-8f8a-becbbfa3090f">
    <event publicID="quakeml:uw.anss.org/Event/UW/10718073" ns0:datasource="uw" ns0:dataid="uw10718073" ns0:eventsource="uw" ns0:eventid="10718073">
      <preferredOriginID>quakeml:uw.anss.org/Origin/UW/1000978</preferredOriginID>
      <preferredMagnitudeID>quakeml:uw.anss.org/Netmag/UW/782178</preferredMagnitudeID>
      <type>earthquake</type>
      <creationInfo>
        <agencyID>UW</agencyID>
        <creationTime>2012-03-06T10:39:58.000000Z</creationTime>
        <version>3</version>
      </creationInfo>
      <origin publicID="quakeml:uw.anss.org/Origin/UW/1000978" ns0:datasource="uw" ns0:dataid="uw10718073" ns0:eventsource="uw" ns0:eventid="10718073">
        <time>
          <value>2007-04-17T20:01:40.170000Z</value>
          <uncertainty>0.07</uncertainty>
        </time>
        <latitude>
          <value>48.8233333</value>
          <uncertainty>0.37</uncertainty>
        </latitude>
        <longitude>
          <value>-122.1271667</value>
          <uncertainty>0.49</uncertainty>
        </longitude>
        <depth>
          <value>11029.0</value>
          <uncertainty>1230.0</uncertainty>
        </depth>
        <depthType>from location</depthType>
        <timeFixed>false</timeFixed>
        <epicenterFixed>false</epicenterFixed>
        <methodID>smi:uw.anss.org/origin/spong</methodID>
        <quality>
          <associatedPhaseCount>30</associatedPhaseCount>
          <usedPhaseCount>21</usedPhaseCount>
          <associatedStationCount>19</associatedStationCount>
          <usedStationCount>0</usedStationCount>
          <standardError>0.2</standardError>
          <azimuthalGap>87.0</azimuthalGap>
        </quality>
        <type>hypocenter</type>
        <evaluationMode>manual</evaluationMode>
        <evaluationStatus>final</evaluationStatus>
        <creationInfo>
          <agencyID>UW</agencyID>
          <creationTime>2012-03-06T10:39:58.000000Z</creationTime>
        </creationInfo>
        <originUncertainty>
          <preferredDescription>horizontal uncertainty</preferredDescription>
          <horizontalUncertainty>614.0</horizontalUncertainty>
        </originUncertainty>
        <arrival publicID="quakeml:uw.anss.org/AssocArO/UW/9321383">
          <pickID>quakeml:uw.anss.org/Arrival/UW/9321383</pickID>
          <phase>P</phase>
          <azimuth>177.9</azimuth>
          <distance>0.5601</distance>
          <timeResidual>0.12</timeResidual>
          <creationInfo>
            <agencyID>UW</agencyID>
            <creationTime>2012-03-06T10:39:58.000000Z</creationTime>
          </creationInfo>
        </arrival>
        <arrival publicID="quakeml:uw.anss.org/AssocArO/UW/9321388">
          <pickID>quakeml:uw.anss.org/Arrival/UW/9321388</pickID>
          <phase>S</phase>
          <azimuth>177.9</azimuth>
          <distance>0.5601</distance>
          <timeResidual>0.9</timeResidual>
          <creationInfo>
            <agencyID>UW</agencyID>
            <creationTime>2012-03-06T10:39:58.000000Z</creationTime>
          </creationInfo>
        </arrival>
        <arrival publicID="quakeml:uw.anss.org/AssocArO/UW/9321393">
          <pickID>quakeml:uw.anss.org/Arrival/UW/9321393</pickID>
          <phase>P</phase>
          <azimuth>208.1</azimuth>
          <distance>1.33</distance>
          <timeResidual>-0.03</timeResidual>
          <creationInfo>
            <agencyID>UW</agencyID>
            <creationTime>2012-03-06T10:39:58.000000Z</creationTime>
          </creationInfo>
        </arrival>
        <arrival publicID="quakeml:uw.anss.org/AssocArO/UW/9321398">
          <pickID>quakeml:uw.anss.org/Arrival/UW/9321398</pickID>
          <phase>P</phase>
          <azimuth>255.0</azimuth>
          <distance>0.3974</distance>
          <timeResidual>-0.08</timeResidual>
          <creationInfo>
            <agencyID>UW</agencyID>
            <creationTime>2012-03-06T10:39:58.000000Z</creationTime>
          </creationInfo>
        </arrival>
        <arrival publicID="quakeml:uw.anss.org/AssocArO/UW/9321403">
          <pickID>quakeml:uw.anss.org/Arrival/UW/9321403</pickID>
          <phase>S</phase>
          <azimuth>255.0</azimuth>
          <distance>0.3974</distance>
          <timeResidual>-0.28</timeResidual>
          <creationInfo>
            <agencyID>UW</agencyID>
            <creationTime>2012-03-06T10:39:58.000000Z</creationTime>
          </creationInfo>
        </arrival>
        <arrival publicID="quakeml:uw.anss.org/AssocArO/UW/9321408">
          <pickID>quakeml:uw.anss.org/Arrival/UW/9321408</pickID>
          <phase>S</phase>
          <azimuth>255.0</azimuth>
          <distance>0.3974</distance>
          <timeResidual>0.19</timeResidual>
          <creationInfo>
            <agencyID>UW</agencyID>
            <creationTime>2012-03-06T10:39:58.000000Z</creationTime>
          </creationInfo>
        </arrival>
        <arrival publicID="quakeml:uw.anss.org/AssocArO/UW/9321413">
          <pickID>quakeml:uw.anss.org/Arrival/UW/9321413</pickID>
          <phase>P</phase>
          <azimuth>168.0</azimuth>
          <timeResidual>0.28</timeResidual>
          <creationInfo>
            <agencyID>UW</agencyID>
            <creationTime>2012-03-06T10:39:58.000000Z</creationTime>
          </creationInfo>
        </arrival>
        <arrival publicID="quakeml:uw.anss.org/AssocArO/UW/9321418">
          <pickID>quakeml:uw.anss.org/Arrival/UW/9321418</pickID>
          <phase>S</phase>
          <azimuth>168.0</azimuth>
          <timeResidual>0.46</timeResidual>
          <creationInfo>
            <agencyID>UW</agencyID>
            <creationTime>2012-03-06T10:39:58.000000Z</creationTime>
          </creationInfo>
        </arrival>
        <arrival publicID="quakeml:uw.anss.org/AssocArO/UW/9321423">
          <pickID>quakeml:uw.anss.org/Arrival/UW/9321423</pickID>
          <phase>P</phase>
          <azimuth>266.4</azimuth>
          <distance>0.6927</distance>
          <timeResidual>0.06</timeResidual>
          <creationInfo>
            <agencyID>UW</agencyID>
            <creationTime>2012-03-06T10:39:58.000000Z</creationTime>
          </creationInfo>
        </arrival>
        <arrival publicID="quakeml:uw.anss.org/AssocArO/UW/9321428">
          <pickID>quakeml:uw.anss.org/Arrival/UW/9321428</pickID>
          <phase>S</phase>
          <azimuth>266.4</azimuth>
          <distance>0.6927</distance>
          <timeResidual>-0.03</timeResidual>
          <creationInfo>
            <agencyID>UW</agencyID>
            <creationTime>2012-03-06T10:39:58.000000Z</creationTime>
          </creationInfo>
        </arrival>
        <arrival publicID="quakeml:uw.anss.org/AssocArO/UW/9321433">
          <pickID>quakeml:uw.anss.org/Arrival/UW/9321433</pickID>
          <phase>P</phase>
          <azimuth>219.5</azimuth>
          <distance>0.9689</distance>
          <timeResidual>0.82</timeResidual>
          <creationInfo>
            <agencyID>UW</agencyID>
            <creationTime>2012-03-06T10:39:58.000000Z</creationTime>
          </creationInfo>
        </arrival>
        <arrival publicID="quakeml:uw.anss.org/AssocArO/UW/9321438">
          <pickID>quakeml:uw.anss.org/Arrival/UW/9321438</pickID>
          <phase>S</phase>
          <azimuth>219.5</azimuth>
          <distance>0.9689</distance>
          <timeResidual>1.24</timeResidual>
          <creationInfo>
            <agencyID>UW</agencyID>
            <creationTime>2012-03-06T10:39:58.000000Z</creationTime>
          </creationInfo>
        </arrival>
        <arrival publicID="quakeml:uw.anss.org/AssocArO/UW/9321443">
          <pickID>quakeml:uw.anss.org/Arrival/UW/9321443</pickID>
          <phase>P</phase>
          <azimuth>214.8</azimuth>
          <distance>0.9926</distance>
          <timeResidual>0.59</timeResidual>
          <creationInfo>
            <agencyID>UW</agencyID>
            <creationTime>2012-03-06T10:39:58.000000Z</creationTime>
          </creationInfo>
        </arrival>
        <arrival publicID="quakeml:uw.anss.org/AssocArO/UW/9321448">
          <pickID>quakeml:uw.anss.org/Arrival/UW/9321448</pickID>
          <phase>P</phase>
          <azimuth>56.8</azimuth>
          <distance>0.5074</distance>
          <timeResidual>0.38</timeResidual>
          <creationInfo>
            <agencyID>UW</agencyID>
            <creationTime>2012-03-06T10:39:58.000000Z</creationTime>
          </creationInfo>
        </arrival>
        <arrival publicID="quakeml:uw.anss.org/AssocArO/UW/9321453">
          <pickID>quakeml:uw.anss.org/Arrival/UW/9321453</pickID>
          <phase>S</phase>
          <azimuth>56.8</azimuth>
          <distance>0.5074</distance>
          <timeResidual>0.6</timeResidual>
          <creationInfo>
            <agencyID>UW</agencyID>
            <creationTime>2012-03-06T10:39:58.000000Z</creationTime>
          </creationInfo>
        </arrival>
        <arrival publicID="quakeml:uw.anss.org/AssocArO/UW/9321458">
          <pickID>quakeml:uw.anss.org/Arrival/UW/9321458</pickID>
          <phase>P</phase>
          <azimuth>259.2</azimuth>
          <distance>0.8917</distance>
          <timeResidual>-0.44</timeResidual>
          <creationInfo>
            <agencyID>UW</agencyID>
            <creationTime>2012-03-06T10:39:58.000000Z</creationTime>
          </creationInfo>
        </arrival>
        <arrival publicID="quakeml:uw.anss.org/AssocArO/UW/9321463">
          <pickID>quakeml:uw.anss.org/Arrival/UW/9321463</pickID>
          <phase>S</phase>
          <azimuth>259.2</azimuth>
          <distance>0.8917</distance>
          <timeResidual>-1.45</timeResidual>
          <creationInfo>
            <agencyID>UW</agencyID>
            <creationTime>2012-03-06T10:39:58.000000Z</creationTime>
          </creationInfo>
        </arrival>
        <arrival publicID="quakeml:uw.anss.org/AssocArO/UW/9321468">
          <pickID>quakeml:uw.anss.org/Arrival/UW/9321468</pickID>
          <phase>P</phase>
          <azimuth>354.3</azimuth>
          <distance>0.09362</distance>
          <timeResidual>-0.01</timeResidual>
          <creationInfo>
            <agencyID>UW</agencyID>
            <creationTime>2012-03-06T10:39:58.000000Z</creationTime>
          </creationInfo>
        </arrival>
        <arrival publicID="quakeml:uw.anss.org/AssocArO/UW/9321473">
          <pickID>quakeml:uw.anss.org/Arrival/UW/9321473</pickID>
          <phase>S</phase>
          <azimuth>354.3</azimuth>
          <distance>0.09362</distance>
          <timeResidual>0.02</timeResidual>
          <creationInfo>
            <agencyID>UW</agencyID>
            <creationTime>2012-03-06T10:39:58.000000Z</creationTime>
          </creationInfo>
        </arrival>
        <arrival publicID="quakeml:uw.anss.org/AssocArO/UW/9321478">
          <pickID>quakeml:uw.anss.org/Arrival/UW/9321478</pickID>
          <phase>S</phase>
          <azimuth>354.3</azimuth>
          <distance>0.09362</distance>
          <timeResidual>0.33</timeResidual>
          <creationInfo>
            <agencyID>UW</agencyID>
            <creationTime>2012-03-06T10:39:58.000000Z</creationTime>
          </creationInfo>
        </arrival>
        <arrival publicID="quakeml:uw.anss.org/AssocArO/UW/9321483">
          <pickID>quakeml:uw.anss.org/Arrival/UW/9321483</pickID>
          <phase>P</phase>
          <azimuth>166.7</azimuth>
          <distance>1.048</distance>
          <timeResidual>0.74</timeResidual>
          <creationInfo>
            <agencyID>UW</agencyID>
            <creationTime>2012-03-06T10:39:58.000000Z</creationTime>
          </creationInfo>
        </arrival>
        <arrival publicID="quakeml:uw.anss.org/AssocArO/UW/9321498">
          <pickID>quakeml:uw.anss.org/Arrival/UW/9321498</pickID>
          <phase>P</phase>
          <azimuth>253.0</azimuth>
          <distance>0.4887</distance>
          <timeResidual>0.19</timeResidual>
          <creationInfo>
            <agencyID>UW</agencyID>
            <creationTime>2012-03-06T10:39:58.000000Z</creationTime>
          </creationInfo>
        </arrival>
        <arrival publicID="quakeml:uw.anss.org/AssocArO/UW/9321508">
          <pickID>quakeml:uw.anss.org/Arrival/UW/9321508</pickID>
          <phase>P</phase>
          <azimuth>136.7</azimuth>
          <distance>0.9653</distance>
          <timeResidual>1.64</timeResidual>
          <creationInfo>
            <agencyID>UW</agencyID>
            <creationTime>2012-03-06T10:39:58.000000Z</creationTime>
          </creationInfo>
        </arrival>
        <arrival publicID="quakeml:uw.anss.org/AssocArO/UW/9321513">
          <pickID>quakeml:uw.anss.org/Arrival/UW/9321513</pickID>
          <phase>P</phase>
          <azimuth>4.5</azimuth>
          <distance>0.2036</distance>
          <timeResidual>-0.07</timeResidual>
          <creationInfo>
            <agencyID>UW</agencyID>
            <creationTime>2012-03-06T10:39:58.000000Z</creationTime>
          </creationInfo>
        </arrival>
        <arrival publicID="quakeml:uw.anss.org/AssocArO/UW/9321518">
          <pickID>quakeml:uw.anss.org/Arrival/UW/9321518</pickID>
          <phase>P</phase>
          <azimuth>243.1</azimuth>
          <distance>0.8947</distance>
          <timeResidual>0.29</timeResidual>
          <creationInfo>
            <agencyID>UW</agencyID>
            <creationTime>2012-03-06T10:39:58.000000Z</creationTime>
          </creationInfo>
        </arrival>
        <arrival publicID="quakeml:uw.anss.org/AssocArO/UW/9321523">
          <pickID>quakeml:uw.anss.org/Arrival/UW/9321523</pickID>
          <phase>P</phase>
          <azimuth>179.3</azimuth>
          <distance>0.4002</distance>
          <timeResidual>-0.32</timeResidual>
          <creationInfo>
            <agencyID>UW</agencyID>
            <creationTime>2012-03-06T10:39:58.000000Z</creationTime>
          </creationInfo>
        </arrival>
        <arrival publicID="quakeml:uw.anss.org/AssocArO/UW/9321533">
          <pickID>quakeml:uw.anss.org/Arrival/UW/9321533</pickID>
          <phase>P</phase>
          <azimuth>125.5</azimuth>
          <distance>0.5241</distance>
          <timeResidual>0.07</timeResidual>
          <creationInfo>
            <agencyID>UW</agencyID>
            <creationTime>2012-03-06T10:39:58.000000Z</creationTime>
          </creationInfo>
        </arrival>
        <arrival publicID="quakeml:uw.anss.org/AssocArO/UW/9321538">
          <pickID>quakeml:uw.anss.org/Arrival/UW/9321538</pickID>
          <phase>S</phase>
          <azimuth>125.5</azimuth>
          <distance>0.5241</distance>
          <timeResidual>0.12</timeResidual>
          <creationInfo>
            <agencyID>UW</agencyID>
            <creationTime>2012-03-06T10:39:58.000000Z</creationTime>
          </creationInfo>
        </arrival>
        <arrival publicID="quakeml:uw.anss.org/AssocArO/UW/9321543">
          <pickID>quakeml:uw.anss.org/Arrival/UW/9321543</pickID>
          <phase>P</phase>
          <azimuth>121.8</azimuth>
          <distance>1.408</distance>
          <timeResidual>1.35</timeResidual>
          <creationInfo>
            <agencyID>UW</agencyID>
            <creationTime>2012-03-06T10:39:58.000000Z</creationTime>
          </creationInfo>
        </arrival>
        <arrival publicID="quakeml:uw.anss.org/AssocArO/UW/9321548">
          <pickID>quakeml:uw.anss.org/Arrival/UW/9321548</pickID>
          <phase>P</phase>
          <azimuth>104.8</azimuth>
          <distance>0.1547</distance>
          <timeResidual>-0.09</timeResidual>
          <creationInfo>
            <agencyID>UW</agencyID>
            <creationTime>2012-03-06T10:39:58.000000Z</creationTime>
          </creationInfo>
        </arrival>
      </origin>
      <magnitude publicID="quakeml:uw.anss.org/Netmag/UW/782178">
        <mag>
          <value>2.3</value>
          <uncertainty>0.1</uncertainty>
        </mag>
        <type>Md</type>
        <originID>quakeml:uw.anss.org/Origin/UW/1000978</originID>
        <methodID>smi:uw.anss.org/magnitude/Crosson</methodID>
        <stationCount>8</stationCount>
        <evaluationMode>manual</evaluationMode>
        <evaluationStatus>final</evaluationStatus>
        <stationMagnitudeContribution>
          <stationMagnitudeID>quakeml:uw.anss.org/AssocCoM/UW/2159998</stationMagnitudeID>
          <weight>1.0</weight>
          <residual>0.17</residual>
        </stationMagnitudeContribution>
        <stationMagnitudeContribution>
          <stationMagnitudeID>quakeml:uw.anss.org/AssocCoM/UW/2160008</stationMagnitudeID>
          <weight>1.0</weight>
          <residual>-0.18</residual>
        </stationMagnitudeContribution>
        <stationMagnitudeContribution>
          <stationMagnitudeID>quakeml:uw.anss.org/AssocCoM/UW/2160028</stationMagnitudeID>
          <weight>1.0</weight>
          <residual>-0.13</residual>
        </stationMagnitudeContribution>
        <stationMagnitudeContribution>
          <stationMagnitudeID>quakeml:uw.anss.org/AssocCoM/UW/2160023</stationMagnitudeID>
          <weight>1.0</weight>
          <residual>0.35</residual>
        </stationMagnitudeContribution>
        <stationMagnitudeContribution>
          <stationMagnitudeID>quakeml:uw.anss.org/AssocCoM/UW/2160013</stationMagnitudeID>
          <weight>1.0</weight>
          <residual>-0.04</residual>
        </stationMagnitudeContribution>
        <stationMagnitudeContribution>
          <stationMagnitudeID>quakeml:uw.anss.org/AssocCoM/UW/2160033</stationMagnitudeID>
          <weight>1.0</weight>
          <residual>-0.15</residual>
        </stationMagnitudeContribution>
        <stationMagnitudeContribution>
          <stationMagnitudeID>quakeml:uw.anss.org/AssocCoM/UW/2160003</stationMagnitudeID>
          <weight>1.0</weight>
          <residual>-0.37</residual>
        </stationMagnitudeContribution>
        <stationMagnitudeContribution>
          <stationMagnitudeID>quakeml:uw.anss.org/AssocCoM/UW/2160018</stationMagnitudeID>
          <weight>1.0</weight>
          <residual>0.25</residual>
        </stationMagnitudeContribution>
        <creationInfo>
          <agencyID>UW</agencyID>
          <creationTime>2012-03-06T10:39:58.000000Z</creationTime>
        </creationInfo>
      </magnitude>
      <stationMagnitude publicID="quakeml:uw.anss.org/AssocCoM/UW/2159998">
        <originID>quakeml:uw.anss.org/Origin/UW/1000978</originID>
        <mag>
          <value>2.47</value>
        </mag>
        <type>MD</type>
        <amplitudeID>quakeml:uw.anss.org/Coda/UW/2159998</amplitudeID>
        <waveformID networkCode="UW" stationCode="JCW" locationCode="" channelCode="EHZ"></waveformID>
      </stationMagnitude>
      <stationMagnitude publicID="quakeml:uw.anss.org/AssocCoM/UW/2160003">
        <originID>quakeml:uw.anss.org/Origin/UW/1000978</originID>
        <mag>
          <value>1.93</value>
        </mag>
        <type>MD</type>
        <amplitudeID>quakeml:uw.anss.org/Coda/UW/2160003</amplitudeID>
        <waveformID networkCode="UW" stationCode="BLN" locationCode="" channelCode="EHZ"></waveformID>
      </stationMagnitude>
      <stationMagnitude publicID="quakeml:uw.anss.org/AssocCoM/UW/2160008">
        <originID>quakeml:uw.anss.org/Origin/UW/1000978</originID>
        <mag>
          <value>2.12</value>
        </mag>
        <type>MD</type>
        <amplitudeID>quakeml:uw.anss.org/Coda/UW/2160008</amplitudeID>
        <waveformID networkCode="UW" stationCode="HTW" locationCode="" channelCode="EHZ"></waveformID>
      </stationMagnitude>
      <stationMagnitude publicID="quakeml:uw.anss.org/AssocCoM/UW/2160013">
        <originID>quakeml:uw.anss.org/Origin/UW/1000978</originID>
        <mag>
          <value>2.26</value>
        </mag>
