<?xml version='1.0' encoding='utf-8'?>
<q:quakeml xmlns="http://quakeml.org/xmlns/bed/1.2" xmlns:q="http://quakeml.org/xmlns/quakeml/1.2" xmlns:ns0="http://anss.org/xmlns/catalog/0.1">
  <eventParameters publicID="smi:local/fa9da930-bd0a-4208-933b-e375fbcd1949">
    <event publicID="quakeml:uw.anss.org/Event/UW/10738453" ns0:datasource="uw" ns0:dataid="uw10738453" ns0:eventsource="uw" ns0:eventid="10738453">
      <preferredOriginID>quakeml:uw.anss.org/Origin/UW/1021373</preferredOriginID>
      <preferredMagnitudeID>quakeml:uw.anss.org/Netmag/UW/796073</preferredMagnitudeID>
      <type>earthquake</type>
      <creationInfo>
        <agencyID>UW</agencyID>
        <creationTime>2012-03-06T12:33:53.000000Z</creationTime>
        <version>3</version>
      </creationInfo>
      <origin publicID="quakeml:uw.anss.org/Origin/UW/1021373" ns0:datasource="uw" ns0:dataid="uw10738453" ns0:eventsource="uw" ns0:eventid="10738453">
        <time>
          <value>2007-12-28T12:25:43.390000Z</value>
          <uncertainty>0.17</uncertainty>
        </time>
        <latitude>
          <value>48.8085</value>
          <uncertainty>0.94</uncertainty>
        </latitude>
        <longitude>
          <value>-122.0911667</value>
          <uncertainty>1.02</uncertainty>
        </longitude>
        <depth>
          <value>14039.0</value>
          <uncertainty>2650.0</uncertainty>
        </depth>
        <depthType>from location</depthType>
        <timeFixed>false</timeFixed>
        <epicenterFixed>false</epicenterFixed>
        <methodID>smi:uw.anss.org/origin/spong</methodID>
        <quality>
          <associatedPhaseCount>26</associatedPhaseCount>
          <usedPhaseCount>24</usedPhaseCount>
          <associatedStationCount>23</associatedStationCount>
          <usedStationCount>0</usedStationCount>
          <standardError>0.41</standardError>
          <azimuthalGap>75.0</azimuthalGap>
        </quality>
        <type>hypocenter</type>
        <evaluationMode>manual</evaluationMode>
        <evaluationStatus>final</evaluationStatus>
        <creationInfo>
          <agencyID>UW</agencyID>
          <creationTime>2012-03-06T12:33:53.000000Z</creationTime>
        </creationInfo>
        <originUncertainty>
          <preferredDescription>horizontal uncertainty</preferredDescription>
          <horizontalUncertainty>1387.0</horizontalUncertainty>
        </originUncertainty>
        <arrival publicID="quakeml:uw.anss.org/AssocArO/UW/9549103">
          <pickID>quakeml:uw.anss.org/Arrival/UW/9549103</pickID>
          <phase>P</phase>
          <azimuth>180.3</azimuth>
          <distance>0.5448</distance>
          <timeResidual>0.33</timeResidual>
          <creationInfo>
            <agencyID>UW</agencyID>
            <creationTime>2012-03-06T12:33:53.000000Z</creationTime>
          </creationInfo>
        </arrival>
        <arrival publicID="quakeml:uw.anss.org/AssocArO/UW/9549133">
          <pickID>quakeml:uw.anss.org/Arrival/UW/9549133</pickID>
          <phase>S</phase>
          <azimuth>180.3</azimuth>
          <distance>0.5448</distance>
          <timeResidual>1.15</timeResidual>
          <creationInfo>
            <agencyID>UW</agencyID>
            <creationTime>2012-03-06T12:33:53.000000Z</creationTime>
          </creationInfo>
        </arrival>
        <arrival publicID="quakeml:uw.anss.org/AssocArO/UW/9549138">
          <pickID>quakeml:uw.anss.org/Arrival/UW/9549138</pickID>
          <phase>P</phase>
          <azimuth>209.3</azimuth>
          <distance>1.328</distance>
          <timeResidual>0.16</timeResidual>
          <creationInfo>
            <agencyID>UW</agencyID>
            <creationTime>2012-03-06T12:33:53.000000Z</creationTime>
          </creationInfo>
        </arrival>
        <arrival publicID="quakeml:uw.anss.org/AssocArO/UW/9549148">
          <pickID>quakeml:uw.anss.org/Arrival/UW/9549148</pickID>
          <phase>P</phase>
          <azimuth>121.8</azimuth>
          <distance>1.38</distance>
          <timeResidual>1.25</timeResidual>
          <creationInfo>
            <agencyID>UW</agencyID>
            <creationTime>2012-03-06T12:33:53.000000Z</creationTime>
          </creationInfo>
        </arrival>
        <arrival publicID="quakeml:uw.anss.org/AssocArO/UW/9549158">
          <pickID>quakeml:uw.anss.org/Arrival/UW/9549158</pickID>
          <phase>P</phase>
          <azimuth>208.6</azimuth>
          <distance>1.241</distance>
          <timeResidual>0.15</timeResidual>
          <creationInfo>
            <agencyID>UW</agencyID>
            <creationTime>2012-03-06T12:33:53.000000Z</creationTime>
          </creationInfo>
        </arrival>
        <arrival publicID="quakeml:uw.anss.org/AssocArO/UW/9549168">
          <pickID>quakeml:uw.anss.org/Arrival/UW/9549168</pickID>
          <phase>P</phase>
          <azimuth>222.4</azimuth>
          <distance>1.033</distance>
          <timeResidual>0.31</timeResidual>
          <creationInfo>
            <agencyID>UW</agencyID>
            <creationTime>2012-03-06T12:33:53.000000Z</creationTime>
          </creationInfo>
        </arrival>
        <arrival publicID="quakeml:uw.anss.org/AssocArO/UW/9549178">
          <pickID>quakeml:uw.anss.org/Arrival/UW/9549178</pickID>
          <phase>P</phase>
          <azimuth>182.9</azimuth>
          <distance>0.3858</distance>
          <timeResidual>-0.33</timeResidual>
          <creationInfo>
            <agencyID>UW</agencyID>
            <creationTime>2012-03-06T12:33:53.000000Z</creationTime>
          </creationInfo>
        </arrival>
        <arrival publicID="quakeml:uw.anss.org/AssocArO/UW/9549183">
          <pickID>quakeml:uw.anss.org/Arrival/UW/9549183</pickID>
          <phase>P</phase>
          <azimuth>133.2</azimuth>
          <distance>0.5256</distance>
          <timeResidual>-0.04</timeResidual>
          <creationInfo>
            <agencyID>UW</agencyID>
            <creationTime>2012-03-06T12:33:53.000000Z</creationTime>
          </creationInfo>
        </arrival>
        <arrival publicID="quakeml:uw.anss.org/AssocArO/UW/9549193">
          <pickID>quakeml:uw.anss.org/Arrival/UW/9549193</pickID>
          <phase>P</phase>
          <azimuth>343.1</azimuth>
          <distance>0.113</distance>
          <timeResidual>0.88</timeResidual>
          <creationInfo>
            <agencyID>UW</agencyID>
            <creationTime>2012-03-06T12:33:53.000000Z</creationTime>
          </creationInfo>
        </arrival>
        <arrival publicID="quakeml:uw.anss.org/AssocArO/UW/9549198">
          <pickID>quakeml:uw.anss.org/Arrival/UW/9549198</pickID>
          <phase>P</phase>
          <azimuth>125.7</azimuth>
          <distance>0.4961</distance>
          <timeResidual>0.07</timeResidual>
          <creationInfo>
            <agencyID>UW</agencyID>
            <creationTime>2012-03-06T12:33:53.000000Z</creationTime>
          </creationInfo>
        </arrival>
        <arrival publicID="quakeml:uw.anss.org/AssocArO/UW/9549203">
          <pickID>quakeml:uw.anss.org/Arrival/UW/9549203</pickID>
          <phase>S</phase>
          <azimuth>125.7</azimuth>
          <distance>0.4961</distance>
          <timeResidual>0.42</timeResidual>
          <creationInfo>
            <agencyID>UW</agencyID>
            <creationTime>2012-03-06T12:33:53.000000Z</creationTime>
          </creationInfo>
        </arrival>
        <arrival publicID="quakeml:uw.anss.org/AssocArO/UW/9549233">
          <pickID>quakeml:uw.anss.org/Arrival/UW/9549233</pickID>
          <phase>P</phase>
          <azimuth>101.1</azimuth>
          <distance>0.1282</distance>
          <timeResidual>-0.42</timeResidual>
          <creationInfo>
            <agencyID>UW</agencyID>
            <creationTime>2012-03-06T12:33:53.000000Z</creationTime>
          </creationInfo>
        </arrival>
        <arrival publicID="quakeml:uw.anss.org/AssocArO/UW/9549243">
          <pickID>quakeml:uw.anss.org/Arrival/UW/9549243</pickID>
          <phase>P</phase>
          <azimuth>257.9</azimuth>
          <distance>0.4171</distance>
          <timeResidual>-0.42</timeResidual>
          <creationInfo>
            <agencyID>UW</agencyID>
            <creationTime>2012-03-06T12:33:53.000000Z</creationTime>
          </creationInfo>
        </arrival>
        <arrival publicID="quakeml:uw.anss.org/AssocArO/UW/9549248">
          <pickID>quakeml:uw.anss.org/Arrival/UW/9549248</pickID>
          <phase>P</phase>
          <azimuth>169.9</azimuth>
          <timeResidual>0.21</timeResidual>
          <creationInfo>
            <agencyID>UW</agencyID>
            <creationTime>2012-03-06T12:33:53.000000Z</creationTime>
          </creationInfo>
        </arrival>
        <arrival publicID="quakeml:uw.anss.org/AssocArO/UW/9549253">
          <pickID>quakeml:uw.anss.org/Arrival/UW/9549253</pickID>
          <phase>P</phase>
          <azimuth>231.8</azimuth>
          <distance>1.204</distance>
          <timeResidual>-0.31</timeResidual>
          <creationInfo>
            <agencyID>UW</agencyID>
            <creationTime>2012-03-06T12:33:53.000000Z</creationTime>
          </creationInfo>
        </arrival>
        <arrival publicID="quakeml:uw.anss.org/AssocArO/UW/9549258">
          <pickID>quakeml:uw.anss.org/Arrival/UW/9549258</pickID>
          <phase>P</phase>
          <azimuth>53.9</azimuth>
          <distance>0.4962</distance>
          <timeResidual>0.37</timeResidual>
          <creationInfo>
            <agencyID>UW</agencyID>
            <creationTime>2012-03-06T12:33:53.000000Z</creationTime>
          </creationInfo>
        </arrival>
        <arrival publicID="quakeml:uw.anss.org/AssocArO/UW/9549263">
          <pickID>quakeml:uw.anss.org/Arrival/UW/9549263</pickID>
          <phase>S</phase>
          <azimuth>53.9</azimuth>
          <distance>0.4962</distance>
          <timeResidual>0.64</timeResidual>
          <creationInfo>
            <agencyID>UW</agencyID>
            <creationTime>2012-03-06T12:33:53.000000Z</creationTime>
          </creationInfo>
        </arrival>
        <arrival publicID="quakeml:uw.anss.org/AssocArO/UW/9549268">
          <pickID>quakeml:uw.anss.org/Arrival/UW/9549268</pickID>
          <phase>P</phase>
          <azimuth>244.6</azimuth>
          <distance>0.9095</distance>
          <timeResidual>0.08</timeResidual>
          <creationInfo>
            <agencyID>UW</agencyID>
            <creationTime>2012-03-06T12:33:53.000000Z</creationTime>
          </creationInfo>
        </arrival>
        <arrival publicID="quakeml:uw.anss.org/AssocArO/UW/9549273">
          <pickID>quakeml:uw.anss.org/Arrival/UW/9549273</pickID>
          <phase>P</phase>
          <azimuth>178.0</azimuth>
          <distance>0.5732</distance>
          <timeResidual>0.61</timeResidual>
          <creationInfo>
            <agencyID>UW</agencyID>
            <creationTime>2012-03-06T12:33:53.000000Z</creationTime>
          </creationInfo>
        </arrival>
        <arrival publicID="quakeml:uw.anss.org/AssocArO/UW/9549278">
          <pickID>quakeml:uw.anss.org/Arrival/UW/9549278</pickID>
          <phase>P</phase>
          <azimuth>137.2</azimuth>
          <distance>0.9382</distance>
          <timeResidual>0.29</timeResidual>
          <creationInfo>
            <agencyID>UW</agencyID>
            <creationTime>2012-03-06T12:33:53.000000Z</creationTime>
          </creationInfo>
        </arrival>
        <arrival publicID="quakeml:uw.anss.org/AssocArO/UW/9549283">
          <pickID>quakeml:uw.anss.org/Arrival/UW/9549283</pickID>
          <phase>P</phase>
          <azimuth>267.7</azimuth>
          <distance>0.7157</distance>
          <timeResidual>0.02</timeResidual>
          <creationInfo>
            <agencyID>UW</agencyID>
            <creationTime>2012-03-06T12:33:53.000000Z</creationTime>
          </creationInfo>
        </arrival>
        <arrival publicID="quakeml:uw.anss.org/AssocArO/UW/9549288">
          <pickID>quakeml:uw.anss.org/Arrival/UW/9549288</pickID>
          <phase>P</phase>
          <azimuth>167.8</azimuth>
          <distance>1.028</distance>
          <timeResidual>0.75</timeResidual>
          <creationInfo>
            <agencyID>UW</agencyID>
            <creationTime>2012-03-06T12:33:53.000000Z</creationTime>
          </creationInfo>
        </arrival>
        <arrival publicID="quakeml:uw.anss.org/AssocArO/UW/9549293">
          <pickID>quakeml:uw.anss.org/Arrival/UW/9549293</pickID>
          <phase>P</phase>
          <azimuth>358.0</azimuth>
          <distance>0.2179</distance>
          <timeResidual>-0.59</timeResidual>
          <creationInfo>
            <agencyID>UW</agencyID>
            <creationTime>2012-03-06T12:33:53.000000Z</creationTime>
          </creationInfo>
        </arrival>
        <arrival publicID="quakeml:uw.anss.org/AssocArO/UW/9549298">
          <pickID>quakeml:uw.anss.org/Arrival/UW/9549298</pickID>
          <phase>P</phase>
          <azimuth>221.2</azimuth>
          <distance>0.973</distance>
          <timeResidual>0.75</timeResidual>
          <creationInfo>
            <agencyID>UW</agencyID>
            <creationTime>2012-03-06T12:33:53.000000Z</creationTime>
          </creationInfo>
        </arrival>
        <arrival publicID="quakeml:uw.anss.org/AssocArO/UW/9549303">
          <pickID>quakeml:uw.anss.org/Arrival/UW/9549303</pickID>
          <phase>P</phase>
          <azimuth>231.6</azimuth>
          <distance>1.13</distance>
          <timeResidual>0.1</timeResidual>
          <creationInfo>
            <agencyID>UW</agencyID>
            <creationTime>2012-03-06T12:33:53.000000Z</creationTime>
          </creationInfo>
        </arrival>
        <arrival publicID="quakeml:uw.anss.org/AssocArO/UW/9549308">
          <pickID>quakeml:uw.anss.org/Arrival/UW/9549308</pickID>
          <phase>P</phase>
          <azimuth>255.4</azimuth>
          <distance>0.5076</distance>
          <timeResidual>-0.37</timeResidual>
          <creationInfo>
            <agencyID>UW</agencyID>
            <creationTime>2012-03-06T12:33:53.000000Z</creationTime>
          </creationInfo>
        </arrival>
      </origin>
      <magnitude publicID="quakeml:uw.anss.org/Netmag/UW/796073">
        <mag>
          <value>2.1</value>
          <uncertainty>0.06</uncertainty>
        </mag>
        <type>Md</type>
        <originID>quakeml:uw.anss.org/Origin/UW/1021373</originID>
        <methodID>smi:uw.anss.org/magnitude/Crosson</methodID>
        <stationCount>5</stationCount>
        <evaluationMode>manual</evaluationMode>
        <evaluationStatus>final</evaluationStatus>
        <stationMagnitudeContribution>
          <stationMagnitudeID>quakeml:uw.anss.org/AssocCoM/UW/2197213</stationMagnitudeID>
          <weight>1.0</weight>
          <residual>-0.04</residual>
        </stationMagnitudeContribution>
        <stationMagnitudeContribution>
          <stationMagnitudeID>quakeml:uw.anss.org/AssocCoM/UW/2197208</stationMagnitudeID>
          <weight>1.0</weight>
          <residual>-0.39</residual>
        </stationMagnitudeContribution>
        <stationMagnitudeContribution>
          <stationMagnitudeID>quakeml:uw.anss.org/AssocCoM/UW/2197218</stationMagnitudeID>
          <weight>1.0</weight>
          <residual>0.21</residual>
        </stationMagnitudeContribution>
        <stationMagnitudeContribution>
          <stationMagnitudeID>quakeml:uw.anss.org/AssocCoM/UW/2197223</stationMagnitudeID>
          <weight>1.0</weight>
          <residual>0.23</residual>
        </stationMagnitudeContribution>
        <stationMagnitudeContribution>
          <stationMagnitudeID>quakeml:uw.anss.org/AssocCoM/UW/2197198</stationMagnitudeID>
          <weight>1.0</weight>
          <residual>-0.04</residual>
        </stationMagnitudeContribution>
        <creationInfo>
          <agencyID>UW</agencyID>
          <creationTime>2012-03-06T12:33:53.000000Z</creationTime>
        </creationInfo>
      </magnitude>
      <stationMagnitude publicID="quakeml:uw.anss.org/AssocCoM/UW/2197198">
        <originID>quakeml:uw.anss.org/Origin/UW/1021373</originID>
        <mag>
          <value>2.06</value>
        </mag>
        <type>MD</type>
        <amplitudeID>quakeml:uw.anss.org/Coda/UW/2197198</amplitudeID>
        <waveformID networkCode="UW" stationCode="RPW" locationCode="" channelCode="EHZ"></waveformID>
      </stationMagnitude>
      <stationMagnitude publicID="quakeml:uw.anss.org/AssocCoM/UW/2197208">
        <originID>quakeml:uw.anss.org/Origin/UW/1021373</originID>
        <mag>
          <value>1.71</value>
        </mag>
        <type>MD</type>
        <amplitudeID>quakeml:uw.anss.org/Coda/UW/2197208</amplitudeID>
        <waveformID networkCode="UW" stationCode="MBW" locationCode="" channelCode="EHZ"></waveformID>
      </stationMagnitude>
      <stationMagnitude publicID="quakeml:uw.anss.org/AssocCoM/UW/2197213">
        <originID>quakeml:uw.anss.org/Origin/UW/1021373</originID>
        <mag>
          <value>2.06</value>
        </mag>
        <type>MD</type>
        <amplitudeID>quakeml:uw.anss.org/Coda/UW/2197213</amplitudeID>
        <waveformID networkCode="UW" stationCode="JCW" locationCode="" channelCode="EHZ"></waveformID>
      </stationMagnitude>
      <stationMagnitude publicID="quakeml:uw.anss.org/AssocCoM/UW/2197218">
        <originID>quakeml:uw.anss.org/Origin/UW/1021373</originID>
        <mag>
          <value>2.31</value>
        </mag>
        <type>MD</type>
        <amplitudeID>quakeml:uw.anss.org/Coda/UW/2197218</amplitudeID>
        <waveformID networkCode="UW" stationCode="GPW" locationCode="" channelCode="EHZ"></waveformID>
      </stationMagnitude>
      <stationMagnitude publicID="quakeml:uw.anss.org/AssocCoM/UW/2197223">
        <originID>quakeml:uw.anss.org/Origin/UW/1021373</originID>
        <mag>
          <value>2.33</value>
        </mag>
        <type>MD</type>
        <amplitudeID>quakeml:uw.anss.org/Coda/UW/2197223</amplitudeID>
        <waveformID networkCode="CN" stationCode="VDB" locationCode="" channelCode="EHZ"></waveformID>
      </stationMagnitude>
      <pick publicID="quakeml:uw.anss.org/Arrival/UW/9549103">
        <time>
          <value>2007-12-28T12:25:53.600000Z</value>
          <uncertainty>0.08</uncertainty>
        </time>
        <waveformID networkCode="TA" stationCode="B05A" locationCode="" channelCode="BHZ"></waveformID>
        <polarity>undecidable</polarity>
        <evaluationMode>manual</evaluationMode>
        <evaluationStatus>final</evaluationStatus>
        <creationInfo>
          <agencyID>UW</agencyID>
          <creationTime>2012-03-06T12:33:53.000000Z</creationTime>
        </creationInfo>
      </pick>
      <pick publicID="quakeml:uw.anss.org/Arrival/UW/9549133">
        <time>
          <value>2007-12-28T12:26:02.130000Z</value>
          <uncertainty>0.15</uncertainty>
        </time>
        <waveformID networkCode="TA" stationCode="B05A" locationCode="" channelCode="BHN"></waveformID>
        <polarity>undecidable</polarity>
        <evaluationMode>manual</evaluationMode>
        <evaluationStatus>final</evaluationStatus>
        <creationInfo>
          <agencyID>UW</agencyID>
          <creationTime>2012-03-06T12:33:53.000000Z</creationTime>
        </creationInfo>
      </pick>
      <pick publicID="quakeml:uw.anss.org/Arrival/UW/9549138">
        <time>
          <value>2007-12-28T12:26:06.270000Z</value>
          <uncertainty>0.03</uncertainty>
        </time>
        <waveformID networkCode="UW" stationCode="HDW" locationCode="" channelCode="EHZ"></waveformID>
        <polarity>negative</polarity>
        <evaluationMode>manual</evaluationMode>
        <evaluationStatus>final</evaluationStatus>
        <creationInfo>
          <agencyID>UW</agencyID>
          <creationTime>2012-03-06T12:33:53.000000Z</creationTime>
        </creationInfo>
      </pick>
      <pick publicID="quakeml:uw.anss.org/Arrival/UW/9549148">
        <time>
