<?xml version='1.0' encoding='utf-8'?>
<q:quakeml xmlns="http://quakeml.org/xmlns/bed/1.2" xmlns:q="http://quakeml.org/xmlns/quakeml/1.2" xmlns:ns0="http://anss.org/xmlns/catalog/0.1">
  <eventParameters publicID="smi:local/a53ae750-745c-4ab8-8d79-9e613df7e227">
    <event publicID="quakeml:uw.anss.org/Event/UW/10713153" ns0:datasource="uw" ns0:dataid="uw10713153" ns0:eventsource="uw" ns0:eventid="10713153">
      <preferredOriginID>quakeml:uw.anss.org/Origin/UW/996053</preferredOriginID>
      <preferredMagnitudeID>quakeml:uw.anss.org/Netmag/UW/778463</preferredMagnitudeID>
      <type>earthquake</type>
      <creationInfo>
        <agencyID>UW</agencyID>
        <creationTime>2012-03-06T10:17:28.000000Z</creationTime>
        <version>3</version>
      </creationInfo>
      <origin publicID="quakeml:uw.anss.org/Origin/UW/996053" ns0:datasource="uw" ns0:dataid="uw10713153" ns0:eventsource="uw" ns0:eventid="10713153">
        <time>
          <value>2007-06-12T19:42:26.550000Z</value>
          <uncertainty>0.1</uncertainty>
        </time>
        <latitude>
          <value>48.8036667</value>
          <uncertainty>0.41</uncertainty>
        </latitude>
        <longitude>
          <value>-122.1175</value>
          <uncertainty>0.39</uncertainty>
        </longitude>
        <depth>
          <value>1699.0</value>
          <uncertainty>770.0</uncertainty>
        </depth>
        <depthType>from location</depthType>
        <timeFixed>false</timeFixed>
        <epicenterFixed>false</epicenterFixed>
        <methodID>smi:uw.anss.org/origin/spong</methodID>
        <quality>
          <associatedPhaseCount>27</associatedPhaseCount>
          <usedPhaseCount>25</usedPhaseCount>
          <associatedStationCount>23</associatedStationCount>
          <usedStationCount>0</usedStationCount>
          <standardError>0.32</standardError>
          <azimuthalGap>84.0</azimuthalGap>
        </quality>
        <type>hypocenter</type>
        <evaluationMode>manual</evaluationMode>
        <evaluationStatus>final</evaluationStatus>
        <creationInfo>
          <agencyID>UW</agencyID>
          <creationTime>2012-03-06T10:17:28.000000Z</creationTime>
        </creationInfo>
        <originUncertainty>
          <preferredDescription>horizontal uncertainty</preferredDescription>
          <horizontalUncertainty>566.0</horizontalUncertainty>
        </originUncertainty>
        <arrival publicID="quakeml:uw.anss.org/AssocArO/UW/9261448">
          <pickID>quakeml:uw.anss.org/Arrival/UW/9261448</pickID>
          <phase>P</phase>
          <azimuth>178.5</azimuth>
          <distance>0.5402</distance>
          <timeResidual>0.61</timeResidual>
          <creationInfo>
            <agencyID>UW</agencyID>
            <creationTime>2012-03-06T10:17:28.000000Z</creationTime>
          </creationInfo>
        </arrival>
        <arrival publicID="quakeml:uw.anss.org/AssocArO/UW/9261453">
          <pickID>quakeml:uw.anss.org/Arrival/UW/9261453</pickID>
          <phase>P</phase>
          <azimuth>6.2</azimuth>
          <distance>0.196</distance>
          <timeResidual>-0.12</timeResidual>
          <creationInfo>
            <agencyID>UW</agencyID>
            <creationTime>2012-03-06T10:17:28.000000Z</creationTime>
          </creationInfo>
        </arrival>
        <arrival publicID="quakeml:uw.anss.org/AssocArO/UW/9261458">
          <pickID>quakeml:uw.anss.org/Arrival/UW/9261458</pickID>
          <phase>S</phase>
          <azimuth>6.2</azimuth>
          <distance>0.196</distance>
          <timeResidual>0.28</timeResidual>
          <creationInfo>
            <agencyID>UW</agencyID>
            <creationTime>2012-03-06T10:17:28.000000Z</creationTime>
          </creationInfo>
        </arrival>
        <arrival publicID="quakeml:uw.anss.org/AssocArO/UW/9261463">
          <pickID>quakeml:uw.anss.org/Arrival/UW/9261463</pickID>
          <phase>P</phase>
          <azimuth>121.2</azimuth>
          <distance>1.392</distance>
          <timeResidual>0.83</timeResidual>
          <creationInfo>
            <agencyID>UW</agencyID>
            <creationTime>2012-03-06T10:17:28.000000Z</creationTime>
          </creationInfo>
        </arrival>
        <arrival publicID="quakeml:uw.anss.org/AssocArO/UW/9261468">
          <pickID>quakeml:uw.anss.org/Arrival/UW/9261468</pickID>
          <phase>P</phase>
          <azimuth>260.5</azimuth>
          <distance>0.8945</distance>
          <timeResidual>-0.63</timeResidual>
          <creationInfo>
            <agencyID>UW</agencyID>
            <creationTime>2012-03-06T10:17:28.000000Z</creationTime>
          </creationInfo>
        </arrival>
        <arrival publicID="quakeml:uw.anss.org/AssocArO/UW/9261473">
          <pickID>quakeml:uw.anss.org/Arrival/UW/9261473</pickID>
          <phase>P</phase>
          <azimuth>221.9</azimuth>
          <distance>1.018</distance>
          <timeResidual>0.23</timeResidual>
          <creationInfo>
            <agencyID>UW</agencyID>
            <creationTime>2012-03-06T10:17:28.000000Z</creationTime>
          </creationInfo>
        </arrival>
        <arrival publicID="quakeml:uw.anss.org/AssocArO/UW/9261478">
          <pickID>quakeml:uw.anss.org/Arrival/UW/9261478</pickID>
          <phase>P</phase>
          <azimuth>180.3</azimuth>
          <distance>0.3805</distance>
          <timeResidual>-0.34</timeResidual>
          <creationInfo>
            <agencyID>UW</agencyID>
            <creationTime>2012-03-06T10:17:28.000000Z</creationTime>
          </creationInfo>
        </arrival>
        <arrival publicID="quakeml:uw.anss.org/AssocArO/UW/9261483">
          <pickID>quakeml:uw.anss.org/Arrival/UW/9261483</pickID>
          <phase>P</phase>
          <azimuth>171.1</azimuth>
          <distance>1.361</distance>
          <timeResidual>0.54</timeResidual>
          <creationInfo>
            <agencyID>UW</agencyID>
            <creationTime>2012-03-06T10:17:28.000000Z</creationTime>
          </creationInfo>
        </arrival>
        <arrival publicID="quakeml:uw.anss.org/AssocArO/UW/9261488">
          <pickID>quakeml:uw.anss.org/Arrival/UW/9261488</pickID>
          <phase>P</phase>
          <azimuth>352.1</azimuth>
          <distance>0.1139</distance>
          <timeResidual>0.15</timeResidual>
          <creationInfo>
            <agencyID>UW</agencyID>
            <creationTime>2012-03-06T10:17:28.000000Z</creationTime>
          </creationInfo>
        </arrival>
        <arrival publicID="quakeml:uw.anss.org/AssocArO/UW/9261493">
          <pickID>quakeml:uw.anss.org/Arrival/UW/9261493</pickID>
          <phase>P</phase>
          <azimuth>124.1</azimuth>
          <distance>0.5076</distance>
          <timeResidual>-0.2</timeResidual>
          <creationInfo>
            <agencyID>UW</agencyID>
            <creationTime>2012-03-06T10:17:28.000000Z</creationTime>
          </creationInfo>
        </arrival>
        <arrival publicID="quakeml:uw.anss.org/AssocArO/UW/9261498">
          <pickID>quakeml:uw.anss.org/Arrival/UW/9261498</pickID>
          <phase>S</phase>
          <azimuth>124.1</azimuth>
          <distance>0.5076</distance>
          <timeResidual>-0.14</timeResidual>
          <creationInfo>
            <agencyID>UW</agencyID>
            <creationTime>2012-03-06T10:17:28.000000Z</creationTime>
          </creationInfo>
        </arrival>
        <arrival publicID="quakeml:uw.anss.org/AssocArO/UW/9261503">
          <pickID>quakeml:uw.anss.org/Arrival/UW/9261503</pickID>
          <phase>P</phase>
          <azimuth>97.8</azimuth>
          <distance>0.1446</distance>
          <timeResidual>-0.03</timeResidual>
          <creationInfo>
            <agencyID>UW</agencyID>
            <creationTime>2012-03-06T10:17:28.000000Z</creationTime>
          </creationInfo>
        </arrival>
        <arrival publicID="quakeml:uw.anss.org/AssocArO/UW/9261508">
          <pickID>quakeml:uw.anss.org/Arrival/UW/9261508</pickID>
          <phase>P</phase>
          <azimuth>258.0</azimuth>
          <distance>0.399</distance>
          <timeResidual>0.02</timeResidual>
          <creationInfo>
            <agencyID>UW</agencyID>
            <creationTime>2012-03-06T10:17:28.000000Z</creationTime>
          </creationInfo>
        </arrival>
        <arrival publicID="quakeml:uw.anss.org/AssocArO/UW/9261513">
          <pickID>quakeml:uw.anss.org/Arrival/UW/9261513</pickID>
          <phase>P</phase>
          <azimuth>168.2</azimuth>
          <timeResidual>0.1</timeResidual>
          <creationInfo>
            <agencyID>UW</agencyID>
            <creationTime>2012-03-06T10:17:28.000000Z</creationTime>
          </creationInfo>
        </arrival>
        <arrival publicID="quakeml:uw.anss.org/AssocArO/UW/9261518">
          <pickID>quakeml:uw.anss.org/Arrival/UW/9261518</pickID>
          <phase>P</phase>
          <azimuth>231.5</azimuth>
          <distance>1.188</distance>
          <timeResidual>-0.44</timeResidual>
          <creationInfo>
            <agencyID>UW</agencyID>
            <creationTime>2012-03-06T10:17:28.000000Z</creationTime>
          </creationInfo>
        </arrival>
        <arrival publicID="quakeml:uw.anss.org/AssocArO/UW/9261523">
          <pickID>quakeml:uw.anss.org/Arrival/UW/9261523</pickID>
          <phase>P</phase>
          <azimuth>231.5</azimuth>
          <distance>1.188</distance>
          <timeResidual>-0.41</timeResidual>
          <creationInfo>
            <agencyID>UW</agencyID>
            <creationTime>2012-03-06T10:17:28.000000Z</creationTime>
          </creationInfo>
        </arrival>
        <arrival publicID="quakeml:uw.anss.org/AssocArO/UW/9261528">
          <pickID>quakeml:uw.anss.org/Arrival/UW/9261528</pickID>
          <phase>P</phase>
          <azimuth>54.6</azimuth>
          <distance>0.5132</distance>
          <timeResidual>0.06</timeResidual>
          <creationInfo>
            <agencyID>UW</agencyID>
            <creationTime>2012-03-06T10:17:28.000000Z</creationTime>
          </creationInfo>
        </arrival>
        <arrival publicID="quakeml:uw.anss.org/AssocArO/UW/9261533">
          <pickID>quakeml:uw.anss.org/Arrival/UW/9261533</pickID>
          <phase>S</phase>
          <azimuth>54.6</azimuth>
          <distance>0.5132</distance>
          <timeResidual>-0.06</timeResidual>
          <creationInfo>
            <agencyID>UW</agencyID>
            <creationTime>2012-03-06T10:17:28.000000Z</creationTime>
          </creationInfo>
        </arrival>
        <arrival publicID="quakeml:uw.anss.org/AssocArO/UW/9261538">
          <pickID>quakeml:uw.anss.org/Arrival/UW/9261538</pickID>
          <phase>P</phase>
          <azimuth>244.4</azimuth>
          <distance>0.8917</distance>
          <timeResidual>0.26</timeResidual>
          <creationInfo>
            <agencyID>UW</agencyID>
            <creationTime>2012-03-06T10:17:28.000000Z</creationTime>
          </creationInfo>
        </arrival>
        <arrival publicID="quakeml:uw.anss.org/AssocArO/UW/9261543">
          <pickID>quakeml:uw.anss.org/Arrival/UW/9261543</pickID>
          <phase>S</phase>
          <azimuth>244.4</azimuth>
          <distance>0.8917</distance>
          <timeResidual>-0.19</timeResidual>
          <creationInfo>
            <agencyID>UW</agencyID>
            <creationTime>2012-03-06T10:17:28.000000Z</creationTime>
          </creationInfo>
        </arrival>
        <arrival publicID="quakeml:uw.anss.org/AssocArO/UW/9261548">
          <pickID>quakeml:uw.anss.org/Arrival/UW/9261548</pickID>
          <phase>P</phase>
          <azimuth>136.2</azimuth>
          <distance>0.9467</distance>
          <timeResidual>0.35</timeResidual>
          <creationInfo>
            <agencyID>UW</agencyID>
            <creationTime>2012-03-06T10:17:28.000000Z</creationTime>
          </creationInfo>
        </arrival>
        <arrival publicID="quakeml:uw.anss.org/AssocArO/UW/9261553">
          <pickID>quakeml:uw.anss.org/Arrival/UW/9261553</pickID>
          <phase>P</phase>
          <azimuth>268.0</azimuth>
          <distance>0.6982</distance>
          <timeResidual>0.03</timeResidual>
          <creationInfo>
            <agencyID>UW</agencyID>
            <creationTime>2012-03-06T10:17:28.000000Z</creationTime>
          </creationInfo>
        </arrival>
        <arrival publicID="quakeml:uw.anss.org/AssocArO/UW/9261558">
          <pickID>quakeml:uw.anss.org/Arrival/UW/9261558</pickID>
          <phase>P</phase>
          <azimuth>166.8</azimuth>
          <distance>1.027</distance>
          <timeResidual>0.37</timeResidual>
          <creationInfo>
            <agencyID>UW</agencyID>
            <creationTime>2012-03-06T10:17:28.000000Z</creationTime>
          </creationInfo>
        </arrival>
        <arrival publicID="quakeml:uw.anss.org/AssocArO/UW/9261563">
          <pickID>quakeml:uw.anss.org/Arrival/UW/9261563</pickID>
          <phase>P</phase>
          <azimuth>2.5</azimuth>
          <distance>0.2228</distance>
          <timeResidual>-0.32</timeResidual>
          <creationInfo>
            <agencyID>UW</agencyID>
            <creationTime>2012-03-06T10:17:28.000000Z</creationTime>
          </creationInfo>
        </arrival>
        <arrival publicID="quakeml:uw.anss.org/AssocArO/UW/9261568">
          <pickID>quakeml:uw.anss.org/Arrival/UW/9261568</pickID>
          <phase>P</phase>
          <azimuth>255.5</azimuth>
          <distance>0.4895</distance>
          <timeResidual>0.08</timeResidual>
          <creationInfo>
            <agencyID>UW</agencyID>
            <creationTime>2012-03-06T10:17:28.000000Z</creationTime>
          </creationInfo>
        </arrival>
        <arrival publicID="quakeml:uw.anss.org/AssocArO/UW/9261573">
          <pickID>quakeml:uw.anss.org/Arrival/UW/9261573</pickID>
          <phase>P</phase>
          <azimuth>103.8</azimuth>
          <distance>1.369</distance>
          <timeResidual>0.88</timeResidual>
          <creationInfo>
            <agencyID>UW</agencyID>
            <creationTime>2012-03-06T10:17:28.000000Z</creationTime>
          </creationInfo>
        </arrival>
        <arrival publicID="quakeml:uw.anss.org/AssocArO/UW/9261578">
          <pickID>quakeml:uw.anss.org/Arrival/UW/9261578</pickID>
          <phase>P</phase>
          <azimuth>176.7</azimuth>
          <distance>0.97</distance>
          <timeResidual>0.61</timeResidual>
          <creationInfo>
            <agencyID>UW</agencyID>
            <creationTime>2012-03-06T10:17:28.000000Z</creationTime>
          </creationInfo>
        </arrival>
      </origin>
      <magnitude publicID="quakeml:uw.anss.org/Netmag/UW/778463">
        <mag>
          <value>2.1</value>
          <uncertainty>0.06</uncertainty>
        </mag>
        <type>Md</type>
        <originID>quakeml:uw.anss.org/Origin/UW/996053</originID>
        <methodID>smi:uw.anss.org/magnitude/Crosson</methodID>
        <stationCount>4</stationCount>
        <evaluationMode>manual</evaluationMode>
        <evaluationStatus>final</evaluationStatus>
        <stationMagnitudeContribution>
          <stationMagnitudeID>quakeml:uw.anss.org/AssocCoM/UW/2150068</stationMagnitudeID>
          <weight>1.0</weight>
          <residual>0.05</residual>
        </stationMagnitudeContribution>
        <stationMagnitudeContribution>
          <stationMagnitudeID>quakeml:uw.anss.org/AssocCoM/UW/2150073</stationMagnitudeID>
          <weight>1.0</weight>
          <residual>-0.11</residual>
        </stationMagnitudeContribution>
        <stationMagnitudeContribution>
          <stationMagnitudeID>quakeml:uw.anss.org/AssocCoM/UW/2150058</stationMagnitudeID>
          <weight>1.0</weight>
          <residual>0.07</residual>
        </stationMagnitudeContribution>
        <stationMagnitudeContribution>
          <stationMagnitudeID>quakeml:uw.anss.org/AssocCoM/UW/2150063</stationMagnitudeID>
          <weight>1.0</weight>
          <residual>0.07</residual>
        </stationMagnitudeContribution>
        <creationInfo>
          <agencyID>UW</agencyID>
          <creationTime>2012-03-06T10:17:28.000000Z</creationTime>
        </creationInfo>
      </magnitude>
      <stationMagnitude publicID="quakeml:uw.anss.org/AssocCoM/UW/2150058">
        <originID>quakeml:uw.anss.org/Origin/UW/996053</originID>
        <mag>
          <value>2.17</value>
        </mag>
        <type>MD</type>
        <amplitudeID>quakeml:uw.anss.org/Coda/UW/2150058</amplitudeID>
        <waveformID networkCode="UW" stationCode="MBW" locationCode="" channelCode="EHZ"></waveformID>
      </stationMagnitude>
      <stationMagnitude publicID="quakeml:uw.anss.org/AssocCoM/UW/2150063">
        <originID>quakeml:uw.anss.org/Origin/UW/996053</originID>
        <mag>
          <value>2.17</value>
        </mag>
        <type>MD</type>
        <amplitudeID>quakeml:uw.anss.org/Coda/UW/2150063</amplitudeID>
        <waveformID networkCode="UW" stationCode="JCW" locationCode="" channelCode="EHZ"></waveformID>
      </stationMagnitude>
      <stationMagnitude publicID="quakeml:uw.anss.org/AssocCoM/UW/2150068">
        <originID>quakeml:uw.anss.org/Origin/UW/996053</originID>
        <mag>
          <value>2.15</value>
        </mag>
        <type>MD</type>
        <amplitudeID>quakeml:uw.anss.org/Coda/UW/2150068</amplitudeID>
        <waveformID networkCode="CN" stationCode="VDB" locationCode="" channelCode="EHZ"></waveformID>
      </stationMagnitude>
      <stationMagnitude publicID="quakeml:uw.anss.org/AssocCoM/UW/2150073">
        <originID>quakeml:uw.anss.org/Origin/UW/996053</originID>
        <mag>
          <value>1.99</value>
        </mag>
        <type>MD</type>
        <amplitudeID>quakeml:uw.anss.org/Coda/UW/2150073</amplitudeID>
        <waveformID networkCode="UW" stationCode="MCW" locationCode="" channelCode="EHZ"></waveformID>
      </stationMagnitude>
      <pick publicID="quakeml:uw.anss.org/Arrival/UW/9261448">
        <time>
          <value>2007-06-12T19:42:37.100000Z</value>
          <uncertainty>0.1</uncertainty>
        </time>
        <waveformID networkCode="TA" stationCode="B05A" locationCode="" channelCode="BHZ"></waveformID>
        <polarity>undecidable</polarity>
        <evaluationMode>manual</evaluationMode>
        <evaluationStatus>final</evaluationStatus>
        <creationInfo>
          <agencyID>UW</agencyID>
          <creationTime>2012-03-06T10:17:28.000000Z</creationTime>
        </creationInfo>
      </pick>
      <pick publicID="quakeml:uw.anss.org/Arrival/UW/9261453">
        <time>
          <value>2007-06-12T19:42:30.380000Z</value>
          <uncertainty>0.05</uncertainty>
        </time>
        <waveformID networkCode="TA" stationCode="A05A" locationCode="" channelCode="BHZ"></waveformID>
        <polarity>negative</polarity>
        <evaluationMode>manual</evaluationMode>
        <evaluationStatus>final</evaluationStatus>
        <creationInfo>
          <agencyID>UW</agencyID>
          <creationTime>2012-03-06T10:17:28.000000Z</creationTime>
        </creationInfo>
      </pick>
      <pick publicID="quakeml:uw.anss.org/Arrival/UW/9261458">
        <time>
          <value>2007-06-12T19:42:33.850000Z</value>
          <uncertainty>0.05</uncertainty>
        </time>
        <waveformID networkCode="TA" stationCode="A05A" locationCode="" channelCode="BHN"></waveformID>
        <polarity>undecidable</polarity>
        <evaluationMode>manual</evaluationMode>
        <evaluationStatus>final</evaluationStatus>
        <creationInfo>
          <agencyID>UW</agencyID>
          <creationTime>2012-03-06T10:17:28.000000Z</creationTime>
        </creationInfo>
      </pick>
      <pick publicID="quakeml:uw.anss.org/Arrival/UW/9261463">
        <time>
          <value>2007-06-12T19:42:51.820000Z</value>
          <uncertainty>0.08</uncertainty>
        </time>
        <waveformID networkCode="UW" stationCode="NEL" locationCode="" channelCode="EHZ"></waveformID>
