<?xml version='1.0' encoding='utf-8'?>
<q:quakeml xmlns="http://quakeml.org/xmlns/bed/1.2" xmlns:q="http://quakeml.org/xmlns/quakeml/1.2" xmlns:ns0="http://anss.org/xmlns/catalog/0.1">
  <eventParameters publicID="smi:local/995995da-faf7-44b2-97ea-9cc19e388748">
    <event publicID="quakeml:uw.anss.org/Event/UW/10711313" ns0:datasource="uw" ns0:dataid="uw10711313" ns0:eventsource="uw" ns0:eventid="10711313">
      <preferredOriginID>quakeml:uw.anss.org/Origin/UW/994213</preferredOriginID>
      <preferredMagnitudeID>quakeml:uw.anss.org/Netmag/UW/777143</preferredMagnitudeID>
      <type>earthquake</type>
      <creationInfo>
        <agencyID>UW</agencyID>
        <creationTime>2012-03-06T10:08:23.000000Z</creationTime>
        <version>3</version>
      </creationInfo>
      <origin publicID="quakeml:uw.anss.org/Origin/UW/994213" ns0:datasource="uw" ns0:dataid="uw10711313" ns0:eventsource="uw" ns0:eventid="10711313">
        <time>
          <value>2007-05-05T07:16:58.690000Z</value>
          <uncertainty>0.05</uncertainty>
        </time>
        <latitude>
          <value>48.6965</value>
          <uncertainty>0.24</uncertainty>
        </latitude>
        <longitude>
          <value>-122.4658333</value>
          <uncertainty>0.35</uncertainty>
        </longitude>
        <depth>
          <value>14873.0</value>
          <uncertainty>630.0</uncertainty>
        </depth>
        <depthType>from location</depthType>
        <timeFixed>false</timeFixed>
        <epicenterFixed>false</epicenterFixed>
        <methodID>smi:uw.anss.org/origin/spong</methodID>
        <quality>
          <associatedPhaseCount>51</associatedPhaseCount>
          <usedPhaseCount>47</usedPhaseCount>
          <associatedStationCount>40</associatedStationCount>
          <usedStationCount>0</usedStationCount>
          <standardError>0.27</standardError>
          <azimuthalGap>105.0</azimuthalGap>
        </quality>
        <type>hypocenter</type>
        <evaluationMode>manual</evaluationMode>
        <evaluationStatus>final</evaluationStatus>
        <creationInfo>
          <agencyID>UW</agencyID>
          <creationTime>2012-03-06T10:08:23.000000Z</creationTime>
        </creationInfo>
        <originUncertainty>
          <preferredDescription>horizontal uncertainty</preferredDescription>
          <horizontalUncertainty>424.0</horizontalUncertainty>
        </originUncertainty>
        <arrival publicID="quakeml:uw.anss.org/AssocArO/UW/9240293">
          <pickID>quakeml:uw.anss.org/Arrival/UW/9240293</pickID>
          <phase>P</phase>
          <azimuth>150.3</azimuth>
          <distance>0.4978</distance>
          <timeResidual>-0.25</timeResidual>
          <creationInfo>
            <agencyID>UW</agencyID>
            <creationTime>2012-03-06T10:08:23.000000Z</creationTime>
          </creationInfo>
        </arrival>
        <arrival publicID="quakeml:uw.anss.org/AssocArO/UW/9240298">
          <pickID>quakeml:uw.anss.org/Arrival/UW/9240298</pickID>
          <phase>S</phase>
          <azimuth>150.3</azimuth>
          <distance>0.4978</distance>
          <timeResidual>0.29</timeResidual>
          <creationInfo>
            <agencyID>UW</agencyID>
            <creationTime>2012-03-06T10:08:23.000000Z</creationTime>
          </creationInfo>
        </arrival>
        <arrival publicID="quakeml:uw.anss.org/AssocArO/UW/9240303">
          <pickID>quakeml:uw.anss.org/Arrival/UW/9240303</pickID>
          <phase>P</phase>
          <azimuth>39.5</azimuth>
          <distance>0.393</distance>
          <timeResidual>0.13</timeResidual>
          <creationInfo>
            <agencyID>UW</agencyID>
            <creationTime>2012-03-06T10:08:23.000000Z</creationTime>
          </creationInfo>
        </arrival>
        <arrival publicID="quakeml:uw.anss.org/AssocArO/UW/9240308">
          <pickID>quakeml:uw.anss.org/Arrival/UW/9240308</pickID>
          <phase>S</phase>
          <azimuth>39.5</azimuth>
          <distance>0.393</distance>
          <timeResidual>0.32</timeResidual>
          <creationInfo>
            <agencyID>UW</agencyID>
            <creationTime>2012-03-06T10:08:23.000000Z</creationTime>
          </creationInfo>
        </arrival>
        <arrival publicID="quakeml:uw.anss.org/AssocArO/UW/9240313">
          <pickID>quakeml:uw.anss.org/Arrival/UW/9240313</pickID>
          <phase>P</phase>
          <azimuth>113.1</azimuth>
          <distance>1.549</distance>
          <timeResidual>1.39</timeResidual>
          <creationInfo>
            <agencyID>UW</agencyID>
            <creationTime>2012-03-06T10:08:23.000000Z</creationTime>
          </creationInfo>
        </arrival>
        <arrival publicID="quakeml:uw.anss.org/AssocArO/UW/9240318">
          <pickID>quakeml:uw.anss.org/Arrival/UW/9240318</pickID>
          <phase>P</phase>
          <azimuth>203.5</azimuth>
          <distance>0.2651</distance>
          <timeResidual>-0.01</timeResidual>
          <creationInfo>
            <agencyID>UW</agencyID>
            <creationTime>2012-03-06T10:08:23.000000Z</creationTime>
          </creationInfo>
        </arrival>
        <arrival publicID="quakeml:uw.anss.org/AssocArO/UW/9240323">
          <pickID>quakeml:uw.anss.org/Arrival/UW/9240323</pickID>
          <phase>P</phase>
          <azimuth>192.1</azimuth>
          <distance>1.158</distance>
          <timeResidual>-0.02</timeResidual>
          <creationInfo>
            <agencyID>UW</agencyID>
            <creationTime>2012-03-06T10:08:23.000000Z</creationTime>
          </creationInfo>
        </arrival>
        <arrival publicID="quakeml:uw.anss.org/AssocArO/UW/9240328">
          <pickID>quakeml:uw.anss.org/Arrival/UW/9240328</pickID>
          <phase>P</phase>
          <azimuth>195.3</azimuth>
          <timeResidual>0.02</timeResidual>
          <creationInfo>
            <agencyID>UW</agencyID>
            <creationTime>2012-03-06T10:08:23.000000Z</creationTime>
          </creationInfo>
        </arrival>
        <arrival publicID="quakeml:uw.anss.org/AssocArO/UW/9240333">
          <pickID>quakeml:uw.anss.org/Arrival/UW/9240333</pickID>
          <phase>P</phase>
          <azimuth>195.3</azimuth>
          <timeResidual>0.03</timeResidual>
          <creationInfo>
            <agencyID>UW</agencyID>
            <creationTime>2012-03-06T10:08:23.000000Z</creationTime>
          </creationInfo>
        </arrival>
        <arrival publicID="quakeml:uw.anss.org/AssocArO/UW/9240338">
          <pickID>quakeml:uw.anss.org/Arrival/UW/9240338</pickID>
          <phase>P</phase>
          <azimuth>24.5</azimuth>
          <distance>0.07884</distance>
          <timeResidual>0.05</timeResidual>
          <creationInfo>
            <agencyID>UW</agencyID>
            <creationTime>2012-03-06T10:08:23.000000Z</creationTime>
          </creationInfo>
        </arrival>
        <arrival publicID="quakeml:uw.anss.org/AssocArO/UW/9240343">
          <pickID>quakeml:uw.anss.org/Arrival/UW/9240343</pickID>
          <phase>S</phase>
          <azimuth>24.5</azimuth>
          <distance>0.07884</distance>
          <timeResidual>0.54</timeResidual>
          <creationInfo>
            <agencyID>UW</agencyID>
            <creationTime>2012-03-06T10:08:23.000000Z</creationTime>
          </creationInfo>
        </arrival>
        <arrival publicID="quakeml:uw.anss.org/AssocArO/UW/9240348">
          <pickID>quakeml:uw.anss.org/Arrival/UW/9240348</pickID>
          <phase>P</phase>
          <azimuth>266.2</azimuth>
          <distance>0.6528</distance>
          <timeResidual>-0.18</timeResidual>
          <creationInfo>
            <agencyID>UW</agencyID>
            <creationTime>2012-03-06T10:08:23.000000Z</creationTime>
          </creationInfo>
        </arrival>
        <arrival publicID="quakeml:uw.anss.org/AssocArO/UW/9240353">
          <pickID>quakeml:uw.anss.org/Arrival/UW/9240353</pickID>
          <phase>S</phase>
          <azimuth>266.2</azimuth>
          <distance>0.6528</distance>
          <timeResidual>-0.57</timeResidual>
          <creationInfo>
            <agencyID>UW</agencyID>
            <creationTime>2012-03-06T10:08:24.000000Z</creationTime>
          </creationInfo>
        </arrival>
        <arrival publicID="quakeml:uw.anss.org/AssocArO/UW/9240358">
          <pickID>quakeml:uw.anss.org/Arrival/UW/9240358</pickID>
          <phase>P</phase>
          <azimuth>236.1</azimuth>
          <timeResidual>0.02</timeResidual>
          <creationInfo>
            <agencyID>UW</agencyID>
            <creationTime>2012-03-06T10:08:24.000000Z</creationTime>
          </creationInfo>
        </arrival>
        <arrival publicID="quakeml:uw.anss.org/AssocArO/UW/9240363">
          <pickID>quakeml:uw.anss.org/Arrival/UW/9240363</pickID>
          <phase>P</phase>
          <azimuth>74.8</azimuth>
          <distance>1.419</distance>
          <timeResidual>1.17</timeResidual>
          <creationInfo>
            <agencyID>UW</agencyID>
            <creationTime>2012-03-06T10:08:24.000000Z</creationTime>
          </creationInfo>
        </arrival>
        <arrival publicID="quakeml:uw.anss.org/AssocArO/UW/9240368">
          <pickID>quakeml:uw.anss.org/Arrival/UW/9240368</pickID>
          <phase>P</phase>
          <azimuth>199.2</azimuth>
          <distance>1.037</distance>
          <timeResidual>-0.27</timeResidual>
          <creationInfo>
            <agencyID>UW</agencyID>
            <creationTime>2012-03-06T10:08:24.000000Z</creationTime>
          </creationInfo>
        </arrival>
        <arrival publicID="quakeml:uw.anss.org/AssocArO/UW/9240373">
          <pickID>quakeml:uw.anss.org/Arrival/UW/9240373</pickID>
          <phase>P</phase>
          <azimuth>144.3</azimuth>
          <timeResidual>-0.14</timeResidual>
          <creationInfo>
            <agencyID>UW</agencyID>
            <creationTime>2012-03-06T10:08:24.000000Z</creationTime>
          </creationInfo>
        </arrival>
        <arrival publicID="quakeml:uw.anss.org/AssocArO/UW/9240378">
          <pickID>quakeml:uw.anss.org/Arrival/UW/9240378</pickID>
          <phase>P</phase>
          <azimuth>139.9</azimuth>
          <distance>0.3569</distance>
          <timeResidual>-0.6</timeResidual>
          <creationInfo>
            <agencyID>UW</agencyID>
            <creationTime>2012-03-06T10:08:24.000000Z</creationTime>
          </creationInfo>
        </arrival>
        <arrival publicID="quakeml:uw.anss.org/AssocArO/UW/9240383">
          <pickID>quakeml:uw.anss.org/Arrival/UW/9240383</pickID>
          <phase>P</phase>
          <azimuth>200.8</azimuth>
          <distance>1.121</distance>
          <timeResidual>-0.2</timeResidual>
          <creationInfo>
            <agencyID>UW</agencyID>
            <creationTime>2012-03-06T10:08:24.000000Z</creationTime>
          </creationInfo>
        </arrival>
        <arrival publicID="quakeml:uw.anss.org/AssocArO/UW/9240388">
          <pickID>quakeml:uw.anss.org/Arrival/UW/9240388</pickID>
          <phase>P</phase>
          <azimuth>160.2</azimuth>
          <distance>1.314</distance>
          <timeResidual>0.27</timeResidual>
          <creationInfo>
            <agencyID>UW</agencyID>
            <creationTime>2012-03-06T10:08:24.000000Z</creationTime>
          </creationInfo>
        </arrival>
        <arrival publicID="quakeml:uw.anss.org/AssocArO/UW/9240393">
          <pickID>quakeml:uw.anss.org/Arrival/UW/9240393</pickID>
          <phase>P</phase>
          <azimuth>43.9</azimuth>
          <distance>0.3071</distance>
          <timeResidual>0.22</timeResidual>
          <creationInfo>
            <agencyID>UW</agencyID>
            <creationTime>2012-03-06T10:08:24.000000Z</creationTime>
          </creationInfo>
        </arrival>
        <arrival publicID="quakeml:uw.anss.org/AssocArO/UW/9240398">
          <pickID>quakeml:uw.anss.org/Arrival/UW/9240398</pickID>
          <phase>P</phase>
          <azimuth>240.9</azimuth>
          <distance>1.284</distance>
          <timeResidual>-0.22</timeResidual>
          <creationInfo>
            <agencyID>UW</agencyID>
            <creationTime>2012-03-06T10:08:24.000000Z</creationTime>
          </creationInfo>
        </arrival>
        <arrival publicID="quakeml:uw.anss.org/AssocArO/UW/9240403">
          <pickID>quakeml:uw.anss.org/Arrival/UW/9240403</pickID>
          <phase>P</phase>
          <azimuth>105.0</azimuth>
          <distance>0.6753</distance>
          <timeResidual>-0.11</timeResidual>
          <creationInfo>
            <agencyID>UW</agencyID>
            <creationTime>2012-03-06T10:08:24.000000Z</creationTime>
          </creationInfo>
        </arrival>
        <arrival publicID="quakeml:uw.anss.org/AssocArO/UW/9240408">
          <pickID>quakeml:uw.anss.org/Arrival/UW/9240408</pickID>
          <phase>S</phase>
          <azimuth>105.0</azimuth>
          <distance>0.6753</distance>
          <timeResidual>-0.4</timeResidual>
          <creationInfo>
            <agencyID>UW</agencyID>
            <creationTime>2012-03-06T10:08:24.000000Z</creationTime>
          </creationInfo>
        </arrival>
        <arrival publicID="quakeml:uw.anss.org/AssocArO/UW/9240413">
          <pickID>quakeml:uw.anss.org/Arrival/UW/9240413</pickID>
          <phase>P</phase>
          <azimuth>76.6</azimuth>
          <distance>0.384</distance>
          <timeResidual>-0.2</timeResidual>
          <creationInfo>
            <agencyID>UW</agencyID>
            <creationTime>2012-03-06T10:08:24.000000Z</creationTime>
          </creationInfo>
        </arrival>
        <arrival publicID="quakeml:uw.anss.org/AssocArO/UW/9240418">
          <pickID>quakeml:uw.anss.org/Arrival/UW/9240418</pickID>
          <phase>P</phase>
          <azimuth>223.6</azimuth>
          <distance>1.209</distance>
          <timeResidual>0.22</timeResidual>
          <creationInfo>
            <agencyID>UW</agencyID>
            <creationTime>2012-03-06T10:08:24.000000Z</creationTime>
          </creationInfo>
        </arrival>
        <arrival publicID="quakeml:uw.anss.org/AssocArO/UW/9240423">
          <pickID>quakeml:uw.anss.org/Arrival/UW/9240423</pickID>
          <phase>P</phase>
          <azimuth>278.4</azimuth>
          <distance>0.1614</distance>
          <timeResidual>-0.48</timeResidual>
          <creationInfo>
            <agencyID>UW</agencyID>
            <creationTime>2012-03-06T10:08:24.000000Z</creationTime>
          </creationInfo>
        </arrival>
        <arrival publicID="quakeml:uw.anss.org/AssocArO/UW/9240428">
          <pickID>quakeml:uw.anss.org/Arrival/UW/9240428</pickID>
          <phase>P</phase>
          <azimuth>214.3</azimuth>
          <distance>0.7903</distance>
          <timeResidual>0.22</timeResidual>
          <creationInfo>
            <agencyID>UW</agencyID>
            <creationTime>2012-03-06T10:08:24.000000Z</creationTime>
          </creationInfo>
        </arrival>
        <arrival publicID="quakeml:uw.anss.org/AssocArO/UW/9240433">
          <pickID>quakeml:uw.anss.org/Arrival/UW/9240433</pickID>
          <phase>S</phase>
          <azimuth>214.3</azimuth>
          <distance>0.7903</distance>
          <timeResidual>0.59</timeResidual>
          <creationInfo>
            <agencyID>UW</agencyID>
            <creationTime>2012-03-06T10:08:24.000000Z</creationTime>
          </creationInfo>
        </arrival>
        <arrival publicID="quakeml:uw.anss.org/AssocArO/UW/9240438">
          <pickID>quakeml:uw.anss.org/Arrival/UW/9240438</pickID>
          <phase>P</phase>
          <azimuth>227.6</azimuth>
          <distance>0.9423</distance>
          <timeResidual>-0.29</timeResidual>
          <creationInfo>
            <agencyID>UW</agencyID>
            <creationTime>2012-03-06T10:08:24.000000Z</creationTime>
          </creationInfo>
        </arrival>
        <arrival publicID="quakeml:uw.anss.org/AssocArO/UW/9240443">
          <pickID>quakeml:uw.anss.org/Arrival/UW/9240443</pickID>
          <phase>S</phase>
          <azimuth>227.6</azimuth>
          <distance>0.9423</distance>
          <timeResidual>-0.45</timeResidual>
          <creationInfo>
            <agencyID>UW</agencyID>
            <creationTime>2012-03-06T10:08:24.000000Z</creationTime>
          </creationInfo>
        </arrival>
        <arrival publicID="quakeml:uw.anss.org/AssocArO/UW/9240448">
          <pickID>quakeml:uw.anss.org/Arrival/UW/9240448</pickID>
          <phase>P</phase>
          <azimuth>227.6</azimuth>
          <distance>0.9423</distance>
          <timeResidual>-0.23</timeResidual>
          <creationInfo>
            <agencyID>UW</agencyID>
            <creationTime>2012-03-06T10:08:24.000000Z</creationTime>
          </creationInfo>
        </arrival>
        <arrival publicID="quakeml:uw.anss.org/AssocArO/UW/9240453">
          <pickID>quakeml:uw.anss.org/Arrival/UW/9240453</pickID>
          <phase>P</phase>
          <azimuth>57.8</azimuth>
          <distance>0.7646</distance>
          <timeResidual>0.28</timeResidual>
          <creationInfo>
            <agencyID>UW</agencyID>
            <creationTime>2012-03-06T10:08:24.000000Z</creationTime>
          </creationInfo>
        </arrival>
        <arrival publicID="quakeml:uw.anss.org/AssocArO/UW/9240458">
          <pickID>quakeml:uw.anss.org/Arrival/UW/9240458</pickID>
          <phase>S</phase>
          <azimuth>57.8</azimuth>
          <distance>0.7646</distance>
          <timeResidual>-0.17</timeResidual>
          <creationInfo>
            <agencyID>UW</agencyID>
            <creationTime>2012-03-06T10:08:24.000000Z</creationTime>
          </creationInfo>
        </arrival>
        <arrival publicID="quakeml:uw.anss.org/AssocArO/UW/9240463">
          <pickID>quakeml:uw.anss.org/Arrival/UW/9240463</pickID>
          <phase>P</phase>
          <azimuth>139.5</azimuth>
          <distance>1.882</distance>
          <timeResidual>1.25</timeResidual>
          <creationInfo>
            <agencyID>UW</agencyID>
            <creationTime>2012-03-06T10:08:24.000000Z</creationTime>
          </creationInfo>
        </arrival>
        <arrival publicID="quakeml:uw.anss.org/AssocArO/UW/9240468">
          <pickID>quakeml:uw.anss.org/Arrival/UW/9240468</pickID>
          <phase>P</phase>
          <azimuth>238.9</azimuth>
          <distance>1.263</distance>
          <timeResidual>0.05</timeResidual>
          <creationInfo>
            <agencyID>UW</agencyID>
            <creationTime>2012-03-06T10:08:24.000000Z</creationTime>
          </creationInfo>
        </arrival>
        <arrival publicID="quakeml:uw.anss.org/AssocArO/UW/9240473">
          <pickID>quakeml:uw.anss.org/Arrival/UW/9240473</pickID>
          <phase>P</phase>
          <azimuth>206.3</azimuth>
          <distance>0.7687</distance>
          <timeResidual>0.4</timeResidual>
          <creationInfo>
            <agencyID>UW</agencyID>
            <creationTime>2012-03-06T10:08:24.000000Z</creationTime>
          </creationInfo>
        </arrival>
        <arrival publicID="quakeml:uw.anss.org/AssocArO/UW/9240478">
          <pickID>quakeml:uw.anss.org/Arrival/UW/9240478</pickID>
          <phase>P</phase>
          <azimuth>243.9</azimuth>
          <distance>0.6375</distance>
          <timeResidual>0.38</timeResidual>
          <creationInfo>
            <agencyID>UW</agencyID>
            <creationTime>2012-03-06T10:08:24.000000Z</creationTime>
          </creationInfo>
        </arrival>
        <arrival publicID="quakeml:uw.anss.org/AssocArO/UW/9240483">
          <pickID>quakeml:uw.anss.org/Arrival/UW/9240483</pickID>
          <phase>S</phase>
          <azimuth>243.9</azimuth>
          <distance>0.6375</distance>
          <timeResidual>0.59</timeResidual>
          <creationInfo>
            <agencyID>UW</agencyID>
            <creationTime>2012-03-06T10:08:24.000000Z</creationTime>
          </creationInfo>
        </arrival>
