<?xml version='1.0' encoding='utf-8'?>
<q:quakeml xmlns="http://quakeml.org/xmlns/bed/1.2" xmlns:q="http://quakeml.org/xmlns/quakeml/1.2" xmlns:ns0="http://anss.org/xmlns/catalog/0.1">
  <eventParameters publicID="smi:local/35fc56db-7f75-4d08-b581-ba1de698597d">
    <event publicID="quakeml:uw.anss.org/Event/UW/10720688" ns0:datasource="uw" ns0:dataid="uw10720688" ns0:eventsource="uw" ns0:eventid="10720688">
      <preferredOriginID>quakeml:uw.anss.org/Origin/UW/1003598</preferredOriginID>
      <preferredMagnitudeID>quakeml:uw.anss.org/Netmag/UW/783943</preferredMagnitudeID>
      <type>earthquake</type>
      <creationInfo>
        <agencyID>UW</agencyID>
        <creationTime>2012-03-06T10:54:07.000000Z</creationTime>
        <version>3</version>
      </creationInfo>
      <origin publicID="quakeml:uw.anss.org/Origin/UW/1003598" ns0:datasource="uw" ns0:dataid="uw10720688" ns0:eventsource="uw" ns0:eventid="10720688">
        <time>
          <value>2007-03-30T20:00:30.210000Z</value>
          <uncertainty>0.07</uncertainty>
        </time>
        <latitude>
          <value>48.6903333</value>
          <uncertainty>0.32</uncertainty>
        </latitude>
        <longitude>
          <value>-122.464</value>
          <uncertainty>0.42</uncertainty>
        </longitude>
        <depth>
          <value>11940.0</value>
          <uncertainty>1510.0</uncertainty>
        </depth>
        <depthType>from location</depthType>
        <timeFixed>false</timeFixed>
        <epicenterFixed>false</epicenterFixed>
        <methodID>smi:uw.anss.org/origin/spong</methodID>
        <quality>
          <associatedPhaseCount>52</associatedPhaseCount>
          <usedPhaseCount>39</usedPhaseCount>
          <associatedStationCount>44</associatedStationCount>
          <usedStationCount>0</usedStationCount>
          <standardError>0.27</standardError>
          <azimuthalGap>101.0</azimuthalGap>
        </quality>
        <type>hypocenter</type>
        <evaluationMode>manual</evaluationMode>
        <evaluationStatus>final</evaluationStatus>
        <creationInfo>
          <agencyID>UW</agencyID>
          <creationTime>2012-03-06T10:54:07.000000Z</creationTime>
        </creationInfo>
        <originUncertainty>
          <preferredDescription>horizontal uncertainty</preferredDescription>
          <horizontalUncertainty>528.0</horizontalUncertainty>
        </originUncertainty>
        <arrival publicID="quakeml:uw.anss.org/AssocArO/UW/9352243">
          <pickID>quakeml:uw.anss.org/Arrival/UW/9352243</pickID>
          <phase>P</phase>
          <azimuth>150.1</azimuth>
          <distance>0.4919</distance>
          <timeResidual>-0.12</timeResidual>
          <creationInfo>
            <agencyID>UW</agencyID>
            <creationTime>2012-03-06T10:54:07.000000Z</creationTime>
          </creationInfo>
        </arrival>
        <arrival publicID="quakeml:uw.anss.org/AssocArO/UW/9352248">
          <pickID>quakeml:uw.anss.org/Arrival/UW/9352248</pickID>
          <phase>S</phase>
          <azimuth>150.1</azimuth>
          <distance>0.4919</distance>
          <timeResidual>0.58</timeResidual>
          <creationInfo>
            <agencyID>UW</agencyID>
            <creationTime>2012-03-06T10:54:07.000000Z</creationTime>
          </creationInfo>
        </arrival>
        <arrival publicID="quakeml:uw.anss.org/AssocArO/UW/9352253">
          <pickID>quakeml:uw.anss.org/Arrival/UW/9352253</pickID>
          <phase>P</phase>
          <azimuth>38.8</azimuth>
          <distance>0.397</distance>
          <timeResidual>0.1</timeResidual>
          <creationInfo>
            <agencyID>UW</agencyID>
            <creationTime>2012-03-06T10:54:07.000000Z</creationTime>
          </creationInfo>
        </arrival>
        <arrival publicID="quakeml:uw.anss.org/AssocArO/UW/9352258">
          <pickID>quakeml:uw.anss.org/Arrival/UW/9352258</pickID>
          <phase>S</phase>
          <azimuth>38.8</azimuth>
          <distance>0.397</distance>
          <timeResidual>0.35</timeResidual>
          <creationInfo>
            <agencyID>UW</agencyID>
            <creationTime>2012-03-06T10:54:07.000000Z</creationTime>
          </creationInfo>
        </arrival>
        <arrival publicID="quakeml:uw.anss.org/AssocArO/UW/9352263">
          <pickID>quakeml:uw.anss.org/Arrival/UW/9352263</pickID>
          <phase>P</phase>
          <azimuth>113.0</azimuth>
          <distance>1.545</distance>
          <timeResidual>0.99</timeResidual>
          <creationInfo>
            <agencyID>UW</agencyID>
            <creationTime>2012-03-06T10:54:07.000000Z</creationTime>
          </creationInfo>
        </arrival>
        <arrival publicID="quakeml:uw.anss.org/AssocArO/UW/9352268">
          <pickID>quakeml:uw.anss.org/Arrival/UW/9352268</pickID>
          <phase>P</phase>
          <azimuth>175.5</azimuth>
          <distance>1.655</distance>
          <timeResidual>-0.04</timeResidual>
          <creationInfo>
            <agencyID>UW</agencyID>
            <creationTime>2012-03-06T10:54:07.000000Z</creationTime>
          </creationInfo>
        </arrival>
        <arrival publicID="quakeml:uw.anss.org/AssocArO/UW/9352273">
          <pickID>quakeml:uw.anss.org/Arrival/UW/9352273</pickID>
          <phase>P</phase>
          <azimuth>143.5</azimuth>
          <distance>1.852</distance>
          <timeResidual>1.18</timeResidual>
          <creationInfo>
            <agencyID>UW</agencyID>
            <creationTime>2012-03-06T10:54:07.000000Z</creationTime>
          </creationInfo>
        </arrival>
        <arrival publicID="quakeml:uw.anss.org/AssocArO/UW/9352278">
          <pickID>quakeml:uw.anss.org/Arrival/UW/9352278</pickID>
          <phase>P</phase>
          <azimuth>192.2</azimuth>
          <distance>1.153</distance>
          <timeResidual>0.08</timeResidual>
          <creationInfo>
            <agencyID>UW</agencyID>
            <creationTime>2012-03-06T10:54:07.000000Z</creationTime>
          </creationInfo>
        </arrival>
        <arrival publicID="quakeml:uw.anss.org/AssocArO/UW/9352283">
          <pickID>quakeml:uw.anss.org/Arrival/UW/9352283</pickID>
          <phase>P</phase>
          <azimuth>167.2</azimuth>
          <timeResidual>0.19</timeResidual>
          <creationInfo>
            <agencyID>UW</agencyID>
            <creationTime>2012-03-06T10:54:07.000000Z</creationTime>
          </creationInfo>
        </arrival>
        <arrival publicID="quakeml:uw.anss.org/AssocArO/UW/9352288">
          <pickID>quakeml:uw.anss.org/Arrival/UW/9352288</pickID>
          <phase>P</phase>
          <azimuth>241.2</azimuth>
          <distance>1.282</distance>
          <timeResidual>-0.35</timeResidual>
          <creationInfo>
            <agencyID>UW</agencyID>
            <creationTime>2012-03-06T10:54:07.000000Z</creationTime>
          </creationInfo>
        </arrival>
        <arrival publicID="quakeml:uw.anss.org/AssocArO/UW/9352293">
          <pickID>quakeml:uw.anss.org/Arrival/UW/9352293</pickID>
          <phase>P</phase>
          <azimuth>195.7</azimuth>
          <timeResidual>0.2</timeResidual>
          <creationInfo>
            <agencyID>UW</agencyID>
            <creationTime>2012-03-06T10:54:07.000000Z</creationTime>
          </creationInfo>
        </arrival>
        <arrival publicID="quakeml:uw.anss.org/AssocArO/UW/9352298">
          <pickID>quakeml:uw.anss.org/Arrival/UW/9352298</pickID>
          <phase>P</phase>
          <azimuth>22.0</azimuth>
          <distance>0.08403</distance>
          <timeResidual>0.25</timeResidual>
          <creationInfo>
            <agencyID>UW</agencyID>
            <creationTime>2012-03-06T10:54:07.000000Z</creationTime>
          </creationInfo>
        </arrival>
        <arrival publicID="quakeml:uw.anss.org/AssocArO/UW/9352303">
          <pickID>quakeml:uw.anss.org/Arrival/UW/9352303</pickID>
          <phase>P</phase>
          <azimuth>266.8</azimuth>
          <distance>0.6537</distance>
          <timeResidual>-0.18</timeResidual>
          <creationInfo>
            <agencyID>UW</agencyID>
            <creationTime>2012-03-06T10:54:07.000000Z</creationTime>
          </creationInfo>
        </arrival>
        <arrival publicID="quakeml:uw.anss.org/AssocArO/UW/9352308">
          <pickID>quakeml:uw.anss.org/Arrival/UW/9352308</pickID>
          <phase>P</phase>
          <azimuth>74.6</azimuth>
          <distance>1.419</distance>
          <timeResidual>0.91</timeResidual>
          <creationInfo>
            <agencyID>UW</agencyID>
            <creationTime>2012-03-06T10:54:07.000000Z</creationTime>
          </creationInfo>
        </arrival>
        <arrival publicID="quakeml:uw.anss.org/AssocArO/UW/9352313">
          <pickID>quakeml:uw.anss.org/Arrival/UW/9352313</pickID>
          <phase>P</phase>
          <azimuth>164.9</azimuth>
          <timeResidual>0.31</timeResidual>
          <creationInfo>
            <agencyID>UW</agencyID>
            <creationTime>2012-03-06T10:54:07.000000Z</creationTime>
          </creationInfo>
        </arrival>
        <arrival publicID="quakeml:uw.anss.org/AssocArO/UW/9352318">
          <pickID>quakeml:uw.anss.org/Arrival/UW/9352318</pickID>
          <phase>P</phase>
          <azimuth>214.7</azimuth>
          <distance>0.7859</distance>
          <timeResidual>0.24</timeResidual>
          <creationInfo>
            <agencyID>UW</agencyID>
            <creationTime>2012-03-06T10:54:07.000000Z</creationTime>
          </creationInfo>
        </arrival>
        <arrival publicID="quakeml:uw.anss.org/AssocArO/UW/9352323">
          <pickID>quakeml:uw.anss.org/Arrival/UW/9352323</pickID>
          <phase>P</phase>
          <azimuth>139.4</azimuth>
          <distance>0.3514</distance>
          <timeResidual>-0.41</timeResidual>
          <creationInfo>
            <agencyID>UW</agencyID>
            <creationTime>2012-03-06T10:54:07.000000Z</creationTime>
          </creationInfo>
        </arrival>
        <arrival publicID="quakeml:uw.anss.org/AssocArO/UW/9352328">
          <pickID>quakeml:uw.anss.org/Arrival/UW/9352328</pickID>
          <phase>P</phase>
          <azimuth>201.0</azimuth>
          <distance>1.115</distance>
          <timeResidual>-0.21</timeResidual>
          <creationInfo>
            <agencyID>UW</agencyID>
            <creationTime>2012-03-06T10:54:07.000000Z</creationTime>
          </creationInfo>
        </arrival>
        <arrival publicID="quakeml:uw.anss.org/AssocArO/UW/9352333">
          <pickID>quakeml:uw.anss.org/Arrival/UW/9352333</pickID>
          <phase>P</phase>
          <azimuth>160.1</azimuth>
          <distance>1.308</distance>
          <timeResidual>0.22</timeResidual>
          <creationInfo>
            <agencyID>UW</agencyID>
            <creationTime>2012-03-06T10:54:07.000000Z</creationTime>
          </creationInfo>
        </arrival>
        <arrival publicID="quakeml:uw.anss.org/AssocArO/UW/9352338">
          <pickID>quakeml:uw.anss.org/Arrival/UW/9352338</pickID>
          <phase>P</phase>
          <azimuth>35.2</azimuth>
          <distance>0.4121</distance>
          <timeResidual>-0.12</timeResidual>
          <creationInfo>
            <agencyID>UW</agencyID>
            <creationTime>2012-03-06T10:54:07.000000Z</creationTime>
          </creationInfo>
        </arrival>
        <arrival publicID="quakeml:uw.anss.org/AssocArO/UW/9352343">
          <pickID>quakeml:uw.anss.org/Arrival/UW/9352343</pickID>
          <phase>P</phase>
          <azimuth>104.5</azimuth>
          <distance>0.6726</distance>
          <timeResidual>0.1</timeResidual>
          <creationInfo>
            <agencyID>UW</agencyID>
            <creationTime>2012-03-06T10:54:07.000000Z</creationTime>
          </creationInfo>
        </arrival>
        <arrival publicID="quakeml:uw.anss.org/AssocArO/UW/9352348">
          <pickID>quakeml:uw.anss.org/Arrival/UW/9352348</pickID>
          <phase>S</phase>
          <azimuth>104.5</azimuth>
          <distance>0.6726</distance>
          <timeResidual>-0.12</timeResidual>
          <creationInfo>
            <agencyID>UW</agencyID>
            <creationTime>2012-03-06T10:54:07.000000Z</creationTime>
          </creationInfo>
        </arrival>
        <arrival publicID="quakeml:uw.anss.org/AssocArO/UW/9352353">
          <pickID>quakeml:uw.anss.org/Arrival/UW/9352353</pickID>
          <phase>P</phase>
          <azimuth>75.7</azimuth>
          <distance>0.3843</distance>
          <timeResidual>-0.1</timeResidual>
          <creationInfo>
            <agencyID>UW</agencyID>
            <creationTime>2012-03-06T10:54:07.000000Z</creationTime>
          </creationInfo>
        </arrival>
        <arrival publicID="quakeml:uw.anss.org/AssocArO/UW/9352358">
          <pickID>quakeml:uw.anss.org/Arrival/UW/9352358</pickID>
          <phase>P</phase>
          <azimuth>223.9</azimuth>
          <distance>1.205</distance>
          <timeResidual>0.14</timeResidual>
          <creationInfo>
            <agencyID>UW</agencyID>
            <creationTime>2012-03-06T10:54:07.000000Z</creationTime>
          </creationInfo>
        </arrival>
        <arrival publicID="quakeml:uw.anss.org/AssocArO/UW/9352363">
          <pickID>quakeml:uw.anss.org/Arrival/UW/9352363</pickID>
          <phase>P</phase>
          <azimuth>280.5</azimuth>
          <distance>0.1636</distance>
          <timeResidual>-0.31</timeResidual>
          <creationInfo>
            <agencyID>UW</agencyID>
            <creationTime>2012-03-06T10:54:07.000000Z</creationTime>
          </creationInfo>
        </arrival>
        <arrival publicID="quakeml:uw.anss.org/AssocArO/UW/9352368">
          <pickID>quakeml:uw.anss.org/Arrival/UW/9352368</pickID>
          <phase>P</phase>
          <azimuth>144.1</azimuth>
          <timeResidual>-0.02</timeResidual>
          <creationInfo>
            <agencyID>UW</agencyID>
            <creationTime>2012-03-06T10:54:07.000000Z</creationTime>
          </creationInfo>
        </arrival>
        <arrival publicID="quakeml:uw.anss.org/AssocArO/UW/9352373">
          <pickID>quakeml:uw.anss.org/Arrival/UW/9352373</pickID>
          <phase>P</phase>
          <azimuth>227.9</azimuth>
          <distance>0.9391</distance>
          <timeResidual>-0.19</timeResidual>
          <creationInfo>
            <agencyID>UW</agencyID>
            <creationTime>2012-03-06T10:54:07.000000Z</creationTime>
          </creationInfo>
        </arrival>
        <arrival publicID="quakeml:uw.anss.org/AssocArO/UW/9352378">
          <pickID>quakeml:uw.anss.org/Arrival/UW/9352378</pickID>
          <phase>S</phase>
          <azimuth>227.9</azimuth>
          <distance>0.9391</distance>
          <timeResidual>-0.27</timeResidual>
          <creationInfo>
            <agencyID>UW</agencyID>
            <creationTime>2012-03-06T10:54:07.000000Z</creationTime>
          </creationInfo>
        </arrival>
        <arrival publicID="quakeml:uw.anss.org/AssocArO/UW/9352383">
          <pickID>quakeml:uw.anss.org/Arrival/UW/9352383</pickID>
          <phase>P</phase>
          <azimuth>250.2</azimuth>
          <distance>1.395</distance>
          <timeResidual>-0.4</timeResidual>
          <creationInfo>
            <agencyID>UW</agencyID>
            <creationTime>2012-03-06T10:54:07.000000Z</creationTime>
          </creationInfo>
        </arrival>
        <arrival publicID="quakeml:uw.anss.org/AssocArO/UW/9352388">
          <pickID>quakeml:uw.anss.org/Arrival/UW/9352388</pickID>
          <phase>P</phase>
          <azimuth>227.9</azimuth>
          <distance>0.9391</distance>
          <timeResidual>-0.14</timeResidual>
          <creationInfo>
            <agencyID>UW</agencyID>
            <creationTime>2012-03-06T10:54:07.000000Z</creationTime>
          </creationInfo>
        </arrival>
        <arrival publicID="quakeml:uw.anss.org/AssocArO/UW/9352393">
          <pickID>quakeml:uw.anss.org/Arrival/UW/9352393</pickID>
          <phase>S</phase>
          <azimuth>227.9</azimuth>
          <distance>0.9391</distance>
          <timeResidual>-0.31</timeResidual>
          <creationInfo>
            <agencyID>UW</agencyID>
            <creationTime>2012-03-06T10:54:07.000000Z</creationTime>
          </creationInfo>
        </arrival>
        <arrival publicID="quakeml:uw.anss.org/AssocArO/UW/9352398">
          <pickID>quakeml:uw.anss.org/Arrival/UW/9352398</pickID>
          <phase>P</phase>
          <azimuth>57.4</azimuth>
          <distance>0.7669</distance>
          <timeResidual>0.34</timeResidual>
          <creationInfo>
            <agencyID>UW</agencyID>
            <creationTime>2012-03-06T10:54:07.000000Z</creationTime>
          </creationInfo>
        </arrival>
        <arrival publicID="quakeml:uw.anss.org/AssocArO/UW/9352403">
          <pickID>quakeml:uw.anss.org/Arrival/UW/9352403</pickID>
          <phase>S</phase>
          <azimuth>57.4</azimuth>
          <distance>0.7669</distance>
          <timeResidual>-0.15</timeResidual>
          <creationInfo>
            <agencyID>UW</agencyID>
            <creationTime>2012-03-06T10:54:07.000000Z</creationTime>
          </creationInfo>
        </arrival>
        <arrival publicID="quakeml:uw.anss.org/AssocArO/UW/9352408">
          <pickID>quakeml:uw.anss.org/Arrival/UW/9352408</pickID>
          <phase>P</phase>
          <azimuth>162.8</azimuth>
          <timeResidual>0.27</timeResidual>
          <creationInfo>
            <agencyID>UW</agencyID>
            <creationTime>2012-03-06T10:54:07.000000Z</creationTime>
          </creationInfo>
        </arrival>
        <arrival publicID="quakeml:uw.anss.org/AssocArO/UW/9352413">
          <pickID>quakeml:uw.anss.org/Arrival/UW/9352413</pickID>
          <phase>P</phase>
          <azimuth>239.2</azimuth>
          <distance>1.261</distance>
          <timeResidual>-0.17</timeResidual>
          <creationInfo>
            <agencyID>UW</agencyID>
            <creationTime>2012-03-06T10:54:07.000000Z</creationTime>
          </creationInfo>
        </arrival>
        <arrival publicID="quakeml:uw.anss.org/AssocArO/UW/9352418">
          <pickID>quakeml:uw.anss.org/Arrival/UW/9352418</pickID>
          <phase>P</phase>
          <azimuth>206.5</azimuth>
          <distance>0.7637</distance>
          <timeResidual>0.47</timeResidual>
          <creationInfo>
            <agencyID>UW</agencyID>
            <creationTime>2012-03-06T10:54:07.000000Z</creationTime>
          </creationInfo>
        </arrival>
        <arrival publicID="quakeml:uw.anss.org/AssocArO/UW/9352423">
          <pickID>quakeml:uw.anss.org/Arrival/UW/9352423</pickID>
          <phase>P</phase>
          <azimuth>244.4</azimuth>
          <distance>0.6359</distance>
          <timeResidual>0.42</timeResidual>
          <creationInfo>
            <agencyID>UW</agencyID>
            <creationTime>2012-03-06T10:54:07.000000Z</creationTime>
          </creationInfo>
        </arrival>
        <arrival publicID="quakeml:uw.anss.org/AssocArO/UW/9352428">
          <pickID>quakeml:uw.anss.org/Arrival/UW/9352428</pickID>
          <phase>S</phase>
          <azimuth>244.4</azimuth>
          <distance>0.6359</distance>
          <timeResidual>0.67</timeResidual>
          <creationInfo>
            <agencyID>UW</agencyID>
            <creationTime>2012-03-06T10:54:07.000000Z</creationTime>
          </creationInfo>
        </arrival>
        <arrival publicID="quakeml:uw.anss.org/AssocArO/UW/9352433">
          <pickID>quakeml:uw.anss.org/Arrival/UW/9352433</pickID>
          <phase>P</phase>
          <azimuth>167.0</azimuth>
          <timeResidual>0.09</timeResidual>
          <creationInfo>
            <agencyID>UW</agencyID>
            <creationTime>2012-03-06T10:54:07.000000Z</creationTime>
          </creationInfo>
        </arrival>
        <arrival publicID="quakeml:uw.anss.org/AssocArO/UW/9352438">
