<?xml version='1.0' encoding='utf-8'?>
<q:quakeml xmlns="http://quakeml.org/xmlns/bed/1.2" xmlns:q="http://quakeml.org/xmlns/quakeml/1.2" xmlns:ns0="http://anss.org/xmlns/catalog/0.1">
  <eventParameters publicID="smi:local/ea370e00-3eae-465c-90db-ca8e5c00fa70">
    <event publicID="quakeml:uw.anss.org/Event/UW/10716993" ns0:datasource="uw" ns0:dataid="uw10716993" ns0:eventsource="uw" ns0:eventid="10716993">
      <preferredOriginID>quakeml:uw.anss.org/Origin/UW/999893</preferredOriginID>
      <preferredMagnitudeID>quakeml:uw.anss.org/Netmag/UW/781343</preferredMagnitudeID>
      <type>earthquake</type>
      <creationInfo>
        <agencyID>UW</agencyID>
        <creationTime>2012-03-06T10:35:11.000000Z</creationTime>
        <version>3</version>
      </creationInfo>
      <origin publicID="quakeml:uw.anss.org/Origin/UW/999893" ns0:datasource="uw" ns0:dataid="uw10716993" ns0:eventsource="uw" ns0:eventid="10716993">
        <time>
          <value>2007-04-15T01:21:29.700000Z</value>
          <uncertainty>0.11</uncertainty>
        </time>
        <latitude>
          <value>48.9773333</value>
          <uncertainty>0.62</uncertainty>
        </latitude>
        <longitude>
          <value>-122.1136667</value>
          <uncertainty>0.94</uncertainty>
        </longitude>
        <depth>
          <value>7233.0</value>
          <uncertainty>870.0</uncertainty>
        </depth>
        <depthType>from location</depthType>
        <timeFixed>false</timeFixed>
        <epicenterFixed>false</epicenterFixed>
        <methodID>smi:uw.anss.org/origin/spong</methodID>
        <quality>
          <associatedPhaseCount>33</associatedPhaseCount>
          <usedPhaseCount>30</usedPhaseCount>
          <associatedStationCount>27</associatedStationCount>
          <usedStationCount>0</usedStationCount>
          <standardError>0.38</standardError>
          <azimuthalGap>114.0</azimuthalGap>
        </quality>
        <type>hypocenter</type>
        <evaluationMode>manual</evaluationMode>
        <evaluationStatus>final</evaluationStatus>
        <creationInfo>
          <agencyID>UW</agencyID>
          <creationTime>2012-03-06T10:35:11.000000Z</creationTime>
        </creationInfo>
        <originUncertainty>
          <preferredDescription>horizontal uncertainty</preferredDescription>
          <horizontalUncertainty>1126.0</horizontalUncertainty>
        </originUncertainty>
        <arrival publicID="quakeml:uw.anss.org/AssocArO/UW/9309578">
          <pickID>quakeml:uw.anss.org/Arrival/UW/9309578</pickID>
          <phase>P</phase>
          <azimuth>179.1</azimuth>
          <distance>0.7139</distance>
          <timeResidual>0.22</timeResidual>
          <creationInfo>
            <agencyID>UW</agencyID>
            <creationTime>2012-03-06T10:35:11.000000Z</creationTime>
          </creationInfo>
        </arrival>
        <arrival publicID="quakeml:uw.anss.org/AssocArO/UW/9309583">
          <pickID>quakeml:uw.anss.org/Arrival/UW/9309583</pickID>
          <phase>P</phase>
          <azimuth>41.7</azimuth>
          <distance>0.02814</distance>
          <timeResidual>-0.2</timeResidual>
          <creationInfo>
            <agencyID>UW</agencyID>
            <creationTime>2012-03-06T10:35:11.000000Z</creationTime>
          </creationInfo>
        </arrival>
        <arrival publicID="quakeml:uw.anss.org/AssocArO/UW/9309588">
          <pickID>quakeml:uw.anss.org/Arrival/UW/9309588</pickID>
          <phase>S</phase>
          <azimuth>41.7</azimuth>
          <distance>0.02814</distance>
          <timeResidual>0.59</timeResidual>
          <creationInfo>
            <agencyID>UW</agencyID>
            <creationTime>2012-03-06T10:35:11.000000Z</creationTime>
          </creationInfo>
        </arrival>
        <arrival publicID="quakeml:uw.anss.org/AssocArO/UW/9309593">
          <pickID>quakeml:uw.anss.org/Arrival/UW/9309593</pickID>
          <phase>P</phase>
          <azimuth>223.7</azimuth>
          <distance>0.2894</distance>
          <timeResidual>0.6</timeResidual>
          <creationInfo>
            <agencyID>UW</agencyID>
            <creationTime>2012-03-06T10:35:11.000000Z</creationTime>
          </creationInfo>
        </arrival>
        <arrival publicID="quakeml:uw.anss.org/AssocArO/UW/9309598">
          <pickID>quakeml:uw.anss.org/Arrival/UW/9309598</pickID>
          <phase>P</phase>
          <azimuth>250.0</azimuth>
          <distance>0.9412</distance>
          <timeResidual>-0.44</timeResidual>
          <creationInfo>
            <agencyID>UW</agencyID>
            <creationTime>2012-03-06T10:35:11.000000Z</creationTime>
          </creationInfo>
        </arrival>
        <arrival publicID="quakeml:uw.anss.org/AssocArO/UW/9309603">
          <pickID>quakeml:uw.anss.org/Arrival/UW/9309603</pickID>
          <phase>S</phase>
          <azimuth>250.0</azimuth>
          <distance>0.9412</distance>
          <timeResidual>-1.01</timeResidual>
          <creationInfo>
            <agencyID>UW</agencyID>
            <creationTime>2012-03-06T10:35:11.000000Z</creationTime>
          </creationInfo>
        </arrival>
        <arrival publicID="quakeml:uw.anss.org/AssocArO/UW/9309608">
          <pickID>quakeml:uw.anss.org/Arrival/UW/9309608</pickID>
          <phase>P</phase>
          <azimuth>85.8</azimuth>
          <distance>1.141</distance>
          <timeResidual>0.7</timeResidual>
          <creationInfo>
            <agencyID>UW</agencyID>
            <creationTime>2012-03-06T10:35:11.000000Z</creationTime>
          </creationInfo>
        </arrival>
        <arrival publicID="quakeml:uw.anss.org/AssocArO/UW/9309613">
          <pickID>quakeml:uw.anss.org/Arrival/UW/9309613</pickID>
          <phase>P</phase>
          <azimuth>216.2</azimuth>
          <distance>1.154</distance>
          <timeResidual>0.35</timeResidual>
          <creationInfo>
            <agencyID>UW</agencyID>
            <creationTime>2012-03-06T10:35:11.000000Z</creationTime>
          </creationInfo>
        </arrival>
        <arrival publicID="quakeml:uw.anss.org/AssocArO/UW/9309618">
          <pickID>quakeml:uw.anss.org/Arrival/UW/9309618</pickID>
          <phase>S</phase>
          <azimuth>216.2</azimuth>
          <distance>1.154</distance>
          <timeResidual>0.19</timeResidual>
          <creationInfo>
            <agencyID>UW</agencyID>
            <creationTime>2012-03-06T10:35:11.000000Z</creationTime>
          </creationInfo>
        </arrival>
        <arrival publicID="quakeml:uw.anss.org/AssocArO/UW/9309623">
          <pickID>quakeml:uw.anss.org/Arrival/UW/9309623</pickID>
          <phase>P</phase>
          <azimuth>180.5</azimuth>
          <distance>0.5543</distance>
          <timeResidual>-0.11</timeResidual>
          <creationInfo>
            <agencyID>UW</agencyID>
            <creationTime>2012-03-06T10:35:11.000000Z</creationTime>
          </creationInfo>
        </arrival>
        <arrival publicID="quakeml:uw.anss.org/AssocArO/UW/9309628">
          <pickID>quakeml:uw.anss.org/Arrival/UW/9309628</pickID>
          <phase>P</phase>
          <azimuth>196.9</azimuth>
          <distance>0.06376</distance>
          <timeResidual>-0.3</timeResidual>
          <creationInfo>
            <agencyID>UW</agencyID>
            <creationTime>2012-03-06T10:35:11.000000Z</creationTime>
          </creationInfo>
        </arrival>
        <arrival publicID="quakeml:uw.anss.org/AssocArO/UW/9309633">
          <pickID>quakeml:uw.anss.org/Arrival/UW/9309633</pickID>
          <phase>P</phase>
          <azimuth>137.7</azimuth>
          <distance>0.6201</distance>
          <timeResidual>-0.02</timeResidual>
          <creationInfo>
            <agencyID>UW</agencyID>
            <creationTime>2012-03-06T10:35:11.000000Z</creationTime>
          </creationInfo>
        </arrival>
        <arrival publicID="quakeml:uw.anss.org/AssocArO/UW/9309638">
          <pickID>quakeml:uw.anss.org/Arrival/UW/9309638</pickID>
          <phase>S</phase>
          <azimuth>137.7</azimuth>
          <distance>0.6201</distance>
          <timeResidual>-0.12</timeResidual>
          <creationInfo>
            <agencyID>UW</agencyID>
            <creationTime>2012-03-06T10:35:11.000000Z</creationTime>
          </creationInfo>
        </arrival>
        <arrival publicID="quakeml:uw.anss.org/AssocArO/UW/9309643">
          <pickID>quakeml:uw.anss.org/Arrival/UW/9309643</pickID>
          <phase>P</phase>
          <azimuth>144.1</azimuth>
          <distance>0.2393</distance>
          <timeResidual>-0.23</timeResidual>
          <creationInfo>
            <agencyID>UW</agencyID>
            <creationTime>2012-03-06T10:35:11.000000Z</creationTime>
          </creationInfo>
        </arrival>
        <arrival publicID="quakeml:uw.anss.org/AssocArO/UW/9309648">
          <pickID>quakeml:uw.anss.org/Arrival/UW/9309648</pickID>
          <phase>P</phase>
          <azimuth>236.8</azimuth>
          <distance>0.4691</distance>
          <timeResidual>-0.07</timeResidual>
          <creationInfo>
            <agencyID>UW</agencyID>
            <creationTime>2012-03-06T10:35:11.000000Z</creationTime>
          </creationInfo>
        </arrival>
        <arrival publicID="quakeml:uw.anss.org/AssocArO/UW/9309653">
          <pickID>quakeml:uw.anss.org/Arrival/UW/9309653</pickID>
          <phase>S</phase>
          <azimuth>236.8</azimuth>
          <distance>0.4691</distance>
          <timeResidual>-0.11</timeResidual>
          <creationInfo>
            <agencyID>UW</agencyID>
            <creationTime>2012-03-06T10:35:11.000000Z</creationTime>
          </creationInfo>
        </arrival>
        <arrival publicID="quakeml:uw.anss.org/AssocArO/UW/9309658">
          <pickID>quakeml:uw.anss.org/Arrival/UW/9309658</pickID>
          <phase>P</phase>
          <azimuth>171.0</azimuth>
          <timeResidual>0.39</timeResidual>
          <creationInfo>
            <agencyID>UW</agencyID>
            <creationTime>2012-03-06T10:35:11.000000Z</creationTime>
          </creationInfo>
        </arrival>
        <arrival publicID="quakeml:uw.anss.org/AssocArO/UW/9309663">
          <pickID>quakeml:uw.anss.org/Arrival/UW/9309663</pickID>
          <phase>P</phase>
          <azimuth>225.6</azimuth>
          <distance>1.305</distance>
          <timeResidual>-0.38</timeResidual>
          <creationInfo>
            <agencyID>UW</agencyID>
            <creationTime>2012-03-06T10:35:11.000000Z</creationTime>
          </creationInfo>
        </arrival>
        <arrival publicID="quakeml:uw.anss.org/AssocArO/UW/9309668">
          <pickID>quakeml:uw.anss.org/Arrival/UW/9309668</pickID>
          <phase>P</phase>
          <azimuth>225.6</azimuth>
          <distance>1.305</distance>
          <timeResidual>-0.29</timeResidual>
          <creationInfo>
            <agencyID>UW</agencyID>
            <creationTime>2012-03-06T10:35:11.000000Z</creationTime>
          </creationInfo>
        </arrival>
        <arrival publicID="quakeml:uw.anss.org/AssocArO/UW/9309673">
          <pickID>quakeml:uw.anss.org/Arrival/UW/9309673</pickID>
          <phase>P</phase>
          <azimuth>73.5</azimuth>
          <distance>0.434</distance>
          <timeResidual>0.1</timeResidual>
          <creationInfo>
            <agencyID>UW</agencyID>
            <creationTime>2012-03-06T10:35:11.000000Z</creationTime>
          </creationInfo>
        </arrival>
        <arrival publicID="quakeml:uw.anss.org/AssocArO/UW/9309678">
          <pickID>quakeml:uw.anss.org/Arrival/UW/9309678</pickID>
          <phase>S</phase>
          <azimuth>73.5</azimuth>
          <distance>0.434</distance>
          <timeResidual>-0.36</timeResidual>
          <creationInfo>
            <agencyID>UW</agencyID>
            <creationTime>2012-03-06T10:35:11.000000Z</creationTime>
          </creationInfo>
        </arrival>
        <arrival publicID="quakeml:uw.anss.org/AssocArO/UW/9309683">
          <pickID>quakeml:uw.anss.org/Arrival/UW/9309683</pickID>
          <phase>P</phase>
          <azimuth>210.7</azimuth>
          <distance>1.127</distance>
          <timeResidual>0.57</timeResidual>
          <creationInfo>
            <agencyID>UW</agencyID>
            <creationTime>2012-03-06T10:35:11.000000Z</creationTime>
          </creationInfo>
        </arrival>
        <arrival publicID="quakeml:uw.anss.org/AssocArO/UW/9309688">
          <pickID>quakeml:uw.anss.org/Arrival/UW/9309688</pickID>
          <phase>P</phase>
          <azimuth>235.3</azimuth>
          <distance>0.9814</distance>
          <timeResidual>0.44</timeResidual>
          <creationInfo>
            <agencyID>UW</agencyID>
            <creationTime>2012-03-06T10:35:11.000000Z</creationTime>
          </creationInfo>
        </arrival>
        <arrival publicID="quakeml:uw.anss.org/AssocArO/UW/9309693">
          <pickID>quakeml:uw.anss.org/Arrival/UW/9309693</pickID>
          <phase>P</phase>
          <azimuth>177.3</azimuth>
          <distance>0.7426</distance>
          <timeResidual>0.48</timeResidual>
          <creationInfo>
            <agencyID>UW</agencyID>
            <creationTime>2012-03-06T10:35:11.000000Z</creationTime>
          </creationInfo>
        </arrival>
        <arrival publicID="quakeml:uw.anss.org/AssocArO/UW/9309698">
          <pickID>quakeml:uw.anss.org/Arrival/UW/9309698</pickID>
          <phase>P</phase>
          <azimuth>142.7</azimuth>
          <distance>1.077</distance>
          <timeResidual>0.12</timeResidual>
          <creationInfo>
            <agencyID>UW</agencyID>
            <creationTime>2012-03-06T10:35:11.000000Z</creationTime>
          </creationInfo>
        </arrival>
        <arrival publicID="quakeml:uw.anss.org/AssocArO/UW/9309703">
          <pickID>quakeml:uw.anss.org/Arrival/UW/9309703</pickID>
          <phase>P</phase>
          <azimuth>167.4</azimuth>
          <distance>1.314</distance>
          <timeResidual>0.52</timeResidual>
          <creationInfo>
            <agencyID>UW</agencyID>
            <creationTime>2012-03-06T10:35:11.000000Z</creationTime>
          </creationInfo>
        </arrival>
        <arrival publicID="quakeml:uw.anss.org/AssocArO/UW/9309708">
          <pickID>quakeml:uw.anss.org/Arrival/UW/9309708</pickID>
          <phase>P</phase>
          <azimuth>254.2</azimuth>
          <distance>0.7276</distance>
          <timeResidual>0.16</timeResidual>
          <creationInfo>
            <agencyID>UW</agencyID>
            <creationTime>2012-03-06T10:35:11.000000Z</creationTime>
          </creationInfo>
        </arrival>
        <arrival publicID="quakeml:uw.anss.org/AssocArO/UW/9309713">
          <pickID>quakeml:uw.anss.org/Arrival/UW/9309713</pickID>
          <phase>P</phase>
          <azimuth>168.8</azimuth>
          <distance>1.197</distance>
          <timeResidual>0.7</timeResidual>
          <creationInfo>
            <agencyID>UW</agencyID>
            <creationTime>2012-03-06T10:35:11.000000Z</creationTime>
          </creationInfo>
        </arrival>
        <arrival publicID="quakeml:uw.anss.org/AssocArO/UW/9309718">
          <pickID>quakeml:uw.anss.org/Arrival/UW/9309718</pickID>
          <phase>P</phase>
          <azimuth>8.3</azimuth>
          <distance>0.04933</distance>
          <timeResidual>-0.13</timeResidual>
          <creationInfo>
            <agencyID>UW</agencyID>
            <creationTime>2012-03-06T10:35:11.000000Z</creationTime>
          </creationInfo>
        </arrival>
        <arrival publicID="quakeml:uw.anss.org/AssocArO/UW/9309723">
          <pickID>quakeml:uw.anss.org/Arrival/UW/9309723</pickID>
          <phase>P</phase>
          <azimuth>214.8</azimuth>
          <distance>1.097</distance>
          <timeResidual>0.68</timeResidual>
          <creationInfo>
            <agencyID>UW</agencyID>
            <creationTime>2012-03-06T10:35:11.000000Z</creationTime>
          </creationInfo>
        </arrival>
        <arrival publicID="quakeml:uw.anss.org/AssocArO/UW/9309728">
          <pickID>quakeml:uw.anss.org/Arrival/UW/9309728</pickID>
          <phase>P</phase>
          <azimuth>224.9</azimuth>
          <distance>1.231</distance>
          <timeResidual>0.18</timeResidual>
          <creationInfo>
            <agencyID>UW</agencyID>
            <creationTime>2012-03-06T10:35:11.000000Z</creationTime>
          </creationInfo>
        </arrival>
        <arrival publicID="quakeml:uw.anss.org/AssocArO/UW/9309733">
          <pickID>quakeml:uw.anss.org/Arrival/UW/9309733</pickID>
          <phase>P</phase>
          <azimuth>238.1</azimuth>
          <distance>0.5611</distance>
          <timeResidual>0.08</timeResidual>
          <creationInfo>
            <agencyID>UW</agencyID>
            <creationTime>2012-03-06T10:35:11.000000Z</creationTime>
          </creationInfo>
        </arrival>
        <arrival publicID="quakeml:uw.anss.org/AssocArO/UW/9309738">
          <pickID>quakeml:uw.anss.org/Arrival/UW/9309738</pickID>
          <phase>P</phase>
          <azimuth>177.3</azimuth>
          <distance>1.143</distance>
          <timeResidual>0.79</timeResidual>
          <creationInfo>
            <agencyID>UW</agencyID>
            <creationTime>2012-03-06T10:35:11.000000Z</creationTime>
          </creationInfo>
        </arrival>
      </origin>
      <magnitude publicID="quakeml:uw.anss.org/Netmag/UW/781343">
        <mag>
          <value>2.7</value>
          <uncertainty>0.06</uncertainty>
        </mag>
        <type>Md</type>
        <originID>quakeml:uw.anss.org/Origin/UW/999893</originID>
        <methodID>smi:uw.anss.org/magnitude/Crosson</methodID>
        <stationCount>7</stationCount>
        <evaluationMode>manual</evaluationMode>
        <evaluationStatus>final</evaluationStatus>
        <stationMagnitudeContribution>
          <stationMagnitudeID>quakeml:uw.anss.org/AssocCoM/UW/2157853</stationMagnitudeID>
          <weight>1.0</weight>
          <residual>-0.03</residual>
        </stationMagnitudeContribution>
        <stationMagnitudeContribution>
          <stationMagnitudeID>quakeml:uw.anss.org/AssocCoM/UW/2157838</stationMagnitudeID>
          <weight>1.0</weight>
          <residual>-0.09</residual>
        </stationMagnitudeContribution>
        <stationMagnitudeContribution>
          <stationMagnitudeID>quakeml:uw.anss.org/AssocCoM/UW/2157863</stationMagnitudeID>
          <weight>1.0</weight>
          <residual>0.03</residual>
        </stationMagnitudeContribution>
        <stationMagnitudeContribution>
          <stationMagnitudeID>quakeml:uw.anss.org/AssocCoM/UW/2157858</stationMagnitudeID>
          <weight>1.0</weight>
          <residual>-0.25</residual>
        </stationMagnitudeContribution>
        <stationMagnitudeContribution>
          <stationMagnitudeID>quakeml:uw.anss.org/AssocCoM/UW/2157868</stationMagnitudeID>
          <weight>1.0</weight>
          <residual>0.21</residual>
        </stationMagnitudeContribution>
        <stationMagnitudeContribution>
          <stationMagnitudeID>quakeml:uw.anss.org/AssocCoM/UW/2157848</stationMagnitudeID>
          <weight>1.0</weight>
          <residual>0.27</residual>
        </stationMagnitudeContribution>
        <stationMagnitudeContribution>
          <stationMagnitudeID>quakeml:uw.anss.org/AssocCoM/UW/2157843</stationMagnitudeID>
          <weight>1.0</weight>
          <residual>0.08</residual>
        </stationMagnitudeContribution>
        <creationInfo>
          <agencyID>UW</agencyID>
          <creationTime>2012-03-06T10:35:11.000000Z</creationTime>
        </creationInfo>
      </magnitude>
      <stationMagnitude publicID="quakeml:uw.anss.org/AssocCoM/UW/2157838">
        <originID>quakeml:uw.anss.org/Origin/UW/999893</originID>
        <mag>
          <value>2.61</value>
        </mag>
        <type>MD</type>
        <amplitudeID>quakeml:uw.anss.org/Coda/UW/2157838</amplitudeID>
