<?xml version='1.0' encoding='utf-8'?>
<q:quakeml xmlns="http://quakeml.org/xmlns/bed/1.2" xmlns:q="http://quakeml.org/xmlns/quakeml/1.2" xmlns:ns0="http://anss.org/xmlns/catalog/0.1">
  <eventParameters publicID="smi:local/6f7f5ba2-7aa5-4e32-88a9-7f43f42eef70">
    <event publicID="quakeml:uw.anss.org/Event/UW/10719628" ns0:datasource="uw" ns0:dataid="uw10719628" ns0:eventsource="uw" ns0:eventid="10719628">
      <preferredOriginID>quakeml:uw.anss.org/Origin/UW/1002538</preferredOriginID>
      <preferredMagnitudeID>quakeml:uw.anss.org/Netmag/UW/783258</preferredMagnitudeID>
      <type>earthquake</type>
      <creationInfo>
        <agencyID>UW</agencyID>
        <creationTime>2012-03-06T10:48:13.000000Z</creationTime>
        <version>3</version>
      </creationInfo>
      <origin publicID="quakeml:uw.anss.org/Origin/UW/1002538" ns0:datasource="uw" ns0:dataid="uw10719628" ns0:eventsource="uw" ns0:eventid="10719628">
        <time>
          <value>2007-03-28T11:44:55.020000Z</value>
          <uncertainty>0.03</uncertainty>
        </time>
        <latitude>
          <value>48.7003333</value>
          <uncertainty>0.16</uncertainty>
        </latitude>
        <longitude>
          <value>-122.488</value>
          <uncertainty>0.01</uncertainty>
        </longitude>
        <depth>
          <value>3382.0</value>
        </depth>
        <depthType>from location</depthType>
        <timeFixed>false</timeFixed>
        <epicenterFixed>false</epicenterFixed>
        <methodID>smi:uw.anss.org/origin/spong</methodID>
        <quality>
          <associatedPhaseCount>10</associatedPhaseCount>
          <usedPhaseCount>9</usedPhaseCount>
          <associatedStationCount>7</associatedStationCount>
          <usedStationCount>0</usedStationCount>
          <standardError>0.26</standardError>
          <azimuthalGap>136.0</azimuthalGap>
        </quality>
        <type>hypocenter</type>
        <evaluationMode>manual</evaluationMode>
        <evaluationStatus>final</evaluationStatus>
        <creationInfo>
          <agencyID>UW</agencyID>
          <creationTime>2012-03-06T10:48:13.000000Z</creationTime>
        </creationInfo>
        <originUncertainty>
          <preferredDescription>horizontal uncertainty</preferredDescription>
          <horizontalUncertainty>160.0</horizontalUncertainty>
        </originUncertainty>
        <arrival publicID="quakeml:uw.anss.org/AssocArO/UW/9340493">
          <pickID>quakeml:uw.anss.org/Arrival/UW/9340493</pickID>
          <phase>S</phase>
          <azimuth>149.1</azimuth>
          <distance>0.5086</distance>
          <timeResidual>-0.04</timeResidual>
          <creationInfo>
            <agencyID>UW</agencyID>
            <creationTime>2012-03-06T10:48:13.000000Z</creationTime>
          </creationInfo>
        </arrival>
        <arrival publicID="quakeml:uw.anss.org/AssocArO/UW/9340498">
          <pickID>quakeml:uw.anss.org/Arrival/UW/9340498</pickID>
          <phase>P</phase>
          <azimuth>41.5</azimuth>
          <distance>0.3997</distance>
          <timeResidual>-0.05</timeResidual>
          <creationInfo>
            <agencyID>UW</agencyID>
            <creationTime>2012-03-06T10:48:13.000000Z</creationTime>
          </creationInfo>
        </arrival>
        <arrival publicID="quakeml:uw.anss.org/AssocArO/UW/9340503">
          <pickID>quakeml:uw.anss.org/Arrival/UW/9340503</pickID>
          <phase>S</phase>
          <azimuth>41.5</azimuth>
          <distance>0.3997</distance>
          <timeResidual>0.17</timeResidual>
          <creationInfo>
            <agencyID>UW</agencyID>
            <creationTime>2012-03-06T10:48:13.000000Z</creationTime>
          </creationInfo>
        </arrival>
        <arrival publicID="quakeml:uw.anss.org/AssocArO/UW/9340508">
          <pickID>quakeml:uw.anss.org/Arrival/UW/9340508</pickID>
          <phase>P</phase>
          <azimuth>143.4</azimuth>
          <timeResidual>0.61</timeResidual>
          <creationInfo>
            <agencyID>UW</agencyID>
            <creationTime>2012-03-06T10:48:13.000000Z</creationTime>
          </creationInfo>
        </arrival>
        <arrival publicID="quakeml:uw.anss.org/AssocArO/UW/9340513">
          <pickID>quakeml:uw.anss.org/Arrival/UW/9340513</pickID>
          <phase>S</phase>
          <azimuth>265.8</azimuth>
          <distance>0.6385</distance>
          <timeResidual>-0.21</timeResidual>
          <creationInfo>
            <agencyID>UW</agencyID>
            <creationTime>2012-03-06T10:48:13.000000Z</creationTime>
          </creationInfo>
        </arrival>
        <arrival publicID="quakeml:uw.anss.org/AssocArO/UW/9340518">
          <pickID>quakeml:uw.anss.org/Arrival/UW/9340518</pickID>
          <phase>P</phase>
          <azimuth>265.8</azimuth>
          <distance>0.6385</distance>
          <timeResidual>-0.1</timeResidual>
          <creationInfo>
            <agencyID>UW</agencyID>
            <creationTime>2012-03-06T10:48:13.000000Z</creationTime>
          </creationInfo>
        </arrival>
        <arrival publicID="quakeml:uw.anss.org/AssocArO/UW/9340523">
          <pickID>quakeml:uw.anss.org/Arrival/UW/9340523</pickID>
          <phase>P</phase>
          <azimuth>138.5</azimuth>
          <distance>0.3694</distance>
          <timeResidual>-0.75</timeResidual>
          <creationInfo>
            <agencyID>UW</agencyID>
            <creationTime>2012-03-06T10:48:13.000000Z</creationTime>
          </creationInfo>
        </arrival>
        <arrival publicID="quakeml:uw.anss.org/AssocArO/UW/9340528">
          <pickID>quakeml:uw.anss.org/Arrival/UW/9340528</pickID>
          <phase>S</phase>
          <azimuth>138.5</azimuth>
          <distance>0.3694</distance>
          <timeResidual>-0.48</timeResidual>
          <creationInfo>
            <agencyID>UW</agencyID>
            <creationTime>2012-03-06T10:48:13.000000Z</creationTime>
          </creationInfo>
        </arrival>
        <arrival publicID="quakeml:uw.anss.org/AssocArO/UW/9340533">
          <pickID>quakeml:uw.anss.org/Arrival/UW/9340533</pickID>
          <phase>P</phase>
          <azimuth>264.8</azimuth>
          <distance>0.2293</distance>
          <timeResidual>0.3</timeResidual>
          <creationInfo>
            <agencyID>UW</agencyID>
            <creationTime>2012-03-06T10:48:13.000000Z</creationTime>
          </creationInfo>
        </arrival>
        <arrival publicID="quakeml:uw.anss.org/AssocArO/UW/9340538">
          <pickID>quakeml:uw.anss.org/Arrival/UW/9340538</pickID>
          <phase>P</phase>
          <azimuth>77.6</azimuth>
          <distance>0.3975</distance>
          <timeResidual>-0.16</timeResidual>
          <creationInfo>
            <agencyID>UW</agencyID>
            <creationTime>2012-03-06T10:48:13.000000Z</creationTime>
          </creationInfo>
        </arrival>
      </origin>
      <magnitude publicID="quakeml:uw.anss.org/Netmag/UW/783258">
        <mag>
          <value>1.1</value>
          <uncertainty>0.06</uncertainty>
        </mag>
        <type>Md</type>
        <originID>quakeml:uw.anss.org/Origin/UW/1002538</originID>
        <methodID>smi:uw.anss.org/magnitude/Crosson</methodID>
        <stationCount>3</stationCount>
        <evaluationMode>manual</evaluationMode>
        <evaluationStatus>final</evaluationStatus>
        <stationMagnitudeContribution>
          <stationMagnitudeID>quakeml:uw.anss.org/AssocCoM/UW/2163513</stationMagnitudeID>
          <weight>1.0</weight>
          <residual>0.17</residual>
        </stationMagnitudeContribution>
        <stationMagnitudeContribution>
          <stationMagnitudeID>quakeml:uw.anss.org/AssocCoM/UW/2163518</stationMagnitudeID>
          <weight>1.0</weight>
          <residual>-0.16</residual>
        </stationMagnitudeContribution>
        <stationMagnitudeContribution>
          <stationMagnitudeID>quakeml:uw.anss.org/AssocCoM/UW/2163508</stationMagnitudeID>
          <weight>1.0</weight>
          <residual>0.05</residual>
        </stationMagnitudeContribution>
        <creationInfo>
          <agencyID>UW</agencyID>
          <creationTime>2012-03-06T10:48:13.000000Z</creationTime>
        </creationInfo>
      </magnitude>
      <stationMagnitude publicID="quakeml:uw.anss.org/AssocCoM/UW/2163508">
        <originID>quakeml:uw.anss.org/Origin/UW/1002538</originID>
        <mag>
          <value>1.15</value>
        </mag>
        <type>MD</type>
        <amplitudeID>quakeml:uw.anss.org/Coda/UW/2163508</amplitudeID>
        <waveformID networkCode="UW" stationCode="JCW" locationCode="" channelCode="EHZ"></waveformID>
      </stationMagnitude>
      <stationMagnitude publicID="quakeml:uw.anss.org/AssocCoM/UW/2163513">
        <originID>quakeml:uw.anss.org/Origin/UW/1002538</originID>
        <mag>
          <value>1.27</value>
        </mag>
        <type>MD</type>
        <amplitudeID>quakeml:uw.anss.org/Coda/UW/2163513</amplitudeID>
        <waveformID networkCode="UW" stationCode="CMW" locationCode="" channelCode="EHZ"></waveformID>
      </stationMagnitude>
      <stationMagnitude publicID="quakeml:uw.anss.org/AssocCoM/UW/2163518">
        <originID>quakeml:uw.anss.org/Origin/UW/1002538</originID>
        <mag>
          <value>0.94</value>
        </mag>
        <type>MD</type>
        <amplitudeID>quakeml:uw.anss.org/Coda/UW/2163518</amplitudeID>
        <waveformID networkCode="UW" stationCode="MBW" locationCode="" channelCode="EHZ"></waveformID>
      </stationMagnitude>
      <pick publicID="quakeml:uw.anss.org/Arrival/UW/9340493">
        <time>
          <value>2007-03-28T11:45:11.450000Z</value>
          <uncertainty>0.1</uncertainty>
        </time>
        <waveformID networkCode="TA" stationCode="B05A" locationCode="" channelCode="BHN"></waveformID>
        <polarity>undecidable</polarity>
        <evaluationMode>manual</evaluationMode>
        <evaluationStatus>final</evaluationStatus>
        <creationInfo>
          <agencyID>UW</agencyID>
          <creationTime>2012-03-06T10:48:13.000000Z</creationTime>
        </creationInfo>
      </pick>
      <pick publicID="quakeml:uw.anss.org/Arrival/UW/9340498">
        <time>
          <value>2007-03-28T11:45:02.330000Z</value>
          <uncertainty>0.05</uncertainty>
        </time>
        <waveformID networkCode="TA" stationCode="A05A" locationCode="" channelCode="BHZ"></waveformID>
        <polarity>undecidable</polarity>
        <evaluationMode>manual</evaluationMode>
        <evaluationStatus>final</evaluationStatus>
        <creationInfo>
          <agencyID>UW</agencyID>
          <creationTime>2012-03-06T10:48:13.000000Z</creationTime>
        </creationInfo>
      </pick>
      <pick publicID="quakeml:uw.anss.org/Arrival/UW/9340503">
        <time>
          <value>2007-03-28T11:45:08.280000Z</value>
          <uncertainty>0.1</uncertainty>
        </time>
        <waveformID networkCode="TA" stationCode="A05A" locationCode="" channelCode="BHE"></waveformID>
        <polarity>undecidable</polarity>
        <evaluationMode>manual</evaluationMode>
        <evaluationStatus>final</evaluationStatus>
        <creationInfo>
          <agencyID>UW</agencyID>
          <creationTime>2012-03-06T10:48:13.000000Z</creationTime>
        </creationInfo>
      </pick>
      <pick publicID="quakeml:uw.anss.org/Arrival/UW/9340508">
        <time>
          <value>2007-03-28T11:45:06.910000Z</value>
          <uncertainty>0.04</uncertainty>
        </time>
        <waveformID networkCode="UW" stationCode="JCW" locationCode="" channelCode="EHZ"></waveformID>
        <polarity>undecidable</polarity>
        <evaluationMode>manual</evaluationMode>
        <evaluationStatus>final</evaluationStatus>
        <creationInfo>
          <agencyID>UW</agencyID>
          <creationTime>2012-03-06T10:48:13.000000Z</creationTime>
        </creationInfo>
      </pick>
      <pick publicID="quakeml:uw.anss.org/Arrival/UW/9340513">
        <time>
          <value>2007-03-28T11:45:15.310000Z</value>
          <uncertainty>0.03</uncertainty>
        </time>
        <waveformID networkCode="PB" stationCode="B011" locationCode="" channelCode="EH2"></waveformID>
        <polarity>undecidable</polarity>
        <evaluationMode>manual</evaluationMode>
        <evaluationStatus>final</evaluationStatus>
        <creationInfo>
          <agencyID>UW</agencyID>
          <creationTime>2012-03-06T10:48:13.000000Z</creationTime>
        </creationInfo>
      </pick>
      <pick publicID="quakeml:uw.anss.org/Arrival/UW/9340518">
        <time>
          <value>2007-03-28T11:45:06.440000Z</value>
          <uncertainty>0.04</uncertainty>
        </time>
        <waveformID networkCode="PB" stationCode="B011" locationCode="" channelCode="EHZ"></waveformID>
        <polarity>undecidable</polarity>
        <evaluationMode>manual</evaluationMode>
        <evaluationStatus>final</evaluationStatus>
        <creationInfo>
          <agencyID>UW</agencyID>
          <creationTime>2012-03-06T10:48:13.000000Z</creationTime>
        </creationInfo>
      </pick>
      <pick publicID="quakeml:uw.anss.org/Arrival/UW/9340523">
        <time>
          <value>2007-03-28T11:45:01.390000Z</value>
          <uncertainty>0.09</uncertainty>
        </time>
        <waveformID networkCode="UW" stationCode="CMW" locationCode="" channelCode="EHZ"></waveformID>
        <polarity>undecidable</polarity>
        <evaluationMode>manual</evaluationMode>
        <evaluationStatus>final</evaluationStatus>
        <creationInfo>
          <agencyID>UW</agencyID>
          <creationTime>2012-03-06T10:48:13.000000Z</creationTime>
        </creationInfo>
      </pick>
      <pick publicID="quakeml:uw.anss.org/Arrival/UW/9340528">
        <time>
          <value>2007-03-28T11:45:07.210000Z</value>
          <uncertainty>0.09</uncertainty>
        </time>
        <waveformID networkCode="UW" stationCode="CMW" locationCode="" channelCode="EHZ"></waveformID>
        <polarity>undecidable</polarity>
        <evaluationMode>manual</evaluationMode>
        <evaluationStatus>final</evaluationStatus>
        <creationInfo>
          <agencyID>UW</agencyID>
          <creationTime>2012-03-06T10:48:13.000000Z</creationTime>
        </creationInfo>
      </pick>
      <pick publicID="quakeml:uw.anss.org/Arrival/UW/9340533">
        <time>
          <value>2007-03-28T11:44:59.630000Z</value>
          <uncertainty>0.05</uncertainty>
        </time>
        <waveformID networkCode="UW" stationCode="MCW" locationCode="" channelCode="EHZ"></waveformID>
        <polarity>undecidable</polarity>
        <evaluationMode>manual</evaluationMode>
        <evaluationStatus>final</evaluationStatus>
        <creationInfo>
          <agencyID>UW</agencyID>
          <creationTime>2012-03-06T10:48:13.000000Z</creationTime>
        </creationInfo>
      </pick>
      <pick publicID="quakeml:uw.anss.org/Arrival/UW/9340538">
        <time>
          <value>2007-03-28T11:45:02.500000Z</value>
          <uncertainty>0.04</uncertainty>
        </time>
        <waveformID networkCode="UW" stationCode="MBW" locationCode="" channelCode="EHZ"></waveformID>
        <polarity>undecidable</polarity>
        <evaluationMode>manual</evaluationMode>
        <evaluationStatus>final</evaluationStatus>
        <creationInfo>
          <agencyID>UW</agencyID>
          <creationTime>2012-03-06T10:48:13.000000Z</creationTime>
        </creationInfo>
      </pick>
      <amplitude publicID="quakeml:uw.anss.org/Coda/UW/2163513">
        <genericAmplitude>
          <value>21.0</value>
        </genericAmplitude>
        <type>END</type>
        <category>duration</category>
        <unit>s</unit>
        <waveformID networkCode="UW" stationCode="CMW" locationCode="" channelCode="EHZ"></waveformID>
        <magnitudeHint>MD</magnitudeHint>
        <evaluationMode>manual</evaluationMode>
        <evaluationStatus>final</evaluationStatus>
      </amplitude>
      <amplitude publicID="quakeml:uw.anss.org/Coda/UW/2163508">
        <genericAmplitude>
          <value>19.0</value>
        </genericAmplitude>
        <type>END</type>
        <category>duration</category>
        <unit>s</unit>
        <waveformID networkCode="UW" stationCode="JCW" locationCode="" channelCode="EHZ"></waveformID>
        <magnitudeHint>MD</magnitudeHint>
        <evaluationMode>manual</evaluationMode>
        <evaluationStatus>final</evaluationStatus>
      </amplitude>
      <amplitude publicID="quakeml:uw.anss.org/Coda/UW/2163518">
        <genericAmplitude>
          <value>16.0</value>
        </genericAmplitude>
        <type>END</type>
        <category>duration</category>
        <unit>s</unit>
        <waveformID networkCode="UW" stationCode="MBW" locationCode="" channelCode="EHZ"></waveformID>
        <magnitudeHint>MD</magnitudeHint>
        <evaluationMode>manual</evaluationMode>
        <evaluationStatus>final</evaluationStatus>
      </amplitude>
    </event>
  </eventParameters>
</q:quakeml>
