<?xml version='1.0' encoding='utf-8'?>
<q:quakeml xmlns="http://quakeml.org/xmlns/bed/1.2" xmlns:q="http://quakeml.org/xmlns/quakeml/1.2" xmlns:ns0="http://anss.org/xmlns/catalog/0.1">
  <eventParameters publicID="smi:local/0054e1d7-6178-4d8b-9d9d-947a5cbbcbd0">
    <event publicID="quakeml:uw.anss.org/Event/UW/10164098" ns0:datasource="uw" ns0:dataid="uw10164098" ns0:eventsource="uw" ns0:eventid="10164098">
      <preferredOriginID>quakeml:uw.anss.org/Origin/UW/441023</preferredOriginID>
      <preferredMagnitudeID>quakeml:uw.anss.org/Netmag/UW/377403</preferredMagnitudeID>
      <type>earthquake</type>
      <creationInfo>
        <agencyID>UW</agencyID>
        <creationTime>2012-02-27T13:38:39.000000Z</creationTime>
        <version>4</version>
      </creationInfo>
      <origin publicID="quakeml:uw.anss.org/Origin/UW/441023" ns0:datasource="uw" ns0:dataid="uw10164098" ns0:eventsource="uw" ns0:eventid="10164098">
        <time>
          <value>1983-06-25T13:23:28.510000Z</value>
          <uncertainty>0.2</uncertainty>
        </time>
        <latitude>
          <value>49.043</value>
          <uncertainty>6.27</uncertainty>
        </latitude>
        <longitude>
          <value>-121.9263333</value>
          <uncertainty>5.56</uncertainty>
        </longitude>
        <depth>
          <value>-1194.0</value>
          <uncertainty>7280.0</uncertainty>
        </depth>
        <depthType>operator assigned</depthType>
        <timeFixed>false</timeFixed>
        <epicenterFixed>true</epicenterFixed>
        <methodID>smi:uw.anss.org/origin/spong</methodID>
        <quality>
          <associatedPhaseCount>8</associatedPhaseCount>
          <usedPhaseCount>5</usedPhaseCount>
          <associatedStationCount>6</associatedStationCount>
          <usedStationCount>0</usedStationCount>
          <standardError>0.58</standardError>
          <azimuthalGap>355.0</azimuthalGap>
        </quality>
        <type>hypocenter</type>
        <evaluationMode>manual</evaluationMode>
        <evaluationStatus>final</evaluationStatus>
        <creationInfo>
          <agencyID>UW</agencyID>
          <creationTime>2012-02-27T13:38:39.000000Z</creationTime>
        </creationInfo>
        <originUncertainty>
          <preferredDescription>horizontal uncertainty</preferredDescription>
          <horizontalUncertainty>8380.0</horizontalUncertainty>
        </originUncertainty>
        <arrival publicID="quakeml:uw.anss.org/AssocArO/UW/2324483">
          <pickID>quakeml:uw.anss.org/Arrival/UW/2324483</pickID>
          <phase>P</phase>
          <azimuth>208.7</azimuth>
          <distance>1.586</distance>
          <timeResidual>0.12</timeResidual>
          <creationInfo>
            <agencyID>UW</agencyID>
            <creationTime>2012-02-27T13:38:39.000000Z</creationTime>
          </creationInfo>
        </arrival>
        <arrival publicID="quakeml:uw.anss.org/AssocArO/UW/2324488">
          <pickID>quakeml:uw.anss.org/Arrival/UW/2324488</pickID>
          <phase>P</phase>
          <azimuth>180.1</azimuth>
          <timeResidual>-0.13</timeResidual>
          <creationInfo>
            <agencyID>UW</agencyID>
            <creationTime>2012-02-27T13:38:39.000000Z</creationTime>
          </creationInfo>
        </arrival>
        <arrival publicID="quakeml:uw.anss.org/AssocArO/UW/2324493">
          <pickID>quakeml:uw.anss.org/Arrival/UW/2324493</pickID>
          <phase>S</phase>
          <azimuth>180.1</azimuth>
          <timeResidual>-0.63</timeResidual>
          <creationInfo>
            <agencyID>UW</agencyID>
            <creationTime>2012-02-27T13:38:39.000000Z</creationTime>
          </creationInfo>
        </arrival>
        <arrival publicID="quakeml:uw.anss.org/AssocArO/UW/2324498">
          <pickID>quakeml:uw.anss.org/Arrival/UW/2324498</pickID>
          <phase>P</phase>
          <azimuth>177.1</azimuth>
          <distance>1.587</distance>
          <timeResidual>0.48</timeResidual>
          <creationInfo>
            <agencyID>UW</agencyID>
            <creationTime>2012-02-27T13:38:39.000000Z</creationTime>
          </creationInfo>
        </arrival>
        <arrival publicID="quakeml:uw.anss.org/AssocArO/UW/2324503">
          <pickID>quakeml:uw.anss.org/Arrival/UW/2324503</pickID>
          <phase>P</phase>
          <azimuth>175.3</azimuth>
          <timeResidual>0.42</timeResidual>
          <creationInfo>
            <agencyID>UW</agencyID>
            <creationTime>2012-02-27T13:38:39.000000Z</creationTime>
          </creationInfo>
        </arrival>
        <arrival publicID="quakeml:uw.anss.org/AssocArO/UW/2324508">
          <pickID>quakeml:uw.anss.org/Arrival/UW/2324508</pickID>
          <phase>P</phase>
          <azimuth>175.1</azimuth>
          <distance>1.245</distance>
          <timeResidual>0.86</timeResidual>
          <creationInfo>
            <agencyID>UW</agencyID>
            <creationTime>2012-02-27T13:38:39.000000Z</creationTime>
          </creationInfo>
        </arrival>
        <arrival publicID="quakeml:uw.anss.org/AssocArO/UW/2324513">
          <pickID>quakeml:uw.anss.org/Arrival/UW/2324513</pickID>
          <phase>S</phase>
          <azimuth>175.1</azimuth>
          <distance>1.245</distance>
          <timeResidual>0.07</timeResidual>
          <creationInfo>
            <agencyID>UW</agencyID>
            <creationTime>2012-02-27T13:38:39.000000Z</creationTime>
          </creationInfo>
        </arrival>
        <arrival publicID="quakeml:uw.anss.org/AssocArO/UW/2324518">
          <pickID>quakeml:uw.anss.org/Arrival/UW/2324518</pickID>
          <phase>P</phase>
          <azimuth>176.3</azimuth>
          <distance>0.26</distance>
          <timeResidual>-0.89</timeResidual>
          <creationInfo>
            <agencyID>UW</agencyID>
            <creationTime>2012-02-27T13:38:39.000000Z</creationTime>
          </creationInfo>
        </arrival>
      </origin>
      <magnitude publicID="quakeml:uw.anss.org/Netmag/UW/377403">
        <mag>
          <value>2.1</value>
          <uncertainty>0.12</uncertainty>
        </mag>
        <type>Md</type>
        <originID>quakeml:uw.anss.org/Origin/UW/441023</originID>
        <methodID>smi:uw.anss.org/magnitude/Crosson</methodID>
        <stationCount>4</stationCount>
        <evaluationMode>manual</evaluationMode>
        <evaluationStatus>final</evaluationStatus>
        <stationMagnitudeContribution>
          <stationMagnitudeID>quakeml:uw.anss.org/AssocCoM/UW/776358</stationMagnitudeID>
          <weight>1.0</weight>
          <residual>-0.11</residual>
        </stationMagnitudeContribution>
        <stationMagnitudeContribution>
          <stationMagnitudeID>quakeml:uw.anss.org/AssocCoM/UW/776363</stationMagnitudeID>
          <weight>1.0</weight>
          <residual>-0.32</residual>
        </stationMagnitudeContribution>
        <stationMagnitudeContribution>
          <stationMagnitudeID>quakeml:uw.anss.org/AssocCoM/UW/776353</stationMagnitudeID>
          <weight>1.0</weight>
          <residual>0.18</residual>
        </stationMagnitudeContribution>
        <stationMagnitudeContribution>
          <stationMagnitudeID>quakeml:uw.anss.org/AssocCoM/UW/776368</stationMagnitudeID>
          <weight>1.0</weight>
          <residual>0.07</residual>
        </stationMagnitudeContribution>
        <creationInfo>
          <agencyID>UW</agencyID>
          <creationTime>2012-02-27T13:38:39.000000Z</creationTime>
        </creationInfo>
      </magnitude>
      <stationMagnitude publicID="quakeml:uw.anss.org/AssocCoM/UW/776353">
        <originID>quakeml:uw.anss.org/Origin/UW/441023</originID>
        <mag>
          <value>2.28</value>
        </mag>
        <type>MD</type>
        <amplitudeID>quakeml:uw.anss.org/Coda/UW/776353</amplitudeID>
        <waveformID networkCode="UW" stationCode="JCW" locationCode="" channelCode="EHZ"></waveformID>
      </stationMagnitude>
      <stationMagnitude publicID="quakeml:uw.anss.org/AssocCoM/UW/776358">
        <originID>quakeml:uw.anss.org/Origin/UW/441023</originID>
        <mag>
          <value>1.99</value>
        </mag>
        <type>MD</type>
        <amplitudeID>quakeml:uw.anss.org/Coda/UW/776358</amplitudeID>
        <waveformID networkCode="UW" stationCode="FMW" locationCode="" channelCode="EHZ"></waveformID>
      </stationMagnitude>
      <stationMagnitude publicID="quakeml:uw.anss.org/AssocCoM/UW/776363">
        <originID>quakeml:uw.anss.org/Origin/UW/441023</originID>
        <mag>
          <value>1.78</value>
        </mag>
        <type>MD</type>
        <amplitudeID>quakeml:uw.anss.org/Coda/UW/776363</amplitudeID>
        <waveformID networkCode="UW" stationCode="HTW" locationCode="" channelCode="EHZ"></waveformID>
      </stationMagnitude>
      <stationMagnitude publicID="quakeml:uw.anss.org/AssocCoM/UW/776368">
        <originID>quakeml:uw.anss.org/Origin/UW/441023</originID>
        <mag>
          <value>2.17</value>
        </mag>
        <type>MD</type>
        <amplitudeID>quakeml:uw.anss.org/Coda/UW/776368</amplitudeID>
        <waveformID networkCode="UW" stationCode="MBW" locationCode="" channelCode="EHZ"></waveformID>
      </stationMagnitude>
      <pick publicID="quakeml:uw.anss.org/Arrival/UW/2324483">
        <time>
          <value>1983-06-25T13:23:56.500000Z</value>
          <uncertainty>0.05</uncertainty>
        </time>
        <waveformID networkCode="UW" stationCode="HDW" locationCode="" channelCode="EHZ"></waveformID>
        <polarity>undecidable</polarity>
        <evaluationMode>manual</evaluationMode>
        <evaluationStatus>final</evaluationStatus>
        <creationInfo>
          <agencyID>UW</agencyID>
          <creationTime>2012-02-27T13:38:39.000000Z</creationTime>
        </creationInfo>
      </pick>
      <pick publicID="quakeml:uw.anss.org/Arrival/UW/2324488">
        <time>
          <value>1983-06-25T13:23:43.900000Z</value>
          <uncertainty>0.05</uncertainty>
        </time>
        <waveformID networkCode="UW" stationCode="JCW" locationCode="" channelCode="EHZ"></waveformID>
        <polarity>undecidable</polarity>
        <evaluationMode>manual</evaluationMode>
        <evaluationStatus>final</evaluationStatus>
        <creationInfo>
          <agencyID>UW</agencyID>
          <creationTime>2012-02-27T13:38:39.000000Z</creationTime>
        </creationInfo>
      </pick>
      <pick publicID="quakeml:uw.anss.org/Arrival/UW/2324493">
        <time>
          <value>1983-06-25T13:23:55.500000Z</value>
          <uncertainty>0.25</uncertainty>
        </time>
        <waveformID networkCode="UW" stationCode="JCW" locationCode="" channelCode="EHZ"></waveformID>
        <polarity>undecidable</polarity>
        <evaluationMode>manual</evaluationMode>
        <evaluationStatus>final</evaluationStatus>
        <creationInfo>
          <agencyID>UW</agencyID>
          <creationTime>2012-02-27T13:38:39.000000Z</creationTime>
        </creationInfo>
      </pick>
      <pick publicID="quakeml:uw.anss.org/Arrival/UW/2324498">
        <time>
          <value>1983-06-25T13:23:57.250000Z</value>
          <uncertainty>0.1</uncertainty>
        </time>
        <waveformID networkCode="UW" stationCode="RMW" locationCode="" channelCode="EHZ"></waveformID>
        <polarity>undecidable</polarity>
        <evaluationMode>manual</evaluationMode>
        <evaluationStatus>final</evaluationStatus>
        <creationInfo>
          <agencyID>UW</agencyID>
          <creationTime>2012-02-27T13:38:39.000000Z</creationTime>
        </creationInfo>
      </pick>
      <pick publicID="quakeml:uw.anss.org/Arrival/UW/2324503">
        <time>
          <value>1983-06-25T13:24:05.600000Z</value>
          <uncertainty>0.05</uncertainty>
        </time>
        <waveformID networkCode="UW" stationCode="FMW" locationCode="" channelCode="EHZ"></waveformID>
        <polarity>undecidable</polarity>
        <evaluationMode>manual</evaluationMode>
        <evaluationStatus>final</evaluationStatus>
        <creationInfo>
          <agencyID>UW</agencyID>
          <creationTime>2012-02-27T13:38:39.000000Z</creationTime>
        </creationInfo>
      </pick>
      <pick publicID="quakeml:uw.anss.org/Arrival/UW/2324508">
        <time>
          <value>1983-06-25T13:23:51.600000Z</value>
          <uncertainty>0.05</uncertainty>
        </time>
        <waveformID networkCode="UW" stationCode="HTW" locationCode="" channelCode="EHZ"></waveformID>
        <polarity>undecidable</polarity>
        <evaluationMode>manual</evaluationMode>
        <evaluationStatus>final</evaluationStatus>
        <creationInfo>
          <agencyID>UW</agencyID>
          <creationTime>2012-02-27T13:38:39.000000Z</creationTime>
        </creationInfo>
      </pick>
      <pick publicID="quakeml:uw.anss.org/Arrival/UW/2324513">
        <time>
          <value>1983-06-25T13:24:08.150000Z</value>
          <uncertainty>0.25</uncertainty>
        </time>
        <waveformID networkCode="UW" stationCode="HTW" locationCode="" channelCode="EHZ"></waveformID>
        <polarity>undecidable</polarity>
        <evaluationMode>manual</evaluationMode>
        <evaluationStatus>final</evaluationStatus>
        <creationInfo>
          <agencyID>UW</agencyID>
          <creationTime>2012-02-27T13:38:39.000000Z</creationTime>
        </creationInfo>
      </pick>
      <pick publicID="quakeml:uw.anss.org/Arrival/UW/2324518">
        <time>
          <value>1983-06-25T13:23:33.250000Z</value>
          <uncertainty>0.05</uncertainty>
        </time>
        <waveformID networkCode="UW" stationCode="MBW" locationCode="" channelCode="EHZ"></waveformID>
        <polarity>undecidable</polarity>
        <evaluationMode>manual</evaluationMode>
        <evaluationStatus>final</evaluationStatus>
        <creationInfo>
          <agencyID>UW</agencyID>
          <creationTime>2012-02-27T13:38:39.000000Z</creationTime>
        </creationInfo>
      </pick>
      <amplitude publicID="quakeml:uw.anss.org/Coda/UW/776358">
        <genericAmplitude>
          <value>38.0</value>
        </genericAmplitude>
        <type>END</type>
        <category>duration</category>
        <unit>s</unit>
        <waveformID networkCode="UW" stationCode="FMW" locationCode="" channelCode="EHZ"></waveformID>
        <magnitudeHint>MD</magnitudeHint>
        <evaluationMode>manual</evaluationMode>
        <evaluationStatus>final</evaluationStatus>
      </amplitude>
      <amplitude publicID="quakeml:uw.anss.org/Coda/UW/776363">
        <genericAmplitude>
          <value>32.0</value>
        </genericAmplitude>
        <type>END</type>
        <category>duration</category>
        <unit>s</unit>
        <waveformID networkCode="UW" stationCode="HTW" locationCode="" channelCode="EHZ"></waveformID>
        <magnitudeHint>MD</magnitudeHint>
        <evaluationMode>manual</evaluationMode>
        <evaluationStatus>final</evaluationStatus>
      </amplitude>
      <amplitude publicID="quakeml:uw.anss.org/Coda/UW/776353">
        <genericAmplitude>
          <value>48.0</value>
        </genericAmplitude>
        <type>END</type>
        <category>duration</category>
        <unit>s</unit>
        <waveformID networkCode="UW" stationCode="JCW" locationCode="" channelCode="EHZ"></waveformID>
        <magnitudeHint>MD</magnitudeHint>
        <evaluationMode>manual</evaluationMode>
        <evaluationStatus>final</evaluationStatus>
      </amplitude>
      <amplitude publicID="quakeml:uw.anss.org/Coda/UW/776368">
        <genericAmplitude>
          <value>44.0</value>
        </genericAmplitude>
        <type>END</type>
        <category>duration</category>
        <unit>s</unit>
        <waveformID networkCode="UW" stationCode="MBW" locationCode="" channelCode="EHZ"></waveformID>
        <magnitudeHint>MD</magnitudeHint>
        <evaluationMode>manual</evaluationMode>
        <evaluationStatus>final</evaluationStatus>
      </amplitude>
    </event>
  </eventParameters>
</q:quakeml>
