<?xml version='1.0' encoding='utf-8'?>
<q:quakeml xmlns="http://quakeml.org/xmlns/bed/1.2" xmlns:q="http://quakeml.org/xmlns/quakeml/1.2" xmlns:ns0="http://anss.org/xmlns/catalog/0.1">
  <eventParameters publicID="smi:local/231770c4-9ea6-4e67-8a61-262ecab16aaa">
    <event publicID="quakeml:uw.anss.org/Event/UW/10154728" ns0:datasource="uw" ns0:dataid="uw10154728" ns0:eventsource="uw" ns0:eventid="10154728">
      <preferredOriginID>quakeml:uw.anss.org/Origin/UW/431653</preferredOriginID>
      <preferredMagnitudeID>quakeml:uw.anss.org/Netmag/UW/373973</preferredMagnitudeID>
      <type>earthquake</type>
      <creationInfo>
        <agencyID>UW</agencyID>
        <creationTime>2012-02-27T13:26:48.000000Z</creationTime>
        <version>3</version>
      </creationInfo>
      <origin publicID="quakeml:uw.anss.org/Origin/UW/431653" ns0:datasource="uw" ns0:dataid="uw10154728" ns0:eventsource="uw" ns0:eventid="10154728">
        <time>
          <value>1983-07-01T01:39:02.170000Z</value>
          <uncertainty>0.14</uncertainty>
        </time>
        <latitude>
          <value>48.8038333</value>
          <uncertainty>0.59</uncertainty>
        </latitude>
        <longitude>
          <value>-121.595</value>
          <uncertainty>0.7</uncertainty>
        </longitude>
        <depth>
          <value>-1014.0</value>
          <uncertainty>1230.0</uncertainty>
        </depth>
        <depthType>operator assigned</depthType>
        <timeFixed>false</timeFixed>
        <epicenterFixed>false</epicenterFixed>
        <methodID>smi:uw.anss.org/origin/spong</methodID>
        <quality>
          <associatedPhaseCount>25</associatedPhaseCount>
          <usedPhaseCount>10</usedPhaseCount>
          <associatedStationCount>20</associatedStationCount>
          <usedStationCount>0</usedStationCount>
          <standardError>0.61</standardError>
          <azimuthalGap>238.0</azimuthalGap>
        </quality>
        <type>hypocenter</type>
        <evaluationMode>manual</evaluationMode>
        <evaluationStatus>final</evaluationStatus>
        <creationInfo>
          <agencyID>UW</agencyID>
          <creationTime>2012-02-27T13:26:48.000000Z</creationTime>
        </creationInfo>
        <originUncertainty>
          <preferredDescription>horizontal uncertainty</preferredDescription>
          <horizontalUncertainty>915.0</horizontalUncertainty>
        </originUncertainty>
        <arrival publicID="quakeml:uw.anss.org/AssocArO/UW/2258333">
          <pickID>quakeml:uw.anss.org/Arrival/UW/2258333</pickID>
          <phase>P</phase>
          <azimuth>220.6</azimuth>
          <distance>1.514</distance>
          <timeResidual>0.58</timeResidual>
          <creationInfo>
            <agencyID>UW</agencyID>
            <creationTime>2012-02-27T13:26:48.000000Z</creationTime>
          </creationInfo>
        </arrival>
        <arrival publicID="quakeml:uw.anss.org/AssocArO/UW/2258338">
          <pickID>quakeml:uw.anss.org/Arrival/UW/2258338</pickID>
          <phase>P</phase>
          <azimuth>114.8</azimuth>
          <distance>1.816</distance>
          <timeResidual>3.68</timeResidual>
          <creationInfo>
            <agencyID>UW</agencyID>
            <creationTime>2012-02-27T13:26:48.000000Z</creationTime>
          </creationInfo>
        </arrival>
        <arrival publicID="quakeml:uw.anss.org/AssocArO/UW/2258343">
          <pickID>quakeml:uw.anss.org/Arrival/UW/2258343</pickID>
          <phase>P</phase>
          <azimuth>200.0</azimuth>
          <timeResidual>-0.25</timeResidual>
          <creationInfo>
            <agencyID>UW</agencyID>
            <creationTime>2012-02-27T13:26:48.000000Z</creationTime>
          </creationInfo>
        </arrival>
        <arrival publicID="quakeml:uw.anss.org/AssocArO/UW/2258348">
          <pickID>quakeml:uw.anss.org/Arrival/UW/2258348</pickID>
          <phase>S</phase>
          <azimuth>200.0</azimuth>
          <timeResidual>-0.76</timeResidual>
          <creationInfo>
            <agencyID>UW</agencyID>
            <creationTime>2012-02-27T13:26:48.000000Z</creationTime>
          </creationInfo>
        </arrival>
        <arrival publicID="quakeml:uw.anss.org/AssocArO/UW/2258353">
          <pickID>quakeml:uw.anss.org/Arrival/UW/2258353</pickID>
          <phase>P</phase>
          <azimuth>186.1</azimuth>
          <distance>1.353</distance>
          <timeResidual>0.51</timeResidual>
          <creationInfo>
            <agencyID>UW</agencyID>
            <creationTime>2012-02-27T13:26:48.000000Z</creationTime>
          </creationInfo>
        </arrival>
        <arrival publicID="quakeml:uw.anss.org/AssocArO/UW/2258358">
          <pickID>quakeml:uw.anss.org/Arrival/UW/2258358</pickID>
          <phase>P</phase>
          <azimuth>142.5</azimuth>
          <distance>1.442</distance>
          <timeResidual>0.8</timeResidual>
          <creationInfo>
            <agencyID>UW</agencyID>
            <creationTime>2012-02-27T13:26:48.000000Z</creationTime>
          </creationInfo>
        </arrival>
        <arrival publicID="quakeml:uw.anss.org/AssocArO/UW/2258363">
          <pickID>quakeml:uw.anss.org/Arrival/UW/2258363</pickID>
          <phase>P</phase>
          <azimuth>192.6</azimuth>
          <distance>2.189</distance>
          <timeResidual>0.05</timeResidual>
          <creationInfo>
            <agencyID>UW</agencyID>
            <creationTime>2012-02-27T13:26:48.000000Z</creationTime>
          </creationInfo>
        </arrival>
        <arrival publicID="quakeml:uw.anss.org/AssocArO/UW/2258368">
          <pickID>quakeml:uw.anss.org/Arrival/UW/2258368</pickID>
          <phase>P</phase>
          <azimuth>210.0</azimuth>
          <distance>2.105</distance>
          <timeResidual>1.31</timeResidual>
          <creationInfo>
            <agencyID>UW</agencyID>
            <creationTime>2012-02-27T13:26:48.000000Z</creationTime>
          </creationInfo>
        </arrival>
        <arrival publicID="quakeml:uw.anss.org/AssocArO/UW/2258373">
          <pickID>quakeml:uw.anss.org/Arrival/UW/2258373</pickID>
          <phase>P</phase>
          <azimuth>181.6</azimuth>
          <timeResidual>0.28</timeResidual>
          <creationInfo>
            <agencyID>UW</agencyID>
            <creationTime>2012-02-27T13:26:48.000000Z</creationTime>
          </creationInfo>
        </arrival>
        <arrival publicID="quakeml:uw.anss.org/AssocArO/UW/2258378">
          <pickID>quakeml:uw.anss.org/Arrival/UW/2258378</pickID>
          <phase>S</phase>
          <azimuth>181.6</azimuth>
          <timeResidual>0.32</timeResidual>
          <creationInfo>
            <agencyID>UW</agencyID>
            <creationTime>2012-02-27T13:26:48.000000Z</creationTime>
          </creationInfo>
        </arrival>
        <arrival publicID="quakeml:uw.anss.org/AssocArO/UW/2258383">
          <pickID>quakeml:uw.anss.org/Arrival/UW/2258383</pickID>
          <phase>P</phase>
          <azimuth>197.7</azimuth>
          <distance>1.005</distance>
          <timeResidual>0.31</timeResidual>
          <creationInfo>
            <agencyID>UW</agencyID>
            <creationTime>2012-02-27T13:26:48.000000Z</creationTime>
          </creationInfo>
        </arrival>
        <arrival publicID="quakeml:uw.anss.org/AssocArO/UW/2258388">
          <pickID>quakeml:uw.anss.org/Arrival/UW/2258388</pickID>
          <phase>P</phase>
          <azimuth>143.3</azimuth>
          <distance>1.583</distance>
          <timeResidual>1.08</timeResidual>
          <creationInfo>
            <agencyID>UW</agencyID>
            <creationTime>2012-02-27T13:26:48.000000Z</creationTime>
          </creationInfo>
        </arrival>
        <arrival publicID="quakeml:uw.anss.org/AssocArO/UW/2258393">
          <pickID>quakeml:uw.anss.org/Arrival/UW/2258393</pickID>
          <phase>S</phase>
          <azimuth>143.3</azimuth>
          <distance>1.583</distance>
          <timeResidual>0.03</timeResidual>
          <creationInfo>
            <agencyID>UW</agencyID>
            <creationTime>2012-02-27T13:26:48.000000Z</creationTime>
          </creationInfo>
        </arrival>
        <arrival publicID="quakeml:uw.anss.org/AssocArO/UW/2258398">
          <pickID>quakeml:uw.anss.org/Arrival/UW/2258398</pickID>
          <phase>P</phase>
          <azimuth>245.4</azimuth>
          <timeResidual>0.17</timeResidual>
          <creationInfo>
            <agencyID>UW</agencyID>
            <creationTime>2012-02-27T13:26:48.000000Z</creationTime>
          </creationInfo>
        </arrival>
        <arrival publicID="quakeml:uw.anss.org/AssocArO/UW/2258403">
          <pickID>quakeml:uw.anss.org/Arrival/UW/2258403</pickID>
          <phase>P</phase>
          <azimuth>199.4</azimuth>
          <distance>1.325</distance>
          <timeResidual>0.86</timeResidual>
          <creationInfo>
            <agencyID>UW</agencyID>
            <creationTime>2012-02-27T13:26:48.000000Z</creationTime>
          </creationInfo>
        </arrival>
        <arrival publicID="quakeml:uw.anss.org/AssocArO/UW/2258423">
          <pickID>quakeml:uw.anss.org/Arrival/UW/2258423</pickID>
          <phase>P</phase>
          <azimuth>186.7</azimuth>
          <distance>1.008</distance>
          <timeResidual>0.2</timeResidual>
          <creationInfo>
            <agencyID>UW</agencyID>
            <creationTime>2012-02-27T13:26:48.000000Z</creationTime>
          </creationInfo>
        </arrival>
        <arrival publicID="quakeml:uw.anss.org/AssocArO/UW/2258433">
          <pickID>quakeml:uw.anss.org/Arrival/UW/2258433</pickID>
          <phase>P</phase>
          <azimuth>229.5</azimuth>
          <distance>1.216</distance>
          <timeResidual>0.99</timeResidual>
          <creationInfo>
            <agencyID>UW</agencyID>
            <creationTime>2012-02-27T13:26:48.000000Z</creationTime>
          </creationInfo>
        </arrival>
        <arrival publicID="quakeml:uw.anss.org/AssocArO/UW/2258443">
          <pickID>quakeml:uw.anss.org/Arrival/UW/2258443</pickID>
          <phase>P</phase>
          <azimuth>157.4</azimuth>
          <distance>1.767</distance>
          <timeResidual>0.96</timeResidual>
          <creationInfo>
            <agencyID>UW</agencyID>
            <creationTime>2012-02-27T13:26:48.000000Z</creationTime>
          </creationInfo>
        </arrival>
        <arrival publicID="quakeml:uw.anss.org/AssocArO/UW/2258453">
          <pickID>quakeml:uw.anss.org/Arrival/UW/2258453</pickID>
          <phase>P</phase>
          <azimuth>187.9</azimuth>
          <distance>1.878</distance>
          <timeResidual>0.63</timeResidual>
          <creationInfo>
            <agencyID>UW</agencyID>
            <creationTime>2012-02-27T13:26:48.000000Z</creationTime>
          </creationInfo>
        </arrival>
        <arrival publicID="quakeml:uw.anss.org/AssocArO/UW/2258463">
          <pickID>quakeml:uw.anss.org/Arrival/UW/2258463</pickID>
          <phase>S</phase>
          <azimuth>187.9</azimuth>
          <distance>1.878</distance>
          <timeResidual>0.23</timeResidual>
          <creationInfo>
            <agencyID>UW</agencyID>
            <creationTime>2012-02-27T13:26:48.000000Z</creationTime>
          </creationInfo>
        </arrival>
        <arrival publicID="quakeml:uw.anss.org/AssocArO/UW/2258473">
          <pickID>quakeml:uw.anss.org/Arrival/UW/2258473</pickID>
          <phase>P</phase>
          <azimuth>261.8</azimuth>
          <distance>0.8287</distance>
          <timeResidual>0.82</timeResidual>
          <creationInfo>
            <agencyID>UW</agencyID>
            <creationTime>2012-02-27T13:26:48.000000Z</creationTime>
          </creationInfo>
        </arrival>
        <arrival publicID="quakeml:uw.anss.org/AssocArO/UW/2258483">
          <pickID>quakeml:uw.anss.org/Arrival/UW/2258483</pickID>
          <phase>P</phase>
          <azimuth>264.4</azimuth>
          <distance>0.2033</distance>
          <timeResidual>-0.43</timeResidual>
          <creationInfo>
            <agencyID>UW</agencyID>
            <creationTime>2012-02-27T13:26:48.000000Z</creationTime>
          </creationInfo>
        </arrival>
        <arrival publicID="quakeml:uw.anss.org/AssocArO/UW/2258493">
          <pickID>quakeml:uw.anss.org/Arrival/UW/2258493</pickID>
          <phase>S</phase>
          <azimuth>264.4</azimuth>
          <distance>0.2033</distance>
          <timeResidual>0.2</timeResidual>
          <creationInfo>
            <agencyID>UW</agencyID>
            <creationTime>2012-02-27T13:26:48.000000Z</creationTime>
          </creationInfo>
        </arrival>
        <arrival publicID="quakeml:uw.anss.org/AssocArO/UW/2258503">
          <pickID>quakeml:uw.anss.org/Arrival/UW/2258503</pickID>
          <phase>P</phase>
          <azimuth>126.2</azimuth>
          <distance>1.834</distance>
          <timeResidual>2.53</timeResidual>
          <creationInfo>
            <agencyID>UW</agencyID>
            <creationTime>2012-02-27T13:26:48.000000Z</creationTime>
          </creationInfo>
        </arrival>
        <arrival publicID="quakeml:uw.anss.org/AssocArO/UW/2258528">
          <pickID>quakeml:uw.anss.org/Arrival/UW/2258528</pickID>
          <phase>P</phase>
          <azimuth>159.6</azimuth>
          <distance>2.018</distance>
          <timeResidual>2.26</timeResidual>
          <creationInfo>
            <agencyID>UW</agencyID>
            <creationTime>2012-02-27T13:26:48.000000Z</creationTime>
          </creationInfo>
        </arrival>
      </origin>
      <magnitude publicID="quakeml:uw.anss.org/Netmag/UW/373973">
        <mag>
          <value>2.1</value>
          <uncertainty>0.06</uncertainty>
        </mag>
        <type>Md</type>
        <originID>quakeml:uw.anss.org/Origin/UW/431653</originID>
        <methodID>smi:uw.anss.org/magnitude/Crosson</methodID>
        <stationCount>5</stationCount>
        <evaluationMode>manual</evaluationMode>
        <evaluationStatus>final</evaluationStatus>
        <stationMagnitudeContribution>
          <stationMagnitudeID>quakeml:uw.anss.org/AssocCoM/UW/758103</stationMagnitudeID>
          <weight>1.0</weight>
          <residual>0.1</residual>
        </stationMagnitudeContribution>
        <stationMagnitudeContribution>
          <stationMagnitudeID>quakeml:uw.anss.org/AssocCoM/UW/758128</stationMagnitudeID>
          <weight>1.0</weight>
          <residual>0.33</residual>
        </stationMagnitudeContribution>
        <stationMagnitudeContribution>
          <stationMagnitudeID>quakeml:uw.anss.org/AssocCoM/UW/758118</stationMagnitudeID>
          <weight>1.0</weight>
          <residual>-0.24</residual>
        </stationMagnitudeContribution>
        <stationMagnitudeContribution>
          <stationMagnitudeID>quakeml:uw.anss.org/AssocCoM/UW/758098</stationMagnitudeID>
          <weight>1.0</weight>
          <residual>0.18</residual>
        </stationMagnitudeContribution>
        <stationMagnitudeContribution>
          <stationMagnitudeID>quakeml:uw.anss.org/AssocCoM/UW/758108</stationMagnitudeID>
          <weight>1.0</weight>
          <residual>-0.35</residual>
        </stationMagnitudeContribution>
        <creationInfo>
          <agencyID>UW</agencyID>
          <creationTime>2012-02-27T13:26:48.000000Z</creationTime>
        </creationInfo>
      </magnitude>
      <stationMagnitude publicID="quakeml:uw.anss.org/AssocCoM/UW/758098">
        <originID>quakeml:uw.anss.org/Origin/UW/431653</originID>
        <mag>
          <value>2.28</value>
        </mag>
        <type>MD</type>
        <amplitudeID>quakeml:uw.anss.org/Coda/UW/758098</amplitudeID>
        <waveformID networkCode="UW" stationCode="JCW" locationCode="" channelCode="EHZ"></waveformID>
      </stationMagnitude>
      <stationMagnitude publicID="quakeml:uw.anss.org/AssocCoM/UW/758103">
        <originID>quakeml:uw.anss.org/Origin/UW/431653</originID>
        <mag>
          <value>2.2</value>
        </mag>
        <type>MD</type>
        <amplitudeID>quakeml:uw.anss.org/Coda/UW/758103</amplitudeID>
        <waveformID networkCode="UW" stationCode="FMW" locationCode="" channelCode="EHZ"></waveformID>
      </stationMagnitude>
      <stationMagnitude publicID="quakeml:uw.anss.org/AssocCoM/UW/758108">
        <originID>quakeml:uw.anss.org/Origin/UW/431653</originID>
        <mag>
          <value>1.75</value>
        </mag>
        <type>MD</type>
        <amplitudeID>quakeml:uw.anss.org/Coda/UW/758108</amplitudeID>
        <waveformID networkCode="UW" stationCode="MOW" locationCode="" channelCode="EHZ"></waveformID>
      </stationMagnitude>
      <stationMagnitude publicID="quakeml:uw.anss.org/AssocCoM/UW/758118">
        <originID>quakeml:uw.anss.org/Origin/UW/431653</originID>
        <mag>
          <value>1.86</value>
        </mag>
        <type>MD</type>
        <amplitudeID>quakeml:uw.anss.org/Coda/UW/758118</amplitudeID>
        <waveformID networkCode="UW" stationCode="HTW" locationCode="" channelCode="EHZ"></waveformID>
      </stationMagnitude>
      <stationMagnitude publicID="quakeml:uw.anss.org/AssocCoM/UW/758128">
        <originID>quakeml:uw.anss.org/Origin/UW/431653</originID>
        <mag>
          <value>2.43</value>
        </mag>
        <type>MD</type>
        <amplitudeID>quakeml:uw.anss.org/Coda/UW/758128</amplitudeID>
        <waveformID networkCode="UW" stationCode="MBW" locationCode="" channelCode="EHZ"></waveformID>
      </stationMagnitude>
      <pick publicID="quakeml:uw.anss.org/Arrival/UW/2258333">
        <time>
          <value>1983-07-01T01:39:29.490000Z</value>
          <uncertainty>0.06</uncertainty>
        </time>
        <waveformID networkCode="UW" stationCode="HDW" locationCode="" channelCode="EHZ"></waveformID>
        <polarity>undecidable</polarity>
        <evaluationMode>manual</evaluationMode>
        <evaluationStatus>final</evaluationStatus>
        <creationInfo>
          <agencyID>UW</agencyID>
          <creationTime>2012-02-27T13:26:48.000000Z</creationTime>
        </creationInfo>
      </pick>
      <pick publicID="quakeml:uw.anss.org/Arrival/UW/2258338">
        <time>
          <value>1983-07-01T01:39:36.790000Z</value>
          <uncertainty>0.44</uncertainty>
        </time>
        <waveformID networkCode="UW" stationCode="WBW" locationCode="" channelCode="EHZ"></waveformID>
        <polarity>undecidable</polarity>
        <evaluationMode>manual</evaluationMode>
        <evaluationStatus>final</evaluationStatus>
        <creationInfo>
          <agencyID>UW</agencyID>
          <creationTime>2012-02-27T13:26:48.000000Z</creationTime>
        </creationInfo>
      </pick>
      <pick publicID="quakeml:uw.anss.org/Arrival/UW/2258343">
        <time>
          <value>1983-07-01T01:39:14.260000Z</value>
          <uncertainty>0.02</uncertainty>
        </time>
        <waveformID networkCode="UW" stationCode="JCW" locationCode="" channelCode="EHZ"></waveformID>
        <polarity>negative</polarity>
        <evaluationMode>manual</evaluationMode>
        <evaluationStatus>final</evaluationStatus>
        <creationInfo>
          <agencyID>UW</agencyID>
          <creationTime>2012-02-27T13:26:48.000000Z</creationTime>
        </creationInfo>
      </pick>
      <pick publicID="quakeml:uw.anss.org/Arrival/UW/2258348">
        <time>
          <value>1983-07-01T01:39:23.380000Z</value>
          <uncertainty>0.07</uncertainty>
        </time>
        <waveformID networkCode="UW" stationCode="JCW" locationCode="" channelCode="EHZ"></waveformID>
        <polarity>undecidable</polarity>
        <evaluationMode>manual</evaluationMode>
        <evaluationStatus>final</evaluationStatus>
        <creationInfo>
          <agencyID>UW</agencyID>
          <creationTime>2012-02-27T13:26:48.000000Z</creationTime>
        </creationInfo>
      </pick>
      <pick publicID="quakeml:uw.anss.org/Arrival/UW/2258353">
        <time>
          <value>1983-07-01T01:39:26.900000Z</value>
