<?xml version='1.0' encoding='utf-8'?>
<q:quakeml xmlns="http://quakeml.org/xmlns/bed/1.2" xmlns:q="http://quakeml.org/xmlns/quakeml/1.2" xmlns:ns0="http://anss.org/xmlns/catalog/0.1">
  <eventParameters publicID="smi:local/9f385e61-c7a2-461c-9975-1b3a9f76e335">
    <event publicID="quakeml:uw.anss.org/Event/UW/10500448" ns0:datasource="uw" ns0:dataid="uw10500448" ns0:eventsource="uw" ns0:eventid="10500448">
      <preferredOriginID>quakeml:uw.anss.org/Origin/UW/777878</preferredOriginID>
      <preferredMagnitudeID>quakeml:uw.anss.org/Netmag/UW/631548</preferredMagnitudeID>
      <type>earthquake</type>
      <creationInfo>
        <agencyID>UW</agencyID>
        <creationTime>2012-02-28T16:52:07.000000Z</creationTime>
        <version>3</version>
      </creationInfo>
      <origin publicID="quakeml:uw.anss.org/Origin/UW/777878" ns0:datasource="uw" ns0:dataid="uw10500448" ns0:eventsource="uw" ns0:eventid="10500448">
        <time>
          <value>2000-06-07T13:53:50.630000Z</value>
          <uncertainty>0.08</uncertainty>
        </time>
        <latitude>
          <value>48.4801667</value>
          <uncertainty>1.03</uncertainty>
        </latitude>
        <longitude>
          <value>-121.8291667</value>
          <uncertainty>2.27</uncertainty>
        </longitude>
        <depth>
          <value>1518.0</value>
          <uncertainty>22670.0</uncertainty>
        </depth>
        <depthType>operator assigned</depthType>
        <timeFixed>false</timeFixed>
        <epicenterFixed>true</epicenterFixed>
        <methodID>smi:uw.anss.org/origin/spong</methodID>
        <quality>
          <associatedPhaseCount>56</associatedPhaseCount>
          <usedPhaseCount>29</usedPhaseCount>
          <associatedStationCount>44</associatedStationCount>
          <usedStationCount>0</usedStationCount>
          <standardError>0.55</standardError>
          <azimuthalGap>107.0</azimuthalGap>
        </quality>
        <type>hypocenter</type>
        <evaluationMode>manual</evaluationMode>
        <evaluationStatus>final</evaluationStatus>
        <creationInfo>
          <agencyID>UW</agencyID>
          <creationTime>2012-02-28T16:52:07.000000Z</creationTime>
        </creationInfo>
        <originUncertainty>
          <preferredDescription>horizontal uncertainty</preferredDescription>
          <horizontalUncertainty>2493.0</horizontalUncertainty>
        </originUncertainty>
        <arrival publicID="quakeml:uw.anss.org/AssocArO/UW/7182713">
          <pickID>quakeml:uw.anss.org/Arrival/UW/7182713</pickID>
          <phase>P</phase>
          <azimuth>225.0</azimuth>
          <distance>1.17</distance>
          <timeResidual>-0.66</timeResidual>
          <creationInfo>
            <agencyID>UW</agencyID>
            <creationTime>2012-02-28T16:52:07.000000Z</creationTime>
          </creationInfo>
        </arrival>
        <arrival publicID="quakeml:uw.anss.org/AssocArO/UW/7182718">
          <pickID>quakeml:uw.anss.org/Arrival/UW/7182718</pickID>
          <phase>S</phase>
          <azimuth>225.0</azimuth>
          <distance>1.17</distance>
          <timeResidual>-1.09</timeResidual>
          <creationInfo>
            <agencyID>UW</agencyID>
            <creationTime>2012-02-28T16:52:07.000000Z</creationTime>
          </creationInfo>
        </arrival>
        <arrival publicID="quakeml:uw.anss.org/AssocArO/UW/7182723">
          <pickID>quakeml:uw.anss.org/Arrival/UW/7182723</pickID>
          <phase>P</phase>
          <azimuth>158.4</azimuth>
          <distance>1.876</distance>
          <timeResidual>-1.1</timeResidual>
          <creationInfo>
            <agencyID>UW</agencyID>
            <creationTime>2012-02-28T16:52:07.000000Z</creationTime>
          </creationInfo>
        </arrival>
        <arrival publicID="quakeml:uw.anss.org/AssocArO/UW/7182728">
          <pickID>quakeml:uw.anss.org/Arrival/UW/7182728</pickID>
          <phase>P</phase>
          <azimuth>111.9</azimuth>
          <distance>1.075</distance>
          <timeResidual>0.23</timeResidual>
          <creationInfo>
            <agencyID>UW</agencyID>
            <creationTime>2012-02-28T16:52:07.000000Z</creationTime>
          </creationInfo>
        </arrival>
        <arrival publicID="quakeml:uw.anss.org/AssocArO/UW/7182733">
          <pickID>quakeml:uw.anss.org/Arrival/UW/7182733</pickID>
          <phase>S</phase>
          <azimuth>111.9</azimuth>
          <distance>1.075</distance>
          <timeResidual>-0.8</timeResidual>
          <creationInfo>
            <agencyID>UW</agencyID>
            <creationTime>2012-02-28T16:52:07.000000Z</creationTime>
          </creationInfo>
        </arrival>
        <arrival publicID="quakeml:uw.anss.org/AssocArO/UW/7182738">
          <pickID>quakeml:uw.anss.org/Arrival/UW/7182738</pickID>
          <phase>P</phase>
          <azimuth>130.7</azimuth>
          <distance>1.333</distance>
          <timeResidual>-0.11</timeResidual>
          <creationInfo>
            <agencyID>UW</agencyID>
            <creationTime>2012-02-28T16:52:07.000000Z</creationTime>
          </creationInfo>
        </arrival>
        <arrival publicID="quakeml:uw.anss.org/AssocArO/UW/7182743">
          <pickID>quakeml:uw.anss.org/Arrival/UW/7182743</pickID>
          <phase>P</phase>
          <azimuth>180.3</azimuth>
          <timeResidual>-0.11</timeResidual>
          <creationInfo>
            <agencyID>UW</agencyID>
            <creationTime>2012-02-28T16:52:07.000000Z</creationTime>
          </creationInfo>
        </arrival>
        <arrival publicID="quakeml:uw.anss.org/AssocArO/UW/7182748">
          <pickID>quakeml:uw.anss.org/Arrival/UW/7182748</pickID>
          <phase>P</phase>
          <azimuth>179.6</azimuth>
          <timeResidual>-0.8</timeResidual>
          <creationInfo>
            <agencyID>UW</agencyID>
            <creationTime>2012-02-28T16:52:07.000000Z</creationTime>
          </creationInfo>
        </arrival>
        <arrival publicID="quakeml:uw.anss.org/AssocArO/UW/7182753">
          <pickID>quakeml:uw.anss.org/Arrival/UW/7182753</pickID>
          <phase>S</phase>
          <azimuth>179.6</azimuth>
          <timeResidual>-1.92</timeResidual>
          <creationInfo>
            <agencyID>UW</agencyID>
            <creationTime>2012-02-28T16:52:07.000000Z</creationTime>
          </creationInfo>
        </arrival>
        <arrival publicID="quakeml:uw.anss.org/AssocArO/UW/7182758">
          <pickID>quakeml:uw.anss.org/Arrival/UW/7182758</pickID>
          <phase>P</phase>
          <azimuth>192.9</azimuth>
          <distance>2.097</distance>
          <timeResidual>-0.68</timeResidual>
          <creationInfo>
            <agencyID>UW</agencyID>
            <creationTime>2012-02-28T16:52:07.000000Z</creationTime>
          </creationInfo>
        </arrival>
        <arrival publicID="quakeml:uw.anss.org/AssocArO/UW/7182763">
          <pickID>quakeml:uw.anss.org/Arrival/UW/7182763</pickID>
          <phase>P</phase>
          <azimuth>177.6</azimuth>
          <distance>1.612</distance>
          <timeResidual>-0.43</timeResidual>
          <creationInfo>
            <agencyID>UW</agencyID>
            <creationTime>2012-02-28T16:52:07.000000Z</creationTime>
          </creationInfo>
        </arrival>
        <arrival publicID="quakeml:uw.anss.org/AssocArO/UW/7182768">
          <pickID>quakeml:uw.anss.org/Arrival/UW/7182768</pickID>
          <phase>S</phase>
          <azimuth>177.6</azimuth>
          <distance>1.612</distance>
          <timeResidual>-1.42</timeResidual>
          <creationInfo>
            <agencyID>UW</agencyID>
            <creationTime>2012-02-28T16:52:07.000000Z</creationTime>
          </creationInfo>
        </arrival>
        <arrival publicID="quakeml:uw.anss.org/AssocArO/UW/7182773">
          <pickID>quakeml:uw.anss.org/Arrival/UW/7182773</pickID>
          <phase>P</phase>
          <azimuth>177.7</azimuth>
          <timeResidual>-0.37</timeResidual>
          <creationInfo>
            <agencyID>UW</agencyID>
            <creationTime>2012-02-28T16:52:07.000000Z</creationTime>
          </creationInfo>
        </arrival>
        <arrival publicID="quakeml:uw.anss.org/AssocArO/UW/7182778">
          <pickID>quakeml:uw.anss.org/Arrival/UW/7182778</pickID>
          <phase>P</phase>
          <azimuth>126.1</azimuth>
          <distance>1.876</distance>
          <timeResidual>1.25</timeResidual>
          <creationInfo>
            <agencyID>UW</agencyID>
            <creationTime>2012-02-28T16:52:07.000000Z</creationTime>
          </creationInfo>
        </arrival>
        <arrival publicID="quakeml:uw.anss.org/AssocArO/UW/7182783">
          <pickID>quakeml:uw.anss.org/Arrival/UW/7182783</pickID>
          <phase>P</phase>
          <azimuth>253.8</azimuth>
          <distance>0.2019</distance>
          <timeResidual>-0.41</timeResidual>
          <creationInfo>
            <agencyID>UW</agencyID>
            <creationTime>2012-02-28T16:52:07.000000Z</creationTime>
          </creationInfo>
        </arrival>
        <arrival publicID="quakeml:uw.anss.org/AssocArO/UW/7182788">
          <pickID>quakeml:uw.anss.org/Arrival/UW/7182788</pickID>
          <phase>P</phase>
          <azimuth>187.1</azimuth>
          <distance>2.034</distance>
          <timeResidual>-0.41</timeResidual>
          <creationInfo>
            <agencyID>UW</agencyID>
            <creationTime>2012-02-28T16:52:07.000000Z</creationTime>
          </creationInfo>
        </arrival>
        <arrival publicID="quakeml:uw.anss.org/AssocArO/UW/7182793">
          <pickID>quakeml:uw.anss.org/Arrival/UW/7182793</pickID>
          <phase>P</phase>
          <azimuth>179.0</azimuth>
          <timeResidual>-0.5</timeResidual>
          <creationInfo>
            <agencyID>UW</agencyID>
            <creationTime>2012-02-28T16:52:07.000000Z</creationTime>
          </creationInfo>
        </arrival>
        <arrival publicID="quakeml:uw.anss.org/AssocArO/UW/7182798">
          <pickID>quakeml:uw.anss.org/Arrival/UW/7182798</pickID>
          <phase>S</phase>
          <azimuth>179.0</azimuth>
          <timeResidual>-1.61</timeResidual>
          <creationInfo>
            <agencyID>UW</agencyID>
            <creationTime>2012-02-28T16:52:07.000000Z</creationTime>
          </creationInfo>
        </arrival>
        <arrival publicID="quakeml:uw.anss.org/AssocArO/UW/7182803">
          <pickID>quakeml:uw.anss.org/Arrival/UW/7182803</pickID>
          <phase>P</phase>
          <azimuth>216.4</azimuth>
          <distance>1.135</distance>
          <timeResidual>1.81</timeResidual>
          <creationInfo>
            <agencyID>UW</agencyID>
            <creationTime>2012-02-28T16:52:07.000000Z</creationTime>
          </creationInfo>
        </arrival>
        <arrival publicID="quakeml:uw.anss.org/AssocArO/UW/7182808">
          <pickID>quakeml:uw.anss.org/Arrival/UW/7182808</pickID>
          <phase>S</phase>
          <azimuth>216.4</azimuth>
          <distance>1.135</distance>
          <timeResidual>1.43</timeResidual>
          <creationInfo>
            <agencyID>UW</agencyID>
            <creationTime>2012-02-28T16:52:07.000000Z</creationTime>
          </creationInfo>
        </arrival>
        <arrival publicID="quakeml:uw.anss.org/AssocArO/UW/7182813">
          <pickID>quakeml:uw.anss.org/Arrival/UW/7182813</pickID>
          <phase>P</phase>
          <azimuth>179.6</azimuth>
          <distance>1.731</distance>
          <timeResidual>-0.58</timeResidual>
          <creationInfo>
            <agencyID>UW</agencyID>
            <creationTime>2012-02-28T16:52:07.000000Z</creationTime>
          </creationInfo>
        </arrival>
        <arrival publicID="quakeml:uw.anss.org/AssocArO/UW/7182818">
          <pickID>quakeml:uw.anss.org/Arrival/UW/7182818</pickID>
          <phase>S</phase>
          <azimuth>179.6</azimuth>
          <distance>1.731</distance>
          <timeResidual>-2.07</timeResidual>
          <creationInfo>
            <agencyID>UW</agencyID>
            <creationTime>2012-02-28T16:52:07.000000Z</creationTime>
          </creationInfo>
        </arrival>
        <arrival publicID="quakeml:uw.anss.org/AssocArO/UW/7182823">
          <pickID>quakeml:uw.anss.org/Arrival/UW/7182823</pickID>
          <phase>P</phase>
          <azimuth>179.1</azimuth>
          <distance>1.021</distance>
          <timeResidual>-0.45</timeResidual>
          <creationInfo>
            <agencyID>UW</agencyID>
            <creationTime>2012-02-28T16:52:07.000000Z</creationTime>
          </creationInfo>
        </arrival>
        <arrival publicID="quakeml:uw.anss.org/AssocArO/UW/7182828">
          <pickID>quakeml:uw.anss.org/Arrival/UW/7182828</pickID>
          <phase>P</phase>
          <azimuth>98.6</azimuth>
          <distance>0.2116</distance>
          <timeResidual>-0.1</timeResidual>
          <creationInfo>
            <agencyID>UW</agencyID>
            <creationTime>2012-02-28T16:52:07.000000Z</creationTime>
          </creationInfo>
        </arrival>
        <arrival publicID="quakeml:uw.anss.org/AssocArO/UW/7182833">
          <pickID>quakeml:uw.anss.org/Arrival/UW/7182833</pickID>
          <phase>P</phase>
          <azimuth>173.6</azimuth>
          <distance>1.793</distance>
          <timeResidual>-0.42</timeResidual>
          <creationInfo>
            <agencyID>UW</agencyID>
            <creationTime>2012-02-28T16:52:07.000000Z</creationTime>
          </creationInfo>
        </arrival>
        <arrival publicID="quakeml:uw.anss.org/AssocArO/UW/7182838">
          <pickID>quakeml:uw.anss.org/Arrival/UW/7182838</pickID>
          <phase>P</phase>
          <azimuth>173.2</azimuth>
          <distance>0.7918</distance>
          <timeResidual>0.08</timeResidual>
          <creationInfo>
            <agencyID>UW</agencyID>
            <creationTime>2012-02-28T16:52:07.000000Z</creationTime>
          </creationInfo>
        </arrival>
        <arrival publicID="quakeml:uw.anss.org/AssocArO/UW/7182843">
          <pickID>quakeml:uw.anss.org/Arrival/UW/7182843</pickID>
          <phase>S</phase>
          <azimuth>173.2</azimuth>
          <distance>0.7918</distance>
          <timeResidual>-0.74</timeResidual>
          <creationInfo>
            <agencyID>UW</agencyID>
            <creationTime>2012-02-28T16:52:07.000000Z</creationTime>
          </creationInfo>
        </arrival>
        <arrival publicID="quakeml:uw.anss.org/AssocArO/UW/7182848">
          <pickID>quakeml:uw.anss.org/Arrival/UW/7182848</pickID>
          <phase>P</phase>
          <azimuth>167.0</azimuth>
          <distance>1.491</distance>
          <timeResidual>0.32</timeResidual>
          <creationInfo>
            <agencyID>UW</agencyID>
            <creationTime>2012-02-28T16:52:07.000000Z</creationTime>
          </creationInfo>
        </arrival>
        <arrival publicID="quakeml:uw.anss.org/AssocArO/UW/7182853">
          <pickID>quakeml:uw.anss.org/Arrival/UW/7182853</pickID>
          <phase>P</phase>
          <azimuth>218.3</azimuth>
          <distance>0.8373</distance>
          <timeResidual>-0.25</timeResidual>
          <creationInfo>
            <agencyID>UW</agencyID>
            <creationTime>2012-02-28T16:52:07.000000Z</creationTime>
          </creationInfo>
        </arrival>
        <arrival publicID="quakeml:uw.anss.org/AssocArO/UW/7182858">
          <pickID>quakeml:uw.anss.org/Arrival/UW/7182858</pickID>
          <phase>P</phase>
          <azimuth>251.7</azimuth>
          <distance>0.4947</distance>
          <timeResidual>0.29</timeResidual>
          <creationInfo>
            <agencyID>UW</agencyID>
            <creationTime>2012-02-28T16:52:07.000000Z</creationTime>
          </creationInfo>
        </arrival>
        <arrival publicID="quakeml:uw.anss.org/AssocArO/UW/7182863">
          <pickID>quakeml:uw.anss.org/Arrival/UW/7182863</pickID>
          <phase>P</phase>
          <azimuth>142.5</azimuth>
          <distance>2.335</distance>
          <timeResidual>2.15</timeResidual>
          <creationInfo>
            <agencyID>UW</agencyID>
            <creationTime>2012-02-28T16:52:07.000000Z</creationTime>
          </creationInfo>
        </arrival>
        <arrival publicID="quakeml:uw.anss.org/AssocArO/UW/7182868">
          <pickID>quakeml:uw.anss.org/Arrival/UW/7182868</pickID>
          <phase>P</phase>
          <azimuth>189.3</azimuth>
          <distance>2.203</distance>
          <timeResidual>-0.59</timeResidual>
          <creationInfo>
            <agencyID>UW</agencyID>
            <creationTime>2012-02-28T16:52:07.000000Z</creationTime>
          </creationInfo>
        </arrival>
        <arrival publicID="quakeml:uw.anss.org/AssocArO/UW/7182873">
          <pickID>quakeml:uw.anss.org/Arrival/UW/7182873</pickID>
          <phase>P</phase>
          <azimuth>193.0</azimuth>
          <timeResidual>-0.25</timeResidual>
          <creationInfo>
            <agencyID>UW</agencyID>
            <creationTime>2012-02-28T16:52:07.000000Z</creationTime>
          </creationInfo>
        </arrival>
        <arrival publicID="quakeml:uw.anss.org/AssocArO/UW/7182878">
          <pickID>quakeml:uw.anss.org/Arrival/UW/7182878</pickID>
          <phase>P</phase>
          <azimuth>151.1</azimuth>
          <distance>1.788</distance>
          <timeResidual>-0.2</timeResidual>
          <creationInfo>
            <agencyID>UW</agencyID>
            <creationTime>2012-02-28T16:52:07.000000Z</creationTime>
          </creationInfo>
        </arrival>
        <arrival publicID="quakeml:uw.anss.org/AssocArO/UW/7182883">
          <pickID>quakeml:uw.anss.org/Arrival/UW/7182883</pickID>
          <phase>P</phase>
          <azimuth>176.0</azimuth>
          <timeResidual>-0.55</timeResidual>
          <creationInfo>
            <agencyID>UW</agencyID>
            <creationTime>2012-02-28T16:52:07.000000Z</creationTime>
          </creationInfo>
        </arrival>
        <arrival publicID="quakeml:uw.anss.org/AssocArO/UW/7182888">
          <pickID>quakeml:uw.anss.org/Arrival/UW/7182888</pickID>
          <phase>S</phase>
          <azimuth>176.0</azimuth>
          <timeResidual>-1.93</timeResidual>
          <creationInfo>
            <agencyID>UW</agencyID>
            <creationTime>2012-02-28T16:52:07.000000Z</creationTime>
          </creationInfo>
        </arrival>
        <arrival publicID="quakeml:uw.anss.org/AssocArO/UW/7182893">
          <pickID>quakeml:uw.anss.org/Arrival/UW/7182893</pickID>
          <phase>P</phase>
          <azimuth>147.1</azimuth>
          <distance>1.455</distance>
          <timeResidual>-0.16</timeResidual>
          <creationInfo>
            <agencyID>UW</agencyID>
            <creationTime>2012-02-28T16:52:07.000000Z</creationTime>
          </creationInfo>
        </arrival>
        <arrival publicID="quakeml:uw.anss.org/AssocArO/UW/7182898">
          <pickID>quakeml:uw.anss.org/Arrival/UW/7182898</pickID>
          <phase>S</phase>
          <azimuth>147.1</azimuth>
          <distance>1.455</distance>
          <timeResidual>-1.14</timeResidual>
          <creationInfo>
            <agencyID>UW</agencyID>
            <creationTime>2012-02-28T16:52:07.000000Z</creationTime>
          </creationInfo>
        </arrival>
        <arrival publicID="quakeml:uw.anss.org/AssocArO/UW/7182903">
          <pickID>quakeml:uw.anss.org/Arrival/UW/7182903</pickID>
          <phase>P</phase>
          <azimuth>109.1</azimuth>
          <distance>1.461</distance>
          <timeResidual>0.54</timeResidual>
          <creationInfo>
            <agencyID>UW</agencyID>
            <creationTime>2012-02-28T16:52:08.000000Z</creationTime>
          </creationInfo>
        </arrival>
        <arrival publicID="quakeml:uw.anss.org/AssocArO/UW/7182908">
          <pickID>quakeml:uw.anss.org/Arrival/UW/7182908</pickID>
          <phase>P</phase>
          <azimuth>255.6</azimuth>
