<?xml version='1.0' encoding='utf-8'?>
<q:quakeml xmlns="http://quakeml.org/xmlns/bed/1.2" xmlns:q="http://quakeml.org/xmlns/quakeml/1.2" xmlns:ns0="http://anss.org/xmlns/catalog/0.1">
  <eventParameters publicID="smi:local/096a67cc-e6d1-46ab-95f8-671c74115e33">
    <event publicID="quakeml:uw.anss.org/Event/UW/10498478" ns0:datasource="uw" ns0:dataid="uw10498478" ns0:eventsource="uw" ns0:eventid="10498478">
      <preferredOriginID>quakeml:uw.anss.org/Origin/UW/775908</preferredOriginID>
      <preferredMagnitudeID>quakeml:uw.anss.org/Netmag/UW/630448</preferredMagnitudeID>
      <type>earthquake</type>
      <creationInfo>
        <agencyID>UW</agencyID>
        <creationTime>2012-02-28T16:45:53.000000Z</creationTime>
        <version>2</version>
      </creationInfo>
      <origin publicID="quakeml:uw.anss.org/Origin/UW/775908" ns0:datasource="uw" ns0:dataid="uw10498478" ns0:eventsource="uw" ns0:eventid="10498478">
        <time>
          <value>2000-05-23T10:33:29.470000Z</value>
          <uncertainty>0.22</uncertainty>
        </time>
        <latitude>
          <value>48.7736667</value>
          <uncertainty>0.95</uncertainty>
        </latitude>
        <longitude>
          <value>-121.7951667</value>
          <uncertainty>1.02</uncertainty>
        </longitude>
        <depth>
          <value>24900.0</value>
          <uncertainty>1230.0</uncertainty>
        </depth>
        <depthType>from location</depthType>
        <timeFixed>false</timeFixed>
        <epicenterFixed>false</epicenterFixed>
        <methodID>smi:uw.anss.org/origin/spong</methodID>
        <quality>
          <associatedPhaseCount>13</associatedPhaseCount>
          <usedPhaseCount>12</usedPhaseCount>
          <associatedStationCount>8</associatedStationCount>
          <usedStationCount>0</usedStationCount>
          <standardError>0.24</standardError>
          <azimuthalGap>231.0</azimuthalGap>
        </quality>
        <type>hypocenter</type>
        <evaluationMode>manual</evaluationMode>
        <evaluationStatus>final</evaluationStatus>
        <creationInfo>
          <agencyID>UW</agencyID>
          <creationTime>2012-02-28T16:45:53.000000Z</creationTime>
        </creationInfo>
        <originUncertainty>
          <preferredDescription>horizontal uncertainty</preferredDescription>
          <horizontalUncertainty>1394.0</horizontalUncertainty>
        </originUncertainty>
        <arrival publicID="quakeml:uw.anss.org/AssocArO/UW/7161943">
          <pickID>quakeml:uw.anss.org/Arrival/UW/7161943</pickID>
          <phase>S</phase>
          <azimuth>217.2</azimuth>
          <distance>1.407</distance>
          <timeResidual>-1.8</timeResidual>
          <creationInfo>
            <agencyID>UW</agencyID>
            <creationTime>2012-02-28T16:45:53.000000Z</creationTime>
          </creationInfo>
        </arrival>
        <arrival publicID="quakeml:uw.anss.org/AssocArO/UW/7161948">
          <pickID>quakeml:uw.anss.org/Arrival/UW/7161948</pickID>
          <phase>P</phase>
          <azimuth>188.7</azimuth>
          <timeResidual>0.26</timeResidual>
          <creationInfo>
            <agencyID>UW</agencyID>
            <creationTime>2012-02-28T16:45:53.000000Z</creationTime>
          </creationInfo>
        </arrival>
        <arrival publicID="quakeml:uw.anss.org/AssocArO/UW/7161953">
          <pickID>quakeml:uw.anss.org/Arrival/UW/7161953</pickID>
          <phase>S</phase>
          <azimuth>188.7</azimuth>
          <timeResidual>-0.57</timeResidual>
          <creationInfo>
            <agencyID>UW</agencyID>
            <creationTime>2012-02-28T16:45:53.000000Z</creationTime>
          </creationInfo>
        </arrival>
        <arrival publicID="quakeml:uw.anss.org/AssocArO/UW/7161958">
          <pickID>quakeml:uw.anss.org/Arrival/UW/7161958</pickID>
          <phase>P</phase>
          <azimuth>150.2</azimuth>
          <distance>0.3751</distance>
          <timeResidual>-0.49</timeResidual>
          <creationInfo>
            <agencyID>UW</agencyID>
            <creationTime>2012-02-28T16:45:53.000000Z</creationTime>
          </creationInfo>
        </arrival>
        <arrival publicID="quakeml:uw.anss.org/AssocArO/UW/7161963">
          <pickID>quakeml:uw.anss.org/Arrival/UW/7161963</pickID>
          <phase>S</phase>
          <azimuth>150.2</azimuth>
          <distance>0.3751</distance>
          <timeResidual>-0.02</timeResidual>
          <creationInfo>
            <agencyID>UW</agencyID>
            <creationTime>2012-02-28T16:45:53.000000Z</creationTime>
          </creationInfo>
        </arrival>
        <arrival publicID="quakeml:uw.anss.org/AssocArO/UW/7161968">
          <pickID>quakeml:uw.anss.org/Arrival/UW/7161968</pickID>
          <phase>S</phase>
          <azimuth>176.3</azimuth>
          <distance>1.082</distance>
          <timeResidual>0.33</timeResidual>
          <creationInfo>
            <agencyID>UW</agencyID>
            <creationTime>2012-02-28T16:45:53.000000Z</creationTime>
          </creationInfo>
        </arrival>
        <arrival publicID="quakeml:uw.anss.org/AssocArO/UW/7161973">
          <pickID>quakeml:uw.anss.org/Arrival/UW/7161973</pickID>
          <phase>P</phase>
          <azimuth>179.0</azimuth>
          <distance>0.9708</distance>
          <timeResidual>0.1</timeResidual>
          <creationInfo>
            <agencyID>UW</agencyID>
            <creationTime>2012-02-28T16:45:53.000000Z</creationTime>
          </creationInfo>
        </arrival>
        <arrival publicID="quakeml:uw.anss.org/AssocArO/UW/7161978">
          <pickID>quakeml:uw.anss.org/Arrival/UW/7161978</pickID>
          <phase>S</phase>
          <azimuth>179.0</azimuth>
          <distance>0.9708</distance>
          <timeResidual>0.55</timeResidual>
          <creationInfo>
            <agencyID>UW</agencyID>
            <creationTime>2012-02-28T16:45:53.000000Z</creationTime>
          </creationInfo>
        </arrival>
        <arrival publicID="quakeml:uw.anss.org/AssocArO/UW/7161983">
          <pickID>quakeml:uw.anss.org/Arrival/UW/7161983</pickID>
          <phase>P</phase>
          <azimuth>262.5</azimuth>
          <distance>0.6934</distance>
          <timeResidual>0.08</timeResidual>
          <creationInfo>
            <agencyID>UW</agencyID>
            <creationTime>2012-02-28T16:45:53.000000Z</creationTime>
          </creationInfo>
        </arrival>
        <arrival publicID="quakeml:uw.anss.org/AssocArO/UW/7161988">
          <pickID>quakeml:uw.anss.org/Arrival/UW/7161988</pickID>
          <phase>S</phase>
          <azimuth>262.5</azimuth>
          <distance>0.6934</distance>
          <timeResidual>-0.19</timeResidual>
          <creationInfo>
            <agencyID>UW</agencyID>
            <creationTime>2012-02-28T16:45:53.000000Z</creationTime>
          </creationInfo>
        </arrival>
        <arrival publicID="quakeml:uw.anss.org/AssocArO/UW/7161993">
          <pickID>quakeml:uw.anss.org/Arrival/UW/7161993</pickID>
          <phase>S</phase>
          <azimuth>211.7</azimuth>
          <distance>0.4116</distance>
          <timeResidual>-0.26</timeResidual>
          <creationInfo>
            <agencyID>UW</agencyID>
            <creationTime>2012-02-28T16:45:53.000000Z</creationTime>
          </creationInfo>
        </arrival>
        <arrival publicID="quakeml:uw.anss.org/AssocArO/UW/7161998">
          <pickID>quakeml:uw.anss.org/Arrival/UW/7161998</pickID>
          <phase>P</phase>
          <azimuth>278.3</azimuth>
          <distance>0.07067</distance>
          <timeResidual>-0.29</timeResidual>
          <creationInfo>
            <agencyID>UW</agencyID>
            <creationTime>2012-02-28T16:45:53.000000Z</creationTime>
          </creationInfo>
        </arrival>
        <arrival publicID="quakeml:uw.anss.org/AssocArO/UW/7162003">
          <pickID>quakeml:uw.anss.org/Arrival/UW/7162003</pickID>
          <phase>S</phase>
          <azimuth>278.3</azimuth>
          <distance>0.07067</distance>
          <timeResidual>0.38</timeResidual>
          <creationInfo>
            <agencyID>UW</agencyID>
            <creationTime>2012-02-28T16:45:53.000000Z</creationTime>
          </creationInfo>
        </arrival>
      </origin>
      <magnitude publicID="quakeml:uw.anss.org/Netmag/UW/630448">
        <mag>
          <value>1.4</value>
          <uncertainty>0.13</uncertainty>
        </mag>
        <type>Md</type>
        <originID>quakeml:uw.anss.org/Origin/UW/775908</originID>
        <methodID>smi:uw.anss.org/magnitude/Crosson</methodID>
        <stationCount>3</stationCount>
        <evaluationMode>manual</evaluationMode>
        <evaluationStatus>final</evaluationStatus>
        <stationMagnitudeContribution>
          <stationMagnitudeID>quakeml:uw.anss.org/AssocCoM/UW/1706058</stationMagnitudeID>
          <weight>1.0</weight>
          <residual>0.31</residual>
        </stationMagnitudeContribution>
        <stationMagnitudeContribution>
          <stationMagnitudeID>quakeml:uw.anss.org/AssocCoM/UW/1706063</stationMagnitudeID>
          <weight>1.0</weight>
          <residual>0.08</residual>
        </stationMagnitudeContribution>
        <stationMagnitudeContribution>
          <stationMagnitudeID>quakeml:uw.anss.org/AssocCoM/UW/1706053</stationMagnitudeID>
          <weight>1.0</weight>
          <residual>-0.32</residual>
        </stationMagnitudeContribution>
        <creationInfo>
          <agencyID>UW</agencyID>
          <creationTime>2012-02-28T16:45:53.000000Z</creationTime>
        </creationInfo>
      </magnitude>
      <stationMagnitude publicID="quakeml:uw.anss.org/AssocCoM/UW/1706053">
        <originID>quakeml:uw.anss.org/Origin/UW/775908</originID>
        <mag>
          <value>1.08</value>
        </mag>
        <type>MD</type>
        <amplitudeID>quakeml:uw.anss.org/Coda/UW/1706053</amplitudeID>
        <waveformID networkCode="UW" stationCode="JCW" locationCode="" channelCode="EHZ"></waveformID>
      </stationMagnitude>
      <stationMagnitude publicID="quakeml:uw.anss.org/AssocCoM/UW/1706058">
        <originID>quakeml:uw.anss.org/Origin/UW/775908</originID>
        <mag>
          <value>1.71</value>
        </mag>
        <type>MD</type>
        <amplitudeID>quakeml:uw.anss.org/Coda/UW/1706058</amplitudeID>
        <waveformID networkCode="UW" stationCode="RPW" locationCode="" channelCode="EHZ"></waveformID>
      </stationMagnitude>
      <stationMagnitude publicID="quakeml:uw.anss.org/AssocCoM/UW/1706063">
        <originID>quakeml:uw.anss.org/Origin/UW/775908</originID>
        <mag>
          <value>1.48</value>
        </mag>
        <type>MD</type>
        <amplitudeID>quakeml:uw.anss.org/Coda/UW/1706063</amplitudeID>
        <waveformID networkCode="UW" stationCode="MBW" locationCode="" channelCode="EHZ"></waveformID>
      </stationMagnitude>
      <pick publicID="quakeml:uw.anss.org/Arrival/UW/7161943">
        <time>
          <value>2000-05-23T10:34:09.950000Z</value>
          <uncertainty>0.15</uncertainty>
        </time>
        <waveformID networkCode="UW" stationCode="HDW" locationCode="" channelCode="EHZ"></waveformID>
        <polarity>undecidable</polarity>
        <evaluationMode>manual</evaluationMode>
        <evaluationStatus>final</evaluationStatus>
        <creationInfo>
          <agencyID>UW</agencyID>
          <creationTime>2012-02-28T16:45:53.000000Z</creationTime>
        </creationInfo>
      </pick>
      <pick publicID="quakeml:uw.anss.org/Arrival/UW/7161948">
        <time>
          <value>2000-05-23T10:33:40.460000Z</value>
          <uncertainty>0.04</uncertainty>
        </time>
        <waveformID networkCode="UW" stationCode="JCW" locationCode="" channelCode="EHZ"></waveformID>
        <polarity>undecidable</polarity>
        <evaluationMode>manual</evaluationMode>
        <evaluationStatus>final</evaluationStatus>
        <creationInfo>
          <agencyID>UW</agencyID>
          <creationTime>2012-02-28T16:45:53.000000Z</creationTime>
        </creationInfo>
      </pick>
      <pick publicID="quakeml:uw.anss.org/Arrival/UW/7161953">
        <time>
          <value>2000-05-23T10:33:47.100000Z</value>
          <uncertainty>0.18</uncertainty>
        </time>
        <waveformID networkCode="UW" stationCode="JCW" locationCode="" channelCode="EHZ"></waveformID>
        <polarity>undecidable</polarity>
        <evaluationMode>manual</evaluationMode>
        <evaluationStatus>final</evaluationStatus>
        <creationInfo>
          <agencyID>UW</agencyID>
          <creationTime>2012-02-28T16:45:53.000000Z</creationTime>
        </creationInfo>
      </pick>
      <pick publicID="quakeml:uw.anss.org/Arrival/UW/7161958">
        <time>
          <value>2000-05-23T10:33:36.790000Z</value>
          <uncertainty>0.07</uncertainty>
        </time>
        <waveformID networkCode="UW" stationCode="RPW" locationCode="" channelCode="EHZ"></waveformID>
        <polarity>undecidable</polarity>
        <evaluationMode>manual</evaluationMode>
        <evaluationStatus>final</evaluationStatus>
        <creationInfo>
          <agencyID>UW</agencyID>
          <creationTime>2012-02-28T16:45:53.000000Z</creationTime>
        </creationInfo>
      </pick>
      <pick publicID="quakeml:uw.anss.org/Arrival/UW/7161963">
        <time>
          <value>2000-05-23T10:33:43.340000Z</value>
          <uncertainty>0.22</uncertainty>
        </time>
        <waveformID networkCode="UW" stationCode="RPW" locationCode="" channelCode="EHZ"></waveformID>
        <polarity>undecidable</polarity>
        <evaluationMode>manual</evaluationMode>
        <evaluationStatus>final</evaluationStatus>
        <creationInfo>
          <agencyID>UW</agencyID>
          <creationTime>2012-02-28T16:45:53.000000Z</creationTime>
        </creationInfo>
      </pick>
      <pick publicID="quakeml:uw.anss.org/Arrival/UW/7161968">
        <time>
          <value>2000-05-23T10:34:03.070000Z</value>
          <uncertainty>0.18</uncertainty>
        </time>
        <waveformID networkCode="UW" stationCode="TTW" locationCode="" channelCode="BHE"></waveformID>
        <polarity>undecidable</polarity>
        <evaluationMode>manual</evaluationMode>
        <evaluationStatus>final</evaluationStatus>
        <creationInfo>
          <agencyID>UW</agencyID>
          <creationTime>2012-02-28T16:45:53.000000Z</creationTime>
        </creationInfo>
      </pick>
      <pick publicID="quakeml:uw.anss.org/Arrival/UW/7161973">
        <time>
          <value>2000-05-23T10:33:46.480000Z</value>
          <uncertainty>0.1</uncertainty>
        </time>
        <waveformID networkCode="UW" stationCode="HTW" locationCode="" channelCode="EHZ"></waveformID>
        <polarity>undecidable</polarity>
        <evaluationMode>manual</evaluationMode>
        <evaluationStatus>final</evaluationStatus>
        <creationInfo>
          <agencyID>UW</agencyID>
          <creationTime>2012-02-28T16:45:53.000000Z</creationTime>
        </creationInfo>
      </pick>
      <pick publicID="quakeml:uw.anss.org/Arrival/UW/7161978">
        <time>
          <value>2000-05-23T10:34:00.110000Z</value>
          <uncertainty>0.09</uncertainty>
        </time>
        <waveformID networkCode="UW" stationCode="HTW" locationCode="" channelCode="EHZ"></waveformID>
        <polarity>undecidable</polarity>
        <evaluationMode>manual</evaluationMode>
        <evaluationStatus>final</evaluationStatus>
        <creationInfo>
          <agencyID>UW</agencyID>
          <creationTime>2012-02-28T16:45:53.000000Z</creationTime>
        </creationInfo>
      </pick>
      <pick publicID="quakeml:uw.anss.org/Arrival/UW/7161983">
        <time>
          <value>2000-05-23T10:33:41.960000Z</value>
          <uncertainty>0.15</uncertainty>
        </time>
        <waveformID networkCode="UW" stationCode="MCW" locationCode="" channelCode="EHZ"></waveformID>
        <polarity>undecidable</polarity>
        <evaluationMode>manual</evaluationMode>
        <evaluationStatus>final</evaluationStatus>
        <creationInfo>
          <agencyID>UW</agencyID>
          <creationTime>2012-02-28T16:45:53.000000Z</creationTime>
        </creationInfo>
      </pick>
      <pick publicID="quakeml:uw.anss.org/Arrival/UW/7161988">
        <time>
          <value>2000-05-23T10:33:51.360000Z</value>
          <uncertainty>0.17</uncertainty>
        </time>
        <waveformID networkCode="UW" stationCode="MCW" locationCode="" channelCode="EHZ"></waveformID>
        <polarity>undecidable</polarity>
        <evaluationMode>manual</evaluationMode>
        <evaluationStatus>final</evaluationStatus>
        <creationInfo>
          <agencyID>UW</agencyID>
          <creationTime>2012-02-28T16:45:53.000000Z</creationTime>
        </creationInfo>
      </pick>
      <pick publicID="quakeml:uw.anss.org/Arrival/UW/7161993">
        <time>
          <value>2000-05-23T10:33:44.200000Z</value>
          <uncertainty>0.12</uncertainty>
        </time>
        <waveformID networkCode="UW" stationCode="CMW" locationCode="" channelCode="EHZ"></waveformID>
        <polarity>undecidable</polarity>
        <evaluationMode>manual</evaluationMode>
        <evaluationStatus>final</evaluationStatus>
        <creationInfo>
          <agencyID>UW</agencyID>
          <creationTime>2012-02-28T16:45:53.000000Z</creationTime>
        </creationInfo>
      </pick>
      <pick publicID="quakeml:uw.anss.org/Arrival/UW/7161998">
        <time>
          <value>2000-05-23T10:33:33.730000Z</value>
          <uncertainty>0.09</uncertainty>
        </time>
        <waveformID networkCode="UW" stationCode="MBW" locationCode="" channelCode="EHZ"></waveformID>
        <polarity>undecidable</polarity>
        <evaluationMode>manual</evaluationMode>
        <evaluationStatus>final</evaluationStatus>
        <creationInfo>
          <agencyID>UW</agencyID>
          <creationTime>2012-02-28T16:45:53.000000Z</creationTime>
        </creationInfo>
      </pick>
      <pick publicID="quakeml:uw.anss.org/Arrival/UW/7162003">
        <time>
          <value>2000-05-23T10:33:37.940000Z</value>
          <uncertainty>0.12</uncertainty>
        </time>
        <waveformID networkCode="UW" stationCode="MBW" locationCode="" channelCode="EHZ"></waveformID>
        <polarity>undecidable</polarity>
        <evaluationMode>manual</evaluationMode>
        <evaluationStatus>final</evaluationStatus>
        <creationInfo>
          <agencyID>UW</agencyID>
          <creationTime>2012-02-28T16:45:53.000000Z</creationTime>
        </creationInfo>
      </pick>
      <amplitude publicID="quakeml:uw.anss.org/Coda/UW/1706053">
        <genericAmplitude>
          <value>18.0</value>
        </genericAmplitude>
        <type>END</type>
        <category>duration</category>
        <unit>s</unit>
        <waveformID networkCode="UW" stationCode="JCW" locationCode="" channelCode="EHZ"></waveformID>
        <magnitudeHint>MD</magnitudeHint>
        <evaluationMode>manual</evaluationMode>
        <evaluationStatus>final</evaluationStatus>
      </amplitude>
      <amplitude publicID="quakeml:uw.anss.org/Coda/UW/1706063">
        <genericAmplitude>
          <value>25.0</value>
        </genericAmplitude>
        <type>END</type>
        <category>duration</category>
        <unit>s</unit>
        <waveformID networkCode="UW" stationCode="MBW" locationCode="" channelCode="EHZ"></waveformID>
        <magnitudeHint>MD</magnitudeHint>
        <evaluationMode>manual</evaluationMode>
        <evaluationStatus>final</evaluationStatus>
      </amplitude>
      <amplitude publicID="quakeml:uw.anss.org/Coda/UW/1706058">
        <genericAmplitude>
          <value>30.0</value>
        </genericAmplitude>
        <type>END</type>
        <category>duration</category>
        <unit>s</unit>
        <waveformID networkCode="UW" stationCode="RPW" locationCode="" channelCode="EHZ"></waveformID>
        <magnitudeHint>MD</magnitudeHint>
