<?xml version='1.0' encoding='utf-8'?>
<q:quakeml xmlns="http://quakeml.org/xmlns/bed/1.2" xmlns:q="http://quakeml.org/xmlns/quakeml/1.2" xmlns:ns0="http://anss.org/xmlns/catalog/0.1">
  <eventParameters publicID="smi:local/99f81469-858f-4750-a4d1-3ec8351af71b">
    <event publicID="quakeml:uw.anss.org/Event/UW/10496473" ns0:datasource="uw" ns0:dataid="uw10496473" ns0:eventsource="uw" ns0:eventid="10496473">
      <preferredOriginID>quakeml:uw.anss.org/Origin/UW/773903</preferredOriginID>
      <preferredMagnitudeID>quakeml:uw.anss.org/Netmag/UW/629223</preferredMagnitudeID>
      <type>earthquake</type>
      <creationInfo>
        <agencyID>UW</agencyID>
        <creationTime>2012-02-28T16:40:12.000000Z</creationTime>
        <version>3</version>
      </creationInfo>
      <origin publicID="quakeml:uw.anss.org/Origin/UW/773903" ns0:datasource="uw" ns0:dataid="uw10496473" ns0:eventsource="uw" ns0:eventid="10496473">
        <time>
          <value>2000-03-27T07:22:52.590000Z</value>
          <uncertainty>0.84</uncertainty>
        </time>
        <latitude>
          <value>49.1076667</value>
          <uncertainty>2.46</uncertainty>
        </latitude>
        <longitude>
          <value>-122.0288333</value>
          <uncertainty>7.35</uncertainty>
        </longitude>
        <depth>
          <value>1841.0</value>
          <uncertainty>19900.0</uncertainty>
        </depth>
        <depthType>operator assigned</depthType>
        <timeFixed>false</timeFixed>
        <epicenterFixed>true</epicenterFixed>
        <methodID>smi:uw.anss.org/origin/spong</methodID>
        <quality>
          <associatedPhaseCount>20</associatedPhaseCount>
          <usedPhaseCount>13</usedPhaseCount>
          <associatedStationCount>16</associatedStationCount>
          <usedStationCount>0</usedStationCount>
          <standardError>0.5</standardError>
          <azimuthalGap>264.0</azimuthalGap>
        </quality>
        <type>hypocenter</type>
        <evaluationMode>manual</evaluationMode>
        <evaluationStatus>final</evaluationStatus>
        <creationInfo>
          <agencyID>UW</agencyID>
          <creationTime>2012-02-28T16:40:12.000000Z</creationTime>
        </creationInfo>
        <originUncertainty>
          <preferredDescription>horizontal uncertainty</preferredDescription>
          <horizontalUncertainty>7751.0</horizontalUncertainty>
        </originUncertainty>
        <arrival publicID="quakeml:uw.anss.org/AssocArO/UW/7137693">
          <pickID>quakeml:uw.anss.org/Arrival/UW/7137693</pickID>
          <phase>P</phase>
          <azimuth>205.4</azimuth>
          <distance>1.613</distance>
          <timeResidual>-0.41</timeResidual>
          <creationInfo>
            <agencyID>UW</agencyID>
            <creationTime>2012-02-28T16:40:12.000000Z</creationTime>
          </creationInfo>
        </arrival>
        <arrival publicID="quakeml:uw.anss.org/AssocArO/UW/7137698">
          <pickID>quakeml:uw.anss.org/Arrival/UW/7137698</pickID>
          <phase>S</phase>
          <azimuth>205.4</azimuth>
          <distance>1.613</distance>
          <timeResidual>-0.83</timeResidual>
          <creationInfo>
            <agencyID>UW</agencyID>
            <creationTime>2012-02-28T16:40:12.000000Z</creationTime>
          </creationInfo>
        </arrival>
        <arrival publicID="quakeml:uw.anss.org/AssocArO/UW/7137703">
          <pickID>quakeml:uw.anss.org/Arrival/UW/7137703</pickID>
          <phase>S</phase>
          <azimuth>132.3</azimuth>
          <distance>1.528</distance>
          <timeResidual>0.24</timeResidual>
          <creationInfo>
            <agencyID>UW</agencyID>
            <creationTime>2012-02-28T16:40:12.000000Z</creationTime>
          </creationInfo>
        </arrival>
        <arrival publicID="quakeml:uw.anss.org/AssocArO/UW/7137708">
          <pickID>quakeml:uw.anss.org/Arrival/UW/7137708</pickID>
          <phase>P</phase>
          <azimuth>175.8</azimuth>
          <timeResidual>0.23</timeResidual>
          <creationInfo>
            <agencyID>UW</agencyID>
            <creationTime>2012-02-28T16:40:12.000000Z</creationTime>
          </creationInfo>
        </arrival>
        <arrival publicID="quakeml:uw.anss.org/AssocArO/UW/7137713">
          <pickID>quakeml:uw.anss.org/Arrival/UW/7137713</pickID>
          <phase>S</phase>
          <azimuth>175.8</azimuth>
          <timeResidual>0.73</timeResidual>
          <creationInfo>
            <agencyID>UW</agencyID>
            <creationTime>2012-02-28T16:40:12.000000Z</creationTime>
          </creationInfo>
        </arrival>
        <arrival publicID="quakeml:uw.anss.org/AssocArO/UW/7137718">
          <pickID>quakeml:uw.anss.org/Arrival/UW/7137718</pickID>
          <phase>S</phase>
          <azimuth>199.2</azimuth>
          <distance>1.633</distance>
          <timeResidual>-1.05</timeResidual>
          <creationInfo>
            <agencyID>UW</agencyID>
            <creationTime>2012-02-28T16:40:12.000000Z</creationTime>
          </creationInfo>
        </arrival>
        <arrival publicID="quakeml:uw.anss.org/AssocArO/UW/7137723">
          <pickID>quakeml:uw.anss.org/Arrival/UW/7137723</pickID>
          <phase>P</phase>
          <azimuth>152.6</azimuth>
          <distance>0.7425</distance>
          <timeResidual>-0.2</timeResidual>
          <creationInfo>
            <agencyID>UW</agencyID>
            <creationTime>2012-02-28T16:40:12.000000Z</creationTime>
          </creationInfo>
        </arrival>
        <arrival publicID="quakeml:uw.anss.org/AssocArO/UW/7137728">
          <pickID>quakeml:uw.anss.org/Arrival/UW/7137728</pickID>
          <phase>S</phase>
          <azimuth>152.6</azimuth>
          <distance>0.7425</distance>
          <timeResidual>-0.79</timeResidual>
          <creationInfo>
            <agencyID>UW</agencyID>
            <creationTime>2012-02-28T16:40:12.000000Z</creationTime>
          </creationInfo>
        </arrival>
        <arrival publicID="quakeml:uw.anss.org/AssocArO/UW/7137733">
          <pickID>quakeml:uw.anss.org/Arrival/UW/7137733</pickID>
          <phase>P</phase>
          <azimuth>173.6</azimuth>
          <timeResidual>0.41</timeResidual>
          <creationInfo>
            <agencyID>UW</agencyID>
            <creationTime>2012-02-28T16:40:12.000000Z</creationTime>
          </creationInfo>
        </arrival>
        <arrival publicID="quakeml:uw.anss.org/AssocArO/UW/7137738">
          <pickID>quakeml:uw.anss.org/Arrival/UW/7137738</pickID>
          <phase>P</phase>
          <azimuth>167.2</azimuth>
          <distance>2.133</distance>
          <timeResidual>1.22</timeResidual>
          <creationInfo>
            <agencyID>UW</agencyID>
            <creationTime>2012-02-28T16:40:12.000000Z</creationTime>
          </creationInfo>
        </arrival>
        <arrival publicID="quakeml:uw.anss.org/AssocArO/UW/7137743">
          <pickID>quakeml:uw.anss.org/Arrival/UW/7137743</pickID>
          <phase>S</phase>
          <azimuth>229.2</azimuth>
          <timeResidual>-1.85</timeResidual>
          <creationInfo>
            <agencyID>UW</agencyID>
            <creationTime>2012-02-28T16:40:12.000000Z</creationTime>
          </creationInfo>
        </arrival>
        <arrival publicID="quakeml:uw.anss.org/AssocArO/UW/7137748">
          <pickID>quakeml:uw.anss.org/Arrival/UW/7137748</pickID>
          <phase>P</phase>
          <azimuth>172.4</azimuth>
          <distance>1.316</distance>
          <timeResidual>0.95</timeResidual>
          <creationInfo>
            <agencyID>UW</agencyID>
            <creationTime>2012-02-28T16:40:12.000000Z</creationTime>
          </creationInfo>
        </arrival>
        <arrival publicID="quakeml:uw.anss.org/AssocArO/UW/7137753">
          <pickID>quakeml:uw.anss.org/Arrival/UW/7137753</pickID>
          <phase>P</phase>
          <azimuth>209.9</azimuth>
          <distance>1.268</distance>
          <timeResidual>0.23</timeResidual>
          <creationInfo>
            <agencyID>UW</agencyID>
            <creationTime>2012-02-28T16:40:12.000000Z</creationTime>
          </creationInfo>
        </arrival>
        <arrival publicID="quakeml:uw.anss.org/AssocArO/UW/7137758">
          <pickID>quakeml:uw.anss.org/Arrival/UW/7137758</pickID>
          <phase>S</phase>
          <azimuth>209.9</azimuth>
          <distance>1.268</distance>
          <timeResidual>-0.01</timeResidual>
          <creationInfo>
            <agencyID>UW</agencyID>
            <creationTime>2012-02-28T16:40:12.000000Z</creationTime>
          </creationInfo>
        </arrival>
        <arrival publicID="quakeml:uw.anss.org/AssocArO/UW/7137763">
          <pickID>quakeml:uw.anss.org/Arrival/UW/7137763</pickID>
          <phase>S</phase>
          <azimuth>126.1</azimuth>
          <distance>1.873</distance>
          <timeResidual>2.42</timeResidual>
          <creationInfo>
            <agencyID>UW</agencyID>
            <creationTime>2012-02-28T16:40:12.000000Z</creationTime>
          </creationInfo>
        </arrival>
        <arrival publicID="quakeml:uw.anss.org/AssocArO/UW/7137768">
          <pickID>quakeml:uw.anss.org/Arrival/UW/7137768</pickID>
          <phase>P</phase>
          <azimuth>185.1</azimuth>
          <distance>0.6874</distance>
          <timeResidual>-0.17</timeResidual>
          <creationInfo>
            <agencyID>UW</agencyID>
            <creationTime>2012-02-28T16:40:12.000000Z</creationTime>
          </creationInfo>
        </arrival>
        <arrival publicID="quakeml:uw.anss.org/AssocArO/UW/7137773">
          <pickID>quakeml:uw.anss.org/Arrival/UW/7137773</pickID>
          <phase>P</phase>
          <azimuth>134.9</azimuth>
          <distance>1.974</distance>
          <timeResidual>2.35</timeResidual>
          <creationInfo>
            <agencyID>UW</agencyID>
            <creationTime>2012-02-28T16:40:12.000000Z</creationTime>
          </creationInfo>
        </arrival>
        <arrival publicID="quakeml:uw.anss.org/AssocArO/UW/7137778">
          <pickID>quakeml:uw.anss.org/Arrival/UW/7137778</pickID>
          <phase>P</phase>
          <azimuth>165.4</azimuth>
          <distance>0.335</distance>
          <timeResidual>-0.32</timeResidual>
          <creationInfo>
            <agencyID>UW</agencyID>
            <creationTime>2012-02-28T16:40:12.000000Z</creationTime>
          </creationInfo>
        </arrival>
        <arrival publicID="quakeml:uw.anss.org/AssocArO/UW/7137783">
          <pickID>quakeml:uw.anss.org/Arrival/UW/7137783</pickID>
          <phase>P</phase>
          <azimuth>180.1</azimuth>
          <distance>1.273</distance>
          <timeResidual>0.69</timeResidual>
          <creationInfo>
            <agencyID>UW</agencyID>
            <creationTime>2012-02-28T16:40:12.000000Z</creationTime>
          </creationInfo>
        </arrival>
        <arrival publicID="quakeml:uw.anss.org/AssocArO/UW/7137788">
          <pickID>quakeml:uw.anss.org/Arrival/UW/7137788</pickID>
          <phase>P</phase>
          <azimuth>174.8</azimuth>
          <distance>1.656</distance>
          <timeResidual>0.35</timeResidual>
          <creationInfo>
            <agencyID>UW</agencyID>
            <creationTime>2012-02-28T16:40:12.000000Z</creationTime>
          </creationInfo>
        </arrival>
      </origin>
      <magnitude publicID="quakeml:uw.anss.org/Netmag/UW/629223">
        <mag>
          <value>1.6</value>
          <uncertainty>0.09</uncertainty>
        </mag>
        <type>Md</type>
        <originID>quakeml:uw.anss.org/Origin/UW/773903</originID>
        <methodID>smi:uw.anss.org/magnitude/Crosson</methodID>
        <stationCount>6</stationCount>
        <evaluationMode>manual</evaluationMode>
        <evaluationStatus>final</evaluationStatus>
        <stationMagnitudeContribution>
          <stationMagnitudeID>quakeml:uw.anss.org/AssocCoM/UW/1701338</stationMagnitudeID>
          <weight>1.0</weight>
          <residual>0.11</residual>
        </stationMagnitudeContribution>
        <stationMagnitudeContribution>
          <stationMagnitudeID>quakeml:uw.anss.org/AssocCoM/UW/1701313</stationMagnitudeID>
          <weight>1.0</weight>
          <residual>0.18</residual>
        </stationMagnitudeContribution>
        <stationMagnitudeContribution>
          <stationMagnitudeID>quakeml:uw.anss.org/AssocCoM/UW/1701323</stationMagnitudeID>
          <weight>1.0</weight>
          <residual>-0.22</residual>
        </stationMagnitudeContribution>
        <stationMagnitudeContribution>
          <stationMagnitudeID>quakeml:uw.anss.org/AssocCoM/UW/1701318</stationMagnitudeID>
          <weight>1.0</weight>
          <residual>-0.07</residual>
        </stationMagnitudeContribution>
        <stationMagnitudeContribution>
          <stationMagnitudeID>quakeml:uw.anss.org/AssocCoM/UW/1701328</stationMagnitudeID>
          <weight>1.0</weight>
          <residual>0.02</residual>
        </stationMagnitudeContribution>
        <stationMagnitudeContribution>
          <stationMagnitudeID>quakeml:uw.anss.org/AssocCoM/UW/1701333</stationMagnitudeID>
          <weight>1.0</weight>
          <residual>-0.07</residual>
        </stationMagnitudeContribution>
        <creationInfo>
          <agencyID>UW</agencyID>
          <creationTime>2012-02-28T16:40:12.000000Z</creationTime>
        </creationInfo>
      </magnitude>
      <stationMagnitude publicID="quakeml:uw.anss.org/AssocCoM/UW/1701313">
        <originID>quakeml:uw.anss.org/Origin/UW/773903</originID>
        <mag>
          <value>1.78</value>
        </mag>
        <type>MD</type>
        <amplitudeID>quakeml:uw.anss.org/Coda/UW/1701313</amplitudeID>
        <waveformID networkCode="UW" stationCode="HDW" locationCode="" channelCode="EHZ"></waveformID>
      </stationMagnitude>
      <stationMagnitude publicID="quakeml:uw.anss.org/AssocCoM/UW/1701318">
        <originID>quakeml:uw.anss.org/Origin/UW/773903</originID>
        <mag>
          <value>1.53</value>
        </mag>
        <type>MD</type>
        <amplitudeID>quakeml:uw.anss.org/Coda/UW/1701318</amplitudeID>
        <waveformID networkCode="UW" stationCode="JCW" locationCode="" channelCode="EHZ"></waveformID>
      </stationMagnitude>
      <stationMagnitude publicID="quakeml:uw.anss.org/AssocCoM/UW/1701323">
        <originID>quakeml:uw.anss.org/Origin/UW/773903</originID>
        <mag>
          <value>1.38</value>
        </mag>
        <type>MD</type>
        <amplitudeID>quakeml:uw.anss.org/Coda/UW/1701323</amplitudeID>
        <waveformID networkCode="UW" stationCode="RPW" locationCode="" channelCode="EHZ"></waveformID>
      </stationMagnitude>
      <stationMagnitude publicID="quakeml:uw.anss.org/AssocCoM/UW/1701328">
        <originID>quakeml:uw.anss.org/Origin/UW/773903</originID>
        <mag>
          <value>1.62</value>
        </mag>
        <type>MD</type>
        <amplitudeID>quakeml:uw.anss.org/Coda/UW/1701328</amplitudeID>
        <waveformID networkCode="UW" stationCode="BLN" locationCode="" channelCode="EHZ"></waveformID>
      </stationMagnitude>
      <stationMagnitude publicID="quakeml:uw.anss.org/AssocCoM/UW/1701333">
        <originID>quakeml:uw.anss.org/Origin/UW/773903</originID>
        <mag>
          <value>1.53</value>
        </mag>
        <type>MD</type>
        <amplitudeID>quakeml:uw.anss.org/Coda/UW/1701333</amplitudeID>
        <waveformID networkCode="UW" stationCode="CMW" locationCode="" channelCode="EHZ"></waveformID>
      </stationMagnitude>
      <stationMagnitude publicID="quakeml:uw.anss.org/AssocCoM/UW/1701338">
        <originID>quakeml:uw.anss.org/Origin/UW/773903</originID>
        <mag>
          <value>1.71</value>
        </mag>
        <type>MD</type>
        <amplitudeID>quakeml:uw.anss.org/Coda/UW/1701338</amplitudeID>
        <waveformID networkCode="UW" stationCode="MBW" locationCode="" channelCode="EHZ"></waveformID>
      </stationMagnitude>
      <pick publicID="quakeml:uw.anss.org/Arrival/UW/7137693">
        <time>
          <value>2000-03-27T07:23:20.150000Z</value>
          <uncertainty>0.04</uncertainty>
        </time>
        <waveformID networkCode="UW" stationCode="HDW" locationCode="" channelCode="EHZ"></waveformID>
        <polarity>undecidable</polarity>
        <evaluationMode>manual</evaluationMode>
        <evaluationStatus>final</evaluationStatus>
        <creationInfo>
          <agencyID>UW</agencyID>
          <creationTime>2012-02-28T16:40:12.000000Z</creationTime>
        </creationInfo>
      </pick>
      <pick publicID="quakeml:uw.anss.org/Arrival/UW/7137698">
        <time>
          <value>2000-03-27T07:23:41.550000Z</value>
          <uncertainty>0.06</uncertainty>
        </time>
        <waveformID networkCode="UW" stationCode="HDW" locationCode="" channelCode="EHZ"></waveformID>
        <polarity>undecidable</polarity>
        <evaluationMode>manual</evaluationMode>
        <evaluationStatus>final</evaluationStatus>
        <creationInfo>
          <agencyID>UW</agencyID>
          <creationTime>2012-02-28T16:40:12.000000Z</creationTime>
        </creationInfo>
      </pick>
      <pick publicID="quakeml:uw.anss.org/Arrival/UW/7137703">
        <time>
          <value>2000-03-27T07:23:40.330000Z</value>
          <uncertainty>0.13</uncertainty>
        </time>
        <waveformID networkCode="UW" stationCode="NEL" locationCode="" channelCode="EHZ"></waveformID>
        <polarity>undecidable</polarity>
        <evaluationMode>manual</evaluationMode>
        <evaluationStatus>final</evaluationStatus>
        <creationInfo>
          <agencyID>UW</agencyID>
          <creationTime>2012-02-28T16:40:12.000000Z</creationTime>
        </creationInfo>
      </pick>
      <pick publicID="quakeml:uw.anss.org/Arrival/UW/7137708">
        <time>
          <value>2000-03-27T07:23:09.120000Z</value>
          <uncertainty>0.04</uncertainty>
        </time>
        <waveformID networkCode="UW" stationCode="JCW" locationCode="" channelCode="EHZ"></waveformID>
        <polarity>undecidable</polarity>
        <evaluationMode>manual</evaluationMode>
        <evaluationStatus>final</evaluationStatus>
        <creationInfo>
          <agencyID>UW</agencyID>
          <creationTime>2012-02-28T16:40:12.000000Z</creationTime>
        </creationInfo>
      </pick>
      <pick publicID="quakeml:uw.anss.org/Arrival/UW/7137713">
        <time>
          <value>2000-03-27T07:23:22.340000Z</value>
          <uncertainty>0.19</uncertainty>
        </time>
        <waveformID networkCode="UW" stationCode="JCW" locationCode="" channelCode="EHZ"></waveformID>
        <polarity>undecidable</polarity>
        <evaluationMode>manual</evaluationMode>
        <evaluationStatus>final</evaluationStatus>
        <creationInfo>
          <agencyID>UW</agencyID>
          <creationTime>2012-02-28T16:40:12.000000Z</creationTime>
        </creationInfo>
      </pick>
      <pick publicID="quakeml:uw.anss.org/Arrival/UW/7137718">
        <time>
          <value>2000-03-27T07:23:42.120000Z</value>
          <uncertainty>0.1</uncertainty>
        </time>
        <waveformID networkCode="UW" stationCode="GNW" locationCode="" channelCode="BHN"></waveformID>
        <polarity>undecidable</polarity>
        <evaluationMode>manual</evaluationMode>
        <evaluationStatus>final</evaluationStatus>
        <creationInfo>
          <agencyID>UW</agencyID>
          <creationTime>2012-02-28T16:40:12.000000Z</creationTime>
        </creationInfo>
      </pick>
      <pick publicID="quakeml:uw.anss.org/Arrival/UW/7137723">
        <time>
          <value>2000-03-27T07:23:06.010000Z</value>
          <uncertainty>0.01</uncertainty>
        </time>
        <waveformID networkCode="UW" stationCode="RPW" locationCode="" channelCode="EHZ"></waveformID>
        <polarity>negative</polarity>
        <evaluationMode>manual</evaluationMode>
        <evaluationStatus>final</evaluationStatus>
        <creationInfo>
