<?xml version='1.0' encoding='utf-8'?>
<q:quakeml xmlns="http://quakeml.org/xmlns/bed/1.2" xmlns:q="http://quakeml.org/xmlns/quakeml/1.2" xmlns:ns0="http://anss.org/xmlns/catalog/0.1">
  <eventParameters publicID="smi:local/648294a1-666e-471e-b2cb-8a86dbcd4faf">
    <event publicID="quakeml:uw.anss.org/Event/UW/10512768" ns0:datasource="uw" ns0:dataid="uw10512768" ns0:eventsource="uw" ns0:eventid="10512768">
      <preferredOriginID>quakeml:uw.anss.org/Origin/UW/790198</preferredOriginID>
      <preferredMagnitudeID>quakeml:uw.anss.org/Netmag/UW/638218</preferredMagnitudeID>
      <type>earthquake</type>
      <creationInfo>
        <agencyID>UW</agencyID>
        <creationTime>2012-02-28T17:27:40.000000Z</creationTime>
        <version>3</version>
      </creationInfo>
      <origin publicID="quakeml:uw.anss.org/Origin/UW/790198" ns0:datasource="uw" ns0:dataid="uw10512768" ns0:eventsource="uw" ns0:eventid="10512768">
        <time>
          <value>2000-08-29T00:11:31.250000Z</value>
          <uncertainty>0.03</uncertainty>
        </time>
        <latitude>
          <value>48.6118333</value>
          <uncertainty>0.18</uncertainty>
        </latitude>
        <longitude>
          <value>-121.5078333</value>
          <uncertainty>0.12</uncertainty>
        </longitude>
        <depth>
          <value>492.0</value>
          <uncertainty>540.0</uncertainty>
        </depth>
        <depthType>operator assigned</depthType>
        <timeFixed>false</timeFixed>
        <epicenterFixed>false</epicenterFixed>
        <methodID>smi:uw.anss.org/origin/spong</methodID>
        <quality>
          <associatedPhaseCount>29</associatedPhaseCount>
          <usedPhaseCount>16</usedPhaseCount>
          <associatedStationCount>20</associatedStationCount>
          <usedStationCount>0</usedStationCount>
          <standardError>0.25</standardError>
          <azimuthalGap>181.0</azimuthalGap>
        </quality>
        <type>hypocenter</type>
        <evaluationMode>manual</evaluationMode>
        <evaluationStatus>final</evaluationStatus>
        <creationInfo>
          <agencyID>UW</agencyID>
          <creationTime>2012-02-28T17:27:40.000000Z</creationTime>
        </creationInfo>
        <originUncertainty>
          <preferredDescription>horizontal uncertainty</preferredDescription>
          <horizontalUncertainty>216.0</horizontalUncertainty>
        </originUncertainty>
        <arrival publicID="quakeml:uw.anss.org/AssocArO/UW/7304848">
          <pickID>quakeml:uw.anss.org/Arrival/UW/7304848</pickID>
          <phase>P</phase>
          <azimuth>227.6</azimuth>
          <distance>1.416</distance>
          <timeResidual>0.39</timeResidual>
          <creationInfo>
            <agencyID>UW</agencyID>
            <creationTime>2012-02-28T17:27:40.000000Z</creationTime>
          </creationInfo>
        </arrival>
        <arrival publicID="quakeml:uw.anss.org/AssocArO/UW/7304853">
          <pickID>quakeml:uw.anss.org/Arrival/UW/7304853</pickID>
          <phase>P</phase>
          <azimuth>124.5</azimuth>
          <distance>0.9485</distance>
          <timeResidual>-0.17</timeResidual>
          <creationInfo>
            <agencyID>UW</agencyID>
            <creationTime>2012-02-28T17:27:40.000000Z</creationTime>
          </creationInfo>
        </arrival>
        <arrival publicID="quakeml:uw.anss.org/AssocArO/UW/7304858">
          <pickID>quakeml:uw.anss.org/Arrival/UW/7304858</pickID>
          <phase>S</phase>
          <azimuth>124.5</azimuth>
          <distance>0.9485</distance>
          <timeResidual>-1.49</timeResidual>
          <creationInfo>
            <agencyID>UW</agencyID>
            <creationTime>2012-02-28T17:27:40.000000Z</creationTime>
          </creationInfo>
        </arrival>
        <arrival publicID="quakeml:uw.anss.org/AssocArO/UW/7304863">
          <pickID>quakeml:uw.anss.org/Arrival/UW/7304863</pickID>
          <phase>P</phase>
          <azimuth>213.9</azimuth>
          <timeResidual>0.04</timeResidual>
          <creationInfo>
            <agencyID>UW</agencyID>
            <creationTime>2012-02-28T17:27:40.000000Z</creationTime>
          </creationInfo>
        </arrival>
        <arrival publicID="quakeml:uw.anss.org/AssocArO/UW/7304868">
          <pickID>quakeml:uw.anss.org/Arrival/UW/7304868</pickID>
          <phase>S</phase>
          <azimuth>213.9</azimuth>
          <timeResidual>-0.32</timeResidual>
          <creationInfo>
            <agencyID>UW</agencyID>
            <creationTime>2012-02-28T17:27:40.000000Z</creationTime>
          </creationInfo>
        </arrival>
        <arrival publicID="quakeml:uw.anss.org/AssocArO/UW/7304873">
          <pickID>quakeml:uw.anss.org/Arrival/UW/7304873</pickID>
          <phase>P</phase>
          <azimuth>141.7</azimuth>
          <distance>1.279</distance>
          <timeResidual>0.41</timeResidual>
          <creationInfo>
            <agencyID>UW</agencyID>
            <creationTime>2012-02-28T17:27:40.000000Z</creationTime>
          </creationInfo>
        </arrival>
        <arrival publicID="quakeml:uw.anss.org/AssocArO/UW/7304878">
          <pickID>quakeml:uw.anss.org/Arrival/UW/7304878</pickID>
          <phase>P</phase>
          <azimuth>181.6</azimuth>
          <distance>0.1639</distance>
          <timeResidual>-0.21</timeResidual>
          <creationInfo>
            <agencyID>UW</agencyID>
            <creationTime>2012-02-28T17:27:40.000000Z</creationTime>
          </creationInfo>
        </arrival>
        <arrival publicID="quakeml:uw.anss.org/AssocArO/UW/7304883">
          <pickID>quakeml:uw.anss.org/Arrival/UW/7304883</pickID>
          <phase>P</phase>
          <azimuth>129.0</azimuth>
          <distance>1.27</distance>
          <timeResidual>0.35</timeResidual>
          <creationInfo>
            <agencyID>UW</agencyID>
            <creationTime>2012-02-28T17:27:40.000000Z</creationTime>
          </creationInfo>
        </arrival>
        <arrival publicID="quakeml:uw.anss.org/AssocArO/UW/7304888">
          <pickID>quakeml:uw.anss.org/Arrival/UW/7304888</pickID>
          <phase>S</phase>
          <azimuth>129.0</azimuth>
          <distance>1.27</distance>
          <timeResidual>-0.73</timeResidual>
          <creationInfo>
            <agencyID>UW</agencyID>
            <creationTime>2012-02-28T17:27:40.000000Z</creationTime>
          </creationInfo>
        </arrival>
        <arrival publicID="quakeml:uw.anss.org/AssocArO/UW/7304893">
          <pickID>quakeml:uw.anss.org/Arrival/UW/7304893</pickID>
          <phase>P</phase>
          <azimuth>183.8</azimuth>
          <timeResidual>0.01</timeResidual>
          <creationInfo>
            <agencyID>UW</agencyID>
            <creationTime>2012-02-28T17:27:41.000000Z</creationTime>
          </creationInfo>
        </arrival>
        <arrival publicID="quakeml:uw.anss.org/AssocArO/UW/7304898">
          <pickID>quakeml:uw.anss.org/Arrival/UW/7304898</pickID>
          <phase>P</phase>
          <azimuth>122.2</azimuth>
          <distance>1.679</distance>
          <timeResidual>1.15</timeResidual>
          <creationInfo>
            <agencyID>UW</agencyID>
            <creationTime>2012-02-28T17:27:41.000000Z</creationTime>
          </creationInfo>
        </arrival>
        <arrival publicID="quakeml:uw.anss.org/AssocArO/UW/7304903">
          <pickID>quakeml:uw.anss.org/Arrival/UW/7304903</pickID>
          <phase>S</phase>
          <azimuth>122.2</azimuth>
          <distance>1.679</distance>
          <timeResidual>-0.25</timeResidual>
          <creationInfo>
            <agencyID>UW</agencyID>
            <creationTime>2012-02-28T17:27:41.000000Z</creationTime>
          </creationInfo>
        </arrival>
        <arrival publicID="quakeml:uw.anss.org/AssocArO/UW/7304908">
          <pickID>quakeml:uw.anss.org/Arrival/UW/7304908</pickID>
          <phase>P</phase>
          <azimuth>175.8</azimuth>
          <distance>1.59</distance>
          <timeResidual>0.41</timeResidual>
          <creationInfo>
            <agencyID>UW</agencyID>
            <creationTime>2012-02-28T17:27:41.000000Z</creationTime>
          </creationInfo>
        </arrival>
        <arrival publicID="quakeml:uw.anss.org/AssocArO/UW/7304913">
          <pickID>quakeml:uw.anss.org/Arrival/UW/7304913</pickID>
          <phase>P</phase>
          <azimuth>192.2</azimuth>
          <distance>0.8273</distance>
          <timeResidual>-0.19</timeResidual>
          <creationInfo>
            <agencyID>UW</agencyID>
            <creationTime>2012-02-28T17:27:41.000000Z</creationTime>
          </creationInfo>
        </arrival>
        <arrival publicID="quakeml:uw.anss.org/AssocArO/UW/7304918">
          <pickID>quakeml:uw.anss.org/Arrival/UW/7304918</pickID>
          <phase>P</phase>
          <azimuth>150.9</azimuth>
          <distance>0.8637</distance>
          <timeResidual>-0.15</timeResidual>
          <creationInfo>
            <agencyID>UW</agencyID>
            <creationTime>2012-02-28T17:27:41.000000Z</creationTime>
          </creationInfo>
        </arrival>
        <arrival publicID="quakeml:uw.anss.org/AssocArO/UW/7304923">
          <pickID>quakeml:uw.anss.org/Arrival/UW/7304923</pickID>
          <phase>P</phase>
          <azimuth>208.9</azimuth>
          <timeResidual>-0.17</timeResidual>
          <creationInfo>
            <agencyID>UW</agencyID>
            <creationTime>2012-02-28T17:27:41.000000Z</creationTime>
          </creationInfo>
        </arrival>
        <arrival publicID="quakeml:uw.anss.org/AssocArO/UW/7304928">
          <pickID>quakeml:uw.anss.org/Arrival/UW/7304928</pickID>
          <phase>P</phase>
          <azimuth>156.8</azimuth>
          <distance>1.567</distance>
          <timeResidual>0.05</timeResidual>
          <creationInfo>
            <agencyID>UW</agencyID>
            <creationTime>2012-02-28T17:27:41.000000Z</creationTime>
          </creationInfo>
        </arrival>
        <arrival publicID="quakeml:uw.anss.org/AssocArO/UW/7304933">
          <pickID>quakeml:uw.anss.org/Arrival/UW/7304933</pickID>
          <phase>S</phase>
          <azimuth>156.8</azimuth>
          <distance>1.567</distance>
          <timeResidual>-0.08</timeResidual>
          <creationInfo>
            <agencyID>UW</agencyID>
            <creationTime>2012-02-28T17:27:41.000000Z</creationTime>
          </creationInfo>
        </arrival>
        <arrival publicID="quakeml:uw.anss.org/AssocArO/UW/7304938">
          <pickID>quakeml:uw.anss.org/Arrival/UW/7304938</pickID>
          <phase>P</phase>
          <azimuth>274.9</azimuth>
          <distance>0.8812</distance>
          <timeResidual>0.45</timeResidual>
          <creationInfo>
            <agencyID>UW</agencyID>
            <creationTime>2012-02-28T17:27:41.000000Z</creationTime>
          </creationInfo>
        </arrival>
        <arrival publicID="quakeml:uw.anss.org/AssocArO/UW/7304943">
          <pickID>quakeml:uw.anss.org/Arrival/UW/7304943</pickID>
          <phase>P</phase>
          <azimuth>245.3</azimuth>
          <distance>0.4487</distance>
          <timeResidual>0.57</timeResidual>
          <creationInfo>
            <agencyID>UW</agencyID>
            <creationTime>2012-02-28T17:27:41.000000Z</creationTime>
          </creationInfo>
        </arrival>
        <arrival publicID="quakeml:uw.anss.org/AssocArO/UW/7304948">
          <pickID>quakeml:uw.anss.org/Arrival/UW/7304948</pickID>
          <phase>P</phase>
          <azimuth>142.2</azimuth>
          <distance>1.074</distance>
          <timeResidual>-0.06</timeResidual>
          <creationInfo>
            <agencyID>UW</agencyID>
            <creationTime>2012-02-28T17:27:41.000000Z</creationTime>
          </creationInfo>
        </arrival>
        <arrival publicID="quakeml:uw.anss.org/AssocArO/UW/7304953">
          <pickID>quakeml:uw.anss.org/Arrival/UW/7304953</pickID>
          <phase>P</phase>
          <azimuth>303.7</azimuth>
          <distance>0.3122</distance>
          <timeResidual>-0.09</timeResidual>
          <creationInfo>
            <agencyID>UW</agencyID>
            <creationTime>2012-02-28T17:27:41.000000Z</creationTime>
          </creationInfo>
        </arrival>
        <arrival publicID="quakeml:uw.anss.org/AssocArO/UW/7304958">
          <pickID>quakeml:uw.anss.org/Arrival/UW/7304958</pickID>
          <phase>S</phase>
          <azimuth>303.7</azimuth>
          <distance>0.3122</distance>
          <timeResidual>-0.2</timeResidual>
          <creationInfo>
            <agencyID>UW</agencyID>
            <creationTime>2012-02-28T17:27:41.000000Z</creationTime>
          </creationInfo>
        </arrival>
        <arrival publicID="quakeml:uw.anss.org/AssocArO/UW/7304963">
          <pickID>quakeml:uw.anss.org/Arrival/UW/7304963</pickID>
          <phase>P</phase>
          <azimuth>187.9</azimuth>
          <timeResidual>-0.05</timeResidual>
          <creationInfo>
            <agencyID>UW</agencyID>
            <creationTime>2012-02-28T17:27:41.000000Z</creationTime>
          </creationInfo>
        </arrival>
        <arrival publicID="quakeml:uw.anss.org/AssocArO/UW/7304968">
          <pickID>quakeml:uw.anss.org/Arrival/UW/7304968</pickID>
          <phase>S</phase>
          <azimuth>187.9</azimuth>
          <timeResidual>-1.07</timeResidual>
          <creationInfo>
            <agencyID>UW</agencyID>
            <creationTime>2012-02-28T17:27:41.000000Z</creationTime>
          </creationInfo>
        </arrival>
        <arrival publicID="quakeml:uw.anss.org/AssocArO/UW/7304973">
          <pickID>quakeml:uw.anss.org/Arrival/UW/7304973</pickID>
          <phase>P</phase>
          <azimuth>130.8</azimuth>
          <distance>1.384</distance>
          <timeResidual>0.04</timeResidual>
          <creationInfo>
            <agencyID>UW</agencyID>
            <creationTime>2012-02-28T17:27:41.000000Z</creationTime>
          </creationInfo>
        </arrival>
        <arrival publicID="quakeml:uw.anss.org/AssocArO/UW/7304978">
          <pickID>quakeml:uw.anss.org/Arrival/UW/7304978</pickID>
          <phase>S</phase>
          <azimuth>130.8</azimuth>
          <distance>1.384</distance>
          <timeResidual>-1.56</timeResidual>
          <creationInfo>
            <agencyID>UW</agencyID>
            <creationTime>2012-02-28T17:27:41.000000Z</creationTime>
          </creationInfo>
        </arrival>
        <arrival publicID="quakeml:uw.anss.org/AssocArO/UW/7304983">
          <pickID>quakeml:uw.anss.org/Arrival/UW/7304983</pickID>
          <phase>P</phase>
          <azimuth>220.5</azimuth>
          <distance>1.371</distance>
          <timeResidual>-0.06</timeResidual>
          <creationInfo>
            <agencyID>UW</agencyID>
            <creationTime>2012-02-28T17:27:41.000000Z</creationTime>
          </creationInfo>
        </arrival>
        <arrival publicID="quakeml:uw.anss.org/AssocArO/UW/7304988">
          <pickID>quakeml:uw.anss.org/Arrival/UW/7304988</pickID>
          <phase>S</phase>
          <azimuth>220.5</azimuth>
          <distance>1.371</distance>
          <timeResidual>-0.64</timeResidual>
          <creationInfo>
            <agencyID>UW</agencyID>
            <creationTime>2012-02-28T17:27:41.000000Z</creationTime>
          </creationInfo>
        </arrival>
      </origin>
      <magnitude publicID="quakeml:uw.anss.org/Netmag/UW/638218">
        <mag>
          <value>1.9</value>
          <uncertainty>0.05</uncertainty>
        </mag>
        <type>Md</type>
        <originID>quakeml:uw.anss.org/Origin/UW/790198</originID>
        <methodID>smi:uw.anss.org/magnitude/Crosson</methodID>
        <stationCount>6</stationCount>
        <evaluationMode>manual</evaluationMode>
        <evaluationStatus>final</evaluationStatus>
        <stationMagnitudeContribution>
          <stationMagnitudeID>quakeml:uw.anss.org/AssocCoM/UW/1729738</stationMagnitudeID>
          <weight>1.0</weight>
          <residual>-0.19</residual>
        </stationMagnitudeContribution>
        <stationMagnitudeContribution>
          <stationMagnitudeID>quakeml:uw.anss.org/AssocCoM/UW/1729723</stationMagnitudeID>
          <weight>1.0</weight>
          <residual>0.19</residual>
        </stationMagnitudeContribution>
        <stationMagnitudeContribution>
          <stationMagnitudeID>quakeml:uw.anss.org/AssocCoM/UW/1729718</stationMagnitudeID>
          <weight>1.0</weight>
          <residual>0.38</residual>
        </stationMagnitudeContribution>
        <stationMagnitudeContribution>
          <stationMagnitudeID>quakeml:uw.anss.org/AssocCoM/UW/1729733</stationMagnitudeID>
          <weight>1.0</weight>
          <residual>-0.42</residual>
        </stationMagnitudeContribution>
        <stationMagnitudeContribution>
          <stationMagnitudeID>quakeml:uw.anss.org/AssocCoM/UW/1729743</stationMagnitudeID>
          <weight>1.0</weight>
          <residual>-0.37</residual>
        </stationMagnitudeContribution>
        <stationMagnitudeContribution>
          <stationMagnitudeID>quakeml:uw.anss.org/AssocCoM/UW/1729728</stationMagnitudeID>
          <weight>1.0</weight>
          <residual>-0.08</residual>
        </stationMagnitudeContribution>
        <creationInfo>
          <agencyID>UW</agencyID>
          <creationTime>2012-02-28T17:27:40.000000Z</creationTime>
        </creationInfo>
      </magnitude>
      <stationMagnitude publicID="quakeml:uw.anss.org/AssocCoM/UW/1729718">
        <originID>quakeml:uw.anss.org/Origin/UW/790198</originID>
        <mag>
          <value>2.28</value>
        </mag>
        <type>MD</type>
        <amplitudeID>quakeml:uw.anss.org/Coda/UW/1729718</amplitudeID>
        <waveformID networkCode="UW" stationCode="NEL" locationCode="" channelCode="EHZ"></waveformID>
      </stationMagnitude>
      <stationMagnitude publicID="quakeml:uw.anss.org/AssocCoM/UW/1729723">
        <originID>quakeml:uw.anss.org/Origin/UW/790198</originID>
        <mag>
          <value>2.09</value>
        </mag>
        <type>MD</type>
        <amplitudeID>quakeml:uw.anss.org/Coda/UW/1729723</amplitudeID>
        <waveformID networkCode="UW" stationCode="JCW" locationCode="" channelCode="EHZ"></waveformID>
      </stationMagnitude>
      <stationMagnitude publicID="quakeml:uw.anss.org/AssocCoM/UW/1729728">
        <originID>quakeml:uw.anss.org/Origin/UW/790198</originID>
        <mag>
          <value>1.82</value>
        </mag>
        <type>MD</type>
        <amplitudeID>quakeml:uw.anss.org/Coda/UW/1729728</amplitudeID>
        <waveformID networkCode="UW" stationCode="RPW" locationCode="" channelCode="EHZ"></waveformID>
      </stationMagnitude>
      <stationMagnitude publicID="quakeml:uw.anss.org/AssocCoM/UW/1729733">
        <originID>quakeml:uw.anss.org/Origin/UW/790198</originID>
        <mag>
          <value>1.48</value>
        </mag>
        <type>MD</type>
        <amplitudeID>quakeml:uw.anss.org/Coda/UW/1729733</amplitudeID>
        <waveformID networkCode="UW" stationCode="HTW" locationCode="" channelCode="EHZ"></waveformID>
      </stationMagnitude>
      <stationMagnitude publicID="quakeml:uw.anss.org/AssocCoM/UW/1729738">
        <originID>quakeml:uw.anss.org/Origin/UW/790198</originID>
        <mag>
          <value>1.71</value>
        </mag>
        <type>MD</type>
        <amplitudeID>quakeml:uw.anss.org/Coda/UW/1729738</amplitudeID>
        <waveformID networkCode="UW" stationCode="CMW" locationCode="" channelCode="EHZ"></waveformID>
      </stationMagnitude>
      <stationMagnitude publicID="quakeml:uw.anss.org/AssocCoM/UW/1729743">
        <originID>quakeml:uw.anss.org/Origin/UW/790198</originID>
        <mag>
          <value>1.53</value>
        </mag>
        <type>MD</type>
        <amplitudeID>quakeml:uw.anss.org/Coda/UW/1729743</amplitudeID>
        <waveformID networkCode="UW" stationCode="MBW" locationCode="" channelCode="EHZ"></waveformID>
      </stationMagnitude>
