<?xml version='1.0' encoding='utf-8'?>
<q:quakeml xmlns="http://quakeml.org/xmlns/bed/1.2" xmlns:q="http://quakeml.org/xmlns/quakeml/1.2" xmlns:ns0="http://anss.org/xmlns/catalog/0.1">
  <eventParameters publicID="smi:local/20091d1e-2196-42ca-b869-008959bb7290">
    <event publicID="quakeml:uw.anss.org/Event/UW/10312133" ns0:datasource="uw" ns0:dataid="uw10312133" ns0:eventsource="uw" ns0:eventid="10312133">
      <preferredOriginID>quakeml:uw.anss.org/Origin/UW/589538</preferredOriginID>
      <preferredMagnitudeID>quakeml:uw.anss.org/Netmag/UW/496403</preferredMagnitudeID>
      <type>earthquake</type>
      <creationInfo>
        <agencyID>UW</agencyID>
        <creationTime>2012-02-28T10:56:38.000000Z</creationTime>
        <version>3</version>
      </creationInfo>
      <origin publicID="quakeml:uw.anss.org/Origin/UW/589538" ns0:datasource="uw" ns0:dataid="uw10312133" ns0:eventsource="uw" ns0:eventid="10312133">
        <time>
          <value>1993-08-16T09:46:05.190000Z</value>
          <uncertainty>0.03</uncertainty>
        </time>
        <latitude>
          <value>48.7373333</value>
          <uncertainty>0.16</uncertainty>
        </latitude>
        <longitude>
          <value>-121.6368333</value>
          <uncertainty>0.3</uncertainty>
        </longitude>
        <depth>
          <value>-872.0</value>
          <uncertainty>460.0</uncertainty>
        </depth>
        <depthType>operator assigned</depthType>
        <timeFixed>false</timeFixed>
        <epicenterFixed>false</epicenterFixed>
        <methodID>smi:uw.anss.org/origin/spong</methodID>
        <quality>
          <associatedPhaseCount>88</associatedPhaseCount>
          <usedPhaseCount>22</usedPhaseCount>
          <associatedStationCount>61</associatedStationCount>
          <usedStationCount>0</usedStationCount>
          <standardError>0.48</standardError>
          <azimuthalGap>196.0</azimuthalGap>
        </quality>
        <type>hypocenter</type>
        <evaluationMode>manual</evaluationMode>
        <evaluationStatus>final</evaluationStatus>
        <creationInfo>
          <agencyID>UW</agencyID>
          <creationTime>2012-02-28T10:56:38.000000Z</creationTime>
        </creationInfo>
        <originUncertainty>
          <preferredDescription>horizontal uncertainty</preferredDescription>
          <horizontalUncertainty>340.0</horizontalUncertainty>
        </originUncertainty>
        <arrival publicID="quakeml:uw.anss.org/AssocArO/UW/4865098">
          <pickID>quakeml:uw.anss.org/Arrival/UW/4865098</pickID>
          <phase>P</phase>
          <azimuth>221.5</azimuth>
          <distance>1.445</distance>
          <timeResidual>0.17</timeResidual>
          <creationInfo>
            <agencyID>UW</agencyID>
            <creationTime>2012-02-28T10:56:38.000000Z</creationTime>
          </creationInfo>
        </arrival>
        <arrival publicID="quakeml:uw.anss.org/AssocArO/UW/4865103">
          <pickID>quakeml:uw.anss.org/Arrival/UW/4865103</pickID>
          <phase>S</phase>
          <azimuth>221.5</azimuth>
          <distance>1.445</distance>
          <timeResidual>-0.27</timeResidual>
          <creationInfo>
            <agencyID>UW</agencyID>
            <creationTime>2012-02-28T10:56:38.000000Z</creationTime>
          </creationInfo>
        </arrival>
        <arrival publicID="quakeml:uw.anss.org/AssocArO/UW/4865108">
          <pickID>quakeml:uw.anss.org/Arrival/UW/4865108</pickID>
          <phase>P</phase>
          <azimuth>164.5</azimuth>
          <distance>2.079</distance>
          <timeResidual>-0.37</timeResidual>
          <creationInfo>
            <agencyID>UW</agencyID>
            <creationTime>2012-02-28T10:56:38.000000Z</creationTime>
          </creationInfo>
        </arrival>
        <arrival publicID="quakeml:uw.anss.org/AssocArO/UW/4865113">
          <pickID>quakeml:uw.anss.org/Arrival/UW/4865113</pickID>
          <phase>S</phase>
          <azimuth>164.5</azimuth>
          <distance>2.079</distance>
          <timeResidual>0.64</timeResidual>
          <creationInfo>
            <agencyID>UW</agencyID>
            <creationTime>2012-02-28T10:56:38.000000Z</creationTime>
          </creationInfo>
        </arrival>
        <arrival publicID="quakeml:uw.anss.org/AssocArO/UW/4865118">
          <pickID>quakeml:uw.anss.org/Arrival/UW/4865118</pickID>
          <phase>P</phase>
          <azimuth>127.3</azimuth>
          <distance>1.091</distance>
          <timeResidual>0.34</timeResidual>
          <creationInfo>
            <agencyID>UW</agencyID>
            <creationTime>2012-02-28T10:56:38.000000Z</creationTime>
          </creationInfo>
        </arrival>
        <arrival publicID="quakeml:uw.anss.org/AssocArO/UW/4865123">
          <pickID>quakeml:uw.anss.org/Arrival/UW/4865123</pickID>
          <phase>S</phase>
          <azimuth>127.3</azimuth>
          <distance>1.091</distance>
          <timeResidual>-0.63</timeResidual>
          <creationInfo>
            <agencyID>UW</agencyID>
            <creationTime>2012-02-28T10:56:38.000000Z</creationTime>
          </creationInfo>
        </arrival>
        <arrival publicID="quakeml:uw.anss.org/AssocArO/UW/4865128">
          <pickID>quakeml:uw.anss.org/Arrival/UW/4865128</pickID>
          <phase>P</phase>
          <azimuth>194.4</azimuth>
          <distance>1.75</distance>
          <timeResidual>0.12</timeResidual>
          <creationInfo>
            <agencyID>UW</agencyID>
            <creationTime>2012-02-28T10:56:38.000000Z</creationTime>
          </creationInfo>
        </arrival>
        <arrival publicID="quakeml:uw.anss.org/AssocArO/UW/4865133">
          <pickID>quakeml:uw.anss.org/Arrival/UW/4865133</pickID>
          <phase>P</phase>
          <azimuth>142.0</azimuth>
          <distance>1.431</distance>
          <timeResidual>0.57</timeResidual>
          <creationInfo>
            <agencyID>UW</agencyID>
            <creationTime>2012-02-28T10:56:38.000000Z</creationTime>
          </creationInfo>
        </arrival>
        <arrival publicID="quakeml:uw.anss.org/AssocArO/UW/4865138">
          <pickID>quakeml:uw.anss.org/Arrival/UW/4865138</pickID>
          <phase>S</phase>
          <azimuth>142.0</azimuth>
          <distance>1.431</distance>
          <timeResidual>-0.52</timeResidual>
          <creationInfo>
            <agencyID>UW</agencyID>
            <creationTime>2012-02-28T10:56:38.000000Z</creationTime>
          </creationInfo>
        </arrival>
        <arrival publicID="quakeml:uw.anss.org/AssocArO/UW/4865143">
          <pickID>quakeml:uw.anss.org/Arrival/UW/4865143</pickID>
          <phase>P</phase>
          <azimuth>219.5</azimuth>
          <distance>1.824</distance>
          <timeResidual>-0.11</timeResidual>
          <creationInfo>
            <agencyID>UW</agencyID>
            <creationTime>2012-02-28T10:56:38.000000Z</creationTime>
          </creationInfo>
        </arrival>
        <arrival publicID="quakeml:uw.anss.org/AssocArO/UW/4865148">
          <pickID>quakeml:uw.anss.org/Arrival/UW/4865148</pickID>
          <phase>P</phase>
          <azimuth>144.8</azimuth>
          <distance>2.597</distance>
          <timeResidual>3.68</timeResidual>
          <creationInfo>
            <agencyID>UW</agencyID>
            <creationTime>2012-02-28T10:56:38.000000Z</creationTime>
          </creationInfo>
        </arrival>
        <arrival publicID="quakeml:uw.anss.org/AssocArO/UW/4865153">
          <pickID>quakeml:uw.anss.org/Arrival/UW/4865153</pickID>
          <phase>P</phase>
          <azimuth>194.6</azimuth>
          <distance>2.378</distance>
          <timeResidual>0.16</timeResidual>
          <creationInfo>
            <agencyID>UW</agencyID>
            <creationTime>2012-02-28T10:56:38.000000Z</creationTime>
          </creationInfo>
        </arrival>
        <arrival publicID="quakeml:uw.anss.org/AssocArO/UW/4865158">
          <pickID>quakeml:uw.anss.org/Arrival/UW/4865158</pickID>
          <phase>P</phase>
          <azimuth>182.0</azimuth>
          <distance>1.869</distance>
          <timeResidual>0.14</timeResidual>
          <creationInfo>
            <agencyID>UW</agencyID>
            <creationTime>2012-02-28T10:56:38.000000Z</creationTime>
          </creationInfo>
        </arrival>
        <arrival publicID="quakeml:uw.anss.org/AssocArO/UW/4865163">
          <pickID>quakeml:uw.anss.org/Arrival/UW/4865163</pickID>
          <phase>P</phase>
          <azimuth>179.5</azimuth>
          <distance>2.181</distance>
          <timeResidual>0.09</timeResidual>
          <creationInfo>
            <agencyID>UW</agencyID>
            <creationTime>2012-02-28T10:56:38.000000Z</creationTime>
          </creationInfo>
        </arrival>
        <arrival publicID="quakeml:uw.anss.org/AssocArO/UW/4865168">
          <pickID>quakeml:uw.anss.org/Arrival/UW/4865168</pickID>
          <phase>S</phase>
          <azimuth>179.5</azimuth>
          <distance>2.181</distance>
          <timeResidual>-0.18</timeResidual>
          <creationInfo>
            <agencyID>UW</agencyID>
            <creationTime>2012-02-28T10:56:38.000000Z</creationTime>
          </creationInfo>
        </arrival>
        <arrival publicID="quakeml:uw.anss.org/AssocArO/UW/4865173">
          <pickID>quakeml:uw.anss.org/Arrival/UW/4865173</pickID>
          <phase>P</phase>
          <azimuth>161.9</azimuth>
          <distance>1.681</distance>
          <timeResidual>1.23</timeResidual>
          <creationInfo>
            <agencyID>UW</agencyID>
            <creationTime>2012-02-28T10:56:38.000000Z</creationTime>
          </creationInfo>
        </arrival>
        <arrival publicID="quakeml:uw.anss.org/AssocArO/UW/4865178">
          <pickID>quakeml:uw.anss.org/Arrival/UW/4865178</pickID>
          <phase>P</phase>
          <azimuth>134.6</azimuth>
          <distance>1.945</distance>
          <timeResidual>1.47</timeResidual>
          <creationInfo>
            <agencyID>UW</agencyID>
            <creationTime>2012-02-28T10:56:38.000000Z</creationTime>
          </creationInfo>
        </arrival>
        <arrival publicID="quakeml:uw.anss.org/AssocArO/UW/4865183">
          <pickID>quakeml:uw.anss.org/Arrival/UW/4865183</pickID>
          <phase>S</phase>
          <azimuth>134.6</azimuth>
          <distance>1.945</distance>
          <timeResidual>1.02</timeResidual>
          <creationInfo>
            <agencyID>UW</agencyID>
            <creationTime>2012-02-28T10:56:38.000000Z</creationTime>
          </creationInfo>
        </arrival>
        <arrival publicID="quakeml:uw.anss.org/AssocArO/UW/4865188">
          <pickID>quakeml:uw.anss.org/Arrival/UW/4865188</pickID>
          <phase>P</phase>
          <azimuth>225.7</azimuth>
          <distance>0.4491</distance>
          <timeResidual>-0.18</timeResidual>
          <creationInfo>
            <agencyID>UW</agencyID>
            <creationTime>2012-02-28T10:56:38.000000Z</creationTime>
          </creationInfo>
        </arrival>
        <arrival publicID="quakeml:uw.anss.org/AssocArO/UW/4865193">
          <pickID>quakeml:uw.anss.org/Arrival/UW/4865193</pickID>
          <phase>S</phase>
          <azimuth>225.7</azimuth>
          <distance>0.4491</distance>
          <timeResidual>-0.16</timeResidual>
          <creationInfo>
            <agencyID>UW</agencyID>
            <creationTime>2012-02-28T10:56:38.000000Z</creationTime>
          </creationInfo>
        </arrival>
        <arrival publicID="quakeml:uw.anss.org/AssocArO/UW/4865198">
          <pickID>quakeml:uw.anss.org/Arrival/UW/4865198</pickID>
          <phase>P</phase>
          <azimuth>188.0</azimuth>
          <distance>2.565</distance>
          <timeResidual>1.67</timeResidual>
          <creationInfo>
            <agencyID>UW</agencyID>
            <creationTime>2012-02-28T10:56:38.000000Z</creationTime>
          </creationInfo>
        </arrival>
        <arrival publicID="quakeml:uw.anss.org/AssocArO/UW/4865203">
          <pickID>quakeml:uw.anss.org/Arrival/UW/4865203</pickID>
          <phase>P</phase>
          <azimuth>184.0</azimuth>
          <timeResidual>0.16</timeResidual>
          <creationInfo>
            <agencyID>UW</agencyID>
            <creationTime>2012-02-28T10:56:38.000000Z</creationTime>
          </creationInfo>
        </arrival>
        <arrival publicID="quakeml:uw.anss.org/AssocArO/UW/4865208">
          <pickID>quakeml:uw.anss.org/Arrival/UW/4865208</pickID>
          <phase>S</phase>
          <azimuth>184.0</azimuth>
          <timeResidual>-0.43</timeResidual>
          <creationInfo>
            <agencyID>UW</agencyID>
            <creationTime>2012-02-28T10:56:38.000000Z</creationTime>
          </creationInfo>
        </arrival>
        <arrival publicID="quakeml:uw.anss.org/AssocArO/UW/4865213">
          <pickID>quakeml:uw.anss.org/Arrival/UW/4865213</pickID>
          <phase>P</phase>
          <azimuth>210.3</azimuth>
          <distance>2.034</distance>
          <timeResidual>-0.31</timeResidual>
          <creationInfo>
            <agencyID>UW</agencyID>
            <creationTime>2012-02-28T10:56:38.000000Z</creationTime>
          </creationInfo>
        </arrival>
        <arrival publicID="quakeml:uw.anss.org/AssocArO/UW/4865218">
          <pickID>quakeml:uw.anss.org/Arrival/UW/4865218</pickID>
          <phase>S</phase>
          <azimuth>210.3</azimuth>
          <distance>2.034</distance>
          <timeResidual>-1.03</timeResidual>
          <creationInfo>
            <agencyID>UW</agencyID>
            <creationTime>2012-02-28T10:56:38.000000Z</creationTime>
          </creationInfo>
        </arrival>
        <arrival publicID="quakeml:uw.anss.org/AssocArO/UW/4865223">
          <pickID>quakeml:uw.anss.org/Arrival/UW/4865223</pickID>
          <phase>P</phase>
          <azimuth>187.3</azimuth>
          <distance>1.809</distance>
          <timeResidual>-0.02</timeResidual>
          <creationInfo>
            <agencyID>UW</agencyID>
            <creationTime>2012-02-28T10:56:38.000000Z</creationTime>
          </creationInfo>
        </arrival>
        <arrival publicID="quakeml:uw.anss.org/AssocArO/UW/4865228">
          <pickID>quakeml:uw.anss.org/Arrival/UW/4865228</pickID>
          <phase>P</phase>
          <azimuth>183.4</azimuth>
          <distance>1.991</distance>
          <timeResidual>0.02</timeResidual>
          <creationInfo>
            <agencyID>UW</agencyID>
            <creationTime>2012-02-28T10:56:38.000000Z</creationTime>
          </creationInfo>
        </arrival>
        <arrival publicID="quakeml:uw.anss.org/AssocArO/UW/4865233">
          <pickID>quakeml:uw.anss.org/Arrival/UW/4865233</pickID>
          <phase>S</phase>
          <azimuth>183.4</azimuth>
          <distance>1.991</distance>
          <timeResidual>-1.05</timeResidual>
          <creationInfo>
            <agencyID>UW</agencyID>
            <creationTime>2012-02-28T10:56:38.000000Z</creationTime>
          </creationInfo>
        </arrival>
        <arrival publicID="quakeml:uw.anss.org/AssocArO/UW/4865238">
          <pickID>quakeml:uw.anss.org/Arrival/UW/4865238</pickID>
          <phase>P</phase>
          <azimuth>185.1</azimuth>
          <distance>1.284</distance>
          <timeResidual>0.1</timeResidual>
          <creationInfo>
            <agencyID>UW</agencyID>
            <creationTime>2012-02-28T10:56:38.000000Z</creationTime>
          </creationInfo>
        </arrival>
        <arrival publicID="quakeml:uw.anss.org/AssocArO/UW/4865243">
          <pickID>quakeml:uw.anss.org/Arrival/UW/4865243</pickID>
          <phase>P</phase>
          <azimuth>164.4</azimuth>
          <distance>0.3005</distance>
          <timeResidual>-0.48</timeResidual>
          <creationInfo>
            <agencyID>UW</agencyID>
            <creationTime>2012-02-28T10:56:38.000000Z</creationTime>
          </creationInfo>
        </arrival>
        <arrival publicID="quakeml:uw.anss.org/AssocArO/UW/4865248">
          <pickID>quakeml:uw.anss.org/Arrival/UW/4865248</pickID>
          <phase>P</phase>
          <azimuth>178.1</azimuth>
          <distance>2.041</distance>
          <timeResidual>-0.11</timeResidual>
          <creationInfo>
            <agencyID>UW</agencyID>
            <creationTime>2012-02-28T10:56:38.000000Z</creationTime>
          </creationInfo>
        </arrival>
        <arrival publicID="quakeml:uw.anss.org/AssocArO/UW/4865253">
          <pickID>quakeml:uw.anss.org/Arrival/UW/4865253</pickID>
          <phase>S</phase>
          <azimuth>178.1</azimuth>
          <distance>2.041</distance>
          <timeResidual>-0.23</timeResidual>
          <creationInfo>
            <agencyID>UW</agencyID>
            <creationTime>2012-02-28T10:56:38.000000Z</creationTime>
          </creationInfo>
        </arrival>
        <arrival publicID="quakeml:uw.anss.org/AssocArO/UW/4865258">
          <pickID>quakeml:uw.anss.org/Arrival/UW/4865258</pickID>
          <phase>P</phase>
          <azimuth>240.4</azimuth>
          <distance>1.979</distance>
          <timeResidual>0.6</timeResidual>
          <creationInfo>
            <agencyID>UW</agencyID>
            <creationTime>2012-02-28T10:56:38.000000Z</creationTime>
          </creationInfo>
        </arrival>
        <arrival publicID="quakeml:uw.anss.org/AssocArO/UW/4865263">
          <pickID>quakeml:uw.anss.org/Arrival/UW/4865263</pickID>
          <phase>P</phase>
          <azimuth>199.2</azimuth>
          <distance>1.253</distance>
          <timeResidual>0.68</timeResidual>
          <creationInfo>
            <agencyID>UW</agencyID>
            <creationTime>2012-02-28T10:56:38.000000Z</creationTime>
          </creationInfo>
        </arrival>
        <arrival publicID="quakeml:uw.anss.org/AssocArO/UW/4865268">
          <pickID>quakeml:uw.anss.org/Arrival/UW/4865268</pickID>
          <phase>P</phase>
          <azimuth>215.4</azimuth>
          <distance>1.12</distance>
          <timeResidual>0.69</timeResidual>
          <creationInfo>
            <agencyID>UW</agencyID>
            <creationTime>2012-02-28T10:56:38.000000Z</creationTime>
          </creationInfo>
        </arrival>
        <arrival publicID="quakeml:uw.anss.org/AssocArO/UW/4865273">
          <pickID>quakeml:uw.anss.org/Arrival/UW/4865273</pickID>
          <phase>P</phase>
          <azimuth>187.9</azimuth>
          <distance>2.518</distance>
          <timeResidual>0.83</timeResidual>
          <creationInfo>
            <agencyID>UW</agencyID>
            <creationTime>2012-02-28T10:56:38.000000Z</creationTime>
          </creationInfo>
        </arrival>
        <arrival publicID="quakeml:uw.anss.org/AssocArO/UW/4865278">
          <pickID>quakeml:uw.anss.org/Arrival/UW/4865278</pickID>
          <phase>P</phase>
          <azimuth>194.3</azimuth>
          <distance>3.262</distance>
          <timeResidual>2.4</timeResidual>
          <creationInfo>
            <agencyID>UW</agencyID>
            <creationTime>2012-02-28T10:56:38.000000Z</creationTime>
          </creationInfo>
        </arrival>
        <arrival publicID="quakeml:uw.anss.org/AssocArO/UW/4865283">
          <pickID>quakeml:uw.anss.org/Arrival/UW/4865283</pickID>
          <phase>P</phase>
          <azimuth>144.0</azimuth>
          <distance>2.67</distance>
          <timeResidual>4.74</timeResidual>
          <creationInfo>
            <agencyID>UW</agencyID>
            <creationTime>2012-02-28T10:56:38.000000Z</creationTime>
          </creationInfo>
        </arrival>
        <arrival publicID="quakeml:uw.anss.org/AssocArO/UW/4865288">
          <pickID>quakeml:uw.anss.org/Arrival/UW/4865288</pickID>
          <phase>P</phase>
          <azimuth>206.0</azimuth>
          <distance>2.507</distance>
          <timeResidual>0.32</timeResidual>
          <creationInfo>
            <agencyID>UW</agencyID>
            <creationTime>2012-02-28T10:56:38.000000Z</creationTime>
