<?xml version='1.0' encoding='utf-8'?>
<q:quakeml xmlns="http://quakeml.org/xmlns/bed/1.2" xmlns:q="http://quakeml.org/xmlns/quakeml/1.2" xmlns:ns0="http://anss.org/xmlns/catalog/0.1">
  <eventParameters publicID="smi:local/a7d67fed-b21b-45f5-8b68-bad07be6a256">
    <event publicID="quakeml:uw.anss.org/Event/UW/10311228" ns0:datasource="uw" ns0:dataid="uw10311228" ns0:eventsource="uw" ns0:eventid="10311228">
      <preferredOriginID>quakeml:uw.anss.org/Origin/UW/588633</preferredOriginID>
      <preferredMagnitudeID>quakeml:uw.anss.org/Netmag/UW/495623</preferredMagnitudeID>
      <type>earthquake</type>
      <creationInfo>
        <agencyID>UW</agencyID>
        <creationTime>2012-02-28T10:54:57.000000Z</creationTime>
        <version>3</version>
      </creationInfo>
      <origin publicID="quakeml:uw.anss.org/Origin/UW/588633" ns0:datasource="uw" ns0:dataid="uw10311228" ns0:eventsource="uw" ns0:eventid="10311228">
        <time>
          <value>1993-06-29T11:52:34.560000Z</value>
          <uncertainty>0.02</uncertainty>
        </time>
        <latitude>
          <value>48.5555</value>
          <uncertainty>0.08</uncertainty>
        </latitude>
        <longitude>
          <value>-122.3336667</value>
          <uncertainty>0.1</uncertainty>
        </longitude>
        <depth>
          <value>-861.0</value>
          <uncertainty>190.0</uncertainty>
        </depth>
        <depthType>operator assigned</depthType>
        <timeFixed>false</timeFixed>
        <epicenterFixed>false</epicenterFixed>
        <methodID>smi:uw.anss.org/origin/spong</methodID>
        <quality>
          <associatedPhaseCount>89</associatedPhaseCount>
          <usedPhaseCount>23</usedPhaseCount>
          <associatedStationCount>58</associatedStationCount>
          <usedStationCount>0</usedStationCount>
          <standardError>0.35</standardError>
          <azimuthalGap>120.0</azimuthalGap>
        </quality>
        <type>hypocenter</type>
        <evaluationMode>manual</evaluationMode>
        <evaluationStatus>final</evaluationStatus>
        <creationInfo>
          <agencyID>UW</agencyID>
          <creationTime>2012-02-28T10:54:57.000000Z</creationTime>
        </creationInfo>
        <originUncertainty>
          <preferredDescription>horizontal uncertainty</preferredDescription>
          <horizontalUncertainty>128.0</horizontalUncertainty>
        </originUncertainty>
        <arrival publicID="quakeml:uw.anss.org/AssocArO/UW/4848563">
          <pickID>quakeml:uw.anss.org/Arrival/UW/4848563</pickID>
          <phase>P</phase>
          <azimuth>208.3</azimuth>
          <distance>1.029</distance>
          <timeResidual>-0.27</timeResidual>
          <creationInfo>
            <agencyID>UW</agencyID>
            <creationTime>2012-02-28T10:54:57.000000Z</creationTime>
          </creationInfo>
        </arrival>
        <arrival publicID="quakeml:uw.anss.org/AssocArO/UW/4848568">
          <pickID>quakeml:uw.anss.org/Arrival/UW/4848568</pickID>
          <phase>S</phase>
          <azimuth>208.3</azimuth>
          <distance>1.029</distance>
          <timeResidual>0.39</timeResidual>
          <creationInfo>
            <agencyID>UW</agencyID>
            <creationTime>2012-02-28T10:54:57.000000Z</creationTime>
          </creationInfo>
        </arrival>
        <arrival publicID="quakeml:uw.anss.org/AssocArO/UW/4848573">
          <pickID>quakeml:uw.anss.org/Arrival/UW/4848573</pickID>
          <phase>P</phase>
          <azimuth>150.3</azimuth>
          <distance>2.089</distance>
          <timeResidual>-0.58</timeResidual>
          <creationInfo>
            <agencyID>UW</agencyID>
            <creationTime>2012-02-28T10:54:57.000000Z</creationTime>
          </creationInfo>
        </arrival>
        <arrival publicID="quakeml:uw.anss.org/AssocArO/UW/4848578">
          <pickID>quakeml:uw.anss.org/Arrival/UW/4848578</pickID>
          <phase>S</phase>
          <azimuth>150.3</azimuth>
          <distance>2.089</distance>
          <timeResidual>-0.24</timeResidual>
          <creationInfo>
            <agencyID>UW</agencyID>
            <creationTime>2012-02-28T10:54:57.000000Z</creationTime>
          </creationInfo>
        </arrival>
        <arrival publicID="quakeml:uw.anss.org/AssocArO/UW/4848583">
          <pickID>quakeml:uw.anss.org/Arrival/UW/4848583</pickID>
          <phase>P</phase>
          <azimuth>109.4</azimuth>
          <distance>1.416</distance>
          <timeResidual>0.75</timeResidual>
          <creationInfo>
            <agencyID>UW</agencyID>
            <creationTime>2012-02-28T10:54:57.000000Z</creationTime>
          </creationInfo>
        </arrival>
        <arrival publicID="quakeml:uw.anss.org/AssocArO/UW/4848588">
          <pickID>quakeml:uw.anss.org/Arrival/UW/4848588</pickID>
          <phase>P</phase>
          <azimuth>163.6</azimuth>
          <distance>1.934</distance>
          <timeResidual>-0.19</timeResidual>
          <creationInfo>
            <agencyID>UW</agencyID>
            <creationTime>2012-02-28T10:54:57.000000Z</creationTime>
          </creationInfo>
        </arrival>
        <arrival publicID="quakeml:uw.anss.org/AssocArO/UW/4848593">
          <pickID>quakeml:uw.anss.org/Arrival/UW/4848593</pickID>
          <phase>S</phase>
          <azimuth>163.6</azimuth>
          <distance>1.934</distance>
          <timeResidual>-1.27</timeResidual>
          <creationInfo>
            <agencyID>UW</agencyID>
            <creationTime>2012-02-28T10:54:57.000000Z</creationTime>
          </creationInfo>
        </arrival>
        <arrival publicID="quakeml:uw.anss.org/AssocArO/UW/4848598">
          <pickID>quakeml:uw.anss.org/Arrival/UW/4848598</pickID>
          <phase>P</phase>
          <azimuth>124.7</azimuth>
          <distance>1.645</distance>
          <timeResidual>0.3</timeResidual>
          <creationInfo>
            <agencyID>UW</agencyID>
            <creationTime>2012-02-28T10:54:57.000000Z</creationTime>
          </creationInfo>
        </arrival>
        <arrival publicID="quakeml:uw.anss.org/AssocArO/UW/4848603">
          <pickID>quakeml:uw.anss.org/Arrival/UW/4848603</pickID>
          <phase>S</phase>
          <azimuth>124.7</azimuth>
          <distance>1.645</distance>
          <timeResidual>0.04</timeResidual>
          <creationInfo>
            <agencyID>UW</agencyID>
            <creationTime>2012-02-28T10:54:57.000000Z</creationTime>
          </creationInfo>
        </arrival>
        <arrival publicID="quakeml:uw.anss.org/AssocArO/UW/4848608">
          <pickID>quakeml:uw.anss.org/Arrival/UW/4848608</pickID>
          <phase>P</phase>
          <azimuth>209.1</azimuth>
          <distance>1.411</distance>
          <timeResidual>0.54</timeResidual>
          <creationInfo>
            <agencyID>UW</agencyID>
            <creationTime>2012-02-28T10:54:57.000000Z</creationTime>
          </creationInfo>
        </arrival>
        <arrival publicID="quakeml:uw.anss.org/AssocArO/UW/4848613">
          <pickID>quakeml:uw.anss.org/Arrival/UW/4848613</pickID>
          <phase>P</phase>
          <azimuth>134.2</azimuth>
          <distance>2.76</distance>
          <timeResidual>1.85</timeResidual>
          <creationInfo>
            <agencyID>UW</agencyID>
            <creationTime>2012-02-28T10:54:57.000000Z</creationTime>
          </creationInfo>
        </arrival>
        <arrival publicID="quakeml:uw.anss.org/AssocArO/UW/4848618">
          <pickID>quakeml:uw.anss.org/Arrival/UW/4848618</pickID>
          <phase>P</phase>
          <azimuth>166.3</azimuth>
          <distance>1.734</distance>
          <timeResidual>0.2</timeResidual>
          <creationInfo>
            <agencyID>UW</agencyID>
            <creationTime>2012-02-28T10:54:57.000000Z</creationTime>
          </creationInfo>
        </arrival>
        <arrival publicID="quakeml:uw.anss.org/AssocArO/UW/4848623">
          <pickID>quakeml:uw.anss.org/Arrival/UW/4848623</pickID>
          <phase>S</phase>
          <azimuth>166.3</azimuth>
          <distance>1.734</distance>
          <timeResidual>-0.36</timeResidual>
          <creationInfo>
            <agencyID>UW</agencyID>
            <creationTime>2012-02-28T10:54:57.000000Z</creationTime>
          </creationInfo>
        </arrival>
        <arrival publicID="quakeml:uw.anss.org/AssocArO/UW/4848628">
          <pickID>quakeml:uw.anss.org/Arrival/UW/4848628</pickID>
          <phase>P</phase>
          <azimuth>166.0</azimuth>
          <distance>2.058</distance>
          <timeResidual>0.1</timeResidual>
          <creationInfo>
            <agencyID>UW</agencyID>
            <creationTime>2012-02-28T10:54:57.000000Z</creationTime>
          </creationInfo>
        </arrival>
        <arrival publicID="quakeml:uw.anss.org/AssocArO/UW/4848633">
          <pickID>quakeml:uw.anss.org/Arrival/UW/4848633</pickID>
          <phase>S</phase>
          <azimuth>166.0</azimuth>
          <distance>2.058</distance>
          <timeResidual>-0.24</timeResidual>
          <creationInfo>
            <agencyID>UW</agencyID>
            <creationTime>2012-02-28T10:54:57.000000Z</creationTime>
          </creationInfo>
        </arrival>
        <arrival publicID="quakeml:uw.anss.org/AssocArO/UW/4848638">
          <pickID>quakeml:uw.anss.org/Arrival/UW/4848638</pickID>
          <phase>P</phase>
          <azimuth>144.7</azimuth>
          <distance>1.728</distance>
          <timeResidual>1.11</timeResidual>
          <creationInfo>
            <agencyID>UW</agencyID>
            <creationTime>2012-02-28T10:54:57.000000Z</creationTime>
          </creationInfo>
        </arrival>
        <arrival publicID="quakeml:uw.anss.org/AssocArO/UW/4848643">
          <pickID>quakeml:uw.anss.org/Arrival/UW/4848643</pickID>
          <phase>S</phase>
          <azimuth>144.7</azimuth>
          <distance>1.728</distance>
          <timeResidual>1.23</timeResidual>
          <creationInfo>
            <agencyID>UW</agencyID>
            <creationTime>2012-02-28T10:54:57.000000Z</creationTime>
          </creationInfo>
        </arrival>
        <arrival publicID="quakeml:uw.anss.org/AssocArO/UW/4848648">
          <pickID>quakeml:uw.anss.org/Arrival/UW/4848648</pickID>
          <phase>P</phase>
          <azimuth>122.2</azimuth>
          <distance>2.196</distance>
          <timeResidual>2.11</timeResidual>
          <creationInfo>
            <agencyID>UW</agencyID>
            <creationTime>2012-02-28T10:54:57.000000Z</creationTime>
          </creationInfo>
        </arrival>
        <arrival publicID="quakeml:uw.anss.org/AssocArO/UW/4848653">
          <pickID>quakeml:uw.anss.org/Arrival/UW/4848653</pickID>
          <phase>S</phase>
          <azimuth>122.2</azimuth>
          <distance>2.196</distance>
          <timeResidual>2.43</timeResidual>
          <creationInfo>
            <agencyID>UW</agencyID>
            <creationTime>2012-02-28T10:54:57.000000Z</creationTime>
          </creationInfo>
        </arrival>
        <arrival publicID="quakeml:uw.anss.org/AssocArO/UW/4848658">
          <pickID>quakeml:uw.anss.org/Arrival/UW/4848658</pickID>
          <phase>P</phase>
          <azimuth>177.5</azimuth>
          <distance>2.36</distance>
          <timeResidual>1.1</timeResidual>
          <creationInfo>
            <agencyID>UW</agencyID>
            <creationTime>2012-02-28T10:54:57.000000Z</creationTime>
          </creationInfo>
        </arrival>
        <arrival publicID="quakeml:uw.anss.org/AssocArO/UW/4848663">
          <pickID>quakeml:uw.anss.org/Arrival/UW/4848663</pickID>
          <phase>P</phase>
          <azimuth>132.9</azimuth>
          <distance>0.1939</distance>
          <timeResidual>-0.32</timeResidual>
          <creationInfo>
            <agencyID>UW</agencyID>
            <creationTime>2012-02-28T10:54:57.000000Z</creationTime>
          </creationInfo>
        </arrival>
        <arrival publicID="quakeml:uw.anss.org/AssocArO/UW/4848668">
          <pickID>quakeml:uw.anss.org/Arrival/UW/4848668</pickID>
          <phase>P</phase>
          <azimuth>164.9</azimuth>
          <timeResidual>-0.22</timeResidual>
          <creationInfo>
            <agencyID>UW</agencyID>
            <creationTime>2012-02-28T10:54:57.000000Z</creationTime>
          </creationInfo>
        </arrival>
        <arrival publicID="quakeml:uw.anss.org/AssocArO/UW/4848673">
          <pickID>quakeml:uw.anss.org/Arrival/UW/4848673</pickID>
          <phase>P</phase>
          <azimuth>199.2</azimuth>
          <distance>1.673</distance>
          <timeResidual>-0.42</timeResidual>
          <creationInfo>
            <agencyID>UW</agencyID>
            <creationTime>2012-02-28T10:54:57.000000Z</creationTime>
          </creationInfo>
        </arrival>
        <arrival publicID="quakeml:uw.anss.org/AssocArO/UW/4848678">
          <pickID>quakeml:uw.anss.org/Arrival/UW/4848678</pickID>
          <phase>S</phase>
          <azimuth>199.2</azimuth>
          <distance>1.673</distance>
          <timeResidual>-0.63</timeResidual>
          <creationInfo>
            <agencyID>UW</agencyID>
            <creationTime>2012-02-28T10:54:57.000000Z</creationTime>
          </creationInfo>
        </arrival>
        <arrival publicID="quakeml:uw.anss.org/AssocArO/UW/4848683">
          <pickID>quakeml:uw.anss.org/Arrival/UW/4848683</pickID>
          <phase>P</phase>
          <azimuth>168.7</azimuth>
          <distance>1.84</distance>
          <timeResidual>-0.21</timeResidual>
          <creationInfo>
            <agencyID>UW</agencyID>
            <creationTime>2012-02-28T10:54:57.000000Z</creationTime>
          </creationInfo>
        </arrival>
        <arrival publicID="quakeml:uw.anss.org/AssocArO/UW/4848688">
          <pickID>quakeml:uw.anss.org/Arrival/UW/4848688</pickID>
          <phase>S</phase>
          <azimuth>168.7</azimuth>
          <distance>1.84</distance>
          <timeResidual>-1.31</timeResidual>
          <creationInfo>
            <agencyID>UW</agencyID>
            <creationTime>2012-02-28T10:54:57.000000Z</creationTime>
          </creationInfo>
        </arrival>
        <arrival publicID="quakeml:uw.anss.org/AssocArO/UW/4848693">
          <pickID>quakeml:uw.anss.org/Arrival/UW/4848693</pickID>
          <phase>P</phase>
          <azimuth>133.0</azimuth>
          <distance>2.597</distance>
          <timeResidual>2.63</timeResidual>
          <creationInfo>
            <agencyID>UW</agencyID>
            <creationTime>2012-02-28T10:54:57.000000Z</creationTime>
          </creationInfo>
        </arrival>
        <arrival publicID="quakeml:uw.anss.org/AssocArO/UW/4848698">
          <pickID>quakeml:uw.anss.org/Arrival/UW/4848698</pickID>
          <phase>S</phase>
          <azimuth>133.0</azimuth>
          <distance>2.597</distance>
          <timeResidual>2.34</timeResidual>
          <creationInfo>
            <agencyID>UW</agencyID>
            <creationTime>2012-02-28T10:54:57.000000Z</creationTime>
          </creationInfo>
        </arrival>
        <arrival publicID="quakeml:uw.anss.org/AssocArO/UW/4848703">
          <pickID>quakeml:uw.anss.org/Arrival/UW/4848703</pickID>
          <phase>P</phase>
          <azimuth>100.9</azimuth>
          <distance>0.5551</distance>
          <timeResidual>-0.34</timeResidual>
          <creationInfo>
            <agencyID>UW</agencyID>
            <creationTime>2012-02-28T10:54:57.000000Z</creationTime>
          </creationInfo>
        </arrival>
        <arrival publicID="quakeml:uw.anss.org/AssocArO/UW/4848708">
          <pickID>quakeml:uw.anss.org/Arrival/UW/4848708</pickID>
          <phase>S</phase>
          <azimuth>100.9</azimuth>
          <distance>0.5551</distance>
          <timeResidual>-0.51</timeResidual>
          <creationInfo>
            <agencyID>UW</agencyID>
            <creationTime>2012-02-28T10:54:57.000000Z</creationTime>
          </creationInfo>
        </arrival>
        <arrival publicID="quakeml:uw.anss.org/AssocArO/UW/4848713">
          <pickID>quakeml:uw.anss.org/Arrival/UW/4848713</pickID>
          <phase>P</phase>
          <azimuth>226.7</azimuth>
          <timeResidual>1.02</timeResidual>
          <creationInfo>
            <agencyID>UW</agencyID>
            <creationTime>2012-02-28T10:54:57.000000Z</creationTime>
          </creationInfo>
        </arrival>
        <arrival publicID="quakeml:uw.anss.org/AssocArO/UW/4848718">
          <pickID>quakeml:uw.anss.org/Arrival/UW/4848718</pickID>
          <phase>S</phase>
          <azimuth>177.0</azimuth>
          <distance>2.413</distance>
          <timeResidual>0.04</timeResidual>
          <creationInfo>
            <agencyID>UW</agencyID>
            <creationTime>2012-02-28T10:54:57.000000Z</creationTime>
          </creationInfo>
        </arrival>
        <arrival publicID="quakeml:uw.anss.org/AssocArO/UW/4848723">
          <pickID>quakeml:uw.anss.org/Arrival/UW/4848723</pickID>
          <phase>P</phase>
          <azimuth>188.9</azimuth>
          <timeResidual>-0.07</timeResidual>
          <creationInfo>
            <agencyID>UW</agencyID>
            <creationTime>2012-02-28T10:54:57.000000Z</creationTime>
          </creationInfo>
        </arrival>
        <arrival publicID="quakeml:uw.anss.org/AssocArO/UW/4848728">
          <pickID>quakeml:uw.anss.org/Arrival/UW/4848728</pickID>
          <phase>P</phase>
          <azimuth>176.7</azimuth>
          <distance>1.004</distance>
          <timeResidual>0.35</timeResidual>
          <creationInfo>
            <agencyID>UW</agencyID>
            <creationTime>2012-02-28T10:54:57.000000Z</creationTime>
          </creationInfo>
        </arrival>
        <arrival publicID="quakeml:uw.anss.org/AssocArO/UW/4848733">
          <pickID>quakeml:uw.anss.org/Arrival/UW/4848733</pickID>
          <phase>P</phase>
          <azimuth>193.7</azimuth>
          <distance>0.7557</distance>
          <timeResidual>0.13</timeResidual>
          <creationInfo>
            <agencyID>UW</agencyID>
            <creationTime>2012-02-28T10:54:57.000000Z</creationTime>
          </creationInfo>
        </arrival>
        <arrival publicID="quakeml:uw.anss.org/AssocArO/UW/4848738">
          <pickID>quakeml:uw.anss.org/Arrival/UW/4848738</pickID>
          <phase>S</phase>
          <azimuth>193.7</azimuth>
          <distance>0.7557</distance>
          <timeResidual>1.58</timeResidual>
          <creationInfo>
            <agencyID>UW</agencyID>
            <creationTime>2012-02-28T10:54:57.000000Z</creationTime>
          </creationInfo>
        </arrival>
        <arrival publicID="quakeml:uw.anss.org/AssocArO/UW/4848743">
          <pickID>quakeml:uw.anss.org/Arrival/UW/4848743</pickID>
          <phase>P</phase>
          <azimuth>176.6</azimuth>
          <distance>2.317</distance>
          <timeResidual>0.4</timeResidual>
          <creationInfo>
            <agencyID>UW</agencyID>
            <creationTime>2012-02-28T10:54:57.000000Z</creationTime>
          </creationInfo>
        </arrival>
        <arrival publicID="quakeml:uw.anss.org/AssocArO/UW/4848748">
          <pickID>quakeml:uw.anss.org/Arrival/UW/4848748</pickID>
          <phase>S</phase>
          <azimuth>176.6</azimuth>
          <distance>2.317</distance>
          <timeResidual>-0.44</timeResidual>
          <creationInfo>
            <agencyID>UW</agencyID>
            <creationTime>2012-02-28T10:54:57.000000Z</creationTime>
          </creationInfo>
        </arrival>
        <arrival publicID="quakeml:uw.anss.org/AssocArO/UW/4848753">
          <pickID>quakeml:uw.anss.org/Arrival/UW/4848753</pickID>
          <phase>P</phase>
          <azimuth>134.5</azimuth>
          <distance>2.237</distance>
          <timeResidual>1.39</timeResidual>
          <creationInfo>
            <agencyID>UW</agencyID>
            <creationTime>2012-02-28T10:54:57.000000Z</creationTime>
          </creationInfo>
        </arrival>
