<?xml version='1.0' encoding='utf-8'?>
<q:quakeml xmlns="http://quakeml.org/xmlns/bed/1.2" xmlns:q="http://quakeml.org/xmlns/quakeml/1.2" xmlns:ns0="http://anss.org/xmlns/catalog/0.1">
  <eventParameters publicID="smi:local/b23a0bd8-083a-44bd-b32d-88ff1cc82bd2">
    <event publicID="quakeml:uw.anss.org/Event/UW/10318043" ns0:datasource="uw" ns0:dataid="uw10318043" ns0:eventsource="uw" ns0:eventid="10318043">
      <preferredOriginID>quakeml:uw.anss.org/Origin/UW/595448</preferredOriginID>
      <preferredMagnitudeID>quakeml:uw.anss.org/Netmag/UW/501318</preferredMagnitudeID>
      <type>earthquake</type>
      <creationInfo>
        <agencyID>UW</agencyID>
        <creationTime>2012-02-28T11:07:10.000000Z</creationTime>
        <version>3</version>
      </creationInfo>
      <origin publicID="quakeml:uw.anss.org/Origin/UW/595448" ns0:datasource="uw" ns0:dataid="uw10318043" ns0:eventsource="uw" ns0:eventid="10318043">
        <time>
          <value>1993-10-08T10:19:36.310000Z</value>
          <uncertainty>0.54</uncertainty>
        </time>
        <latitude>
          <value>48.8555</value>
          <uncertainty>4.64</uncertainty>
        </latitude>
        <longitude>
          <value>-122.0278333</value>
          <uncertainty>3.29</uncertainty>
        </longitude>
        <depth>
          <value>1387.0</value>
          <uncertainty>90190.0</uncertainty>
        </depth>
        <depthType>operator assigned</depthType>
        <timeFixed>false</timeFixed>
        <epicenterFixed>true</epicenterFixed>
        <methodID>smi:uw.anss.org/origin/spong</methodID>
        <quality>
          <associatedPhaseCount>31</associatedPhaseCount>
          <usedPhaseCount>12</usedPhaseCount>
          <associatedStationCount>23</associatedStationCount>
          <usedStationCount>0</usedStationCount>
          <standardError>0.49</standardError>
          <azimuthalGap>238.0</azimuthalGap>
        </quality>
        <type>hypocenter</type>
        <evaluationMode>manual</evaluationMode>
        <evaluationStatus>final</evaluationStatus>
        <creationInfo>
          <agencyID>UW</agencyID>
          <creationTime>2012-02-28T11:07:10.000000Z</creationTime>
        </creationInfo>
        <originUncertainty>
          <preferredDescription>horizontal uncertainty</preferredDescription>
          <horizontalUncertainty>5688.0</horizontalUncertainty>
        </originUncertainty>
        <arrival publicID="quakeml:uw.anss.org/AssocArO/UW/4960998">
          <pickID>quakeml:uw.anss.org/Arrival/UW/4960998</pickID>
          <phase>P</phase>
          <azimuth>209.9</azimuth>
          <distance>1.39</distance>
          <timeResidual>-0.28</timeResidual>
          <creationInfo>
            <agencyID>UW</agencyID>
            <creationTime>2012-02-28T11:07:10.000000Z</creationTime>
          </creationInfo>
        </arrival>
        <arrival publicID="quakeml:uw.anss.org/AssocArO/UW/4961008">
          <pickID>quakeml:uw.anss.org/Arrival/UW/4961008</pickID>
          <phase>S</phase>
          <azimuth>209.9</azimuth>
          <distance>1.39</distance>
          <timeResidual>-0.23</timeResidual>
          <creationInfo>
            <agencyID>UW</agencyID>
            <creationTime>2012-02-28T11:07:10.000000Z</creationTime>
          </creationInfo>
        </arrival>
        <arrival publicID="quakeml:uw.anss.org/AssocArO/UW/4961013">
          <pickID>quakeml:uw.anss.org/Arrival/UW/4961013</pickID>
          <phase>P</phase>
          <azimuth>124.4</azimuth>
          <distance>1.37</distance>
          <timeResidual>0.98</timeResidual>
          <creationInfo>
            <agencyID>UW</agencyID>
            <creationTime>2012-02-28T11:07:10.000000Z</creationTime>
          </creationInfo>
        </arrival>
        <arrival publicID="quakeml:uw.anss.org/AssocArO/UW/4961018">
          <pickID>quakeml:uw.anss.org/Arrival/UW/4961018</pickID>
          <phase>P</phase>
          <azimuth>137.3</azimuth>
          <distance>1.689</distance>
          <timeResidual>1.3</timeResidual>
          <creationInfo>
            <agencyID>UW</agencyID>
            <creationTime>2012-02-28T11:07:10.000000Z</creationTime>
          </creationInfo>
        </arrival>
        <arrival publicID="quakeml:uw.anss.org/AssocArO/UW/4961023">
          <pickID>quakeml:uw.anss.org/Arrival/UW/4961023</pickID>
          <phase>P</phase>
          <azimuth>188.1</azimuth>
          <distance>0.4367</distance>
          <timeResidual>-0.52</timeResidual>
          <creationInfo>
            <agencyID>UW</agencyID>
            <creationTime>2012-02-28T11:07:10.000000Z</creationTime>
          </creationInfo>
        </arrival>
        <arrival publicID="quakeml:uw.anss.org/AssocArO/UW/4961028">
          <pickID>quakeml:uw.anss.org/Arrival/UW/4961028</pickID>
          <phase>S</phase>
          <azimuth>188.1</azimuth>
          <distance>0.4367</distance>
          <timeResidual>-0.23</timeResidual>
          <creationInfo>
            <agencyID>UW</agencyID>
            <creationTime>2012-02-28T11:07:10.000000Z</creationTime>
          </creationInfo>
        </arrival>
        <arrival publicID="quakeml:uw.anss.org/AssocArO/UW/4961063">
          <pickID>quakeml:uw.anss.org/Arrival/UW/4961063</pickID>
          <phase>S</phase>
          <azimuth>174.5</azimuth>
          <timeResidual>-0.21</timeResidual>
          <creationInfo>
            <agencyID>UW</agencyID>
            <creationTime>2012-02-28T11:07:10.000000Z</creationTime>
          </creationInfo>
        </arrival>
        <arrival publicID="quakeml:uw.anss.org/AssocArO/UW/4961073">
          <pickID>quakeml:uw.anss.org/Arrival/UW/4961073</pickID>
          <phase>P</phase>
          <azimuth>178.9</azimuth>
          <distance>1.913</distance>
          <timeResidual>0.26</timeResidual>
          <creationInfo>
            <agencyID>UW</agencyID>
            <creationTime>2012-02-28T11:07:10.000000Z</creationTime>
          </creationInfo>
        </arrival>
        <arrival publicID="quakeml:uw.anss.org/AssocArO/UW/4961083">
          <pickID>quakeml:uw.anss.org/Arrival/UW/4961083</pickID>
          <phase>P</phase>
          <azimuth>173.9</azimuth>
          <distance>1.405</distance>
          <timeResidual>0.84</timeResidual>
          <creationInfo>
            <agencyID>UW</agencyID>
            <creationTime>2012-02-28T11:07:10.000000Z</creationTime>
          </creationInfo>
        </arrival>
        <arrival publicID="quakeml:uw.anss.org/AssocArO/UW/4961093">
          <pickID>quakeml:uw.anss.org/Arrival/UW/4961093</pickID>
          <phase>S</phase>
          <azimuth>173.9</azimuth>
          <distance>1.405</distance>
          <timeResidual>0.26</timeResidual>
          <creationInfo>
            <agencyID>UW</agencyID>
            <creationTime>2012-02-28T11:07:10.000000Z</creationTime>
          </creationInfo>
        </arrival>
        <arrival publicID="quakeml:uw.anss.org/AssocArO/UW/4961103">
          <pickID>quakeml:uw.anss.org/Arrival/UW/4961103</pickID>
          <phase>P</phase>
          <azimuth>140.0</azimuth>
          <distance>0.531</distance>
          <timeResidual>-0.36</timeResidual>
          <creationInfo>
            <agencyID>UW</agencyID>
            <creationTime>2012-02-28T11:07:10.000000Z</creationTime>
          </creationInfo>
        </arrival>
        <arrival publicID="quakeml:uw.anss.org/AssocArO/UW/4961163">
          <pickID>quakeml:uw.anss.org/Arrival/UW/4961163</pickID>
          <phase>S</phase>
          <azimuth>140.0</azimuth>
          <distance>0.531</distance>
          <timeResidual>-0.74</timeResidual>
          <creationInfo>
            <agencyID>UW</agencyID>
            <creationTime>2012-02-28T11:07:10.000000Z</creationTime>
          </creationInfo>
        </arrival>
        <arrival publicID="quakeml:uw.anss.org/AssocArO/UW/4961183">
          <pickID>quakeml:uw.anss.org/Arrival/UW/4961183</pickID>
          <phase>P</phase>
          <azimuth>171.1</azimuth>
          <distance>2.183</distance>
          <timeResidual>1.38</timeResidual>
          <creationInfo>
            <agencyID>UW</agencyID>
            <creationTime>2012-02-28T11:07:10.000000Z</creationTime>
          </creationInfo>
        </arrival>
        <arrival publicID="quakeml:uw.anss.org/AssocArO/UW/4961193">
          <pickID>quakeml:uw.anss.org/Arrival/UW/4961193</pickID>
          <phase>P</phase>
          <azimuth>200.4</azimuth>
          <distance>1.103</distance>
          <timeResidual>1.26</timeResidual>
          <creationInfo>
            <agencyID>UW</agencyID>
            <creationTime>2012-02-28T11:07:10.000000Z</creationTime>
          </creationInfo>
        </arrival>
        <arrival publicID="quakeml:uw.anss.org/AssocArO/UW/4961208">
          <pickID>quakeml:uw.anss.org/Arrival/UW/4961208</pickID>
          <phase>S</phase>
          <azimuth>212.3</azimuth>
          <distance>0.6296</distance>
          <timeResidual>0.43</timeResidual>
          <creationInfo>
            <agencyID>UW</agencyID>
            <creationTime>2012-02-28T11:07:10.000000Z</creationTime>
          </creationInfo>
        </arrival>
        <arrival publicID="quakeml:uw.anss.org/AssocArO/UW/4961218">
          <pickID>quakeml:uw.anss.org/Arrival/UW/4961218</pickID>
          <phase>P</phase>
          <azimuth>122.4</azimuth>
          <distance>2.1</distance>
          <timeResidual>2.56</timeResidual>
          <creationInfo>
            <agencyID>UW</agencyID>
            <creationTime>2012-02-28T11:07:10.000000Z</creationTime>
          </creationInfo>
        </arrival>
        <arrival publicID="quakeml:uw.anss.org/AssocArO/UW/4961228">
          <pickID>quakeml:uw.anss.org/Arrival/UW/4961228</pickID>
          <phase>P</phase>
          <azimuth>227.6</azimuth>
          <distance>1.528</distance>
          <timeResidual>1.75</timeResidual>
          <creationInfo>
            <agencyID>UW</agencyID>
            <creationTime>2012-02-28T11:07:10.000000Z</creationTime>
          </creationInfo>
        </arrival>
        <arrival publicID="quakeml:uw.anss.org/AssocArO/UW/4961238">
          <pickID>quakeml:uw.anss.org/Arrival/UW/4961238</pickID>
          <phase>P</phase>
          <azimuth>174.2</azimuth>
          <timeResidual>-0.06</timeResidual>
          <creationInfo>
            <agencyID>UW</agencyID>
            <creationTime>2012-02-28T11:07:10.000000Z</creationTime>
          </creationInfo>
        </arrival>
        <arrival publicID="quakeml:uw.anss.org/AssocArO/UW/4961248">
          <pickID>quakeml:uw.anss.org/Arrival/UW/4961248</pickID>
          <phase>S</phase>
          <azimuth>174.2</azimuth>
          <timeResidual>-0.01</timeResidual>
          <creationInfo>
            <agencyID>UW</agencyID>
            <creationTime>2012-02-28T11:07:10.000000Z</creationTime>
          </creationInfo>
        </arrival>
        <arrival publicID="quakeml:uw.anss.org/AssocArO/UW/4961268">
          <pickID>quakeml:uw.anss.org/Arrival/UW/4961268</pickID>
          <phase>P</phase>
          <azimuth>152.7</azimuth>
          <distance>2.181</distance>
          <timeResidual>1.54</timeResidual>
          <creationInfo>
            <agencyID>UW</agencyID>
            <creationTime>2012-02-28T11:07:10.000000Z</creationTime>
          </creationInfo>
        </arrival>
        <arrival publicID="quakeml:uw.anss.org/AssocArO/UW/4961278">
          <pickID>quakeml:uw.anss.org/Arrival/UW/4961278</pickID>
          <phase>P</phase>
          <azimuth>172.7</azimuth>
          <timeResidual>0.73</timeResidual>
          <creationInfo>
            <agencyID>UW</agencyID>
            <creationTime>2012-02-28T11:07:10.000000Z</creationTime>
          </creationInfo>
        </arrival>
        <arrival publicID="quakeml:uw.anss.org/AssocArO/UW/4961288">
          <pickID>quakeml:uw.anss.org/Arrival/UW/4961288</pickID>
          <phase>P</phase>
          <azimuth>237.7</azimuth>
          <timeResidual>-0.52</timeResidual>
          <creationInfo>
            <agencyID>UW</agencyID>
            <creationTime>2012-02-28T11:07:10.000000Z</creationTime>
          </creationInfo>
        </arrival>
        <arrival publicID="quakeml:uw.anss.org/AssocArO/UW/4961303">
          <pickID>quakeml:uw.anss.org/Arrival/UW/4961303</pickID>
          <phase>S</phase>
          <azimuth>237.7</azimuth>
          <timeResidual>-1.54</timeResidual>
          <creationInfo>
            <agencyID>UW</agencyID>
            <creationTime>2012-02-28T11:07:10.000000Z</creationTime>
          </creationInfo>
        </arrival>
        <arrival publicID="quakeml:uw.anss.org/AssocArO/UW/4961323">
          <pickID>quakeml:uw.anss.org/Arrival/UW/4961323</pickID>
          <phase>P</phase>
          <azimuth>129.2</azimuth>
          <distance>1.805</distance>
          <timeResidual>1.33</timeResidual>
          <creationInfo>
            <agencyID>UW</agencyID>
            <creationTime>2012-02-28T11:07:10.000000Z</creationTime>
          </creationInfo>
        </arrival>
        <arrival publicID="quakeml:uw.anss.org/AssocArO/UW/4961333">
          <pickID>quakeml:uw.anss.org/Arrival/UW/4961333</pickID>
          <phase>P</phase>
          <azimuth>130.6</azimuth>
          <distance>0.1104</distance>
          <timeResidual>0.0</timeResidual>
          <creationInfo>
            <agencyID>UW</agencyID>
            <creationTime>2012-02-28T11:07:10.000000Z</creationTime>
          </creationInfo>
        </arrival>
        <arrival publicID="quakeml:uw.anss.org/AssocArO/UW/4961343">
          <pickID>quakeml:uw.anss.org/Arrival/UW/4961343</pickID>
          <phase>S</phase>
          <azimuth>130.6</azimuth>
          <distance>0.1104</distance>
          <timeResidual>0.08</timeResidual>
          <creationInfo>
            <agencyID>UW</agencyID>
            <creationTime>2012-02-28T11:07:10.000000Z</creationTime>
          </creationInfo>
        </arrival>
        <arrival publicID="quakeml:uw.anss.org/AssocArO/UW/4961353">
          <pickID>quakeml:uw.anss.org/Arrival/UW/4961353</pickID>
          <phase>P</phase>
          <azimuth>170.6</azimuth>
          <distance>1.067</distance>
          <timeResidual>0.48</timeResidual>
          <creationInfo>
            <agencyID>UW</agencyID>
            <creationTime>2012-02-28T11:07:10.000000Z</creationTime>
          </creationInfo>
        </arrival>
        <arrival publicID="quakeml:uw.anss.org/AssocArO/UW/4961363">
          <pickID>quakeml:uw.anss.org/Arrival/UW/4961363</pickID>
          <phase>P</phase>
          <azimuth>127.8</azimuth>
          <distance>1.691</distance>
          <timeResidual>1.14</timeResidual>
          <creationInfo>
            <agencyID>UW</agencyID>
            <creationTime>2012-02-28T11:07:10.000000Z</creationTime>
          </creationInfo>
        </arrival>
        <arrival publicID="quakeml:uw.anss.org/AssocArO/UW/4961373">
          <pickID>quakeml:uw.anss.org/Arrival/UW/4961373</pickID>
          <phase>P</phase>
          <azimuth>232.8</azimuth>
          <distance>1.827</distance>
          <timeResidual>1.5</timeResidual>
          <creationInfo>
            <agencyID>UW</agencyID>
            <creationTime>2012-02-28T11:07:10.000000Z</creationTime>
          </creationInfo>
        </arrival>
        <arrival publicID="quakeml:uw.anss.org/AssocArO/UW/4961383">
          <pickID>quakeml:uw.anss.org/Arrival/UW/4961383</pickID>
          <phase>P</phase>
          <azimuth>251.9</azimuth>
          <distance>0.561</distance>
          <timeResidual>-0.31</timeResidual>
          <creationInfo>
            <agencyID>UW</agencyID>
            <creationTime>2012-02-28T11:07:10.000000Z</creationTime>
          </creationInfo>
        </arrival>
        <arrival publicID="quakeml:uw.anss.org/AssocArO/UW/4961388">
          <pickID>quakeml:uw.anss.org/Arrival/UW/4961388</pickID>
          <phase>S</phase>
          <azimuth>251.9</azimuth>
          <distance>0.561</distance>
          <timeResidual>-0.54</timeResidual>
          <creationInfo>
            <agencyID>UW</agencyID>
            <creationTime>2012-02-28T11:07:10.000000Z</creationTime>
          </creationInfo>
        </arrival>
      </origin>
      <magnitude publicID="quakeml:uw.anss.org/Netmag/UW/501318">
        <mag>
          <value>1.6</value>
          <uncertainty>0.09</uncertainty>
        </mag>
        <type>Md</type>
        <originID>quakeml:uw.anss.org/Origin/UW/595448</originID>
        <methodID>smi:uw.anss.org/magnitude/Crosson</methodID>
        <stationCount>8</stationCount>
        <evaluationMode>manual</evaluationMode>
        <evaluationStatus>final</evaluationStatus>
        <stationMagnitudeContribution>
          <stationMagnitudeID>quakeml:uw.anss.org/AssocCoM/UW/1295703</stationMagnitudeID>
          <weight>1.0</weight>
          <residual>0.06</residual>
        </stationMagnitudeContribution>
        <stationMagnitudeContribution>
          <stationMagnitudeID>quakeml:uw.anss.org/AssocCoM/UW/1295768</stationMagnitudeID>
          <weight>1.0</weight>
          <residual>0.06</residual>
        </stationMagnitudeContribution>
        <stationMagnitudeContribution>
          <stationMagnitudeID>quakeml:uw.anss.org/AssocCoM/UW/1295773</stationMagnitudeID>
          <weight>1.0</weight>
          <residual>0.02</residual>
        </stationMagnitudeContribution>
        <stationMagnitudeContribution>
          <stationMagnitudeID>quakeml:uw.anss.org/AssocCoM/UW/1295758</stationMagnitudeID>
          <weight>1.0</weight>
          <residual>-0.02</residual>
        </stationMagnitudeContribution>
        <stationMagnitudeContribution>
          <stationMagnitudeID>quakeml:uw.anss.org/AssocCoM/UW/1295788</stationMagnitudeID>
          <weight>1.0</weight>
          <residual>-0.22</residual>
        </stationMagnitudeContribution>
        <stationMagnitudeContribution>
          <stationMagnitudeID>quakeml:uw.anss.org/AssocCoM/UW/1295748</stationMagnitudeID>
          <weight>1.0</weight>
          <residual>0.06</residual>
        </stationMagnitudeContribution>
        <stationMagnitudeContribution>
          <stationMagnitudeID>quakeml:uw.anss.org/AssocCoM/UW/1295698</stationMagnitudeID>
          <weight>1.0</weight>
          <residual>0.06</residual>
        </stationMagnitudeContribution>
        <stationMagnitudeContribution>
          <stationMagnitudeID>quakeml:uw.anss.org/AssocCoM/UW/1295738</stationMagnitudeID>
          <weight>1.0</weight>
          <residual>-0.17</residual>
        </stationMagnitudeContribution>
        <creationInfo>
          <agencyID>UW</agencyID>
          <creationTime>2012-02-28T11:07:10.000000Z</creationTime>
        </creationInfo>
      </magnitude>
      <stationMagnitude publicID="quakeml:uw.anss.org/AssocCoM/UW/1295698">
        <originID>quakeml:uw.anss.org/Origin/UW/595448</originID>
        <mag>
          <value>1.66</value>
        </mag>
        <type>MD</type>
        <amplitudeID>quakeml:uw.anss.org/Coda/UW/1295698</amplitudeID>
        <waveformID networkCode="UW" stationCode="HDW" locationCode="" channelCode="EHZ"></waveformID>
      </stationMagnitude>
      <stationMagnitude publicID="quakeml:uw.anss.org/AssocCoM/UW/1295703">
        <originID>quakeml:uw.anss.org/Origin/UW/595448</originID>
        <mag>
          <value>1.66</value>
        </mag>
        <type>MD</type>
        <amplitudeID>quakeml:uw.anss.org/Coda/UW/1295703</amplitudeID>
        <waveformID networkCode="UW" stationCode="CMW" locationCode="" channelCode="EHZ"></waveformID>
      </stationMagnitude>
      <stationMagnitude publicID="quakeml:uw.anss.org/AssocCoM/UW/1295738">
        <originID>quakeml:uw.anss.org/Origin/UW/595448</originID>
        <mag>
          <value>1.43</value>
        </mag>
        <type>MD</type>
        <amplitudeID>quakeml:uw.anss.org/Coda/UW/1295738</amplitudeID>
