<?xml version='1.0' encoding='utf-8'?>
<q:quakeml xmlns="http://quakeml.org/xmlns/bed/1.2" xmlns:q="http://quakeml.org/xmlns/quakeml/1.2" xmlns:ns0="http://anss.org/xmlns/catalog/0.1">
  <eventParameters publicID="smi:local/740fab82-f2b9-4ced-8305-767ceee0e97a">
    <event publicID="quakeml:uw.anss.org/Event/UW/10756458" ns0:datasource="uw" ns0:dataid="uw10756458" ns0:eventsource="uw" ns0:eventid="10756458">
      <preferredOriginID>quakeml:uw.anss.org/Origin/UW/1039388</preferredOriginID>
      <preferredMagnitudeID>quakeml:uw.anss.org/Netmag/UW/2531823</preferredMagnitudeID>
      <type>earthquake</type>
      <creationInfo>
        <agencyID>UW</agencyID>
        <creationTime>2016-11-30T23:35:30.000000Z</creationTime>
        <version>4</version>
      </creationInfo>
      <origin publicID="quakeml:uw.anss.org/Origin/UW/1039388" ns0:datasource="uw" ns0:dataid="uw10756458" ns0:eventsource="uw" ns0:eventid="10756458">
        <time>
          <value>2009-01-12T02:35:45.070000Z</value>
          <uncertainty>0.02</uncertainty>
        </time>
        <latitude>
          <value>48.5871667</value>
          <uncertainty>0.08</uncertainty>
        </latitude>
        <longitude>
          <value>-122.0386667</value>
          <uncertainty>0.07</uncertainty>
        </longitude>
        <depth>
          <value>-583.0</value>
          <uncertainty>200.0</uncertainty>
        </depth>
        <depthType>operator assigned</depthType>
        <timeFixed>false</timeFixed>
        <epicenterFixed>false</epicenterFixed>
        <methodID>smi:uw.anss.org/origin/spong</methodID>
        <quality>
          <associatedPhaseCount>19</associatedPhaseCount>
          <usedPhaseCount>15</usedPhaseCount>
          <associatedStationCount>18</associatedStationCount>
          <usedStationCount>0</usedStationCount>
          <standardError>0.31</standardError>
          <azimuthalGap>116.0</azimuthalGap>
        </quality>
        <type>hypocenter</type>
        <evaluationMode>manual</evaluationMode>
        <evaluationStatus>final</evaluationStatus>
        <creationInfo>
          <agencyID>UW</agencyID>
          <creationTime>2012-03-06T14:04:27.000000Z</creationTime>
        </creationInfo>
        <originUncertainty>
          <preferredDescription>horizontal uncertainty</preferredDescription>
          <horizontalUncertainty>106.0</horizontalUncertainty>
        </originUncertainty>
        <arrival publicID="quakeml:uw.anss.org/AssocArO/UW/9725323">
          <pickID>quakeml:uw.anss.org/Arrival/UW/9725323</pickID>
          <phase>P</phase>
          <azimuth>216.2</azimuth>
          <distance>1.161</distance>
          <timeResidual>-0.04</timeResidual>
          <creationInfo>
            <agencyID>UW</agencyID>
            <creationTime>2012-03-06T14:04:27.000000Z</creationTime>
          </creationInfo>
        </arrival>
        <arrival publicID="quakeml:uw.anss.org/AssocArO/UW/9725328">
          <pickID>quakeml:uw.anss.org/Arrival/UW/9725328</pickID>
          <phase>P</phase>
          <azimuth>155.8</azimuth>
          <distance>2.029</distance>
          <timeResidual>0.75</timeResidual>
          <creationInfo>
            <agencyID>UW</agencyID>
            <creationTime>2012-03-06T14:04:27.000000Z</creationTime>
          </creationInfo>
        </arrival>
        <arrival publicID="quakeml:uw.anss.org/AssocArO/UW/9725333">
          <pickID>quakeml:uw.anss.org/Arrival/UW/9725333</pickID>
          <phase>P</phase>
          <azimuth>182.4</azimuth>
          <distance>0.3516</distance>
          <timeResidual>0.17</timeResidual>
          <creationInfo>
            <agencyID>UW</agencyID>
            <creationTime>2012-03-06T14:04:27.000000Z</creationTime>
          </creationInfo>
        </arrival>
        <arrival publicID="quakeml:uw.anss.org/AssocArO/UW/9725338">
          <pickID>quakeml:uw.anss.org/Arrival/UW/9725338</pickID>
          <phase>P</phase>
          <azimuth>169.3</azimuth>
          <timeResidual>0.05</timeResidual>
          <creationInfo>
            <agencyID>UW</agencyID>
            <creationTime>2012-03-06T14:04:27.000000Z</creationTime>
          </creationInfo>
        </arrival>
        <arrival publicID="quakeml:uw.anss.org/AssocArO/UW/9725343">
          <pickID>quakeml:uw.anss.org/Arrival/UW/9725343</pickID>
          <phase>P</phase>
          <azimuth>148.9</azimuth>
          <distance>1.95</distance>
          <timeResidual>0.86</timeResidual>
          <creationInfo>
            <agencyID>UW</agencyID>
            <creationTime>2012-03-06T14:04:27.000000Z</creationTime>
          </creationInfo>
        </arrival>
        <arrival publicID="quakeml:uw.anss.org/AssocArO/UW/9725348">
          <pickID>quakeml:uw.anss.org/Arrival/UW/9725348</pickID>
          <phase>P</phase>
          <azimuth>111.6</azimuth>
          <distance>0.375</distance>
          <timeResidual>-0.08</timeResidual>
          <creationInfo>
            <agencyID>UW</agencyID>
            <creationTime>2012-03-06T14:04:27.000000Z</creationTime>
          </creationInfo>
        </arrival>
        <arrival publicID="quakeml:uw.anss.org/AssocArO/UW/9725353">
          <pickID>quakeml:uw.anss.org/Arrival/UW/9725353</pickID>
          <phase>S</phase>
          <azimuth>111.6</azimuth>
          <distance>0.375</distance>
          <timeResidual>-0.02</timeResidual>
          <creationInfo>
            <agencyID>UW</agencyID>
            <creationTime>2012-03-06T14:04:27.000000Z</creationTime>
          </creationInfo>
        </arrival>
        <arrival publicID="quakeml:uw.anss.org/AssocArO/UW/9725358">
          <pickID>quakeml:uw.anss.org/Arrival/UW/9725358</pickID>
          <phase>P</phase>
          <azimuth>217.3</azimuth>
          <distance>0.9699</distance>
          <timeResidual>0.17</timeResidual>
          <creationInfo>
            <agencyID>UW</agencyID>
            <creationTime>2012-03-06T14:04:27.000000Z</creationTime>
          </creationInfo>
        </arrival>
        <arrival publicID="quakeml:uw.anss.org/AssocArO/UW/9725363">
          <pickID>quakeml:uw.anss.org/Arrival/UW/9725363</pickID>
          <phase>P</phase>
          <azimuth>306.1</azimuth>
          <distance>0.309</distance>
          <timeResidual>0.33</timeResidual>
          <creationInfo>
            <agencyID>UW</agencyID>
            <creationTime>2012-03-06T14:04:27.000000Z</creationTime>
          </creationInfo>
        </arrival>
        <arrival publicID="quakeml:uw.anss.org/AssocArO/UW/9725368">
          <pickID>quakeml:uw.anss.org/Arrival/UW/9725368</pickID>
          <phase>P</phase>
          <azimuth>274.4</azimuth>
          <distance>0.9374</distance>
          <timeResidual>-0.23</timeResidual>
          <creationInfo>
            <agencyID>UW</agencyID>
            <creationTime>2012-03-06T14:04:27.000000Z</creationTime>
          </creationInfo>
        </arrival>
        <arrival publicID="quakeml:uw.anss.org/AssocArO/UW/9725373">
          <pickID>quakeml:uw.anss.org/Arrival/UW/9725373</pickID>
          <phase>P</phase>
          <azimuth>217.2</azimuth>
          <distance>0.9699</distance>
          <timeResidual>0.04</timeResidual>
          <creationInfo>
            <agencyID>UW</agencyID>
            <creationTime>2012-03-06T14:04:27.000000Z</creationTime>
          </creationInfo>
        </arrival>
        <arrival publicID="quakeml:uw.anss.org/AssocArO/UW/9725378">
          <pickID>quakeml:uw.anss.org/Arrival/UW/9725378</pickID>
          <phase>P</phase>
          <azimuth>167.0</azimuth>
          <distance>0.8045</distance>
          <timeResidual>0.18</timeResidual>
          <creationInfo>
            <agencyID>UW</agencyID>
            <creationTime>2012-03-06T14:04:27.000000Z</creationTime>
          </creationInfo>
        </arrival>
        <arrival publicID="quakeml:uw.anss.org/AssocArO/UW/9725383">
          <pickID>quakeml:uw.anss.org/Arrival/UW/9725383</pickID>
          <phase>P</phase>
          <azimuth>119.7</azimuth>
          <distance>1.548</distance>
          <timeResidual>1.25</timeResidual>
          <creationInfo>
            <agencyID>UW</agencyID>
            <creationTime>2012-03-06T14:04:27.000000Z</creationTime>
          </creationInfo>
        </arrival>
        <arrival publicID="quakeml:uw.anss.org/AssocArO/UW/9725388">
          <pickID>quakeml:uw.anss.org/Arrival/UW/9725388</pickID>
          <phase>P</phase>
          <azimuth>354.5</azimuth>
          <distance>0.4414</distance>
          <timeResidual>-0.29</timeResidual>
          <creationInfo>
            <agencyID>UW</agencyID>
            <creationTime>2012-03-06T14:04:27.000000Z</creationTime>
          </creationInfo>
        </arrival>
        <arrival publicID="quakeml:uw.anss.org/AssocArO/UW/9725393">
          <pickID>quakeml:uw.anss.org/Arrival/UW/9725393</pickID>
          <phase>P</phase>
          <azimuth>355.8</azimuth>
          <distance>0.4126</distance>
          <timeResidual>-0.1</timeResidual>
          <creationInfo>
            <agencyID>UW</agencyID>
            <creationTime>2012-03-06T14:04:27.000000Z</creationTime>
          </creationInfo>
        </arrival>
        <arrival publicID="quakeml:uw.anss.org/AssocArO/UW/9725398">
          <pickID>quakeml:uw.anss.org/Arrival/UW/9725398</pickID>
          <phase>P</phase>
          <azimuth>198.3</azimuth>
          <distance>0.1725</distance>
          <timeResidual>-0.29</timeResidual>
          <creationInfo>
            <agencyID>UW</agencyID>
            <creationTime>2012-03-06T14:04:27.000000Z</creationTime>
          </creationInfo>
        </arrival>
        <arrival publicID="quakeml:uw.anss.org/AssocArO/UW/9725403">
          <pickID>quakeml:uw.anss.org/Arrival/UW/9725403</pickID>
          <phase>P</phase>
          <azimuth>227.3</azimuth>
          <distance>0.8523</distance>
          <timeResidual>0.67</timeResidual>
          <creationInfo>
            <agencyID>UW</agencyID>
            <creationTime>2012-03-06T14:04:27.000000Z</creationTime>
          </creationInfo>
        </arrival>
        <arrival publicID="quakeml:uw.anss.org/AssocArO/UW/9725408">
          <pickID>quakeml:uw.anss.org/Arrival/UW/9725408</pickID>
          <phase>P</phase>
          <azimuth>127.8</azimuth>
          <distance>0.7626</distance>
          <timeResidual>0.75</timeResidual>
          <creationInfo>
            <agencyID>UW</agencyID>
            <creationTime>2012-03-06T14:04:27.000000Z</creationTime>
          </creationInfo>
        </arrival>
        <arrival publicID="quakeml:uw.anss.org/AssocArO/UW/9725413">
          <pickID>quakeml:uw.anss.org/Arrival/UW/9725413</pickID>
          <phase>P</phase>
          <azimuth>171.3</azimuth>
          <timeResidual>0.23</timeResidual>
          <creationInfo>
            <agencyID>UW</agencyID>
            <creationTime>2012-03-06T14:04:27.000000Z</creationTime>
          </creationInfo>
        </arrival>
      </origin>
      <magnitude publicID="quakeml:uw.anss.org/Netmag/UW/2531823">
        <mag>
          <value>1.71</value>
          <uncertainty>0.129</uncertainty>
        </mag>
        <type>Ml</type>
        <originID>quakeml:uw.anss.org/Origin/UW/1039388</originID>
        <methodID>smi:uw.anss.org/magnitude/RichterMl2</methodID>
        <stationCount>13</stationCount>
        <azimuthalGap>115.9</azimuthalGap>
        <evaluationMode>automatic</evaluationMode>
        <evaluationStatus>preliminary</evaluationStatus>
        <stationMagnitudeContribution>
          <stationMagnitudeID>quakeml:uw.anss.org/AssocAmM/UW/9358268</stationMagnitudeID>
          <weight>0.0</weight>
          <residual>-0.71</residual>
        </stationMagnitudeContribution>
        <stationMagnitudeContribution>
          <stationMagnitudeID>quakeml:uw.anss.org/AssocAmM/UW/9358313</stationMagnitudeID>
          <weight>1.0</weight>
          <residual>0.44</residual>
        </stationMagnitudeContribution>
        <stationMagnitudeContribution>
          <stationMagnitudeID>quakeml:uw.anss.org/AssocAmM/UW/9358248</stationMagnitudeID>
          <weight>1.0</weight>
          <residual>0.1</residual>
        </stationMagnitudeContribution>
        <stationMagnitudeContribution>
          <stationMagnitudeID>quakeml:uw.anss.org/AssocAmM/UW/9358308</stationMagnitudeID>
          <weight>1.0</weight>
          <residual>-0.2</residual>
        </stationMagnitudeContribution>
        <stationMagnitudeContribution>
          <stationMagnitudeID>quakeml:uw.anss.org/AssocAmM/UW/9358333</stationMagnitudeID>
          <weight>1.0</weight>
          <residual>0.48</residual>
        </stationMagnitudeContribution>
        <stationMagnitudeContribution>
          <stationMagnitudeID>quakeml:uw.anss.org/AssocAmM/UW/9358323</stationMagnitudeID>
          <weight>1.0</weight>
          <residual>0.62</residual>
        </stationMagnitudeContribution>
        <stationMagnitudeContribution>
          <stationMagnitudeID>quakeml:uw.anss.org/AssocAmM/UW/9358283</stationMagnitudeID>
          <weight>1.0</weight>
          <residual>0.0</residual>
        </stationMagnitudeContribution>
        <stationMagnitudeContribution>
          <stationMagnitudeID>quakeml:uw.anss.org/AssocAmM/UW/9358258</stationMagnitudeID>
          <weight>1.0</weight>
          <residual>-0.1</residual>
        </stationMagnitudeContribution>
        <stationMagnitudeContribution>
          <stationMagnitudeID>quakeml:uw.anss.org/AssocAmM/UW/9358328</stationMagnitudeID>
          <weight>1.0</weight>
          <residual>0.63</residual>
        </stationMagnitudeContribution>
        <stationMagnitudeContribution>
          <stationMagnitudeID>quakeml:uw.anss.org/AssocAmM/UW/9358288</stationMagnitudeID>
          <weight>1.0</weight>
          <residual>-0.02</residual>
        </stationMagnitudeContribution>
        <stationMagnitudeContribution>
          <stationMagnitudeID>quakeml:uw.anss.org/AssocAmM/UW/9358293</stationMagnitudeID>
          <weight>1.0</weight>
          <residual>-0.12</residual>
        </stationMagnitudeContribution>
        <stationMagnitudeContribution>
          <stationMagnitudeID>quakeml:uw.anss.org/AssocAmM/UW/9358298</stationMagnitudeID>
          <weight>1.0</weight>
          <residual>-0.2</residual>
        </stationMagnitudeContribution>
        <stationMagnitudeContribution>
          <stationMagnitudeID>quakeml:uw.anss.org/AssocAmM/UW/9358303</stationMagnitudeID>
          <weight>1.0</weight>
          <residual>-0.25</residual>
        </stationMagnitudeContribution>
        <stationMagnitudeContribution>
          <stationMagnitudeID>quakeml:uw.anss.org/AssocAmM/UW/9358318</stationMagnitudeID>
          <weight>1.0</weight>
          <residual>-0.04</residual>
        </stationMagnitudeContribution>
        <stationMagnitudeContribution>
          <stationMagnitudeID>quakeml:uw.anss.org/AssocAmM/UW/9358273</stationMagnitudeID>
          <weight>1.0</weight>
          <residual>0.09</residual>
        </stationMagnitudeContribution>
        <stationMagnitudeContribution>
          <stationMagnitudeID>quakeml:uw.anss.org/AssocAmM/UW/9358278</stationMagnitudeID>
          <weight>1.0</weight>
          <residual>0.12</residual>
        </stationMagnitudeContribution>
        <stationMagnitudeContribution>
          <stationMagnitudeID>quakeml:uw.anss.org/AssocAmM/UW/9358263</stationMagnitudeID>
          <weight>1.0</weight>
          <residual>-0.31</residual>
        </stationMagnitudeContribution>
        <stationMagnitudeContribution>
          <stationMagnitudeID>quakeml:uw.anss.org/AssocAmM/UW/9358253</stationMagnitudeID>
          <weight>1.0</weight>
          <residual>0.13</residual>
        </stationMagnitudeContribution>
        <creationInfo>
          <agencyID>UW</agencyID>
          <creationTime>2016-11-30T23:35:30.000000Z</creationTime>
        </creationInfo>
      </magnitude>
      <stationMagnitude publicID="quakeml:uw.anss.org/AssocAmM/UW/9358248">
        <originID>quakeml:uw.anss.org/Origin/UW/1039388</originID>
        <mag>
          <value>1.81</value>
        </mag>
        <type>ML</type>
        <amplitudeID>quakeml:uw.anss.org/Amp/UW/9358248</amplitudeID>
        <waveformID networkCode="UW" stationCode="RPW" locationCode="" channelCode="EHZ"></waveformID>
      </stationMagnitude>
      <stationMagnitude publicID="quakeml:uw.anss.org/AssocAmM/UW/9358253">
        <originID>quakeml:uw.anss.org/Origin/UW/1039388</originID>
        <mag>
          <value>1.84</value>
        </mag>
        <type>ML</type>
        <amplitudeID>quakeml:uw.anss.org/Amp/UW/9358253</amplitudeID>
        <waveformID networkCode="UW" stationCode="JCW" locationCode="" channelCode="EHZ"></waveformID>
      </stationMagnitude>
      <stationMagnitude publicID="quakeml:uw.anss.org/AssocAmM/UW/9358258">
        <originID>quakeml:uw.anss.org/Origin/UW/1039388</originID>
        <mag>
          <value>1.61</value>
        </mag>
        <type>ML</type>
        <amplitudeID>quakeml:uw.anss.org/Amp/UW/9358258</amplitudeID>
        <waveformID networkCode="UW" stationCode="PASS" locationCode="" channelCode="BHN"></waveformID>
      </stationMagnitude>
      <stationMagnitude publicID="quakeml:uw.anss.org/AssocAmM/UW/9358263">
        <originID>quakeml:uw.anss.org/Origin/UW/1039388</originID>
        <mag>
          <value>1.4</value>
        </mag>
        <type>ML</type>
        <amplitudeID>quakeml:uw.anss.org/Amp/UW/9358263</amplitudeID>
        <waveformID networkCode="UW" stationCode="PASS" locationCode="" channelCode="BHE"></waveformID>
      </stationMagnitude>
      <stationMagnitude publicID="quakeml:uw.anss.org/AssocAmM/UW/9358268">
        <originID>quakeml:uw.anss.org/Origin/UW/1039388</originID>
        <mag>
          <value>1.0</value>
        </mag>
        <type>ML</type>
        <amplitudeID>quakeml:uw.anss.org/Amp/UW/9358268</amplitudeID>
        <waveformID networkCode="CN" stationCode="VDB" locationCode="" channelCode="EHZ"></waveformID>
      </stationMagnitude>
      <stationMagnitude publicID="quakeml:uw.anss.org/AssocAmM/UW/9358273">
        <originID>quakeml:uw.anss.org/Origin/UW/1039388</originID>
        <mag>
          <value>1.8</value>
        </mag>
        <type>ML</type>
        <amplitudeID>quakeml:uw.anss.org/Amp/UW/9358273</amplitudeID>
        <waveformID networkCode="UW" stationCode="GPW" locationCode="" channelCode="EHZ"></waveformID>
      </stationMagnitude>
      <stationMagnitude publicID="quakeml:uw.anss.org/AssocAmM/UW/9358278">
        <originID>quakeml:uw.anss.org/Origin/UW/1039388</originID>
        <mag>
          <value>1.83</value>
        </mag>
        <type>ML</type>
        <amplitudeID>quakeml:uw.anss.org/Amp/UW/9358278</amplitudeID>
        <waveformID networkCode="UW" stationCode="HTW" locationCode="" channelCode="EHZ"></waveformID>
      </stationMagnitude>
      <stationMagnitude publicID="quakeml:uw.anss.org/AssocAmM/UW/9358283">
        <originID>quakeml:uw.anss.org/Origin/UW/1039388</originID>
        <mag>
          <value>1.71</value>
        </mag>
        <type>ML</type>
        <amplitudeID>quakeml:uw.anss.org/Amp/UW/9358283</amplitudeID>
        <waveformID networkCode="PB" stationCode="B011" locationCode="" channelCode="EH1"></waveformID>
      </stationMagnitude>
      <stationMagnitude publicID="quakeml:uw.anss.org/AssocAmM/UW/9358288">
        <originID>quakeml:uw.anss.org/Origin/UW/1039388</originID>
        <mag>
          <value>1.69</value>
        </mag>
        <type>ML</type>
        <amplitudeID>quakeml:uw.anss.org/Amp/UW/9358288</amplitudeID>
        <waveformID networkCode="PB" stationCode="B011" locationCode="" channelCode="EH2"></waveformID>
      </stationMagnitude>
      <stationMagnitude publicID="quakeml:uw.anss.org/AssocAmM/UW/9358293">
        <originID>quakeml:uw.anss.org/Origin/UW/1039388</originID>
        <mag>
          <value>1.59</value>
        </mag>
        <type>ML</type>
