<?xml version='1.0' encoding='utf-8'?>
<q:quakeml xmlns="http://quakeml.org/xmlns/bed/1.2" xmlns:q="http://quakeml.org/xmlns/quakeml/1.2" xmlns:ns0="http://anss.org/xmlns/catalog/0.1">
  <eventParameters publicID="smi:local/b073cb34-d9b0-49b2-9139-ca9b8cb31b95">
    <event publicID="quakeml:uw.anss.org/Event/UW/10780698" ns0:datasource="uw" ns0:dataid="uw10780698" ns0:eventsource="uw" ns0:eventid="10780698">
      <preferredOriginID>quakeml:uw.anss.org/Origin/UW/1065003</preferredOriginID>
      <preferredMagnitudeID>quakeml:uw.anss.org/Netmag/UW/2542883</preferredMagnitudeID>
      <type>earthquake</type>
      <creationInfo>
        <agencyID>UW</agencyID>
        <creationTime>2016-12-01T01:51:47.000000Z</creationTime>
        <version>4</version>
      </creationInfo>
      <origin publicID="quakeml:uw.anss.org/Origin/UW/1065003" ns0:datasource="uw" ns0:dataid="uw10780698" ns0:eventsource="uw" ns0:eventid="10780698">
        <time>
          <value>2009-09-13T19:18:20.150000Z</value>
          <uncertainty>0.99</uncertainty>
        </time>
        <latitude>
          <value>48.6061667</value>
          <uncertainty>0.56</uncertainty>
        </latitude>
        <longitude>
          <value>-122.0433333</value>
          <uncertainty>0.42</uncertainty>
        </longitude>
        <depth>
          <value>3209.0</value>
          <uncertainty>8310.0</uncertainty>
        </depth>
        <depthType>operator assigned</depthType>
        <timeFixed>false</timeFixed>
        <epicenterFixed>true</epicenterFixed>
        <methodID>smi:uw.anss.org/origin/spong</methodID>
        <quality>
          <associatedPhaseCount>35</associatedPhaseCount>
          <usedPhaseCount>34</usedPhaseCount>
          <associatedStationCount>29</associatedStationCount>
          <usedStationCount>0</usedStationCount>
          <standardError>0.36</standardError>
          <azimuthalGap>75.0</azimuthalGap>
        </quality>
        <type>hypocenter</type>
        <evaluationMode>manual</evaluationMode>
        <evaluationStatus>final</evaluationStatus>
        <creationInfo>
          <agencyID>UW</agencyID>
          <creationTime>2012-03-07T17:43:56.000000Z</creationTime>
        </creationInfo>
        <originUncertainty>
          <preferredDescription>horizontal uncertainty</preferredDescription>
          <horizontalUncertainty>700.0</horizontalUncertainty>
        </originUncertainty>
        <arrival publicID="quakeml:uw.anss.org/AssocArO/UW/9986923">
          <pickID>quakeml:uw.anss.org/Arrival/UW/9986923</pickID>
          <phase>P</phase>
          <azimuth>215.6</azimuth>
          <distance>1.174</distance>
          <timeResidual>-0.3</timeResidual>
          <creationInfo>
            <agencyID>UW</agencyID>
            <creationTime>2012-03-07T17:43:56.000000Z</creationTime>
          </creationInfo>
        </arrival>
        <arrival publicID="quakeml:uw.anss.org/AssocArO/UW/9986928">
          <pickID>quakeml:uw.anss.org/Arrival/UW/9986928</pickID>
          <phase>P</phase>
          <azimuth>303.5</azimuth>
          <distance>0.2956</distance>
          <timeResidual>0.37</timeResidual>
          <creationInfo>
            <agencyID>UW</agencyID>
            <creationTime>2012-03-07T17:43:56.000000Z</creationTime>
          </creationInfo>
        </arrival>
        <arrival publicID="quakeml:uw.anss.org/AssocArO/UW/9986933">
          <pickID>quakeml:uw.anss.org/Arrival/UW/9986933</pickID>
          <phase>S</phase>
          <azimuth>273.2</azimuth>
          <distance>0.933</distance>
          <timeResidual>-1.5</timeResidual>
          <creationInfo>
            <agencyID>UW</agencyID>
            <creationTime>2012-03-07T17:43:56.000000Z</creationTime>
          </creationInfo>
        </arrival>
        <arrival publicID="quakeml:uw.anss.org/AssocArO/UW/9986938">
          <pickID>quakeml:uw.anss.org/Arrival/UW/9986938</pickID>
          <phase>P</phase>
          <azimuth>273.2</azimuth>
          <distance>0.933</distance>
          <timeResidual>-0.46</timeResidual>
          <creationInfo>
            <agencyID>UW</agencyID>
            <creationTime>2012-03-07T17:43:56.000000Z</creationTime>
          </creationInfo>
        </arrival>
        <arrival publicID="quakeml:uw.anss.org/AssocArO/UW/9986943">
          <pickID>quakeml:uw.anss.org/Arrival/UW/9986943</pickID>
          <phase>P</phase>
          <azimuth>173.0</azimuth>
          <distance>1.749</distance>
          <timeResidual>0.26</timeResidual>
          <creationInfo>
            <agencyID>UW</agencyID>
            <creationTime>2012-03-07T17:43:56.000000Z</creationTime>
          </creationInfo>
        </arrival>
        <arrival publicID="quakeml:uw.anss.org/AssocArO/UW/9986948">
          <pickID>quakeml:uw.anss.org/Arrival/UW/9986948</pickID>
          <phase>P</phase>
          <azimuth>232.5</azimuth>
          <distance>0.9192</distance>
          <timeResidual>0.47</timeResidual>
          <creationInfo>
            <agencyID>UW</agencyID>
            <creationTime>2012-03-07T17:43:56.000000Z</creationTime>
          </creationInfo>
        </arrival>
        <arrival publicID="quakeml:uw.anss.org/AssocArO/UW/9986953">
          <pickID>quakeml:uw.anss.org/Arrival/UW/9986953</pickID>
          <phase>S</phase>
          <azimuth>232.5</azimuth>
          <distance>0.9192</distance>
          <timeResidual>0.48</timeResidual>
          <creationInfo>
            <agencyID>UW</agencyID>
            <creationTime>2012-03-07T17:43:56.000000Z</creationTime>
          </creationInfo>
        </arrival>
        <arrival publicID="quakeml:uw.anss.org/AssocArO/UW/9986958">
          <pickID>quakeml:uw.anss.org/Arrival/UW/9986958</pickID>
          <phase>P</phase>
          <azimuth>195.6</azimuth>
          <distance>0.1898</distance>
          <timeResidual>-0.49</timeResidual>
          <creationInfo>
            <agencyID>UW</agencyID>
            <creationTime>2012-03-07T17:43:56.000000Z</creationTime>
          </creationInfo>
        </arrival>
        <arrival publicID="quakeml:uw.anss.org/AssocArO/UW/9986963">
          <pickID>quakeml:uw.anss.org/Arrival/UW/9986963</pickID>
          <phase>S</phase>
          <azimuth>195.6</azimuth>
          <distance>0.1898</distance>
          <timeResidual>-0.29</timeResidual>
          <creationInfo>
            <agencyID>UW</agencyID>
            <creationTime>2012-03-07T17:43:56.000000Z</creationTime>
          </creationInfo>
        </arrival>
        <arrival publicID="quakeml:uw.anss.org/AssocArO/UW/9986968">
          <pickID>quakeml:uw.anss.org/Arrival/UW/9986968</pickID>
          <phase>P</phase>
          <azimuth>356.0</azimuth>
          <distance>0.3934</distance>
          <timeResidual>-0.07</timeResidual>
          <creationInfo>
            <agencyID>UW</agencyID>
            <creationTime>2012-03-07T17:43:56.000000Z</creationTime>
          </creationInfo>
        </arrival>
        <arrival publicID="quakeml:uw.anss.org/AssocArO/UW/9986973">
          <pickID>quakeml:uw.anss.org/Arrival/UW/9986973</pickID>
          <phase>S</phase>
          <azimuth>356.0</azimuth>
          <distance>0.3934</distance>
          <timeResidual>0.08</timeResidual>
          <creationInfo>
            <agencyID>UW</agencyID>
            <creationTime>2012-03-07T17:43:56.000000Z</creationTime>
          </creationInfo>
        </arrival>
        <arrival publicID="quakeml:uw.anss.org/AssocArO/UW/9986978">
          <pickID>quakeml:uw.anss.org/Arrival/UW/9986978</pickID>
          <phase>P</phase>
          <azimuth>173.2</azimuth>
          <timeResidual>0.0</timeResidual>
          <creationInfo>
            <agencyID>UW</agencyID>
            <creationTime>2012-03-07T17:43:56.000000Z</creationTime>
          </creationInfo>
        </arrival>
        <arrival publicID="quakeml:uw.anss.org/AssocArO/UW/9986983">
          <pickID>quakeml:uw.anss.org/Arrival/UW/9986983</pickID>
          <phase>P</phase>
          <azimuth>103.2</azimuth>
          <distance>0.3815</distance>
          <timeResidual>-0.14</timeResidual>
          <creationInfo>
            <agencyID>UW</agencyID>
            <creationTime>2012-03-07T17:43:56.000000Z</creationTime>
          </creationInfo>
        </arrival>
        <arrival publicID="quakeml:uw.anss.org/AssocArO/UW/9986988">
          <pickID>quakeml:uw.anss.org/Arrival/UW/9986988</pickID>
          <phase>P</phase>
          <azimuth>165.3</azimuth>
          <distance>0.9442</distance>
          <timeResidual>0.4</timeResidual>
          <creationInfo>
            <agencyID>UW</agencyID>
            <creationTime>2012-03-07T17:43:56.000000Z</creationTime>
          </creationInfo>
        </arrival>
        <arrival publicID="quakeml:uw.anss.org/AssocArO/UW/9986993">
          <pickID>quakeml:uw.anss.org/Arrival/UW/9986993</pickID>
          <phase>P</phase>
          <azimuth>273.2</azimuth>
          <distance>0.9356</distance>
          <timeResidual>0.16</timeResidual>
          <creationInfo>
            <agencyID>UW</agencyID>
            <creationTime>2012-03-07T17:43:56.000000Z</creationTime>
          </creationInfo>
        </arrival>
        <arrival publicID="quakeml:uw.anss.org/AssocArO/UW/9986998">
          <pickID>quakeml:uw.anss.org/Arrival/UW/9986998</pickID>
          <phase>P</phase>
          <azimuth>114.1</azimuth>
          <distance>0.3853</distance>
          <timeResidual>-0.22</timeResidual>
          <creationInfo>
            <agencyID>UW</agencyID>
            <creationTime>2012-03-07T17:43:56.000000Z</creationTime>
          </creationInfo>
        </arrival>
        <arrival publicID="quakeml:uw.anss.org/AssocArO/UW/9987003">
          <pickID>quakeml:uw.anss.org/Arrival/UW/9987003</pickID>
          <phase>S</phase>
          <azimuth>114.1</azimuth>
          <distance>0.3853</distance>
          <timeResidual>-0.16</timeResidual>
          <creationInfo>
            <agencyID>UW</agencyID>
            <creationTime>2012-03-07T17:43:56.000000Z</creationTime>
          </creationInfo>
        </arrival>
        <arrival publicID="quakeml:uw.anss.org/AssocArO/UW/9987008">
          <pickID>quakeml:uw.anss.org/Arrival/UW/9987008</pickID>
          <phase>P</phase>
          <azimuth>348.3</azimuth>
          <distance>0.3172</distance>
          <timeResidual>0.09</timeResidual>
          <creationInfo>
            <agencyID>UW</agencyID>
            <creationTime>2012-03-07T17:43:56.000000Z</creationTime>
          </creationInfo>
        </arrival>
        <arrival publicID="quakeml:uw.anss.org/AssocArO/UW/9987013">
          <pickID>quakeml:uw.anss.org/Arrival/UW/9987013</pickID>
          <phase>P</phase>
          <azimuth>27.8</azimuth>
          <distance>0.2013</distance>
          <timeResidual>-0.27</timeResidual>
          <creationInfo>
            <agencyID>UW</agencyID>
            <creationTime>2012-03-07T17:43:56.000000Z</creationTime>
          </creationInfo>
        </arrival>
        <arrival publicID="quakeml:uw.anss.org/AssocArO/UW/9987018">
          <pickID>quakeml:uw.anss.org/Arrival/UW/9987018</pickID>
          <phase>P</phase>
          <azimuth>169.4</azimuth>
          <timeResidual>-0.05</timeResidual>
          <creationInfo>
            <agencyID>UW</agencyID>
            <creationTime>2012-03-07T17:43:56.000000Z</creationTime>
          </creationInfo>
        </arrival>
        <arrival publicID="quakeml:uw.anss.org/AssocArO/UW/9987023">
          <pickID>quakeml:uw.anss.org/Arrival/UW/9987023</pickID>
          <phase>P</phase>
          <azimuth>241.1</azimuth>
          <distance>1.116</distance>
          <timeResidual>-0.4</timeResidual>
          <creationInfo>
            <agencyID>UW</agencyID>
            <creationTime>2012-03-07T17:43:56.000000Z</creationTime>
          </creationInfo>
        </arrival>
        <arrival publicID="quakeml:uw.anss.org/AssocArO/UW/9987028">
          <pickID>quakeml:uw.anss.org/Arrival/UW/9987028</pickID>
          <phase>P</phase>
          <azimuth>241.1</azimuth>
          <distance>1.119</distance>
          <timeResidual>-0.43</timeResidual>
          <creationInfo>
            <agencyID>UW</agencyID>
            <creationTime>2012-03-07T17:43:56.000000Z</creationTime>
          </creationInfo>
        </arrival>
        <arrival publicID="quakeml:uw.anss.org/AssocArO/UW/9987033">
          <pickID>quakeml:uw.anss.org/Arrival/UW/9987033</pickID>
          <phase>P</phase>
          <azimuth>241.2</azimuth>
          <distance>1.117</distance>
          <timeResidual>-0.43</timeResidual>
          <creationInfo>
            <agencyID>UW</agencyID>
            <creationTime>2012-03-07T17:43:56.000000Z</creationTime>
          </creationInfo>
        </arrival>
        <arrival publicID="quakeml:uw.anss.org/AssocArO/UW/9987038">
          <pickID>quakeml:uw.anss.org/Arrival/UW/9987038</pickID>
          <phase>P</phase>
          <azimuth>133.7</azimuth>
          <distance>1.079</distance>
          <timeResidual>0.2</timeResidual>
          <creationInfo>
            <agencyID>UW</agencyID>
            <creationTime>2012-03-07T17:43:56.000000Z</creationTime>
          </creationInfo>
        </arrival>
        <arrival publicID="quakeml:uw.anss.org/AssocArO/UW/9987043">
          <pickID>quakeml:uw.anss.org/Arrival/UW/9987043</pickID>
          <phase>P</phase>
          <azimuth>226.3</azimuth>
          <distance>0.8631</distance>
          <timeResidual>0.62</timeResidual>
          <creationInfo>
            <agencyID>UW</agencyID>
            <creationTime>2012-03-07T17:43:56.000000Z</creationTime>
          </creationInfo>
        </arrival>
        <arrival publicID="quakeml:uw.anss.org/AssocArO/UW/9987048">
          <pickID>quakeml:uw.anss.org/Arrival/UW/9987048</pickID>
          <phase>P</phase>
          <azimuth>257.7</azimuth>
          <distance>0.874</distance>
          <timeResidual>0.15</timeResidual>
          <creationInfo>
            <agencyID>UW</agencyID>
            <creationTime>2012-03-07T17:43:56.000000Z</creationTime>
          </creationInfo>
        </arrival>
        <arrival publicID="quakeml:uw.anss.org/AssocArO/UW/9987053">
          <pickID>quakeml:uw.anss.org/Arrival/UW/9987053</pickID>
          <phase>P</phase>
          <azimuth>181.8</azimuth>
          <distance>0.3705</distance>
          <timeResidual>0.01</timeResidual>
          <creationInfo>
            <agencyID>UW</agencyID>
            <creationTime>2012-03-07T17:43:56.000000Z</creationTime>
          </creationInfo>
        </arrival>
        <arrival publicID="quakeml:uw.anss.org/AssocArO/UW/9987058">
          <pickID>quakeml:uw.anss.org/Arrival/UW/9987058</pickID>
          <phase>P</phase>
          <azimuth>174.1</azimuth>
          <timeResidual>0.9</timeResidual>
          <creationInfo>
            <agencyID>UW</agencyID>
            <creationTime>2012-03-07T17:43:56.000000Z</creationTime>
          </creationInfo>
        </arrival>
        <arrival publicID="quakeml:uw.anss.org/AssocArO/UW/9987063">
          <pickID>quakeml:uw.anss.org/Arrival/UW/9987063</pickID>
          <phase>P</phase>
          <azimuth>172.0</azimuth>
          <distance>1.158</distance>
          <timeResidual>0.18</timeResidual>
          <creationInfo>
            <agencyID>UW</agencyID>
            <creationTime>2012-03-07T17:43:56.000000Z</creationTime>
          </creationInfo>
        </arrival>
        <arrival publicID="quakeml:uw.anss.org/AssocArO/UW/9987068">
          <pickID>quakeml:uw.anss.org/Arrival/UW/9987068</pickID>
          <phase>P</phase>
          <azimuth>283.2</azimuth>
          <distance>0.7669</distance>
          <timeResidual>-0.07</timeResidual>
          <creationInfo>
            <agencyID>UW</agencyID>
            <creationTime>2012-03-07T17:43:56.000000Z</creationTime>
          </creationInfo>
        </arrival>
        <arrival publicID="quakeml:uw.anss.org/AssocArO/UW/9987073">
          <pickID>quakeml:uw.anss.org/Arrival/UW/9987073</pickID>
          <phase>S</phase>
          <azimuth>283.2</azimuth>
          <distance>0.7669</distance>
          <timeResidual>-0.17</timeResidual>
          <creationInfo>
            <agencyID>UW</agencyID>
            <creationTime>2012-03-07T17:43:56.000000Z</creationTime>
          </creationInfo>
        </arrival>
        <arrival publicID="quakeml:uw.anss.org/AssocArO/UW/9987078">
          <pickID>quakeml:uw.anss.org/Arrival/UW/9987078</pickID>
          <phase>P</phase>
          <azimuth>167.1</azimuth>
          <distance>0.8237</distance>
          <timeResidual>0.05</timeResidual>
          <creationInfo>
            <agencyID>UW</agencyID>
            <creationTime>2012-03-07T17:43:56.000000Z</creationTime>
          </creationInfo>
        </arrival>
        <arrival publicID="quakeml:uw.anss.org/AssocArO/UW/9987083">
          <pickID>quakeml:uw.anss.org/Arrival/UW/9987083</pickID>
          <phase>P</phase>
          <azimuth>354.7</azimuth>
          <distance>0.4221</distance>
          <timeResidual>-0.24</timeResidual>
          <creationInfo>
            <agencyID>UW</agencyID>
            <creationTime>2012-03-07T17:43:56.000000Z</creationTime>
          </creationInfo>
        </arrival>
        <arrival publicID="quakeml:uw.anss.org/AssocArO/UW/9987088">
          <pickID>quakeml:uw.anss.org/Arrival/UW/9987088</pickID>
          <phase>P</phase>
          <azimuth>231.8</azimuth>
          <distance>0.8563</distance>
          <timeResidual>0.67</timeResidual>
          <creationInfo>
            <agencyID>UW</agencyID>
            <creationTime>2012-03-07T17:43:56.000000Z</creationTime>
          </creationInfo>
        </arrival>
        <arrival publicID="quakeml:uw.anss.org/AssocArO/UW/9987093">
          <pickID>quakeml:uw.anss.org/Arrival/UW/9987093</pickID>
          <phase>P</phase>
          <azimuth>179.5</azimuth>
          <distance>0.7707</distance>
          <timeResidual>0.32</timeResidual>
          <creationInfo>
            <agencyID>UW</agencyID>
            <creationTime>2012-03-07T17:43:56.000000Z</creationTime>
          </creationInfo>
        </arrival>
      </origin>
      <magnitude publicID="quakeml:uw.anss.org/Netmag/UW/2542883">
        <mag>
          <value>2.09</value>
          <uncertainty>0.176</uncertainty>
        </mag>
        <type>Ml</type>
        <originID>quakeml:uw.anss.org/Origin/UW/1065003</originID>
        <methodID>smi:uw.anss.org/magnitude/RichterMl2</methodID>
        <stationCount>16</stationCount>
        <azimuthalGap>107.2</azimuthalGap>
        <evaluationMode>automatic</evaluationMode>
        <evaluationStatus>preliminary</evaluationStatus>
        <stationMagnitudeContribution>
          <stationMagnitudeID>quakeml:uw.anss.org/AssocAmM/UW/9486478</stationMagnitudeID>
          <weight>0.0</weight>
          <residual>-0.64</residual>
        </stationMagnitudeContribution>
        <stationMagnitudeContribution>
          <stationMagnitudeID>quakeml:uw.anss.org/AssocAmM/UW/9486488</stationMagnitudeID>
          <weight>1.0</weight>
          <residual>0.04</residual>
        </stationMagnitudeContribution>
        <stationMagnitudeContribution>
          <stationMagnitudeID>quakeml:uw.anss.org/AssocAmM/UW/9486583</stationMagnitudeID>
          <weight>0.0</weight>
          <residual>-0.71</residual>
        </stationMagnitudeContribution>
        <stationMagnitudeContribution>
          <stationMagnitudeID>quakeml:uw.anss.org/AssocAmM/UW/9486528</stationMagnitudeID>
          <weight>1.0</weight>
          <residual>-0.12</residual>
        </stationMagnitudeContribution>
        <stationMagnitudeContribution>
          <stationMagnitudeID>quakeml:uw.anss.org/AssocAmM/UW/9486603</stationMagnitudeID>
          <weight>1.0</weight>
          <residual>0.33</residual>
        </stationMagnitudeContribution>
        <stationMagnitudeContribution>
