<?xml version='1.0' encoding='utf-8'?>
<q:quakeml xmlns="http://quakeml.org/xmlns/bed/1.2" xmlns:q="http://quakeml.org/xmlns/quakeml/1.2" xmlns:ns0="http://anss.org/xmlns/catalog/0.1">
  <eventParameters publicID="smi:local/cc5ecd95-93c8-471d-9064-5064eecd2ea8">
    <event publicID="quakeml:uw.anss.org/Event/UW/10775928" ns0:datasource="uw" ns0:dataid="uw10775928" ns0:eventsource="uw" ns0:eventid="10775928">
      <preferredOriginID>quakeml:uw.anss.org/Origin/UW/1060228</preferredOriginID>
      <preferredMagnitudeID>quakeml:uw.anss.org/Netmag/UW/2540823</preferredMagnitudeID>
      <type>earthquake</type>
      <creationInfo>
        <agencyID>UW</agencyID>
        <creationTime>2016-12-01T01:24:52.000000Z</creationTime>
        <version>4</version>
      </creationInfo>
      <origin publicID="quakeml:uw.anss.org/Origin/UW/1060228" ns0:datasource="uw" ns0:dataid="uw10775928" ns0:eventsource="uw" ns0:eventid="10775928">
        <time>
          <value>2009-08-20T09:35:40.790000Z</value>
          <uncertainty>0.01</uncertainty>
        </time>
        <latitude>
          <value>48.3513333</value>
          <uncertainty>0.05</uncertainty>
        </latitude>
        <longitude>
          <value>-121.8406667</value>
          <uncertainty>0.04</uncertainty>
        </longitude>
        <depth>
          <value>-574.0</value>
          <uncertainty>100.0</uncertainty>
        </depth>
        <depthType>operator assigned</depthType>
        <timeFixed>false</timeFixed>
        <epicenterFixed>false</epicenterFixed>
        <methodID>smi:uw.anss.org/origin/spong</methodID>
        <quality>
          <associatedPhaseCount>76</associatedPhaseCount>
          <usedPhaseCount>62</usedPhaseCount>
          <associatedStationCount>68</associatedStationCount>
          <usedStationCount>0</usedStationCount>
          <standardError>0.45</standardError>
          <azimuthalGap>60.0</azimuthalGap>
        </quality>
        <type>hypocenter</type>
        <evaluationMode>manual</evaluationMode>
        <evaluationStatus>final</evaluationStatus>
        <creationInfo>
          <agencyID>UW</agencyID>
          <creationTime>2012-03-07T17:25:47.000000Z</creationTime>
        </creationInfo>
        <originUncertainty>
          <preferredDescription>horizontal uncertainty</preferredDescription>
          <horizontalUncertainty>64.0</horizontalUncertainty>
        </originUncertainty>
        <arrival publicID="quakeml:uw.anss.org/AssocArO/UW/9940778">
          <pickID>quakeml:uw.anss.org/Arrival/UW/9940778</pickID>
          <phase>S</phase>
          <azimuth>229.6</azimuth>
          <distance>1.077</distance>
          <timeResidual>-1.77</timeResidual>
          <creationInfo>
            <agencyID>UW</agencyID>
            <creationTime>2012-03-07T17:25:47.000000Z</creationTime>
          </creationInfo>
        </arrival>
        <arrival publicID="quakeml:uw.anss.org/AssocArO/UW/9940783">
          <pickID>quakeml:uw.anss.org/Arrival/UW/9940783</pickID>
          <phase>P</phase>
          <azimuth>229.6</azimuth>
          <distance>1.077</distance>
          <timeResidual>-0.73</timeResidual>
          <creationInfo>
            <agencyID>UW</agencyID>
            <creationTime>2012-03-07T17:25:47.000000Z</creationTime>
          </creationInfo>
        </arrival>
        <arrival publicID="quakeml:uw.anss.org/AssocArO/UW/9940788">
          <pickID>quakeml:uw.anss.org/Arrival/UW/9940788</pickID>
          <phase>P</phase>
          <azimuth>175.0</azimuth>
          <distance>1.802</distance>
          <timeResidual>-0.62</timeResidual>
          <creationInfo>
            <agencyID>UW</agencyID>
            <creationTime>2012-03-07T17:25:47.000000Z</creationTime>
          </creationInfo>
        </arrival>
        <arrival publicID="quakeml:uw.anss.org/AssocArO/UW/9940793">
          <pickID>quakeml:uw.anss.org/Arrival/UW/9940793</pickID>
          <phase>P</phase>
          <azimuth>177.3</azimuth>
          <distance>0.8571</distance>
          <timeResidual>0.45</timeResidual>
          <creationInfo>
            <agencyID>UW</agencyID>
            <creationTime>2012-03-07T17:25:47.000000Z</creationTime>
          </creationInfo>
        </arrival>
        <arrival publicID="quakeml:uw.anss.org/AssocArO/UW/9940798">
          <pickID>quakeml:uw.anss.org/Arrival/UW/9940798</pickID>
          <phase>P</phase>
          <azimuth>220.3</azimuth>
          <distance>1.029</distance>
          <timeResidual>-0.47</timeResidual>
          <creationInfo>
            <agencyID>UW</agencyID>
            <creationTime>2012-03-07T17:25:47.000000Z</creationTime>
          </creationInfo>
        </arrival>
        <arrival publicID="quakeml:uw.anss.org/AssocArO/UW/9940803">
          <pickID>quakeml:uw.anss.org/Arrival/UW/9940803</pickID>
          <phase>S</phase>
          <azimuth>220.3</azimuth>
          <distance>1.029</distance>
          <timeResidual>-1.42</timeResidual>
          <creationInfo>
            <agencyID>UW</agencyID>
            <creationTime>2012-03-07T17:25:47.000000Z</creationTime>
          </creationInfo>
        </arrival>
        <arrival publicID="quakeml:uw.anss.org/AssocArO/UW/9940808">
          <pickID>quakeml:uw.anss.org/Arrival/UW/9940808</pickID>
          <phase>P</phase>
          <azimuth>228.2</azimuth>
          <distance>0.5103</distance>
          <timeResidual>0.39</timeResidual>
          <creationInfo>
            <agencyID>UW</agencyID>
            <creationTime>2012-03-07T17:25:47.000000Z</creationTime>
          </creationInfo>
        </arrival>
        <arrival publicID="quakeml:uw.anss.org/AssocArO/UW/9940813">
          <pickID>quakeml:uw.anss.org/Arrival/UW/9940813</pickID>
          <phase>P</phase>
          <azimuth>263.6</azimuth>
          <timeResidual>-0.09</timeResidual>
          <creationInfo>
            <agencyID>UW</agencyID>
            <creationTime>2012-03-07T17:25:47.000000Z</creationTime>
          </creationInfo>
        </arrival>
        <arrival publicID="quakeml:uw.anss.org/AssocArO/UW/9940818">
          <pickID>quakeml:uw.anss.org/Arrival/UW/9940818</pickID>
          <phase>S</phase>
          <azimuth>263.6</azimuth>
          <timeResidual>-0.37</timeResidual>
          <creationInfo>
            <agencyID>UW</agencyID>
            <creationTime>2012-03-07T17:25:47.000000Z</creationTime>
          </creationInfo>
        </arrival>
        <arrival publicID="quakeml:uw.anss.org/AssocArO/UW/9940823">
          <pickID>quakeml:uw.anss.org/Arrival/UW/9940823</pickID>
          <phase>P</phase>
          <azimuth>317.8</azimuth>
          <distance>0.5659</distance>
          <timeResidual>1.04</timeResidual>
          <creationInfo>
            <agencyID>UW</agencyID>
            <creationTime>2012-03-07T17:25:47.000000Z</creationTime>
          </creationInfo>
        </arrival>
        <arrival publicID="quakeml:uw.anss.org/AssocArO/UW/9940828">
          <pickID>quakeml:uw.anss.org/Arrival/UW/9940828</pickID>
          <phase>P</phase>
          <azimuth>286.2</azimuth>
          <distance>1.11</distance>
          <timeResidual>-0.91</timeResidual>
          <creationInfo>
            <agencyID>UW</agencyID>
            <creationTime>2012-03-07T17:25:47.000000Z</creationTime>
          </creationInfo>
        </arrival>
        <arrival publicID="quakeml:uw.anss.org/AssocArO/UW/9940833">
          <pickID>quakeml:uw.anss.org/Arrival/UW/9940833</pickID>
          <phase>P</phase>
          <azimuth>233.4</azimuth>
          <distance>0.8973</distance>
          <timeResidual>-0.64</timeResidual>
          <creationInfo>
            <agencyID>UW</agencyID>
            <creationTime>2012-03-07T17:25:47.000000Z</creationTime>
          </creationInfo>
        </arrival>
        <arrival publicID="quakeml:uw.anss.org/AssocArO/UW/9940838">
          <pickID>quakeml:uw.anss.org/Arrival/UW/9940838</pickID>
          <phase>P</phase>
          <azimuth>210.5</azimuth>
          <distance>1.587</distance>
          <timeResidual>-1.05</timeResidual>
          <creationInfo>
            <agencyID>UW</agencyID>
            <creationTime>2012-03-07T17:25:47.000000Z</creationTime>
          </creationInfo>
        </arrival>
        <arrival publicID="quakeml:uw.anss.org/AssocArO/UW/9940843">
          <pickID>quakeml:uw.anss.org/Arrival/UW/9940843</pickID>
          <phase>P</phase>
          <azimuth>345.7</azimuth>
          <distance>0.6973</distance>
          <timeResidual>-0.13</timeResidual>
          <creationInfo>
            <agencyID>UW</agencyID>
            <creationTime>2012-03-07T17:25:47.000000Z</creationTime>
          </creationInfo>
        </arrival>
        <arrival publicID="quakeml:uw.anss.org/AssocArO/UW/9940848">
          <pickID>quakeml:uw.anss.org/Arrival/UW/9940848</pickID>
          <phase>P</phase>
          <azimuth>197.6</azimuth>
          <distance>0.6132</distance>
          <timeResidual>-0.11</timeResidual>
          <creationInfo>
            <agencyID>UW</agencyID>
            <creationTime>2012-03-07T17:25:47.000000Z</creationTime>
          </creationInfo>
        </arrival>
        <arrival publicID="quakeml:uw.anss.org/AssocArO/UW/9940853">
          <pickID>quakeml:uw.anss.org/Arrival/UW/9940853</pickID>
          <phase>P</phase>
          <azimuth>151.3</azimuth>
          <distance>1.38</distance>
          <timeResidual>0.43</timeResidual>
          <creationInfo>
            <agencyID>UW</agencyID>
            <creationTime>2012-03-07T17:25:47.000000Z</creationTime>
          </creationInfo>
        </arrival>
        <arrival publicID="quakeml:uw.anss.org/AssocArO/UW/9940858">
          <pickID>quakeml:uw.anss.org/Arrival/UW/9940858</pickID>
          <phase>P</phase>
          <azimuth>250.8</azimuth>
          <distance>0.917</distance>
          <timeResidual>-0.31</timeResidual>
          <creationInfo>
            <agencyID>UW</agencyID>
            <creationTime>2012-03-07T17:25:47.000000Z</creationTime>
          </creationInfo>
        </arrival>
        <arrival publicID="quakeml:uw.anss.org/AssocArO/UW/9940863">
          <pickID>quakeml:uw.anss.org/Arrival/UW/9940863</pickID>
          <phase>S</phase>
          <azimuth>250.8</azimuth>
          <distance>0.917</distance>
          <timeResidual>-0.8</timeResidual>
          <creationInfo>
            <agencyID>UW</agencyID>
            <creationTime>2012-03-07T17:25:47.000000Z</creationTime>
          </creationInfo>
        </arrival>
        <arrival publicID="quakeml:uw.anss.org/AssocArO/UW/9940868">
          <pickID>quakeml:uw.anss.org/Arrival/UW/9940868</pickID>
          <phase>P</phase>
          <azimuth>202.7</azimuth>
          <distance>0.6835</distance>
          <timeResidual>0.06</timeResidual>
          <creationInfo>
            <agencyID>UW</agencyID>
            <creationTime>2012-03-07T17:25:47.000000Z</creationTime>
          </creationInfo>
        </arrival>
        <arrival publicID="quakeml:uw.anss.org/AssocArO/UW/9940873">
          <pickID>quakeml:uw.anss.org/Arrival/UW/9940873</pickID>
          <phase>P</phase>
          <azimuth>291.3</azimuth>
          <distance>0.1999</distance>
          <timeResidual>-0.16</timeResidual>
          <creationInfo>
            <agencyID>UW</agencyID>
            <creationTime>2012-03-07T17:25:47.000000Z</creationTime>
          </creationInfo>
        </arrival>
        <arrival publicID="quakeml:uw.anss.org/AssocArO/UW/9940878">
          <pickID>quakeml:uw.anss.org/Arrival/UW/9940878</pickID>
          <phase>P</phase>
          <azimuth>346.1</azimuth>
          <distance>0.6675</distance>
          <timeResidual>0.23</timeResidual>
          <creationInfo>
            <agencyID>UW</agencyID>
            <creationTime>2012-03-07T17:25:47.000000Z</creationTime>
          </creationInfo>
        </arrival>
        <arrival publicID="quakeml:uw.anss.org/AssocArO/UW/9940883">
          <pickID>quakeml:uw.anss.org/Arrival/UW/9940883</pickID>
          <phase>P</phase>
          <azimuth>190.7</azimuth>
          <distance>0.7172</distance>
          <timeResidual>-0.11</timeResidual>
          <creationInfo>
            <agencyID>UW</agencyID>
            <creationTime>2012-03-07T17:25:47.000000Z</creationTime>
          </creationInfo>
        </arrival>
        <arrival publicID="quakeml:uw.anss.org/AssocArO/UW/9940888">
          <pickID>quakeml:uw.anss.org/Arrival/UW/9940888</pickID>
          <phase>P</phase>
          <azimuth>54.6</azimuth>
          <distance>0.2901</distance>
          <timeResidual>0.25</timeResidual>
          <creationInfo>
            <agencyID>UW</agencyID>
            <creationTime>2012-03-07T17:25:47.000000Z</creationTime>
          </creationInfo>
        </arrival>
        <arrival publicID="quakeml:uw.anss.org/AssocArO/UW/9940893">
          <pickID>quakeml:uw.anss.org/Arrival/UW/9940893</pickID>
          <phase>P</phase>
          <azimuth>171.2</azimuth>
          <distance>0.6667</distance>
          <timeResidual>-0.45</timeResidual>
          <creationInfo>
            <agencyID>UW</agencyID>
            <creationTime>2012-03-07T17:25:47.000000Z</creationTime>
          </creationInfo>
        </arrival>
        <arrival publicID="quakeml:uw.anss.org/AssocArO/UW/9940898">
          <pickID>quakeml:uw.anss.org/Arrival/UW/9940898</pickID>
          <phase>P</phase>
          <azimuth>116.7</azimuth>
          <distance>1.424</distance>
          <timeResidual>0.62</timeResidual>
          <creationInfo>
            <agencyID>UW</agencyID>
            <creationTime>2012-03-07T17:25:47.000000Z</creationTime>
          </creationInfo>
        </arrival>
        <arrival publicID="quakeml:uw.anss.org/AssocArO/UW/9940903">
          <pickID>quakeml:uw.anss.org/Arrival/UW/9940903</pickID>
          <phase>P</phase>
          <azimuth>178.5</azimuth>
          <distance>0.8927</distance>
          <timeResidual>-0.59</timeResidual>
          <creationInfo>
            <agencyID>UW</agencyID>
            <creationTime>2012-03-07T17:25:47.000000Z</creationTime>
          </creationInfo>
        </arrival>
        <arrival publicID="quakeml:uw.anss.org/AssocArO/UW/9940908">
          <pickID>quakeml:uw.anss.org/Arrival/UW/9940908</pickID>
          <phase>P</phase>
          <azimuth>65.8</azimuth>
          <distance>0.2378</distance>
          <timeResidual>0.35</timeResidual>
          <creationInfo>
            <agencyID>UW</agencyID>
            <creationTime>2012-03-07T17:25:47.000000Z</creationTime>
          </creationInfo>
        </arrival>
        <arrival publicID="quakeml:uw.anss.org/AssocArO/UW/9940913">
          <pickID>quakeml:uw.anss.org/Arrival/UW/9940913</pickID>
          <phase>P</phase>
          <azimuth>210.1</azimuth>
          <timeResidual>0.58</timeResidual>
          <creationInfo>
            <agencyID>UW</agencyID>
            <creationTime>2012-03-07T17:25:47.000000Z</creationTime>
          </creationInfo>
        </arrival>
        <arrival publicID="quakeml:uw.anss.org/AssocArO/UW/9940918">
          <pickID>quakeml:uw.anss.org/Arrival/UW/9940918</pickID>
          <phase>S</phase>
          <azimuth>210.1</azimuth>
          <timeResidual>0.85</timeResidual>
          <creationInfo>
            <agencyID>UW</agencyID>
            <creationTime>2012-03-07T17:25:47.000000Z</creationTime>
          </creationInfo>
        </arrival>
        <arrival publicID="quakeml:uw.anss.org/AssocArO/UW/9940923">
          <pickID>quakeml:uw.anss.org/Arrival/UW/9940923</pickID>
          <phase>P</phase>
          <azimuth>340.8</azimuth>
          <distance>0.5997</distance>
          <timeResidual>0.65</timeResidual>
          <creationInfo>
            <agencyID>UW</agencyID>
            <creationTime>2012-03-07T17:25:47.000000Z</creationTime>
          </creationInfo>
        </arrival>
        <arrival publicID="quakeml:uw.anss.org/AssocArO/UW/9940928">
          <pickID>quakeml:uw.anss.org/Arrival/UW/9940928</pickID>
          <phase>P</phase>
          <azimuth>171.2</azimuth>
          <distance>0.6649</distance>
          <timeResidual>-0.49</timeResidual>
          <creationInfo>
            <agencyID>UW</agencyID>
            <creationTime>2012-03-07T17:25:47.000000Z</creationTime>
          </creationInfo>
        </arrival>
        <arrival publicID="quakeml:uw.anss.org/AssocArO/UW/9940933">
          <pickID>quakeml:uw.anss.org/Arrival/UW/9940933</pickID>
          <phase>P</phase>
          <azimuth>202.8</azimuth>
          <distance>0.6622</distance>
          <timeResidual>0.86</timeResidual>
          <creationInfo>
            <agencyID>UW</agencyID>
            <creationTime>2012-03-07T17:25:47.000000Z</creationTime>
          </creationInfo>
        </arrival>
        <arrival publicID="quakeml:uw.anss.org/AssocArO/UW/9940938">
          <pickID>quakeml:uw.anss.org/Arrival/UW/9940938</pickID>
          <phase>P</phase>
          <azimuth>184.2</azimuth>
          <distance>0.4545</distance>
          <timeResidual>-0.6</timeResidual>
          <creationInfo>
            <agencyID>UW</agencyID>
            <creationTime>2012-03-07T17:25:47.000000Z</creationTime>
          </creationInfo>
        </arrival>
        <arrival publicID="quakeml:uw.anss.org/AssocArO/UW/9940943">
          <pickID>quakeml:uw.anss.org/Arrival/UW/9940943</pickID>
          <phase>S</phase>
          <azimuth>222.1</azimuth>
          <distance>0.8063</distance>
          <timeResidual>0.17</timeResidual>
          <creationInfo>
            <agencyID>UW</agencyID>
            <creationTime>2012-03-07T17:25:47.000000Z</creationTime>
          </creationInfo>
        </arrival>
        <arrival publicID="quakeml:uw.anss.org/AssocArO/UW/9940948">
          <pickID>quakeml:uw.anss.org/Arrival/UW/9940948</pickID>
          <phase>P</phase>
          <azimuth>354.8</azimuth>
          <distance>0.4347</distance>
          <timeResidual>-0.04</timeResidual>
          <creationInfo>
            <agencyID>UW</agencyID>
            <creationTime>2012-03-07T17:25:47.000000Z</creationTime>
          </creationInfo>
        </arrival>
        <arrival publicID="quakeml:uw.anss.org/AssocArO/UW/9940953">
          <pickID>quakeml:uw.anss.org/Arrival/UW/9940953</pickID>
          <phase>P</phase>
          <azimuth>143.8</azimuth>
          <distance>1.353</distance>
          <timeResidual>-0.08</timeResidual>
          <creationInfo>
            <agencyID>UW</agencyID>
            <creationTime>2012-03-07T17:25:47.000000Z</creationTime>
          </creationInfo>
        </arrival>
        <arrival publicID="quakeml:uw.anss.org/AssocArO/UW/9940958">
          <pickID>quakeml:uw.anss.org/Arrival/UW/9940958</pickID>
          <phase>P</phase>
          <azimuth>200.4</azimuth>
          <timeResidual>0.11</timeResidual>
          <creationInfo>
            <agencyID>UW</agencyID>
            <creationTime>2012-03-07T17:25:47.000000Z</creationTime>
          </creationInfo>
        </arrival>
        <arrival publicID="quakeml:uw.anss.org/AssocArO/UW/9940963">
          <pickID>quakeml:uw.anss.org/Arrival/UW/9940963</pickID>
          <phase>P</phase>
          <azimuth>126.0</azimuth>
          <distance>1.259</distance>
          <timeResidual>-0.01</timeResidual>
          <creationInfo>
            <agencyID>UW</agencyID>
            <creationTime>2012-03-07T17:25:47.000000Z</creationTime>
          </creationInfo>
        </arrival>
        <arrival publicID="quakeml:uw.anss.org/AssocArO/UW/9940968">
          <pickID>quakeml:uw.anss.org/Arrival/UW/9940968</pickID>
          <phase>P</phase>
          <azimuth>255.8</azimuth>
          <distance>1.151</distance>
          <timeResidual>-0.93</timeResidual>
          <creationInfo>
            <agencyID>UW</agencyID>
            <creationTime>2012-03-07T17:25:47.000000Z</creationTime>
          </creationInfo>
        </arrival>
