<?xml version='1.0' encoding='utf-8'?>
<q:quakeml xmlns="http://quakeml.org/xmlns/bed/1.2" xmlns:q="http://quakeml.org/xmlns/quakeml/1.2" xmlns:ns0="http://anss.org/xmlns/catalog/0.1">
  <eventParameters publicID="smi:local/54f665e7-72f3-4ad5-9af3-4eb7d32fda79">
    <event publicID="quakeml:uw.anss.org/Event/UW/10767883" ns0:datasource="uw" ns0:dataid="uw10767883" ns0:eventsource="uw" ns0:eventid="10767883">
      <preferredOriginID>quakeml:uw.anss.org/Origin/UW/1050813</preferredOriginID>
      <preferredMagnitudeID>quakeml:uw.anss.org/Netmag/UW/816703</preferredMagnitudeID>
      <type>earthquake</type>
      <creationInfo>
        <agencyID>UW</agencyID>
        <creationTime>2012-03-06T14:43:03.000000Z</creationTime>
        <version>3</version>
      </creationInfo>
      <origin publicID="quakeml:uw.anss.org/Origin/UW/1050813" ns0:datasource="uw" ns0:dataid="uw10767883" ns0:eventsource="uw" ns0:eventid="10767883">
        <time>
          <value>2009-08-06T12:14:19.100000Z</value>
          <uncertainty>0.04</uncertainty>
        </time>
        <latitude>
          <value>48.5231667</value>
          <uncertainty>0.25</uncertainty>
        </latitude>
        <longitude>
          <value>-122.0858333</value>
          <uncertainty>0.21</uncertainty>
        </longitude>
        <depth>
          <value>2831.0</value>
        </depth>
        <depthType>from location</depthType>
        <timeFixed>false</timeFixed>
        <epicenterFixed>false</epicenterFixed>
        <methodID>smi:uw.anss.org/origin/spong</methodID>
        <quality>
          <associatedPhaseCount>4</associatedPhaseCount>
          <usedPhaseCount>4</usedPhaseCount>
          <associatedStationCount>3</associatedStationCount>
          <usedStationCount>0</usedStationCount>
          <standardError>0.05</standardError>
          <azimuthalGap>192.0</azimuthalGap>
          <secondaryAzimuthalGap>527.0</secondaryAzimuthalGap>
          <minimumDistance>0.1023</minimumDistance>
          <maximumDistance>0.3872</maximumDistance>
          <medianDistance>0.2882</medianDistance>
        </quality>
        <type>hypocenter</type>
        <evaluationMode>manual</evaluationMode>
        <evaluationStatus>final</evaluationStatus>
        <creationInfo>
          <agencyID>UW</agencyID>
          <creationTime>2012-03-06T14:43:03.000000Z</creationTime>
        </creationInfo>
        <originUncertainty>
          <preferredDescription>horizontal uncertainty</preferredDescription>
          <horizontalUncertainty>326.0</horizontalUncertainty>
        </originUncertainty>
        <arrival publicID="quakeml:uw.anss.org/AssocArO/UW/9857403">
          <pickID>quakeml:uw.anss.org/Arrival/UW/9857403</pickID>
          <phase>P</phase>
          <azimuth>192.9</azimuth>
          <distance>0.1023</distance>
          <timeResidual>-0.02</timeResidual>
          <creationInfo>
            <agencyID>UW</agencyID>
            <creationTime>2012-03-06T14:43:03.000000Z</creationTime>
          </creationInfo>
        </arrival>
        <arrival publicID="quakeml:uw.anss.org/AssocArO/UW/9857413">
          <pickID>quakeml:uw.anss.org/Arrival/UW/9857413</pickID>
          <phase>P</phase>
          <azimuth>25.0</azimuth>
          <distance>0.2882</distance>
          <timeResidual>-0.02</timeResidual>
          <creationInfo>
            <agencyID>UW</agencyID>
            <creationTime>2012-03-06T14:43:03.000000Z</creationTime>
          </creationInfo>
        </arrival>
        <arrival publicID="quakeml:uw.anss.org/AssocArO/UW/9857433">
          <pickID>quakeml:uw.anss.org/Arrival/UW/9857433</pickID>
          <phase>P</phase>
          <azimuth>101.0</azimuth>
          <distance>0.3872</distance>
          <timeResidual>0.09</timeResidual>
          <creationInfo>
            <agencyID>UW</agencyID>
            <creationTime>2012-03-06T14:43:03.000000Z</creationTime>
          </creationInfo>
        </arrival>
        <arrival publicID="quakeml:uw.anss.org/AssocArO/UW/9857443">
          <pickID>quakeml:uw.anss.org/Arrival/UW/9857443</pickID>
          <phase>S</phase>
          <azimuth>101.0</azimuth>
          <distance>0.3872</distance>
          <timeResidual>-0.07</timeResidual>
          <creationInfo>
            <agencyID>UW</agencyID>
            <creationTime>2012-03-06T14:43:03.000000Z</creationTime>
          </creationInfo>
        </arrival>
      </origin>
      <magnitude publicID="quakeml:uw.anss.org/Netmag/UW/816703">
        <mag>
          <value>0.2</value>
          <uncertainty>0.08</uncertainty>
        </mag>
        <type>Md</type>
        <originID>quakeml:uw.anss.org/Origin/UW/1050813</originID>
        <methodID>smi:uw.anss.org/magnitude/Crosson</methodID>
        <stationCount>2</stationCount>
        <evaluationMode>manual</evaluationMode>
        <evaluationStatus>final</evaluationStatus>
        <stationMagnitudeContribution>
          <stationMagnitudeID>quakeml:uw.anss.org/AssocCoM/UW/2253988</stationMagnitudeID>
          <weight>1.0</weight>
          <residual>0.28</residual>
        </stationMagnitudeContribution>
        <stationMagnitudeContribution>
          <stationMagnitudeID>quakeml:uw.anss.org/AssocCoM/UW/2253983</stationMagnitudeID>
          <weight>1.0</weight>
          <residual>-0.47</residual>
        </stationMagnitudeContribution>
        <creationInfo>
          <agencyID>UW</agencyID>
          <creationTime>2012-03-06T14:43:03.000000Z</creationTime>
        </creationInfo>
      </magnitude>
      <stationMagnitude publicID="quakeml:uw.anss.org/AssocCoM/UW/2253983">
        <originID>quakeml:uw.anss.org/Origin/UW/1050813</originID>
        <mag>
          <value>-0.27</value>
        </mag>
        <type>MD</type>
        <amplitudeID>quakeml:uw.anss.org/Coda/UW/2253983</amplitudeID>
        <waveformID networkCode="UW" stationCode="CMW" locationCode="" channelCode="EHZ"></waveformID>
      </stationMagnitude>
      <stationMagnitude publicID="quakeml:uw.anss.org/AssocCoM/UW/2253988">
        <originID>quakeml:uw.anss.org/Origin/UW/1050813</originID>
        <mag>
          <value>0.48</value>
        </mag>
        <type>MD</type>
        <amplitudeID>quakeml:uw.anss.org/Coda/UW/2253988</amplitudeID>
        <waveformID networkCode="UW" stationCode="MBW" locationCode="" channelCode="EHZ"></waveformID>
      </stationMagnitude>
      <pick publicID="quakeml:uw.anss.org/Arrival/UW/9857403">
        <time>
          <value>2009-08-06T12:14:21.550000Z</value>
          <uncertainty>0.07</uncertainty>
        </time>
        <waveformID networkCode="UW" stationCode="CMW" locationCode="" channelCode="EHZ"></waveformID>
        <polarity>undecidable</polarity>
        <evaluationMode>manual</evaluationMode>
        <evaluationStatus>final</evaluationStatus>
        <creationInfo>
          <agencyID>UW</agencyID>
          <creationTime>2012-03-06T14:43:03.000000Z</creationTime>
        </creationInfo>
      </pick>
      <pick publicID="quakeml:uw.anss.org/Arrival/UW/9857413">
        <time>
          <value>2009-08-06T12:14:24.820000Z</value>
          <uncertainty>0.05</uncertainty>
        </time>
        <waveformID networkCode="UW" stationCode="MBW" locationCode="" channelCode="EHZ"></waveformID>
        <polarity>undecidable</polarity>
        <evaluationMode>manual</evaluationMode>
        <evaluationStatus>final</evaluationStatus>
        <creationInfo>
          <agencyID>UW</agencyID>
          <creationTime>2012-03-06T14:43:03.000000Z</creationTime>
        </creationInfo>
      </pick>
      <pick publicID="quakeml:uw.anss.org/Arrival/UW/9857433">
        <time>
          <value>2009-08-06T12:14:26.520000Z</value>
          <uncertainty>0.12</uncertainty>
        </time>
        <waveformID networkCode="UW" stationCode="RPW" locationCode="" channelCode="EHZ"></waveformID>
        <polarity>undecidable</polarity>
        <evaluationMode>manual</evaluationMode>
        <evaluationStatus>final</evaluationStatus>
        <creationInfo>
          <agencyID>UW</agencyID>
          <creationTime>2012-03-06T14:43:03.000000Z</creationTime>
        </creationInfo>
      </pick>
      <pick publicID="quakeml:uw.anss.org/Arrival/UW/9857443">
        <time>
          <value>2009-08-06T12:14:32.080000Z</value>
          <uncertainty>0.06</uncertainty>
        </time>
        <waveformID networkCode="UW" stationCode="RPW" locationCode="" channelCode="EHZ"></waveformID>
        <polarity>undecidable</polarity>
        <evaluationMode>manual</evaluationMode>
        <evaluationStatus>final</evaluationStatus>
        <creationInfo>
          <agencyID>UW</agencyID>
          <creationTime>2012-03-06T14:43:03.000000Z</creationTime>
        </creationInfo>
      </pick>
      <amplitude publicID="quakeml:uw.anss.org/Coda/UW/2253983">
        <genericAmplitude>
          <value>6.0</value>
        </genericAmplitude>
        <type>END</type>
        <category>duration</category>
        <unit>s</unit>
        <waveformID networkCode="UW" stationCode="CMW" locationCode="" channelCode="EHZ"></waveformID>
        <magnitudeHint>MD</magnitudeHint>
        <evaluationMode>manual</evaluationMode>
        <evaluationStatus>final</evaluationStatus>
      </amplitude>
      <amplitude publicID="quakeml:uw.anss.org/Coda/UW/2253988">
        <genericAmplitude>
          <value>11.0</value>
        </genericAmplitude>
        <type>END</type>
        <category>duration</category>
        <unit>s</unit>
        <waveformID networkCode="UW" stationCode="MBW" locationCode="" channelCode="EHZ"></waveformID>
        <magnitudeHint>MD</magnitudeHint>
        <evaluationMode>manual</evaluationMode>
        <evaluationStatus>final</evaluationStatus>
      </amplitude>
    </event>
  </eventParameters>
</q:quakeml>
