<?xml version='1.0' encoding='utf-8'?>
<q:quakeml xmlns="http://quakeml.org/xmlns/bed/1.2" xmlns:q="http://quakeml.org/xmlns/quakeml/1.2" xmlns:ns0="http://anss.org/xmlns/catalog/0.1">
  <eventParameters publicID="smi:local/9e6da2c5-2d7e-4dad-bc51-1193424ca88c">
    <event publicID="quakeml:uw.anss.org/Event/UW/10784958" ns0:datasource="uw" ns0:dataid="uw10784958" ns0:eventsource="uw" ns0:eventid="10784958">
      <preferredOriginID>quakeml:uw.anss.org/Origin/UW/2647898</preferredOriginID>
      <preferredMagnitudeID>quakeml:uw.anss.org/Netmag/UW/2548188</preferredMagnitudeID>
      <type>earthquake</type>
      <creationInfo>
        <agencyID>UW</agencyID>
        <creationTime>2016-12-01T22:34:45.000000Z</creationTime>
        <version>6</version>
      </creationInfo>
      <origin publicID="quakeml:uw.anss.org/Origin/UW/2647898" ns0:datasource="uw" ns0:dataid="uw10784958" ns0:eventsource="uw" ns0:eventid="10784958">
        <time>
          <value>2009-12-10T01:21:35.080000Z</value>
        </time>
        <latitude>
          <value>48.7111667</value>
        </latitude>
        <longitude>
          <value>-121.5205</value>
        </longitude>
        <depth>
          <value>5840.0</value>
          <uncertainty>31610.0</uncertainty>
        </depth>
        <depthType>operator assigned</depthType>
        <timeFixed>false</timeFixed>
        <epicenterFixed>true</epicenterFixed>
        <methodID>smi:uw.anss.org/origin/HYP2000</methodID>
        <quality>
          <associatedPhaseCount>12</associatedPhaseCount>
          <usedPhaseCount>10</usedPhaseCount>
          <associatedStationCount>10</associatedStationCount>
          <usedStationCount>8</usedStationCount>
          <standardError>0.13</standardError>
          <azimuthalGap>164.0</azimuthalGap>
        </quality>
        <type>hypocenter</type>
        <evaluationMode>manual</evaluationMode>
        <evaluationStatus>final</evaluationStatus>
        <creationInfo>
          <agencyID>UW</agencyID>
          <creationTime>2016-12-01T22:34:45.000000Z</creationTime>
        </creationInfo>
        <originUncertainty>
          <preferredDescription>confidence ellipsoid</preferredDescription>
          <horizontalUncertainty>1190.0</horizontalUncertainty>
          <confidenceLevel>95.0</confidenceLevel>
          <confidenceEllipsoid>
            <semiMajorAxisLength>75864.0</semiMajorAxisLength>
            <semiMinorAxisLength>672.0</semiMinorAxisLength>
            <semiIntermediateAxisLength>2856.0</semiIntermediateAxisLength>
            <majorAxisPlunge>90.0</majorAxisPlunge>
            <majorAxisAzimuth>0.0</majorAxisAzimuth>
            <majorAxisRotation>69.0</majorAxisRotation>
          </confidenceEllipsoid>
        </originUncertainty>
        <arrival publicID="quakeml:uw.anss.org/AssocArO/UW/10026548">
          <pickID>quakeml:uw.anss.org/Arrival/UW/10026548</pickID>
          <phase>P</phase>
          <timeCorrection>0.09</timeCorrection>
          <azimuth>207.8</azimuth>
          <takeoffAngle>
            <value>66.0</value>
          </takeoffAngle>
          <timeResidual>-0.16</timeResidual>
          <timeWeight>0.13</timeWeight>
          <creationInfo>
            <agencyID>UW</agencyID>
            <creationTime>2016-12-01T22:34:45.000000Z</creationTime>
          </creationInfo>
        </arrival>
        <arrival publicID="quakeml:uw.anss.org/AssocArO/UW/10026568">
          <pickID>quakeml:uw.anss.org/Arrival/UW/10026568</pickID>
          <phase>P</phase>
          <timeCorrection>-0.06</timeCorrection>
          <azimuth>190.4</azimuth>
          <distance>0.9231</distance>
          <takeoffAngle>
            <value>66.0</value>
          </takeoffAngle>
          <timeResidual>0.21</timeResidual>
          <timeWeight>0.1</timeWeight>
          <creationInfo>
            <agencyID>UW</agencyID>
            <creationTime>2016-12-01T22:34:45.000000Z</creationTime>
          </creationInfo>
        </arrival>
        <arrival publicID="quakeml:uw.anss.org/AssocArO/UW/10026578">
          <pickID>quakeml:uw.anss.org/Arrival/UW/10026578</pickID>
          <phase>P</phase>
          <timeCorrection>0.0</timeCorrection>
          <azimuth>309.6</azimuth>
          <distance>0.4972</distance>
          <takeoffAngle>
            <value>95.0</value>
          </takeoffAngle>
          <timeResidual>0.18</timeResidual>
          <timeWeight>0.13</timeWeight>
          <creationInfo>
            <agencyID>UW</agencyID>
            <creationTime>2016-12-01T22:34:45.000000Z</creationTime>
          </creationInfo>
        </arrival>
        <arrival publicID="quakeml:uw.anss.org/AssocArO/UW/10026588">
          <pickID>quakeml:uw.anss.org/Arrival/UW/10026588</pickID>
          <phase>P</phase>
          <timeCorrection>0.02</timeCorrection>
          <azimuth>234.3</azimuth>
          <distance>0.4915</distance>
          <takeoffAngle>
            <value>95.0</value>
          </takeoffAngle>
          <timeResidual>0.1</timeResidual>
          <timeWeight>0.09</timeWeight>
          <creationInfo>
            <agencyID>UW</agencyID>
            <creationTime>2016-12-01T22:34:45.000000Z</creationTime>
          </creationInfo>
        </arrival>
        <arrival publicID="quakeml:uw.anss.org/AssocArO/UW/10026593">
          <pickID>quakeml:uw.anss.org/Arrival/UW/10026593</pickID>
          <phase>P</phase>
          <timeCorrection>0.0</timeCorrection>
          <azimuth>324.0</azimuth>
          <distance>0.1755</distance>
          <takeoffAngle>
            <value>106.0</value>
          </takeoffAngle>
          <timeResidual>-0.05</timeResidual>
          <timeWeight>0.18</timeWeight>
          <creationInfo>
            <agencyID>UW</agencyID>
            <creationTime>2016-12-01T22:34:45.000000Z</creationTime>
          </creationInfo>
        </arrival>
        <arrival publicID="quakeml:uw.anss.org/AssocArO/UW/10026598">
          <pickID>quakeml:uw.anss.org/Arrival/UW/10026598</pickID>
          <phase>S</phase>
          <timeCorrection>0.0</timeCorrection>
          <azimuth>324.0</azimuth>
          <distance>0.1755</distance>
          <takeoffAngle>
            <value>106.0</value>
          </takeoffAngle>
          <timeResidual>-0.21</timeResidual>
          <timeWeight>0.09</timeWeight>
          <creationInfo>
            <agencyID>UW</agencyID>
            <creationTime>2016-12-01T22:34:45.000000Z</creationTime>
          </creationInfo>
        </arrival>
        <arrival publicID="quakeml:uw.anss.org/AssocArO/UW/10026603">
          <pickID>quakeml:uw.anss.org/Arrival/UW/10026603</pickID>
          <phase>P</phase>
          <timeCorrection>0.01</timeCorrection>
          <azimuth>173.0</azimuth>
          <distance>0.1945</distance>
          <takeoffAngle>
            <value>104.0</value>
          </takeoffAngle>
          <timeResidual>-0.06</timeResidual>
          <timeWeight>0.18</timeWeight>
          <creationInfo>
            <agencyID>UW</agencyID>
            <creationTime>2016-12-01T22:34:45.000000Z</creationTime>
          </creationInfo>
        </arrival>
        <arrival publicID="quakeml:uw.anss.org/AssocArO/UW/10026608">
          <pickID>quakeml:uw.anss.org/Arrival/UW/10026608</pickID>
          <phase>S</phase>
          <timeCorrection>0.02</timeCorrection>
          <azimuth>173.0</azimuth>
          <distance>0.1945</distance>
          <takeoffAngle>
            <value>104.0</value>
          </takeoffAngle>
          <timeResidual>0.08</timeResidual>
          <timeWeight>0.09</timeWeight>
          <creationInfo>
            <agencyID>UW</agencyID>
            <creationTime>2016-12-01T22:34:45.000000Z</creationTime>
          </creationInfo>
        </arrival>
        <arrival publicID="quakeml:uw.anss.org/AssocArO/UW/13794573">
          <pickID>quakeml:uw.anss.org/Arrival/UW/13794573</pickID>
          <phase>S</phase>
          <timeCorrection>0.05</timeCorrection>
          <azimuth>307.9</azimuth>
          <distance>0.4708</distance>
          <takeoffAngle>
            <value>95.0</value>
          </takeoffAngle>
          <timeResidual>-0.01</timeResidual>
          <timeWeight>0.0</timeWeight>
          <creationInfo>
            <agencyID>UW</agencyID>
            <creationTime>2016-12-01T22:34:45.000000Z</creationTime>
          </creationInfo>
        </arrival>
        <arrival publicID="quakeml:uw.anss.org/AssocArO/UW/13794578">
          <pickID>quakeml:uw.anss.org/Arrival/UW/13794578</pickID>
          <phase>S</phase>
          <timeCorrection>0.06</timeCorrection>
          <azimuth>128.9</azimuth>
          <distance>1.015</distance>
          <takeoffAngle>
            <value>66.0</value>
          </takeoffAngle>
          <timeResidual>0.14</timeResidual>
          <timeWeight>0.02</timeWeight>
          <creationInfo>
            <agencyID>UW</agencyID>
            <creationTime>2016-12-01T22:34:45.000000Z</creationTime>
          </creationInfo>
        </arrival>
        <arrival publicID="quakeml:uw.anss.org/AssocArO/UW/13794583">
          <pickID>quakeml:uw.anss.org/Arrival/UW/13794583</pickID>
          <phase>S</phase>
          <timeCorrection>0.0</timeCorrection>
          <azimuth>256.7</azimuth>
          <distance>1.235</distance>
          <takeoffAngle>
            <value>66.0</value>
          </takeoffAngle>
          <timeResidual>-0.72</timeResidual>
          <timeWeight>0.0</timeWeight>
          <creationInfo>
            <agencyID>UW</agencyID>
            <creationTime>2016-12-01T22:34:45.000000Z</creationTime>
          </creationInfo>
        </arrival>
        <arrival publicID="quakeml:uw.anss.org/AssocArO/UW/13794588">
          <pickID>quakeml:uw.anss.org/Arrival/UW/13794588</pickID>
          <phase>S</phase>
          <timeCorrection>-0.01</timeCorrection>
          <azimuth>238.6</azimuth>
          <distance>1.265</distance>
          <takeoffAngle>
            <value>66.0</value>
          </takeoffAngle>
          <timeResidual>0.0</timeResidual>
          <timeWeight>0.0</timeWeight>
          <creationInfo>
            <agencyID>UW</agencyID>
            <creationTime>2016-12-01T22:34:45.000000Z</creationTime>
          </creationInfo>
        </arrival>
      </origin>
      <magnitude publicID="quakeml:uw.anss.org/Netmag/UW/2548188">
        <mag>
          <value>1.47</value>
          <uncertainty>0.31</uncertainty>
        </mag>
        <type>Ml</type>
        <originID>quakeml:uw.anss.org/Origin/UW/2647898</originID>
        <methodID>smi:uw.anss.org/magnitude/RichterMl2</methodID>
        <stationCount>7</stationCount>
        <azimuthalGap>164.9</azimuthalGap>
        <evaluationMode>manual</evaluationMode>
        <evaluationStatus>reviewed</evaluationStatus>
        <stationMagnitudeContribution>
          <stationMagnitudeID>quakeml:uw.anss.org/AssocAmM/UW/9530918</stationMagnitudeID>
          <weight>1.0</weight>
          <residual>-0.46</residual>
        </stationMagnitudeContribution>
        <stationMagnitudeContribution>
          <stationMagnitudeID>quakeml:uw.anss.org/AssocAmM/UW/9530908</stationMagnitudeID>
          <weight>0.0</weight>
          <residual>0.75</residual>
        </stationMagnitudeContribution>
        <stationMagnitudeContribution>
          <stationMagnitudeID>quakeml:uw.anss.org/AssocAmM/UW/9530913</stationMagnitudeID>
          <weight>1.0</weight>
          <residual>-0.55</residual>
        </stationMagnitudeContribution>
        <stationMagnitudeContribution>
          <stationMagnitudeID>quakeml:uw.anss.org/AssocAmM/UW/9530933</stationMagnitudeID>
          <weight>1.0</weight>
          <residual>-0.15</residual>
        </stationMagnitudeContribution>
        <stationMagnitudeContribution>
          <stationMagnitudeID>quakeml:uw.anss.org/AssocAmM/UW/9530943</stationMagnitudeID>
          <weight>1.0</weight>
          <residual>0.0</residual>
        </stationMagnitudeContribution>
        <stationMagnitudeContribution>
          <stationMagnitudeID>quakeml:uw.anss.org/AssocAmM/UW/9530898</stationMagnitudeID>
          <weight>1.0</weight>
          <residual>0.48</residual>
        </stationMagnitudeContribution>
        <stationMagnitudeContribution>
          <stationMagnitudeID>quakeml:uw.anss.org/AssocAmM/UW/9530928</stationMagnitudeID>
          <weight>0.0</weight>
          <residual>-1.15</residual>
        </stationMagnitudeContribution>
        <stationMagnitudeContribution>
          <stationMagnitudeID>quakeml:uw.anss.org/AssocAmM/UW/9530923</stationMagnitudeID>
          <weight>1.0</weight>
          <residual>0.1</residual>
        </stationMagnitudeContribution>
        <stationMagnitudeContribution>
          <stationMagnitudeID>quakeml:uw.anss.org/AssocAmM/UW/9530903</stationMagnitudeID>
          <weight>1.0</weight>
          <residual>0.76</residual>
        </stationMagnitudeContribution>
        <stationMagnitudeContribution>
          <stationMagnitudeID>quakeml:uw.anss.org/AssocAmM/UW/9530938</stationMagnitudeID>
          <weight>1.0</weight>
          <residual>-0.18</residual>
        </stationMagnitudeContribution>
        <stationMagnitudeContribution>
          <stationMagnitudeID>quakeml:uw.anss.org/AssocAmM/UW/9530948</stationMagnitudeID>
          <weight>1.0</weight>
          <residual>0.31</residual>
        </stationMagnitudeContribution>
        <creationInfo>
          <agencyID>UW</agencyID>
          <creationTime>2016-12-01T22:34:45.000000Z</creationTime>
        </creationInfo>
      </magnitude>
      <stationMagnitude publicID="quakeml:uw.anss.org/AssocAmM/UW/9530898">
        <originID>quakeml:uw.anss.org/Origin/UW/2647898</originID>
        <mag>
          <value>1.95</value>
        </mag>
        <type>ML</type>
        <amplitudeID>quakeml:uw.anss.org/Amp/UW/9530898</amplitudeID>
        <waveformID networkCode="UW" stationCode="SHUK" locationCode="" channelCode="BHN"></waveformID>
      </stationMagnitude>
      <stationMagnitude publicID="quakeml:uw.anss.org/AssocAmM/UW/9530903">
        <originID>quakeml:uw.anss.org/Origin/UW/2647898</originID>
        <mag>
          <value>2.23</value>
        </mag>
        <type>ML</type>
        <amplitudeID>quakeml:uw.anss.org/Amp/UW/9530903</amplitudeID>
        <waveformID networkCode="UW" stationCode="SHUK" locationCode="" channelCode="BHE"></waveformID>
      </stationMagnitude>
      <stationMagnitude publicID="quakeml:uw.anss.org/AssocAmM/UW/9530908">
        <originID>quakeml:uw.anss.org/Origin/UW/2647898</originID>
        <mag>
          <value>2.22</value>
        </mag>
        <type>ML</type>
        <amplitudeID>quakeml:uw.anss.org/Amp/UW/9530908</amplitudeID>
        <waveformID networkCode="UW" stationCode="MRBL" locationCode="" channelCode="BHN"></waveformID>
      </stationMagnitude>
      <stationMagnitude publicID="quakeml:uw.anss.org/AssocAmM/UW/9530913">
        <originID>quakeml:uw.anss.org/Origin/UW/2647898</originID>
        <mag>
          <value>0.92</value>
        </mag>
        <type>ML</type>
        <amplitudeID>quakeml:uw.anss.org/Amp/UW/9530913</amplitudeID>
        <waveformID networkCode="UW" stationCode="PASS" locationCode="" channelCode="BHN"></waveformID>
      </stationMagnitude>
      <stationMagnitude publicID="quakeml:uw.anss.org/AssocAmM/UW/9530918">
        <originID>quakeml:uw.anss.org/Origin/UW/2647898</originID>
        <mag>
          <value>1.01</value>
        </mag>
        <type>ML</type>
        <amplitudeID>quakeml:uw.anss.org/Amp/UW/9530918</amplitudeID>
        <waveformID networkCode="UW" stationCode="PASS" locationCode="" channelCode="BHE"></waveformID>
      </stationMagnitude>
      <stationMagnitude publicID="quakeml:uw.anss.org/AssocAmM/UW/9530923">
        <originID>quakeml:uw.anss.org/Origin/UW/2647898</originID>
        <mag>
          <value>1.57</value>
        </mag>
        <type>ML</type>
        <amplitudeID>quakeml:uw.anss.org/Amp/UW/9530923</amplitudeID>
        <waveformID networkCode="UW" stationCode="CMW" locationCode="" channelCode="EHZ"></waveformID>
      </stationMagnitude>
      <stationMagnitude publicID="quakeml:uw.anss.org/AssocAmM/UW/9530928">
        <originID>quakeml:uw.anss.org/Origin/UW/2647898</originID>
        <mag>
          <value>0.32</value>
        </mag>
        <type>ML</type>
        <amplitudeID>quakeml:uw.anss.org/Amp/UW/9530928</amplitudeID>
        <waveformID networkCode="CN" stationCode="VDB" locationCode="" channelCode="EHZ"></waveformID>
      </stationMagnitude>
      <stationMagnitude publicID="quakeml:uw.anss.org/AssocAmM/UW/9530933">
        <originID>quakeml:uw.anss.org/Origin/UW/2647898</originID>
        <mag>
          <value>1.32</value>
        </mag>
        <type>ML</type>
        <amplitudeID>quakeml:uw.anss.org/Amp/UW/9530933</amplitudeID>
        <waveformID networkCode="UW" stationCode="JCW" locationCode="" channelCode="EHZ"></waveformID>
      </stationMagnitude>
      <stationMagnitude publicID="quakeml:uw.anss.org/AssocAmM/UW/9530938">
        <originID>quakeml:uw.anss.org/Origin/UW/2647898</originID>
        <mag>
          <value>1.29</value>
        </mag>
        <type>ML</type>
        <amplitudeID>quakeml:uw.anss.org/Amp/UW/9530938</amplitudeID>
        <waveformID networkCode="UW" stationCode="HTW" locationCode="" channelCode="EHZ"></waveformID>
      </stationMagnitude>
      <stationMagnitude publicID="quakeml:uw.anss.org/AssocAmM/UW/9530943">
        <originID>quakeml:uw.anss.org/Origin/UW/2647898</originID>
        <mag>
          <value>1.47</value>
        </mag>
        <type>ML</type>
        <amplitudeID>quakeml:uw.anss.org/Amp/UW/9530943</amplitudeID>
        <waveformID networkCode="UW" stationCode="NEL" locationCode="" channelCode="EHZ"></waveformID>
      </stationMagnitude>
      <stationMagnitude publicID="quakeml:uw.anss.org/AssocAmM/UW/9530948">
        <originID>quakeml:uw.anss.org/Origin/UW/2647898</originID>
        <mag>
          <value>1.78</value>
        </mag>
        <type>ML</type>
        <amplitudeID>quakeml:uw.anss.org/Amp/UW/9530948</amplitudeID>
        <waveformID networkCode="CN" stationCode="VGZ" locationCode="" channelCode="HHN"></waveformID>
      </stationMagnitude>
      <pick publicID="quakeml:uw.anss.org/Arrival/UW/10026548">
        <time>
          <value>2009-12-10T01:21:45.790000Z</value>
          <uncertainty>0.04</uncertainty>
        </time>
        <waveformID networkCode="UW" stationCode="JCW" locationCode="" channelCode="EHZ"></waveformID>
        <polarity>negative</polarity>
        <evaluationMode>manual</evaluationMode>
        <evaluationStatus>final</evaluationStatus>
        <creationInfo>
          <agencyID>UW</agencyID>
          <creationTime>2012-03-07T18:00:32.000000Z</creationTime>
        </creationInfo>
      </pick>
      <pick publicID="quakeml:uw.anss.org/Arrival/UW/10026568">
        <time>
          <value>2009-12-10T01:21:51.740000Z</value>
          <uncertainty>0.04</uncertainty>
        </time>
        <waveformID networkCode="UW" stationCode="HTW" locationCode="" channelCode="EHZ"></waveformID>
        <polarity>undecidable</polarity>
        <evaluationMode>manual</evaluationMode>
        <evaluationStatus>final</evaluationStatus>
        <creationInfo>
          <agencyID>UW</agencyID>
          <creationTime>2012-03-07T18:00:32.000000Z</creationTime>
        </creationInfo>
      </pick>
      <pick publicID="quakeml:uw.anss.org/Arrival/UW/10026578">
        <time>
          <value>2009-12-10T01:21:44.590000Z</value>
          <uncertainty>0.05</uncertainty>
        </time>
        <waveformID networkCode="CN" stationCode="VDB" locationCode="" channelCode="EHZ"></waveformID>
        <polarity>undecidable</polarity>
        <evaluationMode>manual</evaluationMode>
        <evaluationStatus>final</evaluationStatus>
        <creationInfo>
          <agencyID>UW</agencyID>
          <creationTime>2012-03-07T18:00:32.000000Z</creationTime>
