<?xml version='1.0' encoding='utf-8'?>
<q:quakeml xmlns="http://quakeml.org/xmlns/bed/1.2" xmlns:q="http://quakeml.org/xmlns/quakeml/1.2" xmlns:ns0="http://anss.org/xmlns/catalog/0.1">
  <eventParameters publicID="smi:local/c186b1a8-73f0-4686-b90e-a33b04682adb">
    <event publicID="quakeml:uw.anss.org/Event/UW/10780223" ns0:datasource="uw" ns0:dataid="uw10780223" ns0:eventsource="uw" ns0:eventid="10780223">
      <preferredOriginID>quakeml:uw.anss.org/Origin/UW/1064528</preferredOriginID>
      <preferredMagnitudeID>quakeml:uw.anss.org/Netmag/UW/2542733</preferredMagnitudeID>
      <type>earthquake</type>
      <creationInfo>
        <agencyID>UW</agencyID>
        <creationTime>2016-12-01T01:49:10.000000Z</creationTime>
        <version>4</version>
      </creationInfo>
      <origin publicID="quakeml:uw.anss.org/Origin/UW/1064528" ns0:datasource="uw" ns0:dataid="uw10780223" ns0:eventsource="uw" ns0:eventid="10780223">
        <time>
          <value>2009-04-27T13:56:45.920000Z</value>
          <uncertainty>0.03</uncertainty>
        </time>
        <latitude>
          <value>48.8231667</value>
          <uncertainty>0.07</uncertainty>
        </latitude>
        <longitude>
          <value>-122.1885</value>
          <uncertainty>0.09</uncertainty>
        </longitude>
        <depth>
          <value>-871.0</value>
          <uncertainty>250.0</uncertainty>
        </depth>
        <depthType>operator assigned</depthType>
        <timeFixed>false</timeFixed>
        <epicenterFixed>false</epicenterFixed>
        <methodID>smi:uw.anss.org/origin/spong</methodID>
        <quality>
          <associatedPhaseCount>27</associatedPhaseCount>
          <usedPhaseCount>26</usedPhaseCount>
          <associatedStationCount>23</associatedStationCount>
          <usedStationCount>0</usedStationCount>
          <standardError>0.49</standardError>
          <azimuthalGap>105.0</azimuthalGap>
        </quality>
        <type>hypocenter</type>
        <evaluationMode>manual</evaluationMode>
        <evaluationStatus>final</evaluationStatus>
        <creationInfo>
          <agencyID>UW</agencyID>
          <creationTime>2012-03-07T17:41:42.000000Z</creationTime>
        </creationInfo>
        <originUncertainty>
          <preferredDescription>horizontal uncertainty</preferredDescription>
          <horizontalUncertainty>114.0</horizontalUncertainty>
        </originUncertainty>
        <arrival publicID="quakeml:uw.anss.org/AssocArO/UW/9982148">
          <pickID>quakeml:uw.anss.org/Arrival/UW/9982148</pickID>
          <phase>P</phase>
          <azimuth>206.5</azimuth>
          <distance>1.311</distance>
          <timeResidual>0.12</timeResidual>
          <creationInfo>
            <agencyID>UW</agencyID>
            <creationTime>2012-03-07T17:41:42.000000Z</creationTime>
          </creationInfo>
        </arrival>
        <arrival publicID="quakeml:uw.anss.org/AssocArO/UW/9982153">
          <pickID>quakeml:uw.anss.org/Arrival/UW/9982153</pickID>
          <phase>P</phase>
          <azimuth>120.9</azimuth>
          <distance>1.442</distance>
          <timeResidual>0.79</timeResidual>
          <creationInfo>
            <agencyID>UW</agencyID>
            <creationTime>2012-03-07T17:41:42.000000Z</creationTime>
          </creationInfo>
        </arrival>
        <arrival publicID="quakeml:uw.anss.org/AssocArO/UW/9982158">
          <pickID>quakeml:uw.anss.org/Arrival/UW/9982158</pickID>
          <phase>P</phase>
          <azimuth>258.7</azimuth>
          <distance>0.8518</distance>
          <timeResidual>-0.42</timeResidual>
          <creationInfo>
            <agencyID>UW</agencyID>
            <creationTime>2012-03-07T17:41:42.000000Z</creationTime>
          </creationInfo>
        </arrival>
        <arrival publicID="quakeml:uw.anss.org/AssocArO/UW/9982163">
          <pickID>quakeml:uw.anss.org/Arrival/UW/9982163</pickID>
          <phase>P</phase>
          <azimuth>205.7</azimuth>
          <distance>1.12</distance>
          <timeResidual>0.11</timeResidual>
          <creationInfo>
            <agencyID>UW</agencyID>
            <creationTime>2012-03-07T17:41:42.000000Z</creationTime>
          </creationInfo>
        </arrival>
        <arrival publicID="quakeml:uw.anss.org/AssocArO/UW/9982168">
          <pickID>quakeml:uw.anss.org/Arrival/UW/9982168</pickID>
          <phase>P</phase>
          <azimuth>15.5</azimuth>
          <distance>0.2108</distance>
          <timeResidual>-0.55</timeResidual>
          <creationInfo>
            <agencyID>UW</agencyID>
            <creationTime>2012-03-07T17:41:42.000000Z</creationTime>
          </creationInfo>
        </arrival>
        <arrival publicID="quakeml:uw.anss.org/AssocArO/UW/9982173">
          <pickID>quakeml:uw.anss.org/Arrival/UW/9982173</pickID>
          <phase>P</phase>
          <azimuth>219.1</azimuth>
          <distance>1.002</distance>
          <timeResidual>0.8</timeResidual>
          <creationInfo>
            <agencyID>UW</agencyID>
            <creationTime>2012-03-07T17:41:42.000000Z</creationTime>
          </creationInfo>
        </arrival>
        <arrival publicID="quakeml:uw.anss.org/AssocArO/UW/9982178">
          <pickID>quakeml:uw.anss.org/Arrival/UW/9982178</pickID>
          <phase>P</phase>
          <azimuth>173.5</azimuth>
          <distance>0.4025</distance>
          <timeResidual>-0.54</timeResidual>
          <creationInfo>
            <agencyID>UW</agencyID>
            <creationTime>2012-03-07T17:41:42.000000Z</creationTime>
          </creationInfo>
        </arrival>
        <arrival publicID="quakeml:uw.anss.org/AssocArO/UW/9982183">
          <pickID>quakeml:uw.anss.org/Arrival/UW/9982183</pickID>
          <phase>P</phase>
          <azimuth>123.0</azimuth>
          <distance>0.5576</distance>
          <timeResidual>-0.12</timeResidual>
          <creationInfo>
            <agencyID>UW</agencyID>
            <creationTime>2012-03-07T17:41:42.000000Z</creationTime>
          </creationInfo>
        </arrival>
        <arrival publicID="quakeml:uw.anss.org/AssocArO/UW/9982188">
          <pickID>quakeml:uw.anss.org/Arrival/UW/9982188</pickID>
          <phase>S</phase>
          <azimuth>123.0</azimuth>
          <distance>0.5576</distance>
          <timeResidual>0.32</timeResidual>
          <creationInfo>
            <agencyID>UW</agencyID>
            <creationTime>2012-03-07T17:41:42.000000Z</creationTime>
          </creationInfo>
        </arrival>
        <arrival publicID="quakeml:uw.anss.org/AssocArO/UW/9982193">
          <pickID>quakeml:uw.anss.org/Arrival/UW/9982193</pickID>
          <phase>P</phase>
          <azimuth>169.3</azimuth>
          <distance>1.388</distance>
          <timeResidual>0.44</timeResidual>
          <creationInfo>
            <agencyID>UW</agencyID>
            <creationTime>2012-03-07T17:41:42.000000Z</creationTime>
          </creationInfo>
        </arrival>
        <arrival publicID="quakeml:uw.anss.org/AssocArO/UW/9982198">
          <pickID>quakeml:uw.anss.org/Arrival/UW/9982198</pickID>
          <phase>P</phase>
          <azimuth>129.9</azimuth>
          <distance>0.5836</distance>
          <timeResidual>-0.16</timeResidual>
          <creationInfo>
            <agencyID>UW</agencyID>
            <creationTime>2012-03-07T17:41:42.000000Z</creationTime>
          </creationInfo>
        </arrival>
        <arrival publicID="quakeml:uw.anss.org/AssocArO/UW/9982203">
          <pickID>quakeml:uw.anss.org/Arrival/UW/9982203</pickID>
          <phase>P</phase>
          <azimuth>18.2</azimuth>
          <distance>0.09827</distance>
          <timeResidual>0.01</timeResidual>
          <creationInfo>
            <agencyID>UW</agencyID>
            <creationTime>2012-03-07T17:41:42.000000Z</creationTime>
          </creationInfo>
        </arrival>
        <arrival publicID="quakeml:uw.anss.org/AssocArO/UW/9982208">
          <pickID>quakeml:uw.anss.org/Arrival/UW/9982208</pickID>
          <phase>S</phase>
          <azimuth>18.2</azimuth>
          <distance>0.09827</distance>
          <timeResidual>-0.42</timeResidual>
          <creationInfo>
            <agencyID>UW</agencyID>
            <creationTime>2012-03-07T17:41:42.000000Z</creationTime>
          </creationInfo>
        </arrival>
        <arrival publicID="quakeml:uw.anss.org/AssocArO/UW/9982213">
          <pickID>quakeml:uw.anss.org/Arrival/UW/9982213</pickID>
          <phase>P</phase>
          <azimuth>163.4</azimuth>
          <distance>1.177</distance>
          <timeResidual>0.8</timeResidual>
          <creationInfo>
            <agencyID>UW</agencyID>
            <creationTime>2012-03-07T17:41:42.000000Z</creationTime>
          </creationInfo>
        </arrival>
        <arrival publicID="quakeml:uw.anss.org/AssocArO/UW/9982218">
          <pickID>quakeml:uw.anss.org/Arrival/UW/9982218</pickID>
          <phase>P</phase>
          <azimuth>101.6</azimuth>
          <distance>0.1942</distance>
          <timeResidual>-0.33</timeResidual>
          <creationInfo>
            <agencyID>UW</agencyID>
            <creationTime>2012-03-07T17:41:42.000000Z</creationTime>
          </creationInfo>
        </arrival>
        <arrival publicID="quakeml:uw.anss.org/AssocArO/UW/9982223">
          <pickID>quakeml:uw.anss.org/Arrival/UW/9982223</pickID>
          <phase>P</phase>
          <azimuth>164.5</azimuth>
          <timeResidual>0.07</timeResidual>
          <creationInfo>
            <agencyID>UW</agencyID>
            <creationTime>2012-03-07T17:41:42.000000Z</creationTime>
          </creationInfo>
        </arrival>
        <arrival publicID="quakeml:uw.anss.org/AssocArO/UW/9982228">
          <pickID>quakeml:uw.anss.org/Arrival/UW/9982228</pickID>
          <phase>P</phase>
          <azimuth>229.3</azimuth>
          <distance>1.162</distance>
          <timeResidual>-0.27</timeResidual>
          <creationInfo>
            <agencyID>UW</agencyID>
            <creationTime>2012-03-07T17:41:42.000000Z</creationTime>
          </creationInfo>
        </arrival>
        <arrival publicID="quakeml:uw.anss.org/AssocArO/UW/9982233">
          <pickID>quakeml:uw.anss.org/Arrival/UW/9982233</pickID>
          <phase>P</phase>
          <azimuth>212.8</azimuth>
          <distance>0.9699</distance>
          <timeResidual>0.75</timeResidual>
          <creationInfo>
            <agencyID>UW</agencyID>
            <creationTime>2012-03-07T17:41:42.000000Z</creationTime>
          </creationInfo>
        </arrival>
        <arrival publicID="quakeml:uw.anss.org/AssocArO/UW/9982238">
          <pickID>quakeml:uw.anss.org/Arrival/UW/9982238</pickID>
          <phase>P</phase>
          <azimuth>21.2</azimuth>
          <distance>0.1881</distance>
          <timeResidual>-0.02</timeResidual>
          <creationInfo>
            <agencyID>UW</agencyID>
            <creationTime>2012-03-07T17:41:42.000000Z</creationTime>
          </creationInfo>
        </arrival>
        <arrival publicID="quakeml:uw.anss.org/AssocArO/UW/9982243">
          <pickID>quakeml:uw.anss.org/Arrival/UW/9982243</pickID>
          <phase>S</phase>
          <azimuth>21.2</azimuth>
          <distance>0.1881</distance>
          <timeResidual>0.67</timeResidual>
          <creationInfo>
            <agencyID>UW</agencyID>
            <creationTime>2012-03-07T17:41:42.000000Z</creationTime>
          </creationInfo>
        </arrival>
        <arrival publicID="quakeml:uw.anss.org/AssocArO/UW/9982248">
          <pickID>quakeml:uw.anss.org/Arrival/UW/9982248</pickID>
          <phase>P</phase>
          <azimuth>270.6</azimuth>
          <distance>1.284</distance>
          <timeResidual>-1.09</timeResidual>
          <creationInfo>
            <agencyID>UW</agencyID>
            <creationTime>2012-03-07T17:41:42.000000Z</creationTime>
          </creationInfo>
        </arrival>
        <arrival publicID="quakeml:uw.anss.org/AssocArO/UW/9982253">
          <pickID>quakeml:uw.anss.org/Arrival/UW/9982253</pickID>
          <phase>P</phase>
          <azimuth>266.1</azimuth>
          <distance>0.6523</distance>
          <timeResidual>0.1</timeResidual>
          <creationInfo>
            <agencyID>UW</agencyID>
            <creationTime>2012-03-07T17:41:42.000000Z</creationTime>
          </creationInfo>
        </arrival>
        <arrival publicID="quakeml:uw.anss.org/AssocArO/UW/9982258">
          <pickID>quakeml:uw.anss.org/Arrival/UW/9982258</pickID>
          <phase>S</phase>
          <azimuth>266.1</azimuth>
          <distance>0.6523</distance>
          <timeResidual>0.2</timeResidual>
          <creationInfo>
            <agencyID>UW</agencyID>
            <creationTime>2012-03-07T17:41:42.000000Z</creationTime>
          </creationInfo>
        </arrival>
        <arrival publicID="quakeml:uw.anss.org/AssocArO/UW/9982263">
          <pickID>quakeml:uw.anss.org/Arrival/UW/9982263</pickID>
          <phase>P</phase>
          <azimuth>205.7</azimuth>
          <distance>1.12</distance>
          <timeResidual>0.17</timeResidual>
          <creationInfo>
            <agencyID>UW</agencyID>
            <creationTime>2012-03-07T17:41:42.000000Z</creationTime>
          </creationInfo>
        </arrival>
        <arrival publicID="quakeml:uw.anss.org/AssocArO/UW/9982268">
          <pickID>quakeml:uw.anss.org/Arrival/UW/9982268</pickID>
          <phase>P</phase>
          <azimuth>164.5</azimuth>
          <distance>1.058</distance>
          <timeResidual>1.02</timeResidual>
          <creationInfo>
            <agencyID>UW</agencyID>
            <creationTime>2012-03-07T17:41:42.000000Z</creationTime>
          </creationInfo>
        </arrival>
        <arrival publicID="quakeml:uw.anss.org/AssocArO/UW/9982273">
          <pickID>quakeml:uw.anss.org/Arrival/UW/9982273</pickID>
          <phase>P</phase>
          <azimuth>251.5</azimuth>
          <distance>0.45</distance>
          <timeResidual>-0.18</timeResidual>
          <creationInfo>
            <agencyID>UW</agencyID>
            <creationTime>2012-03-07T17:41:42.000000Z</creationTime>
          </creationInfo>
        </arrival>
        <arrival publicID="quakeml:uw.anss.org/AssocArO/UW/9982278">
          <pickID>quakeml:uw.anss.org/Arrival/UW/9982278</pickID>
          <phase>P</phase>
          <azimuth>174.0</azimuth>
          <distance>0.9933</distance>
          <timeResidual>0.84</timeResidual>
          <creationInfo>
            <agencyID>UW</agencyID>
            <creationTime>2012-03-07T17:41:42.000000Z</creationTime>
          </creationInfo>
        </arrival>
      </origin>
      <magnitude publicID="quakeml:uw.anss.org/Netmag/UW/2542733">
        <mag>
          <value>2.2</value>
          <uncertainty>0.154</uncertainty>
        </mag>
        <type>Ml</type>
        <originID>quakeml:uw.anss.org/Origin/UW/1064528</originID>
        <methodID>smi:uw.anss.org/magnitude/RichterMl2</methodID>
        <stationCount>18</stationCount>
        <azimuthalGap>107.6</azimuthalGap>
        <evaluationMode>automatic</evaluationMode>
        <evaluationStatus>preliminary</evaluationStatus>
        <stationMagnitudeContribution>
          <stationMagnitudeID>quakeml:uw.anss.org/AssocAmM/UW/9483908</stationMagnitudeID>
          <weight>1.0</weight>
          <residual>0.23</residual>
        </stationMagnitudeContribution>
        <stationMagnitudeContribution>
          <stationMagnitudeID>quakeml:uw.anss.org/AssocAmM/UW/9483888</stationMagnitudeID>
          <weight>1.0</weight>
          <residual>0.43</residual>
        </stationMagnitudeContribution>
        <stationMagnitudeContribution>
          <stationMagnitudeID>quakeml:uw.anss.org/AssocAmM/UW/9483788</stationMagnitudeID>
          <weight>0.0</weight>
          <residual>-0.5</residual>
        </stationMagnitudeContribution>
        <stationMagnitudeContribution>
          <stationMagnitudeID>quakeml:uw.anss.org/AssocAmM/UW/9483838</stationMagnitudeID>
          <weight>1.0</weight>
          <residual>-0.1</residual>
        </stationMagnitudeContribution>
        <stationMagnitudeContribution>
          <stationMagnitudeID>quakeml:uw.anss.org/AssocAmM/UW/9483818</stationMagnitudeID>
          <weight>1.0</weight>
          <residual>0.04</residual>
        </stationMagnitudeContribution>
        <stationMagnitudeContribution>
          <stationMagnitudeID>quakeml:uw.anss.org/AssocAmM/UW/9483918</stationMagnitudeID>
          <weight>1.0</weight>
          <residual>0.11</residual>
        </stationMagnitudeContribution>
        <stationMagnitudeContribution>
          <stationMagnitudeID>quakeml:uw.anss.org/AssocAmM/UW/9483923</stationMagnitudeID>
          <weight>1.0</weight>
          <residual>-0.15</residual>
        </stationMagnitudeContribution>
        <stationMagnitudeContribution>
          <stationMagnitudeID>quakeml:uw.anss.org/AssocAmM/UW/9483783</stationMagnitudeID>
          <weight>1.0</weight>
          <residual>0.18</residual>
        </stationMagnitudeContribution>
        <stationMagnitudeContribution>
          <stationMagnitudeID>quakeml:uw.anss.org/AssocAmM/UW/9483853</stationMagnitudeID>
          <weight>1.0</weight>
          <residual>0.02</residual>
        </stationMagnitudeContribution>
        <stationMagnitudeContribution>
          <stationMagnitudeID>quakeml:uw.anss.org/AssocAmM/UW/9483913</stationMagnitudeID>
          <weight>1.0</weight>
          <residual>0.23</residual>
        </stationMagnitudeContribution>
        <stationMagnitudeContribution>
          <stationMagnitudeID>quakeml:uw.anss.org/AssocAmM/UW/9483813</stationMagnitudeID>
          <weight>1.0</weight>
          <residual>-0.09</residual>
        </stationMagnitudeContribution>
        <stationMagnitudeContribution>
          <stationMagnitudeID>quakeml:uw.anss.org/AssocAmM/UW/9483893</stationMagnitudeID>
          <weight>1.0</weight>
          <residual>0.36</residual>
        </stationMagnitudeContribution>
        <stationMagnitudeContribution>
          <stationMagnitudeID>quakeml:uw.anss.org/AssocAmM/UW/9483778</stationMagnitudeID>
          <weight>1.0</weight>
          <residual>0.24</residual>
        </stationMagnitudeContribution>
        <stationMagnitudeContribution>
          <stationMagnitudeID>quakeml:uw.anss.org/AssocAmM/UW/9483858</stationMagnitudeID>
          <weight>1.0</weight>
          <residual>-0.2</residual>
        </stationMagnitudeContribution>
        <stationMagnitudeContribution>
          <stationMagnitudeID>quakeml:uw.anss.org/AssocAmM/UW/9483873</stationMagnitudeID>
          <weight>1.0</weight>
          <residual>-0.08</residual>
        </stationMagnitudeContribution>
        <stationMagnitudeContribution>
          <stationMagnitudeID>quakeml:uw.anss.org/AssocAmM/UW/9483878</stationMagnitudeID>
          <weight>1.0</weight>
          <residual>0.0</residual>
        </stationMagnitudeContribution>
        <stationMagnitudeContribution>
          <stationMagnitudeID>quakeml:uw.anss.org/AssocAmM/UW/9483883</stationMagnitudeID>
          <weight>1.0</weight>
          <residual>0.09</residual>
        </stationMagnitudeContribution>
        <stationMagnitudeContribution>
          <stationMagnitudeID>quakeml:uw.anss.org/AssocAmM/UW/9483803</stationMagnitudeID>
          <weight>1.0</weight>
          <residual>0.04</residual>
        </stationMagnitudeContribution>
        <stationMagnitudeContribution>
          <stationMagnitudeID>quakeml:uw.anss.org/AssocAmM/UW/9483848</stationMagnitudeID>
          <weight>1.0</weight>
          <residual>-0.07</residual>
        </stationMagnitudeContribution>
        <stationMagnitudeContribution>
          <stationMagnitudeID>quakeml:uw.anss.org/AssocAmM/UW/9483898</stationMagnitudeID>
          <weight>1.0</weight>
          <residual>0.36</residual>
        </stationMagnitudeContribution>
        <stationMagnitudeContribution>
