<?xml version='1.0' encoding='utf-8'?>
<q:quakeml xmlns="http://quakeml.org/xmlns/bed/1.2" xmlns:q="http://quakeml.org/xmlns/quakeml/1.2" xmlns:ns0="http://anss.org/xmlns/catalog/0.1">
  <eventParameters publicID="smi:local/6efe12f3-c20e-42f7-8965-b646c63daa84">
    <event publicID="quakeml:uw.anss.org/Event/UW/10765593" ns0:datasource="uw" ns0:dataid="uw10765593" ns0:eventsource="uw" ns0:eventid="10765593">
      <preferredOriginID>quakeml:uw.anss.org/Origin/UW/1048523</preferredOriginID>
      <preferredMagnitudeID>quakeml:uw.anss.org/Netmag/UW/2535758</preferredMagnitudeID>
      <type>earthquake</type>
      <creationInfo>
        <agencyID>UW</agencyID>
        <creationTime>2016-12-01T00:20:13.000000Z</creationTime>
        <version>4</version>
      </creationInfo>
      <origin publicID="quakeml:uw.anss.org/Origin/UW/1048523" ns0:datasource="uw" ns0:dataid="uw10765593" ns0:eventsource="uw" ns0:eventid="10765593">
        <time>
          <value>2009-05-03T15:43:48.730000Z</value>
          <uncertainty>0.01</uncertainty>
        </time>
        <latitude>
          <value>48.8245</value>
          <uncertainty>0.03</uncertainty>
        </latitude>
        <longitude>
          <value>-122.1328333</value>
          <uncertainty>0.06</uncertainty>
        </longitude>
        <depth>
          <value>12539.0</value>
          <uncertainty>120.0</uncertainty>
        </depth>
        <depthType>operator assigned</depthType>
        <timeFixed>false</timeFixed>
        <epicenterFixed>true</epicenterFixed>
        <methodID>smi:uw.anss.org/origin/spong</methodID>
        <quality>
          <associatedPhaseCount>37</associatedPhaseCount>
          <usedPhaseCount>30</usedPhaseCount>
          <associatedStationCount>24</associatedStationCount>
          <usedStationCount>0</usedStationCount>
          <standardError>0.32</standardError>
          <azimuthalGap>94.0</azimuthalGap>
        </quality>
        <type>hypocenter</type>
        <evaluationMode>manual</evaluationMode>
        <evaluationStatus>final</evaluationStatus>
        <creationInfo>
          <agencyID>UW</agencyID>
          <creationTime>2012-03-06T14:36:00.000000Z</creationTime>
        </creationInfo>
        <originUncertainty>
          <preferredDescription>horizontal uncertainty</preferredDescription>
          <horizontalUncertainty>67.0</horizontalUncertainty>
        </originUncertainty>
        <arrival publicID="quakeml:uw.anss.org/AssocArO/UW/9830338">
          <pickID>quakeml:uw.anss.org/Arrival/UW/9830338</pickID>
          <phase>P</phase>
          <azimuth>207.9</azimuth>
          <distance>1.329</distance>
          <timeResidual>0.15</timeResidual>
          <creationInfo>
            <agencyID>UW</agencyID>
            <creationTime>2012-03-06T14:36:00.000000Z</creationTime>
          </creationInfo>
        </arrival>
        <arrival publicID="quakeml:uw.anss.org/AssocArO/UW/9830343">
          <pickID>quakeml:uw.anss.org/Arrival/UW/9830343</pickID>
          <phase>P</phase>
          <azimuth>259.1</azimuth>
          <distance>0.8882</distance>
          <timeResidual>-0.38</timeResidual>
          <creationInfo>
            <agencyID>UW</agencyID>
            <creationTime>2012-03-06T14:36:00.000000Z</creationTime>
          </creationInfo>
        </arrival>
        <arrival publicID="quakeml:uw.anss.org/AssocArO/UW/9830348">
          <pickID>quakeml:uw.anss.org/Arrival/UW/9830348</pickID>
          <phase>P</phase>
          <azimuth>207.4</azimuth>
          <distance>1.138</distance>
          <timeResidual>0.48</timeResidual>
          <creationInfo>
            <agencyID>UW</agencyID>
            <creationTime>2012-03-06T14:36:00.000000Z</creationTime>
          </creationInfo>
        </arrival>
        <arrival publicID="quakeml:uw.anss.org/AssocArO/UW/9830353">
          <pickID>quakeml:uw.anss.org/Arrival/UW/9830353</pickID>
          <phase>S</phase>
          <azimuth>207.4</azimuth>
          <distance>1.138</distance>
          <timeResidual>-0.34</timeResidual>
          <creationInfo>
            <agencyID>UW</agencyID>
            <creationTime>2012-03-06T14:36:00.000000Z</creationTime>
          </creationInfo>
        </arrival>
        <arrival publicID="quakeml:uw.anss.org/AssocArO/UW/9830358">
          <pickID>quakeml:uw.anss.org/Arrival/UW/9830358</pickID>
          <phase>P</phase>
          <azimuth>220.7</azimuth>
          <distance>1.027</distance>
          <timeResidual>0.39</timeResidual>
          <creationInfo>
            <agencyID>UW</agencyID>
            <creationTime>2012-03-06T14:36:00.000000Z</creationTime>
          </creationInfo>
        </arrival>
        <arrival publicID="quakeml:uw.anss.org/AssocArO/UW/9830363">
          <pickID>quakeml:uw.anss.org/Arrival/UW/9830363</pickID>
          <phase>P</phase>
          <azimuth>178.8</azimuth>
          <distance>0.4014</distance>
          <timeResidual>-0.4</timeResidual>
          <creationInfo>
            <agencyID>UW</agencyID>
            <creationTime>2012-03-06T14:36:00.000000Z</creationTime>
          </creationInfo>
        </arrival>
        <arrival publicID="quakeml:uw.anss.org/AssocArO/UW/9830368">
          <pickID>quakeml:uw.anss.org/Arrival/UW/9830368</pickID>
          <phase>P</phase>
          <azimuth>125.3</azimuth>
          <distance>0.5278</distance>
          <timeResidual>0.13</timeResidual>
          <creationInfo>
            <agencyID>UW</agencyID>
            <creationTime>2012-03-06T14:36:00.000000Z</creationTime>
          </creationInfo>
        </arrival>
        <arrival publicID="quakeml:uw.anss.org/AssocArO/UW/9830373">
          <pickID>quakeml:uw.anss.org/Arrival/UW/9830373</pickID>
          <phase>S</phase>
          <azimuth>125.3</azimuth>
          <distance>0.5278</distance>
          <timeResidual>0.02</timeResidual>
          <creationInfo>
            <agencyID>UW</agencyID>
            <creationTime>2012-03-06T14:36:00.000000Z</creationTime>
          </creationInfo>
        </arrival>
        <arrival publicID="quakeml:uw.anss.org/AssocArO/UW/9830383">
          <pickID>quakeml:uw.anss.org/Arrival/UW/9830383</pickID>
          <phase>P</phase>
          <azimuth>170.8</azimuth>
          <distance>1.383</distance>
          <timeResidual>0.94</timeResidual>
          <creationInfo>
            <agencyID>UW</agencyID>
            <creationTime>2012-03-06T14:36:00.000000Z</creationTime>
          </creationInfo>
        </arrival>
        <arrival publicID="quakeml:uw.anss.org/AssocArO/UW/9830388">
          <pickID>quakeml:uw.anss.org/Arrival/UW/9830388</pickID>
          <phase>P</phase>
          <azimuth>132.4</azimuth>
          <distance>0.5567</distance>
          <timeResidual>-0.04</timeResidual>
          <creationInfo>
            <agencyID>UW</agencyID>
            <creationTime>2012-03-06T14:36:00.000000Z</creationTime>
          </creationInfo>
        </arrival>
        <arrival publicID="quakeml:uw.anss.org/AssocArO/UW/9830403">
          <pickID>quakeml:uw.anss.org/Arrival/UW/9830403</pickID>
          <phase>S</phase>
          <azimuth>132.4</azimuth>
          <distance>0.5567</distance>
          <timeResidual>-0.42</timeResidual>
          <creationInfo>
            <agencyID>UW</agencyID>
            <creationTime>2012-03-06T14:36:00.000000Z</creationTime>
          </creationInfo>
        </arrival>
        <arrival publicID="quakeml:uw.anss.org/AssocArO/UW/9830428">
          <pickID>quakeml:uw.anss.org/Arrival/UW/9830428</pickID>
          <phase>P</phase>
          <azimuth>356.5</azimuth>
          <distance>0.09215</distance>
          <timeResidual>-0.09</timeResidual>
          <creationInfo>
            <agencyID>UW</agencyID>
            <creationTime>2012-03-06T14:36:00.000000Z</creationTime>
          </creationInfo>
        </arrival>
        <arrival publicID="quakeml:uw.anss.org/AssocArO/UW/9830433">
          <pickID>quakeml:uw.anss.org/Arrival/UW/9830433</pickID>
          <phase>S</phase>
          <azimuth>356.5</azimuth>
          <distance>0.09215</distance>
          <timeResidual>0.18</timeResidual>
          <creationInfo>
            <agencyID>UW</agencyID>
            <creationTime>2012-03-06T14:36:00.000000Z</creationTime>
          </creationInfo>
        </arrival>
        <arrival publicID="quakeml:uw.anss.org/AssocArO/UW/9830438">
          <pickID>quakeml:uw.anss.org/Arrival/UW/9830438</pickID>
          <phase>P</phase>
          <azimuth>165.2</azimuth>
          <distance>1.169</distance>
          <timeResidual>0.81</timeResidual>
          <creationInfo>
            <agencyID>UW</agencyID>
            <creationTime>2012-03-06T14:36:00.000000Z</creationTime>
          </creationInfo>
        </arrival>
        <arrival publicID="quakeml:uw.anss.org/AssocArO/UW/9830443">
          <pickID>quakeml:uw.anss.org/Arrival/UW/9830443</pickID>
          <phase>S</phase>
          <azimuth>165.2</azimuth>
          <distance>1.169</distance>
          <timeResidual>-0.12</timeResidual>
          <creationInfo>
            <agencyID>UW</agencyID>
            <creationTime>2012-03-06T14:36:01.000000Z</creationTime>
          </creationInfo>
        </arrival>
        <arrival publicID="quakeml:uw.anss.org/AssocArO/UW/9830448">
          <pickID>quakeml:uw.anss.org/Arrival/UW/9830448</pickID>
          <phase>P</phase>
          <azimuth>104.8</azimuth>
          <distance>0.1587</distance>
          <timeResidual>-0.2</timeResidual>
          <creationInfo>
            <agencyID>UW</agencyID>
            <creationTime>2012-03-06T14:36:01.000000Z</creationTime>
          </creationInfo>
        </arrival>
        <arrival publicID="quakeml:uw.anss.org/AssocArO/UW/9830453">
          <pickID>quakeml:uw.anss.org/Arrival/UW/9830453</pickID>
          <phase>P</phase>
          <azimuth>167.7</azimuth>
          <timeResidual>0.26</timeResidual>
          <creationInfo>
            <agencyID>UW</agencyID>
            <creationTime>2012-03-06T14:36:01.000000Z</creationTime>
          </creationInfo>
        </arrival>
        <arrival publicID="quakeml:uw.anss.org/AssocArO/UW/9830458">
          <pickID>quakeml:uw.anss.org/Arrival/UW/9830458</pickID>
          <phase>S</phase>
          <azimuth>167.7</azimuth>
          <timeResidual>1.17</timeResidual>
          <creationInfo>
            <agencyID>UW</agencyID>
            <creationTime>2012-03-06T14:36:01.000000Z</creationTime>
          </creationInfo>
        </arrival>
        <arrival publicID="quakeml:uw.anss.org/AssocArO/UW/9830463">
          <pickID>quakeml:uw.anss.org/Arrival/UW/9830463</pickID>
          <phase>P</phase>
          <azimuth>230.4</azimuth>
          <distance>1.19</distance>
          <timeResidual>-0.18</timeResidual>
          <creationInfo>
            <agencyID>UW</agencyID>
            <creationTime>2012-03-06T14:36:01.000000Z</creationTime>
          </creationInfo>
        </arrival>
        <arrival publicID="quakeml:uw.anss.org/AssocArO/UW/9830468">
          <pickID>quakeml:uw.anss.org/Arrival/UW/9830468</pickID>
          <phase>S</phase>
          <azimuth>230.4</azimuth>
          <distance>1.19</distance>
          <timeResidual>-0.9</timeResidual>
          <creationInfo>
            <agencyID>UW</agencyID>
            <creationTime>2012-03-06T14:36:01.000000Z</creationTime>
          </creationInfo>
        </arrival>
        <arrival publicID="quakeml:uw.anss.org/AssocArO/UW/9830473">
          <pickID>quakeml:uw.anss.org/Arrival/UW/9830473</pickID>
          <phase>S</phase>
          <azimuth>230.4</azimuth>
          <distance>1.193</distance>
          <timeResidual>-1.0</timeResidual>
          <creationInfo>
            <agencyID>UW</agencyID>
            <creationTime>2012-03-06T14:36:01.000000Z</creationTime>
          </creationInfo>
        </arrival>
        <arrival publicID="quakeml:uw.anss.org/AssocArO/UW/9830478">
          <pickID>quakeml:uw.anss.org/Arrival/UW/9830478</pickID>
          <phase>P</phase>
          <azimuth>230.4</azimuth>
          <distance>1.193</distance>
          <timeResidual>-0.25</timeResidual>
          <creationInfo>
            <agencyID>UW</agencyID>
            <creationTime>2012-03-06T14:36:01.000000Z</creationTime>
          </creationInfo>
        </arrival>
        <arrival publicID="quakeml:uw.anss.org/AssocArO/UW/9830483">
          <pickID>quakeml:uw.anss.org/Arrival/UW/9830483</pickID>
          <phase>P</phase>
          <azimuth>230.4</azimuth>
          <distance>1.191</distance>
          <timeResidual>-0.21</timeResidual>
          <creationInfo>
            <agencyID>UW</agencyID>
            <creationTime>2012-03-06T14:36:01.000000Z</creationTime>
          </creationInfo>
        </arrival>
        <arrival publicID="quakeml:uw.anss.org/AssocArO/UW/9830488">
          <pickID>quakeml:uw.anss.org/Arrival/UW/9830488</pickID>
          <phase>S</phase>
          <azimuth>230.4</azimuth>
          <distance>1.191</distance>
          <timeResidual>-0.98</timeResidual>
          <creationInfo>
            <agencyID>UW</agencyID>
            <creationTime>2012-03-06T14:36:01.000000Z</creationTime>
          </creationInfo>
        </arrival>
        <arrival publicID="quakeml:uw.anss.org/AssocArO/UW/9830493">
          <pickID>quakeml:uw.anss.org/Arrival/UW/9830493</pickID>
          <phase>P</phase>
          <azimuth>10.2</azimuth>
          <distance>0.1768</distance>
          <timeResidual>0.08</timeResidual>
          <creationInfo>
            <agencyID>UW</agencyID>
            <creationTime>2012-03-06T14:36:01.000000Z</creationTime>
          </creationInfo>
        </arrival>
        <arrival publicID="quakeml:uw.anss.org/AssocArO/UW/9830498">
          <pickID>quakeml:uw.anss.org/Arrival/UW/9830498</pickID>
          <phase>S</phase>
          <azimuth>10.2</azimuth>
          <distance>0.1768</distance>
          <timeResidual>0.44</timeResidual>
          <creationInfo>
            <agencyID>UW</agencyID>
            <creationTime>2012-03-06T14:36:01.000000Z</creationTime>
          </creationInfo>
        </arrival>
        <arrival publicID="quakeml:uw.anss.org/AssocArO/UW/9830503">
          <pickID>quakeml:uw.anss.org/Arrival/UW/9830503</pickID>
          <phase>P</phase>
          <azimuth>266.3</azimuth>
          <distance>0.6891</distance>
          <timeResidual>0.35</timeResidual>
          <creationInfo>
            <agencyID>UW</agencyID>
            <creationTime>2012-03-06T14:36:01.000000Z</creationTime>
          </creationInfo>
        </arrival>
        <arrival publicID="quakeml:uw.anss.org/AssocArO/UW/9830508">
          <pickID>quakeml:uw.anss.org/Arrival/UW/9830508</pickID>
          <phase>S</phase>
          <azimuth>266.3</azimuth>
          <distance>0.6891</distance>
          <timeResidual>-0.02</timeResidual>
          <creationInfo>
            <agencyID>UW</agencyID>
            <creationTime>2012-03-06T14:36:01.000000Z</creationTime>
          </creationInfo>
        </arrival>
        <arrival publicID="quakeml:uw.anss.org/AssocArO/UW/9830513">
          <pickID>quakeml:uw.anss.org/Arrival/UW/9830513</pickID>
          <phase>P</phase>
          <azimuth>207.4</azimuth>
          <distance>1.138</distance>
          <timeResidual>0.21</timeResidual>
          <creationInfo>
            <agencyID>UW</agencyID>
            <creationTime>2012-03-06T14:36:01.000000Z</creationTime>
          </creationInfo>
        </arrival>
        <arrival publicID="quakeml:uw.anss.org/AssocArO/UW/9830518">
          <pickID>quakeml:uw.anss.org/Arrival/UW/9830518</pickID>
          <phase>P</phase>
          <azimuth>181.8</azimuth>
          <distance>1.84</distance>
          <timeResidual>0.24</timeResidual>
          <creationInfo>
            <agencyID>UW</agencyID>
            <creationTime>2012-03-06T14:36:01.000000Z</creationTime>
          </creationInfo>
        </arrival>
        <arrival publicID="quakeml:uw.anss.org/AssocArO/UW/9830523">
          <pickID>quakeml:uw.anss.org/Arrival/UW/9830523</pickID>
          <phase>P</phase>
          <azimuth>166.5</azimuth>
          <distance>1.05</distance>
          <timeResidual>0.67</timeResidual>
          <creationInfo>
            <agencyID>UW</agencyID>
            <creationTime>2012-03-06T14:36:01.000000Z</creationTime>
          </creationInfo>
        </arrival>
        <arrival publicID="quakeml:uw.anss.org/AssocArO/UW/9830528">
          <pickID>quakeml:uw.anss.org/Arrival/UW/9830528</pickID>
          <phase>P</phase>
          <azimuth>5.6</azimuth>
          <distance>0.2028</distance>
          <timeResidual>-0.03</timeResidual>
          <creationInfo>
            <agencyID>UW</agencyID>
            <creationTime>2012-03-06T14:36:01.000000Z</creationTime>
          </creationInfo>
        </arrival>
        <arrival publicID="quakeml:uw.anss.org/AssocArO/UW/9830533">
          <pickID>quakeml:uw.anss.org/Arrival/UW/9830533</pickID>
          <phase>P</phase>
          <azimuth>219.3</azimuth>
          <distance>0.9674</distance>
          <timeResidual>0.68</timeResidual>
          <creationInfo>
            <agencyID>UW</agencyID>
            <creationTime>2012-03-06T14:36:01.000000Z</creationTime>
          </creationInfo>
        </arrival>
        <arrival publicID="quakeml:uw.anss.org/AssocArO/UW/9830538">
          <pickID>quakeml:uw.anss.org/Arrival/UW/9830538</pickID>
          <phase>S</phase>
          <azimuth>219.3</azimuth>
          <distance>0.9674</distance>
          <timeResidual>1.14</timeResidual>
          <creationInfo>
            <agencyID>UW</agencyID>
            <creationTime>2012-03-06T14:36:01.000000Z</creationTime>
          </creationInfo>
        </arrival>
        <arrival publicID="quakeml:uw.anss.org/AssocArO/UW/9830543">
          <pickID>quakeml:uw.anss.org/Arrival/UW/9830543</pickID>
          <phase>P</phase>
          <azimuth>230.0</azimuth>
          <distance>1.119</distance>
          <timeResidual>0.39</timeResidual>
          <creationInfo>
            <agencyID>UW</agencyID>
            <creationTime>2012-03-06T14:36:01.000000Z</creationTime>
          </creationInfo>
        </arrival>
        <arrival publicID="quakeml:uw.anss.org/AssocArO/UW/9830548">
          <pickID>quakeml:uw.anss.org/Arrival/UW/9830548</pickID>
          <phase>S</phase>
          <azimuth>230.0</azimuth>
          <distance>1.119</distance>
          <timeResidual>0.11</timeResidual>
          <creationInfo>
            <agencyID>UW</agencyID>
            <creationTime>2012-03-06T14:36:01.000000Z</creationTime>
          </creationInfo>
        </arrival>
        <arrival publicID="quakeml:uw.anss.org/AssocArO/UW/9830553">
          <pickID>quakeml:uw.anss.org/Arrival/UW/9830553</pickID>
          <phase>P</phase>
          <azimuth>252.8</azimuth>
          <distance>0.4855</distance>
          <timeResidual>-0.08</timeResidual>
          <creationInfo>
            <agencyID>UW</agencyID>
            <creationTime>2012-03-06T14:36:01.000000Z</creationTime>
          </creationInfo>
        </arrival>
      </origin>
      <magnitude publicID="quakeml:uw.anss.org/Netmag/UW/2535758">
        <mag>
          <value>2.33</value>
          <uncertainty>0.208</uncertainty>
        </mag>
        <type>Ml</type>
        <originID>quakeml:uw.anss.org/Origin/UW/1048523</originID>
        <methodID>smi:uw.anss.org/magnitude/RichterMl2</methodID>
        <stationCount>17</stationCount>
        <azimuthalGap>115.1</azimuthalGap>
        <evaluationMode>automatic</evaluationMode>
        <evaluationStatus>preliminary</evaluationStatus>
        <stationMagnitudeContribution>
          <stationMagnitudeID>quakeml:uw.anss.org/AssocAmM/UW/9400618</stationMagnitudeID>
          <weight>1.0</weight>
          <residual>0.36</residual>
        </stationMagnitudeContribution>
        <stationMagnitudeContribution>
