<?xml version='1.0' encoding='utf-8'?>
<q:quakeml xmlns="http://quakeml.org/xmlns/bed/1.2" xmlns:q="http://quakeml.org/xmlns/quakeml/1.2" xmlns:ns0="http://anss.org/xmlns/catalog/0.1">
  <eventParameters publicID="smi:local/02173b31-ff65-4af4-97c0-59ff86539de3">
    <event publicID="quakeml:uw.anss.org/Event/UW/61518232" ns0:datasource="uw" ns0:dataid="uw61518232" ns0:eventsource="uw" ns0:eventid="61518232">
      <preferredOriginID>quakeml:uw.anss.org/Origin/UW/3093873</preferredOriginID>
      <preferredMagnitudeID>quakeml:uw.anss.org/Netmag/UW/3001448</preferredMagnitudeID>
      <type>earthquake</type>
      <creationInfo>
        <agencyID>UW</agencyID>
        <creationTime>2019-04-18T18:24:29.000000Z</creationTime>
        <version>2</version>
      </creationInfo>
      <origin publicID="quakeml:uw.anss.org/Origin/UW/3093873" ns0:datasource="uw" ns0:dataid="uw61518232" ns0:eventsource="uw" ns0:eventid="61518232">
        <time>
          <value>2019-04-18T02:52:25.780000Z</value>
        </time>
        <latitude>
          <value>48.79833333333333</value>
        </latitude>
        <longitude>
          <value>-122.0755</value>
        </longitude>
        <depth>
          <value>-770.0</value>
          <uncertainty>920.0</uncertainty>
        </depth>
        <depthType>from location</depthType>
        <timeFixed>false</timeFixed>
        <epicenterFixed>false</epicenterFixed>
        <methodID>smi:uw.anss.org/origin/HYP2000</methodID>
        <quality>
          <associatedPhaseCount>23</associatedPhaseCount>
          <usedPhaseCount>14</usedPhaseCount>
          <associatedStationCount>17</associatedStationCount>
          <usedStationCount>9</usedStationCount>
          <standardError>0.23</standardError>
          <azimuthalGap>75.0</azimuthalGap>
          <secondaryAzimuthalGap>450.0</secondaryAzimuthalGap>
          <minimumDistance>0.1164</minimumDistance>
          <maximumDistance>1.386</maximumDistance>
          <medianDistance>0.73</medianDistance>
        </quality>
        <type>hypocenter</type>
        <evaluationMode>manual</evaluationMode>
        <evaluationStatus>final</evaluationStatus>
        <creationInfo>
          <agencyID>UW</agencyID>
          <creationTime>2019-04-18T18:24:26.000000Z</creationTime>
        </creationInfo>
        <originUncertainty>
          <preferredDescription>confidence ellipsoid</preferredDescription>
          <horizontalUncertainty>430.0</horizontalUncertainty>
          <confidenceLevel>95.0</confidenceLevel>
          <confidenceEllipsoid>
            <semiMajorAxisLength>2304.0</semiMajorAxisLength>
            <semiMinorAxisLength>960.0</semiMinorAxisLength>
            <semiIntermediateAxisLength>1032.0</semiIntermediateAxisLength>
            <majorAxisPlunge>72.0</majorAxisPlunge>
            <majorAxisAzimuth>355.0</majorAxisAzimuth>
            <majorAxisRotation>291.0</majorAxisRotation>
          </confidenceEllipsoid>
        </originUncertainty>
        <arrival publicID="quakeml:uw.anss.org/AssocArO/UW/14784863">
          <pickID>quakeml:uw.anss.org/Arrival/UW/14784863</pickID>
          <phase>P</phase>
          <timeCorrection>0.38</timeCorrection>
          <azimuth>97.13634151677434</azimuth>
          <distance>0.1164</distance>
          <takeoffAngle>
            <value>90.0</value>
          </takeoffAngle>
          <timeResidual>-0.05</timeResidual>
          <timeWeight>0.25</timeWeight>
          <creationInfo>
            <agencyID>UW</agencyID>
            <creationTime>2019-04-18T18:24:29.000000Z</creationTime>
          </creationInfo>
        </arrival>
        <arrival publicID="quakeml:uw.anss.org/AssocArO/UW/14784868">
          <pickID>quakeml:uw.anss.org/Arrival/UW/14784868</pickID>
          <phase>P</phase>
          <timeCorrection>0.0</timeCorrection>
          <azimuth>339.75800323855594</azimuth>
          <distance>0.126</distance>
          <takeoffAngle>
            <value>90.0</value>
          </takeoffAngle>
          <timeResidual>-0.1</timeResidual>
          <timeWeight>0.18</timeWeight>
          <creationInfo>
            <agencyID>UW</agencyID>
            <creationTime>2019-04-18T18:24:29.000000Z</creationTime>
          </creationInfo>
        </arrival>
        <arrival publicID="quakeml:uw.anss.org/AssocArO/UW/14784873">
          <pickID>quakeml:uw.anss.org/Arrival/UW/14784873</pickID>
          <phase>S</phase>
          <timeCorrection>0.0</timeCorrection>
          <azimuth>339.75800323855594</azimuth>
          <distance>0.126</distance>
          <takeoffAngle>
            <value>90.0</value>
          </takeoffAngle>
          <timeResidual>0.88</timeResidual>
          <timeWeight>0.01</timeWeight>
          <creationInfo>
            <agencyID>UW</agencyID>
            <creationTime>2019-04-18T18:24:29.000000Z</creationTime>
          </creationInfo>
        </arrival>
        <arrival publicID="quakeml:uw.anss.org/AssocArO/UW/14784878">
          <pickID>quakeml:uw.anss.org/Arrival/UW/14784878</pickID>
          <phase>P</phase>
          <timeCorrection>0.0</timeCorrection>
          <azimuth>78.11467192897328</azimuth>
          <distance>0.269</distance>
          <takeoffAngle>
            <value>57.0</value>
          </takeoffAngle>
          <timeResidual>0.09</timeResidual>
          <timeWeight>0.25</timeWeight>
          <creationInfo>
            <agencyID>UW</agencyID>
            <creationTime>2019-04-18T18:24:29.000000Z</creationTime>
          </creationInfo>
        </arrival>
        <arrival publicID="quakeml:uw.anss.org/AssocArO/UW/14784883">
          <pickID>quakeml:uw.anss.org/Arrival/UW/14784883</pickID>
          <phase>S</phase>
          <timeCorrection>0.0</timeCorrection>
          <azimuth>78.11467192897328</azimuth>
          <distance>0.269</distance>
          <takeoffAngle>
            <value>57.0</value>
          </takeoffAngle>
          <timeResidual>0.05</timeResidual>
          <timeWeight>0.12</timeWeight>
          <creationInfo>
            <agencyID>UW</agencyID>
            <creationTime>2019-04-18T18:24:29.000000Z</creationTime>
          </creationInfo>
        </arrival>
        <arrival publicID="quakeml:uw.anss.org/AssocArO/UW/14784888">
          <pickID>quakeml:uw.anss.org/Arrival/UW/14784888</pickID>
          <phase>P</phase>
          <timeCorrection>0.0</timeCorrection>
          <azimuth>259.58252807017703</azimuth>
          <distance>0.4247</distance>
          <takeoffAngle>
            <value>57.0</value>
          </takeoffAngle>
          <timeResidual>5.46</timeResidual>
          <timeWeight>0.0</timeWeight>
          <creationInfo>
            <agencyID>UW</agencyID>
            <creationTime>2019-04-18T18:24:29.000000Z</creationTime>
          </creationInfo>
        </arrival>
        <arrival publicID="quakeml:uw.anss.org/AssocArO/UW/14784893">
          <pickID>quakeml:uw.anss.org/Arrival/UW/14784893</pickID>
          <phase>P</phase>
          <timeCorrection>-0.08</timeCorrection>
          <azimuth>256.84338440280976</azimuth>
          <distance>0.5152</distance>
          <takeoffAngle>
            <value>57.0</value>
          </takeoffAngle>
          <timeResidual>-0.55</timeResidual>
          <timeWeight>0.12</timeWeight>
          <creationInfo>
            <agencyID>UW</agencyID>
            <creationTime>2019-04-18T18:24:29.000000Z</creationTime>
          </creationInfo>
        </arrival>
        <arrival publicID="quakeml:uw.anss.org/AssocArO/UW/14784898">
          <pickID>quakeml:uw.anss.org/Arrival/UW/14784898</pickID>
          <phase>P</phase>
          <timeCorrection>0.0</timeCorrection>
          <azimuth>181.46337793618767</azimuth>
          <distance>0.5348</distance>
          <takeoffAngle>
            <value>57.0</value>
          </takeoffAngle>
          <timeResidual>-0.19</timeResidual>
          <timeWeight>0.12</timeWeight>
          <creationInfo>
            <agencyID>UW</agencyID>
            <creationTime>2019-04-18T18:24:29.000000Z</creationTime>
          </creationInfo>
        </arrival>
        <arrival publicID="quakeml:uw.anss.org/AssocArO/UW/14784903">
          <pickID>quakeml:uw.anss.org/Arrival/UW/14784903</pickID>
          <phase>S</phase>
          <timeCorrection>0.0</timeCorrection>
          <azimuth>181.46337793618767</azimuth>
          <distance>0.5348</distance>
          <takeoffAngle>
            <value>57.0</value>
          </takeoffAngle>
          <timeResidual>0.58</timeResidual>
          <timeWeight>0.12</timeWeight>
          <creationInfo>
            <agencyID>UW</agencyID>
            <creationTime>2019-04-18T18:24:29.000000Z</creationTime>
          </creationInfo>
        </arrival>
        <arrival publicID="quakeml:uw.anss.org/AssocArO/UW/14784908">
          <pickID>quakeml:uw.anss.org/Arrival/UW/14784908</pickID>
          <phase>P</phase>
          <timeCorrection>-0.06</timeCorrection>
          <azimuth>170.70419978484097</azimuth>
          <distance>0.6115</distance>
          <takeoffAngle>
            <value>57.0</value>
          </takeoffAngle>
          <timeResidual>-0.33</timeResidual>
          <timeWeight>0.1</timeWeight>
          <creationInfo>
            <agencyID>UW</agencyID>
            <creationTime>2019-04-18T18:24:29.000000Z</creationTime>
          </creationInfo>
        </arrival>
        <arrival publicID="quakeml:uw.anss.org/AssocArO/UW/14784913">
          <pickID>quakeml:uw.anss.org/Arrival/UW/14784913</pickID>
          <phase>S</phase>
          <timeCorrection>-0.11</timeCorrection>
          <azimuth>170.70419978484097</azimuth>
          <distance>0.6115</distance>
          <takeoffAngle>
            <value>57.0</value>
          </takeoffAngle>
          <timeResidual>0.16</timeResidual>
          <timeWeight>0.1</timeWeight>
          <creationInfo>
            <agencyID>UW</agencyID>
            <creationTime>2019-04-18T18:24:29.000000Z</creationTime>
          </creationInfo>
        </arrival>
        <arrival publicID="quakeml:uw.anss.org/AssocArO/UW/14784918">
          <pickID>quakeml:uw.anss.org/Arrival/UW/14784918</pickID>
          <phase>P</phase>
          <timeCorrection>0.0</timeCorrection>
          <azimuth>268.571145849903</azimuth>
          <distance>0.7258</distance>
          <takeoffAngle>
            <value>57.0</value>
          </takeoffAngle>
          <timeResidual>-0.3</timeResidual>
          <timeWeight>0.05</timeWeight>
          <creationInfo>
            <agencyID>UW</agencyID>
            <creationTime>2019-04-18T18:24:29.000000Z</creationTime>
          </creationInfo>
        </arrival>
        <arrival publicID="quakeml:uw.anss.org/AssocArO/UW/14784923">
          <pickID>quakeml:uw.anss.org/Arrival/UW/14784923</pickID>
          <phase>P</phase>
          <timeCorrection>0.0</timeCorrection>
          <azimuth>35.81702441964279</azimuth>
          <distance>0.73</distance>
          <takeoffAngle>
            <value>57.0</value>
          </takeoffAngle>
          <timeResidual>-0.14</timeResidual>
          <timeWeight>0.05</timeWeight>
          <creationInfo>
            <agencyID>UW</agencyID>
            <creationTime>2019-04-18T18:24:29.000000Z</creationTime>
          </creationInfo>
        </arrival>
        <arrival publicID="quakeml:uw.anss.org/AssocArO/UW/14784928">
          <pickID>quakeml:uw.anss.org/Arrival/UW/14784928</pickID>
          <phase>S</phase>
          <timeCorrection>0.0</timeCorrection>
          <azimuth>35.81702441964279</azimuth>
          <distance>0.73</distance>
          <takeoffAngle>
            <value>57.0</value>
          </takeoffAngle>
          <timeResidual>-0.78</timeResidual>
          <timeWeight>0.03</timeWeight>
          <creationInfo>
            <agencyID>UW</agencyID>
            <creationTime>2019-04-18T18:24:29.000000Z</creationTime>
          </creationInfo>
        </arrival>
        <arrival publicID="quakeml:uw.anss.org/AssocArO/UW/14784933">
          <pickID>quakeml:uw.anss.org/Arrival/UW/14784933</pickID>
          <phase>P</phase>
          <timeCorrection>0.0</timeCorrection>
          <azimuth>245.47351644880501</azimuth>
          <distance>0.9146</distance>
          <takeoffAngle>
            <value>55.0</value>
          </takeoffAngle>
          <timeResidual>-0.92</timeResidual>
          <timeWeight>0.0</timeWeight>
          <creationInfo>
            <agencyID>UW</agencyID>
            <creationTime>2019-04-18T18:24:29.000000Z</creationTime>
          </creationInfo>
        </arrival>
        <arrival publicID="quakeml:uw.anss.org/AssocArO/UW/14784938">
          <pickID>quakeml:uw.anss.org/Arrival/UW/14784938</pickID>
          <phase>P</phase>
          <timeCorrection>-0.72</timeCorrection>
          <azimuth>261.1853906921892</azimuth>
          <distance>0.9211</distance>
          <takeoffAngle>
            <value>55.0</value>
          </takeoffAngle>
          <timeResidual>-0.33</timeResidual>
          <timeWeight>0.0</timeWeight>
          <creationInfo>
            <agencyID>UW</agencyID>
            <creationTime>2019-04-18T18:24:29.000000Z</creationTime>
          </creationInfo>
        </arrival>
        <arrival publicID="quakeml:uw.anss.org/AssocArO/UW/14784943">
          <pickID>quakeml:uw.anss.org/Arrival/UW/14784943</pickID>
          <phase>P</phase>
          <timeCorrection>0.0</timeCorrection>
          <azimuth>261.2286543930644</azimuth>
          <distance>0.9236</distance>
          <takeoffAngle>
            <value>55.0</value>
          </takeoffAngle>
          <timeResidual>-1.15</timeResidual>
          <timeWeight>0.0</timeWeight>
          <creationInfo>
            <agencyID>UW</agencyID>
            <creationTime>2019-04-18T18:24:29.000000Z</creationTime>
          </creationInfo>
        </arrival>
        <arrival publicID="quakeml:uw.anss.org/AssocArO/UW/14784948">
          <pickID>quakeml:uw.anss.org/Arrival/UW/14784948</pickID>
          <phase>P</phase>
          <timeCorrection>0.0</timeCorrection>
          <azimuth>279.63943460381677</azimuth>
          <distance>0.9594</distance>
          <takeoffAngle>
            <value>55.0</value>
          </takeoffAngle>
          <timeResidual>-0.79</timeResidual>
          <timeWeight>0.0</timeWeight>
          <creationInfo>
            <agencyID>UW</agencyID>
            <creationTime>2019-04-18T18:24:29.000000Z</creationTime>
          </creationInfo>
        </arrival>
        <arrival publicID="quakeml:uw.anss.org/AssocArO/UW/14784953">
          <pickID>quakeml:uw.anss.org/Arrival/UW/14784953</pickID>
          <phase>P</phase>
          <timeCorrection>0.0</timeCorrection>
          <azimuth>168.2952581691867</azimuth>
          <distance>1.016</distance>
          <takeoffAngle>
            <value>55.0</value>
          </takeoffAngle>
          <timeResidual>0.4</timeResidual>
          <timeWeight>0.0</timeWeight>
          <creationInfo>
            <agencyID>UW</agencyID>
            <creationTime>2019-04-18T18:24:29.000000Z</creationTime>
          </creationInfo>
        </arrival>
        <arrival publicID="quakeml:uw.anss.org/AssocArO/UW/14784958">
          <pickID>quakeml:uw.anss.org/Arrival/UW/14784958</pickID>
          <phase>P</phase>
          <timeCorrection>-0.06</timeCorrection>
          <azimuth>223.25224701637927</azimuth>
          <distance>1.032</distance>
          <takeoffAngle>
            <value>55.0</value>
          </takeoffAngle>
          <timeResidual>0.09</timeResidual>
          <timeWeight>0.0</timeWeight>
          <creationInfo>
            <agencyID>UW</agencyID>
            <creationTime>2019-04-18T18:24:29.000000Z</creationTime>
          </creationInfo>
        </arrival>
        <arrival publicID="quakeml:uw.anss.org/AssocArO/UW/14784963">
          <pickID>quakeml:uw.anss.org/Arrival/UW/14784963</pickID>
          <phase>S</phase>
          <timeCorrection>-0.11</timeCorrection>
          <azimuth>223.25224701637927</azimuth>
          <distance>1.032</distance>
          <takeoffAngle>
            <value>55.0</value>
          </takeoffAngle>
          <timeResidual>-0.15</timeResidual>
          <timeWeight>0.0</timeWeight>
          <creationInfo>
            <agencyID>UW</agencyID>
            <creationTime>2019-04-18T18:24:29.000000Z</creationTime>
          </creationInfo>
        </arrival>
        <arrival publicID="quakeml:uw.anss.org/AssocArO/UW/14784968">
          <pickID>quakeml:uw.anss.org/Arrival/UW/14784968</pickID>
          <phase>P</phase>
          <timeCorrection>-0.13</timeCorrection>
          <azimuth>209.95139070574544</azimuth>
          <distance>1.324</distance>
          <takeoffAngle>
            <value>55.0</value>
          </takeoffAngle>
          <timeResidual>-0.59</timeResidual>
          <timeWeight>0.0</timeWeight>
          <creationInfo>
            <agencyID>UW</agencyID>
            <creationTime>2019-04-18T18:24:29.000000Z</creationTime>
          </creationInfo>
        </arrival>
        <arrival publicID="quakeml:uw.anss.org/AssocArO/UW/14784973">
          <pickID>quakeml:uw.anss.org/Arrival/UW/14784973</pickID>
          <phase>P</phase>
          <timeCorrection>0.0</timeCorrection>
          <azimuth>172.33648216322536</azimuth>
          <distance>1.386</distance>
          <takeoffAngle>
            <value>55.0</value>
          </takeoffAngle>
          <timeResidual>0.19</timeResidual>
          <timeWeight>0.0</timeWeight>
          <creationInfo>
            <agencyID>UW</agencyID>
            <creationTime>2019-04-18T18:24:29.000000Z</creationTime>
          </creationInfo>
        </arrival>
      </origin>
      <magnitude publicID="quakeml:uw.anss.org/Netmag/UW/3001448">
        <mag>
          <value>1.9000000000000001</value>
          <uncertainty>0.12728209318181638</uncertainty>
        </mag>
        <type>Ml</type>
        <originID>quakeml:uw.anss.org/Origin/UW/3093873</originID>
        <methodID>smi:uw.anss.org/magnitude/RichterMl2</methodID>
        <stationCount>10</stationCount>
        <azimuthalGap>98.35666869041734</azimuthalGap>
        <evaluationMode>manual</evaluationMode>
        <evaluationStatus>reviewed</evaluationStatus>
        <stationMagnitudeContribution>
          <stationMagnitudeID>quakeml:uw.anss.org/AssocAmM/UW/11620278</stationMagnitudeID>
          <weight>1.0</weight>
          <residual>-0.0</residual>
        </stationMagnitudeContribution>
        <stationMagnitudeContribution>
          <stationMagnitudeID>quakeml:uw.anss.org/AssocAmM/UW/11620283</stationMagnitudeID>
          <weight>1.0</weight>
          <residual>0.17</residual>
        </stationMagnitudeContribution>
        <stationMagnitudeContribution>
          <stationMagnitudeID>quakeml:uw.anss.org/AssocAmM/UW/11620263</stationMagnitudeID>
          <weight>1.0</weight>
          <residual>-0.05</residual>
        </stationMagnitudeContribution>
        <stationMagnitudeContribution>
          <stationMagnitudeID>quakeml:uw.anss.org/AssocAmM/UW/11620318</stationMagnitudeID>
          <weight>1.0</weight>
          <residual>0.26</residual>
        </stationMagnitudeContribution>
        <stationMagnitudeContribution>
          <stationMagnitudeID>quakeml:uw.anss.org/AssocAmM/UW/11620238</stationMagnitudeID>
          <weight>0.0</weight>
          <residual>0.05</residual>
        </stationMagnitudeContribution>
        <stationMagnitudeContribution>
          <stationMagnitudeID>quakeml:uw.anss.org/AssocAmM/UW/11620323</stationMagnitudeID>
          <weight>1.0</weight>
          <residual>0.31</residual>
        </stationMagnitudeContribution>
        <stationMagnitudeContribution>
          <stationMagnitudeID>quakeml:uw.anss.org/AssocAmM/UW/11620218</stationMagnitudeID>
          <weight>0.0</weight>
          <residual>-0.08</residual>
        </stationMagnitudeContribution>
        <stationMagnitudeContribution>
