<?xml version='1.0' encoding='utf-8'?>
<q:quakeml xmlns="http://quakeml.org/xmlns/bed/1.2" xmlns:q="http://quakeml.org/xmlns/quakeml/1.2" xmlns:ns0="http://anss.org/xmlns/catalog/0.1">
  <eventParameters publicID="smi:local/34f71d93-bdf6-46dd-9ace-3bb410800c5a">
    <event publicID="quakeml:uw.anss.org/Event/UW/61541021" ns0:datasource="uw" ns0:dataid="uw61541021" ns0:eventsource="uw" ns0:eventid="61541021">
      <preferredOriginID>quakeml:uw.anss.org/Origin/UW/3103103</preferredOriginID>
      <preferredMagnitudeID>quakeml:uw.anss.org/Netmag/UW/3016793</preferredMagnitudeID>
      <type>earthquake</type>
      <creationInfo>
        <agencyID>UW</agencyID>
        <creationTime>2019-08-05T23:59:01.000000Z</creationTime>
        <version>2</version>
      </creationInfo>
      <origin publicID="quakeml:uw.anss.org/Origin/UW/3103103" ns0:datasource="uw" ns0:dataid="uw61541021" ns0:eventsource="uw" ns0:eventid="61541021">
        <time>
          <value>2019-08-03T04:32:38.460000Z</value>
        </time>
        <latitude>
          <value>48.8045</value>
        </latitude>
        <longitude>
          <value>-122.05333333333333</value>
        </longitude>
        <depth>
          <value>2640.0</value>
          <uncertainty>560.0</uncertainty>
        </depth>
        <depthType>from location</depthType>
        <timeFixed>false</timeFixed>
        <epicenterFixed>false</epicenterFixed>
        <methodID>smi:uw.anss.org/origin/HYP2000</methodID>
        <quality>
          <associatedPhaseCount>21</associatedPhaseCount>
          <usedPhaseCount>13</usedPhaseCount>
          <associatedStationCount>15</associatedStationCount>
          <usedStationCount>10</usedStationCount>
          <standardError>0.16</standardError>
          <azimuthalGap>105.0</azimuthalGap>
          <secondaryAzimuthalGap>415.0</secondaryAzimuthalGap>
          <minimumDistance>0.1029</minimumDistance>
          <maximumDistance>1.822</maximumDistance>
          <medianDistance>0.6154</medianDistance>
        </quality>
        <type>hypocenter</type>
        <evaluationMode>manual</evaluationMode>
        <evaluationStatus>final</evaluationStatus>
        <creationInfo>
          <agencyID>UW</agencyID>
          <creationTime>2019-08-05T23:58:58.000000Z</creationTime>
        </creationInfo>
        <originUncertainty>
          <preferredDescription>confidence ellipsoid</preferredDescription>
          <horizontalUncertainty>390.0</horizontalUncertainty>
          <confidenceLevel>95.0</confidenceLevel>
          <confidenceEllipsoid>
            <semiMajorAxisLength>1392.0</semiMajorAxisLength>
            <semiMinorAxisLength>576.0</semiMinorAxisLength>
            <semiIntermediateAxisLength>936.0</semiIntermediateAxisLength>
            <majorAxisPlunge>74.0</majorAxisPlunge>
            <majorAxisAzimuth>114.0</majorAxisAzimuth>
            <majorAxisRotation>278.0</majorAxisRotation>
          </confidenceEllipsoid>
        </originUncertainty>
        <arrival publicID="quakeml:uw.anss.org/AssocArO/UW/14887873">
          <pickID>quakeml:uw.anss.org/Arrival/UW/14887873</pickID>
          <phase>P</phase>
          <timeCorrection>0.38</timeCorrection>
          <azimuth>101.59160635407261</azimuth>
          <distance>0.1029</distance>
          <takeoffAngle>
            <value>106.0</value>
          </takeoffAngle>
          <timeResidual>0.06</timeResidual>
          <timeWeight>0.24</timeWeight>
          <creationInfo>
            <agencyID>UW</agencyID>
            <creationTime>2019-08-05T23:59:01.000000Z</creationTime>
          </creationInfo>
        </arrival>
        <arrival publicID="quakeml:uw.anss.org/AssocArO/UW/14887878">
          <pickID>quakeml:uw.anss.org/Arrival/UW/14887878</pickID>
          <phase>P</phase>
          <timeCorrection>0.0</timeCorrection>
          <azimuth>332.56172445165663</azimuth>
          <distance>0.1263</distance>
          <takeoffAngle>
            <value>57.0</value>
          </takeoffAngle>
          <timeResidual>-0.17</timeResidual>
          <timeWeight>0.24</timeWeight>
          <creationInfo>
            <agencyID>UW</agencyID>
            <creationTime>2019-08-05T23:59:01.000000Z</creationTime>
          </creationInfo>
        </arrival>
        <arrival publicID="quakeml:uw.anss.org/AssocArO/UW/14887883">
          <pickID>quakeml:uw.anss.org/Arrival/UW/14887883</pickID>
          <phase>S</phase>
          <timeCorrection>0.0</timeCorrection>
          <azimuth>332.56172445165663</azimuth>
          <distance>0.1263</distance>
          <takeoffAngle>
            <value>57.0</value>
          </takeoffAngle>
          <timeResidual>0.33</timeResidual>
          <timeWeight>0.12</timeWeight>
          <creationInfo>
            <agencyID>UW</agencyID>
            <creationTime>2019-08-05T23:59:01.000000Z</creationTime>
          </creationInfo>
        </arrival>
        <arrival publicID="quakeml:uw.anss.org/AssocArO/UW/14887888">
          <pickID>quakeml:uw.anss.org/Arrival/UW/14887888</pickID>
          <phase>P</phase>
          <timeCorrection>0.0</timeCorrection>
          <azimuth>78.81898124485957</azimuth>
          <distance>0.2534</distance>
          <takeoffAngle>
            <value>57.0</value>
          </takeoffAngle>
          <timeResidual>0.03</timeResidual>
          <timeWeight>0.18</timeWeight>
          <creationInfo>
            <agencyID>UW</agencyID>
            <creationTime>2019-08-05T23:59:01.000000Z</creationTime>
          </creationInfo>
        </arrival>
        <arrival publicID="quakeml:uw.anss.org/AssocArO/UW/14887893">
          <pickID>quakeml:uw.anss.org/Arrival/UW/14887893</pickID>
          <phase>S</phase>
          <timeCorrection>0.0</timeCorrection>
          <azimuth>78.81898124485957</azimuth>
          <distance>0.2534</distance>
          <takeoffAngle>
            <value>57.0</value>
          </takeoffAngle>
          <timeResidual>0.15</timeResidual>
          <timeWeight>0.12</timeWeight>
          <creationInfo>
            <agencyID>UW</agencyID>
            <creationTime>2019-08-05T23:59:01.000000Z</creationTime>
          </creationInfo>
        </arrival>
        <arrival publicID="quakeml:uw.anss.org/AssocArO/UW/14887898">
          <pickID>quakeml:uw.anss.org/Arrival/UW/14887898</pickID>
          <phase>P</phase>
          <timeCorrection>0.0</timeCorrection>
          <azimuth>259.15152273515974</azimuth>
          <distance>0.4402</distance>
          <takeoffAngle>
            <value>57.0</value>
          </takeoffAngle>
          <timeResidual>0.44</timeResidual>
          <timeWeight>0.0</timeWeight>
          <creationInfo>
            <agencyID>UW</agencyID>
            <creationTime>2019-08-05T23:59:01.000000Z</creationTime>
          </creationInfo>
        </arrival>
        <arrival publicID="quakeml:uw.anss.org/AssocArO/UW/14887903">
          <pickID>quakeml:uw.anss.org/Arrival/UW/14887903</pickID>
          <phase>S</phase>
          <timeCorrection>0.0</timeCorrection>
          <azimuth>259.15152273515974</azimuth>
          <distance>0.4402</distance>
          <takeoffAngle>
            <value>57.0</value>
          </takeoffAngle>
          <timeResidual>0.66</timeResidual>
          <timeWeight>0.0</timeWeight>
          <creationInfo>
            <agencyID>UW</agencyID>
            <creationTime>2019-08-05T23:59:01.000000Z</creationTime>
          </creationInfo>
        </arrival>
        <arrival publicID="quakeml:uw.anss.org/AssocArO/UW/14887908">
          <pickID>quakeml:uw.anss.org/Arrival/UW/14887908</pickID>
          <phase>P</phase>
          <timeCorrection>0.14</timeCorrection>
          <azimuth>134.83054160485136</azimuth>
          <distance>0.5048</distance>
          <takeoffAngle>
            <value>57.0</value>
          </takeoffAngle>
          <timeResidual>-0.16</timeResidual>
          <timeWeight>0.23</timeWeight>
          <creationInfo>
            <agencyID>UW</agencyID>
            <creationTime>2019-08-05T23:59:01.000000Z</creationTime>
          </creationInfo>
        </arrival>
        <arrival publicID="quakeml:uw.anss.org/AssocArO/UW/14887913">
          <pickID>quakeml:uw.anss.org/Arrival/UW/14887913</pickID>
          <phase>P</phase>
          <timeCorrection>-0.08</timeCorrection>
          <azimuth>256.5693850290975</azimuth>
          <distance>0.5309</distance>
          <takeoffAngle>
            <value>57.0</value>
          </takeoffAngle>
          <timeResidual>0.05</timeResidual>
          <timeWeight>0.11</timeWeight>
          <creationInfo>
            <agencyID>UW</agencyID>
            <creationTime>2019-08-05T23:59:01.000000Z</creationTime>
          </creationInfo>
        </arrival>
        <arrival publicID="quakeml:uw.anss.org/AssocArO/UW/14887918">
          <pickID>quakeml:uw.anss.org/Arrival/UW/14887918</pickID>
          <phase>P</phase>
          <timeCorrection>0.0</timeCorrection>
          <azimuth>183.00881851913627</azimuth>
          <distance>0.5416</distance>
          <takeoffAngle>
            <value>57.0</value>
          </takeoffAngle>
          <timeResidual>0.17</timeResidual>
          <timeWeight>0.11</timeWeight>
          <creationInfo>
            <agencyID>UW</agencyID>
            <creationTime>2019-08-05T23:59:01.000000Z</creationTime>
          </creationInfo>
        </arrival>
        <arrival publicID="quakeml:uw.anss.org/AssocArO/UW/14887923">
          <pickID>quakeml:uw.anss.org/Arrival/UW/14887923</pickID>
          <phase>P</phase>
          <timeCorrection>-0.06</timeCorrection>
          <azimuth>172.1564519316546</azimuth>
          <distance>0.6154</distance>
          <takeoffAngle>
            <value>57.0</value>
          </takeoffAngle>
          <timeResidual>0.34</timeResidual>
          <timeWeight>0.09</timeWeight>
          <creationInfo>
            <agencyID>UW</agencyID>
            <creationTime>2019-08-05T23:59:01.000000Z</creationTime>
          </creationInfo>
        </arrival>
        <arrival publicID="quakeml:uw.anss.org/AssocArO/UW/14887928">
          <pickID>quakeml:uw.anss.org/Arrival/UW/14887928</pickID>
          <phase>P</phase>
          <timeCorrection>0.0</timeCorrection>
          <azimuth>268.1371992370314</azimuth>
          <distance>0.7406</distance>
          <takeoffAngle>
            <value>57.0</value>
          </takeoffAngle>
          <timeResidual>0.15</timeResidual>
          <timeWeight>0.09</timeWeight>
          <creationInfo>
            <agencyID>UW</agencyID>
            <creationTime>2019-08-05T23:59:01.000000Z</creationTime>
          </creationInfo>
        </arrival>
        <arrival publicID="quakeml:uw.anss.org/AssocArO/UW/14887933">
          <pickID>quakeml:uw.anss.org/Arrival/UW/14887933</pickID>
          <phase>S</phase>
          <timeCorrection>0.0</timeCorrection>
          <azimuth>268.1371992370314</azimuth>
          <distance>0.7406</distance>
          <takeoffAngle>
            <value>57.0</value>
          </takeoffAngle>
          <timeResidual>0.09</timeResidual>
          <timeWeight>0.07</timeWeight>
          <creationInfo>
            <agencyID>UW</agencyID>
            <creationTime>2019-08-05T23:59:01.000000Z</creationTime>
          </creationInfo>
        </arrival>
        <arrival publicID="quakeml:uw.anss.org/AssocArO/UW/14887938">
          <pickID>quakeml:uw.anss.org/Arrival/UW/14887938</pickID>
          <phase>S</phase>
          <timeCorrection>0.53</timeCorrection>
          <azimuth>138.17550588423444</azimuth>
          <distance>0.9184</distance>
          <takeoffAngle>
            <value>55.0</value>
          </takeoffAngle>
          <timeResidual>0.16</timeResidual>
          <timeWeight>0.0</timeWeight>
          <creationInfo>
            <agencyID>UW</agencyID>
            <creationTime>2019-08-05T23:59:01.000000Z</creationTime>
          </creationInfo>
        </arrival>
        <arrival publicID="quakeml:uw.anss.org/AssocArO/UW/14887943">
          <pickID>quakeml:uw.anss.org/Arrival/UW/14887943</pickID>
          <phase>P</phase>
          <timeCorrection>-0.72</timeCorrection>
          <azimuth>260.9651391283085</azimuth>
          <distance>0.9365</distance>
          <takeoffAngle>
            <value>55.0</value>
          </takeoffAngle>
          <timeResidual>0.37</timeResidual>
          <timeWeight>0.0</timeWeight>
          <creationInfo>
            <agencyID>UW</agencyID>
            <creationTime>2019-08-05T23:59:01.000000Z</creationTime>
          </creationInfo>
        </arrival>
        <arrival publicID="quakeml:uw.anss.org/AssocArO/UW/14887948">
          <pickID>quakeml:uw.anss.org/Arrival/UW/14887948</pickID>
          <phase>S</phase>
          <timeCorrection>-1.28</timeCorrection>
          <azimuth>260.9651391283085</azimuth>
          <distance>0.9365</distance>
          <takeoffAngle>
            <value>55.0</value>
          </takeoffAngle>
          <timeResidual>-0.15</timeResidual>
          <timeWeight>0.0</timeWeight>
          <creationInfo>
            <agencyID>UW</agencyID>
            <creationTime>2019-08-05T23:59:01.000000Z</creationTime>
          </creationInfo>
        </arrival>
        <arrival publicID="quakeml:uw.anss.org/AssocArO/UW/14887953">
          <pickID>quakeml:uw.anss.org/Arrival/UW/14887953</pickID>
          <phase>P</phase>
          <timeCorrection>0.0</timeCorrection>
          <azimuth>261.00832461104335</azimuth>
          <distance>0.939</distance>
          <takeoffAngle>
            <value>55.0</value>
          </takeoffAngle>
          <timeResidual>-0.1</timeResidual>
          <timeWeight>0.0</timeWeight>
          <creationInfo>
            <agencyID>UW</agencyID>
            <creationTime>2019-08-05T23:59:01.000000Z</creationTime>
          </creationInfo>
        </arrival>
        <arrival publicID="quakeml:uw.anss.org/AssocArO/UW/14887958">
          <pickID>quakeml:uw.anss.org/Arrival/UW/14887958</pickID>
          <phase>S</phase>
          <timeCorrection>0.0</timeCorrection>
          <azimuth>261.00832461104335</azimuth>
          <distance>0.939</distance>
          <takeoffAngle>
            <value>55.0</value>
          </takeoffAngle>
          <timeResidual>-1.34</timeResidual>
          <timeWeight>0.0</timeWeight>
          <creationInfo>
            <agencyID>UW</agencyID>
            <creationTime>2019-08-05T23:59:01.000000Z</creationTime>
          </creationInfo>
        </arrival>
        <arrival publicID="quakeml:uw.anss.org/AssocArO/UW/14887963">
          <pickID>quakeml:uw.anss.org/Arrival/UW/14887963</pickID>
          <phase>P</phase>
          <timeCorrection>0.0</timeCorrection>
          <azimuth>279.1521241775317</azimuth>
          <distance>0.9729</distance>
          <takeoffAngle>
            <value>55.0</value>
          </takeoffAngle>
          <timeResidual>-0.3</timeResidual>
          <timeWeight>0.0</timeWeight>
          <creationInfo>
            <agencyID>UW</agencyID>
            <creationTime>2019-08-05T23:59:01.000000Z</creationTime>
          </creationInfo>
        </arrival>
        <arrival publicID="quakeml:uw.anss.org/AssocArO/UW/14887968">
          <pickID>quakeml:uw.anss.org/Arrival/UW/14887968</pickID>
          <phase>P</phase>
          <timeCorrection>0.0</timeCorrection>
          <azimuth>169.1865401193727</azimuth>
          <distance>1.019</distance>
          <takeoffAngle>
            <value>55.0</value>
          </takeoffAngle>
          <timeResidual>0.64</timeResidual>
          <timeWeight>0.0</timeWeight>
          <creationInfo>
            <agencyID>UW</agencyID>
            <creationTime>2019-08-05T23:59:01.000000Z</creationTime>
          </creationInfo>
        </arrival>
        <arrival publicID="quakeml:uw.anss.org/AssocArO/UW/14887973">
          <pickID>quakeml:uw.anss.org/Arrival/UW/14887973</pickID>
          <phase>P</phase>
          <timeCorrection>-0.35</timeCorrection>
          <azimuth>183.55851557465445</azimuth>
          <distance>1.822</distance>
          <takeoffAngle>
            <value>51.0</value>
          </takeoffAngle>
          <timeResidual>0.24</timeResidual>
          <timeWeight>0.0</timeWeight>
          <creationInfo>
            <agencyID>UW</agencyID>
            <creationTime>2019-08-05T23:59:01.000000Z</creationTime>
          </creationInfo>
        </arrival>
      </origin>
      <magnitude publicID="quakeml:uw.anss.org/Netmag/UW/3016793">
        <mag>
          <value>1.98</value>
          <uncertainty>0.1407597453173306</uncertainty>
        </mag>
        <type>Ml</type>
        <originID>quakeml:uw.anss.org/Origin/UW/3103103</originID>
        <methodID>smi:uw.anss.org/magnitude/RichterMl2</methodID>
        <stationCount>7</stationCount>
        <azimuthalGap>106.25725679320294</azimuthalGap>
        <evaluationMode>manual</evaluationMode>
        <evaluationStatus>reviewed</evaluationStatus>
        <stationMagnitudeContribution>
          <stationMagnitudeID>quakeml:uw.anss.org/AssocAmM/UW/11811588</stationMagnitudeID>
          <weight>0.0</weight>
          <residual>-0.42</residual>
        </stationMagnitudeContribution>
        <stationMagnitudeContribution>
          <stationMagnitudeID>quakeml:uw.anss.org/AssocAmM/UW/11811563</stationMagnitudeID>
          <weight>1.0</weight>
          <residual>-0.02</residual>
        </stationMagnitudeContribution>
        <stationMagnitudeContribution>
          <stationMagnitudeID>quakeml:uw.anss.org/AssocAmM/UW/11811613</stationMagnitudeID>
          <weight>1.0</weight>
          <residual>0.08</residual>
        </stationMagnitudeContribution>
        <stationMagnitudeContribution>
          <stationMagnitudeID>quakeml:uw.anss.org/AssocAmM/UW/11811573</stationMagnitudeID>
          <weight>1.0</weight>
          <residual>-0.48</residual>
        </stationMagnitudeContribution>
        <stationMagnitudeContribution>
          <stationMagnitudeID>quakeml:uw.anss.org/AssocAmM/UW/11811618</stationMagnitudeID>
          <weight>1.0</weight>
          <residual>0.15</residual>
        </stationMagnitudeContribution>
        <stationMagnitudeContribution>
          <stationMagnitudeID>quakeml:uw.anss.org/AssocAmM/UW/11811648</stationMagnitudeID>
          <weight>1.0</weight>
          <residual>-0.23</residual>
        </stationMagnitudeContribution>
        <stationMagnitudeContribution>
          <stationMagnitudeID>quakeml:uw.anss.org/AssocAmM/UW/11811608</stationMagnitudeID>
          <weight>1.0</weight>
          <residual>0.09</residual>
        </stationMagnitudeContribution>
        <stationMagnitudeContribution>
          <stationMagnitudeID>quakeml:uw.anss.org/AssocAmM/UW/11811623</stationMagnitudeID>
          <weight>1.0</weight>
          <residual>0.14</residual>
        </stationMagnitudeContribution>
        <stationMagnitudeContribution>
          <stationMagnitudeID>quakeml:uw.anss.org/AssocAmM/UW/11811638</stationMagnitudeID>
          <weight>1.0</weight>
          <residual>-0.44</residual>
        </stationMagnitudeContribution>
        <stationMagnitudeContribution>
          <stationMagnitudeID>quakeml:uw.anss.org/AssocAmM/UW/11811568</stationMagnitudeID>
          <weight>1.0</weight>
          <residual>-0.13</residual>
        </stationMagnitudeContribution>
        <stationMagnitudeContribution>
          <stationMagnitudeID>quakeml:uw.anss.org/AssocAmM/UW/11811658</stationMagnitudeID>
          <weight>1.0</weight>
          <residual>0.21</residual>
        </stationMagnitudeContribution>
        <stationMagnitudeContribution>
          <stationMagnitudeID>quakeml:uw.anss.org/AssocAmM/UW/11811583</stationMagnitudeID>
          <weight>0.0</weight>
          <residual>-0.56</residual>
        </stationMagnitudeContribution>
        <stationMagnitudeContribution>
          <stationMagnitudeID>quakeml:uw.anss.org/AssocAmM/UW/11811598</stationMagnitudeID>
          <weight>0.0</weight>
