<?xml version='1.0' encoding='utf-8'?>
<q:quakeml xmlns="http://quakeml.org/xmlns/bed/1.2" xmlns:q="http://quakeml.org/xmlns/quakeml/1.2" xmlns:ns0="http://anss.org/xmlns/catalog/0.1">
  <eventParameters publicID="smi:local/217b2156-c279-4369-83ee-cc05e419d025">
    <event publicID="quakeml:uw.anss.org/Event/UW/61541216" ns0:datasource="uw" ns0:dataid="uw61541216" ns0:eventsource="uw" ns0:eventid="61541216">
      <preferredOriginID>quakeml:uw.anss.org/Origin/UW/3103053</preferredOriginID>
      <preferredMagnitudeID>quakeml:uw.anss.org/Netmag/UW/3016718</preferredMagnitudeID>
      <type>earthquake</type>
      <creationInfo>
        <agencyID>UW</agencyID>
        <creationTime>2019-08-05T21:32:49.000000Z</creationTime>
        <version>2</version>
      </creationInfo>
      <origin publicID="quakeml:uw.anss.org/Origin/UW/3103053" ns0:datasource="uw" ns0:dataid="uw61541216" ns0:eventsource="uw" ns0:eventid="61541216">
        <time>
          <value>2019-08-04T06:41:36.890000Z</value>
        </time>
        <latitude>
          <value>48.813</value>
        </latitude>
        <longitude>
          <value>-122.04183333333333</value>
        </longitude>
        <depth>
          <value>7980.0</value>
          <uncertainty>900.0</uncertainty>
        </depth>
        <depthType>from location</depthType>
        <timeFixed>false</timeFixed>
        <epicenterFixed>false</epicenterFixed>
        <methodID>smi:uw.anss.org/origin/HYP2000</methodID>
        <quality>
          <associatedPhaseCount>30</associatedPhaseCount>
          <usedPhaseCount>15</usedPhaseCount>
          <associatedStationCount>21</associatedStationCount>
          <usedStationCount>11</usedStationCount>
          <standardError>0.17</standardError>
          <azimuthalGap>72.0</azimuthalGap>
          <secondaryAzimuthalGap>432.0</secondaryAzimuthalGap>
          <minimumDistance>0.09766</minimumDistance>
          <maximumDistance>1.831</maximumDistance>
          <medianDistance>0.7485</medianDistance>
        </quality>
        <type>hypocenter</type>
        <evaluationMode>manual</evaluationMode>
        <evaluationStatus>final</evaluationStatus>
        <creationInfo>
          <agencyID>UW</agencyID>
          <creationTime>2019-08-05T21:32:46.000000Z</creationTime>
        </creationInfo>
        <originUncertainty>
          <preferredDescription>confidence ellipsoid</preferredDescription>
          <horizontalUncertainty>420.0</horizontalUncertainty>
          <confidenceLevel>95.0</confidenceLevel>
          <confidenceEllipsoid>
            <semiMajorAxisLength>2376.0</semiMajorAxisLength>
            <semiMinorAxisLength>816.0</semiMinorAxisLength>
            <semiIntermediateAxisLength>888.0</semiIntermediateAxisLength>
            <majorAxisPlunge>64.0</majorAxisPlunge>
            <majorAxisAzimuth>19.0</majorAxisAzimuth>
            <majorAxisRotation>359.0</majorAxisRotation>
          </confidenceEllipsoid>
        </originUncertainty>
        <arrival publicID="quakeml:uw.anss.org/AssocArO/UW/14887283">
          <pickID>quakeml:uw.anss.org/Arrival/UW/14887283</pickID>
          <phase>P</phase>
          <timeCorrection>0.38</timeCorrection>
          <azimuth>107.40872635466434</azimuth>
          <distance>0.09766</distance>
          <takeoffAngle>
            <value>124.0</value>
          </takeoffAngle>
          <timeResidual>-0.2</timeResidual>
          <timeWeight>0.19</timeWeight>
          <creationInfo>
            <agencyID>UW</agencyID>
            <creationTime>2019-08-05T21:32:49.000000Z</creationTime>
          </creationInfo>
        </arrival>
        <arrival publicID="quakeml:uw.anss.org/AssocArO/UW/14887288">
          <pickID>quakeml:uw.anss.org/Arrival/UW/14887288</pickID>
          <phase>S</phase>
          <timeCorrection>0.0</timeCorrection>
          <azimuth>327.5886114573942</azimuth>
          <distance>0.1227</distance>
          <takeoffAngle>
            <value>117.0</value>
          </takeoffAngle>
          <timeResidual>0.1</timeResidual>
          <timeWeight>0.1</timeWeight>
          <creationInfo>
            <agencyID>UW</agencyID>
            <creationTime>2019-08-05T21:32:49.000000Z</creationTime>
          </creationInfo>
        </arrival>
        <arrival publicID="quakeml:uw.anss.org/AssocArO/UW/14887293">
          <pickID>quakeml:uw.anss.org/Arrival/UW/14887293</pickID>
          <phase>P</phase>
          <timeCorrection>0.0</timeCorrection>
          <azimuth>80.44474446433475</azimuth>
          <distance>0.2444</distance>
          <takeoffAngle>
            <value>102.0</value>
          </takeoffAngle>
          <timeResidual>0.04</timeResidual>
          <timeWeight>0.1</timeWeight>
          <creationInfo>
            <agencyID>UW</agencyID>
            <creationTime>2019-08-05T21:32:49.000000Z</creationTime>
          </creationInfo>
        </arrival>
        <arrival publicID="quakeml:uw.anss.org/AssocArO/UW/14887298">
          <pickID>quakeml:uw.anss.org/Arrival/UW/14887298</pickID>
          <phase>S</phase>
          <timeCorrection>0.0</timeCorrection>
          <azimuth>80.44474446433475</azimuth>
          <distance>0.2444</distance>
          <takeoffAngle>
            <value>102.0</value>
          </takeoffAngle>
          <timeResidual>0.23</timeResidual>
          <timeWeight>0.14</timeWeight>
          <creationInfo>
            <agencyID>UW</agencyID>
            <creationTime>2019-08-05T21:32:49.000000Z</creationTime>
          </creationInfo>
        </arrival>
        <arrival publicID="quakeml:uw.anss.org/AssocArO/UW/14887303">
          <pickID>quakeml:uw.anss.org/Arrival/UW/14887303</pickID>
          <phase>P</phase>
          <timeCorrection>0.0</timeCorrection>
          <azimuth>143.39817235009474</azimuth>
          <distance>0.3308</distance>
          <takeoffAngle>
            <value>75.0</value>
          </takeoffAngle>
          <timeResidual>-0.05</timeResidual>
          <timeWeight>0.14</timeWeight>
          <creationInfo>
            <agencyID>UW</agencyID>
            <creationTime>2019-08-05T21:32:49.000000Z</creationTime>
          </creationInfo>
        </arrival>
        <arrival publicID="quakeml:uw.anss.org/AssocArO/UW/14887308">
          <pickID>quakeml:uw.anss.org/Arrival/UW/14887308</pickID>
          <phase>S</phase>
          <timeCorrection>0.0</timeCorrection>
          <azimuth>143.39817235009474</azimuth>
          <distance>0.3308</distance>
          <takeoffAngle>
            <value>75.0</value>
          </takeoffAngle>
          <timeResidual>0.21</timeResidual>
          <timeWeight>0.14</timeWeight>
          <creationInfo>
            <agencyID>UW</agencyID>
            <creationTime>2019-08-05T21:32:49.000000Z</creationTime>
          </creationInfo>
        </arrival>
        <arrival publicID="quakeml:uw.anss.org/AssocArO/UW/14887313">
          <pickID>quakeml:uw.anss.org/Arrival/UW/14887313</pickID>
          <phase>P</phase>
          <timeCorrection>0.0</timeCorrection>
          <azimuth>258.27414684684265</azimuth>
          <distance>0.4494</distance>
          <takeoffAngle>
            <value>75.0</value>
          </takeoffAngle>
          <timeResidual>0.09</timeResidual>
          <timeWeight>0.1</timeWeight>
          <creationInfo>
            <agencyID>UW</agencyID>
            <creationTime>2019-08-05T21:32:49.000000Z</creationTime>
          </creationInfo>
        </arrival>
        <arrival publicID="quakeml:uw.anss.org/AssocArO/UW/14887318">
          <pickID>quakeml:uw.anss.org/Arrival/UW/14887318</pickID>
          <phase>P</phase>
          <timeCorrection>0.14</timeCorrection>
          <azimuth>136.13057495651208</azimuth>
          <distance>0.5055</distance>
          <takeoffAngle>
            <value>75.0</value>
          </takeoffAngle>
          <timeResidual>-0.2</timeResidual>
          <timeWeight>0.19</timeWeight>
          <creationInfo>
            <agencyID>UW</agencyID>
            <creationTime>2019-08-05T21:32:49.000000Z</creationTime>
          </creationInfo>
        </arrival>
        <arrival publicID="quakeml:uw.anss.org/AssocArO/UW/14887323">
          <pickID>quakeml:uw.anss.org/Arrival/UW/14887323</pickID>
          <phase>P</phase>
          <timeCorrection>-0.08</timeCorrection>
          <azimuth>255.88531174868868</azimuth>
          <distance>0.5403</distance>
          <takeoffAngle>
            <value>75.0</value>
          </takeoffAngle>
          <timeResidual>0.03</timeResidual>
          <timeWeight>0.14</timeWeight>
          <creationInfo>
            <agencyID>UW</agencyID>
            <creationTime>2019-08-05T21:32:49.000000Z</creationTime>
          </creationInfo>
        </arrival>
        <arrival publicID="quakeml:uw.anss.org/AssocArO/UW/14887328">
          <pickID>quakeml:uw.anss.org/Arrival/UW/14887328</pickID>
          <phase>P</phase>
          <timeCorrection>0.0</timeCorrection>
          <azimuth>183.75871260746143</azimuth>
          <distance>0.5505</distance>
          <takeoffAngle>
            <value>75.0</value>
          </takeoffAngle>
          <timeResidual>0.02</timeResidual>
          <timeWeight>0.09</timeWeight>
          <creationInfo>
            <agencyID>UW</agencyID>
            <creationTime>2019-08-05T21:32:49.000000Z</creationTime>
          </creationInfo>
        </arrival>
        <arrival publicID="quakeml:uw.anss.org/AssocArO/UW/14887333">
          <pickID>quakeml:uw.anss.org/Arrival/UW/14887333</pickID>
          <phase>P</phase>
          <timeCorrection>-0.06</timeCorrection>
          <azimuth>172.96263727145902</azimuth>
          <distance>0.6228</distance>
          <takeoffAngle>
            <value>75.0</value>
          </takeoffAngle>
          <timeResidual>0.27</timeResidual>
          <timeWeight>0.07</timeWeight>
          <creationInfo>
            <agencyID>UW</agencyID>
            <creationTime>2019-08-05T21:32:49.000000Z</creationTime>
          </creationInfo>
        </arrival>
        <arrival publicID="quakeml:uw.anss.org/AssocArO/UW/14887338">
          <pickID>quakeml:uw.anss.org/Arrival/UW/14887338</pickID>
          <phase>S</phase>
          <timeCorrection>-0.11</timeCorrection>
          <azimuth>172.96263727145902</azimuth>
          <distance>0.6228</distance>
          <takeoffAngle>
            <value>75.0</value>
          </takeoffAngle>
          <timeResidual>0.19</timeResidual>
          <timeWeight>0.07</timeWeight>
          <creationInfo>
            <agencyID>UW</agencyID>
            <creationTime>2019-08-05T21:32:49.000000Z</creationTime>
          </creationInfo>
        </arrival>
        <arrival publicID="quakeml:uw.anss.org/AssocArO/UW/14887343">
          <pickID>quakeml:uw.anss.org/Arrival/UW/14887343</pickID>
          <phase>P</phase>
          <timeCorrection>0.0</timeCorrection>
          <azimuth>35.07778021536137</azimuth>
          <distance>0.7051</distance>
          <takeoffAngle>
            <value>75.0</value>
          </takeoffAngle>
          <timeResidual>0.57</timeResidual>
          <timeWeight>0.0</timeWeight>
          <creationInfo>
            <agencyID>UW</agencyID>
            <creationTime>2019-08-05T21:32:49.000000Z</creationTime>
          </creationInfo>
        </arrival>
        <arrival publicID="quakeml:uw.anss.org/AssocArO/UW/14887348">
          <pickID>quakeml:uw.anss.org/Arrival/UW/14887348</pickID>
          <phase>S</phase>
          <timeCorrection>0.0</timeCorrection>
          <azimuth>35.07778021536137</azimuth>
          <distance>0.7051</distance>
          <takeoffAngle>
            <value>75.0</value>
          </takeoffAngle>
          <timeResidual>-0.09</timeResidual>
          <timeWeight>0.07</timeWeight>
          <creationInfo>
            <agencyID>UW</agencyID>
            <creationTime>2019-08-05T21:32:49.000000Z</creationTime>
          </creationInfo>
        </arrival>
        <arrival publicID="quakeml:uw.anss.org/AssocArO/UW/14887353">
          <pickID>quakeml:uw.anss.org/Arrival/UW/14887353</pickID>
          <phase>P</phase>
          <timeCorrection>0.0</timeCorrection>
          <azimuth>267.51197038736626</azimuth>
          <distance>0.7485</distance>
          <takeoffAngle>
            <value>75.0</value>
          </takeoffAngle>
          <timeResidual>0.19</timeResidual>
          <timeWeight>0.03</timeWeight>
          <creationInfo>
            <agencyID>UW</agencyID>
            <creationTime>2019-08-05T21:32:49.000000Z</creationTime>
          </creationInfo>
        </arrival>
        <arrival publicID="quakeml:uw.anss.org/AssocArO/UW/14887358">
          <pickID>quakeml:uw.anss.org/Arrival/UW/14887358</pickID>
          <phase>S</phase>
          <timeCorrection>0.0</timeCorrection>
          <azimuth>267.51197038736626</azimuth>
          <distance>0.7485</distance>
          <takeoffAngle>
            <value>75.0</value>
          </takeoffAngle>
          <timeResidual>0.15</timeResidual>
          <timeWeight>0.03</timeWeight>
          <creationInfo>
            <agencyID>UW</agencyID>
            <creationTime>2019-08-05T21:32:49.000000Z</creationTime>
          </creationInfo>
        </arrival>
        <arrival publicID="quakeml:uw.anss.org/AssocArO/UW/14887363">
          <pickID>quakeml:uw.anss.org/Arrival/UW/14887363</pickID>
          <phase>P</phase>
          <timeCorrection>0.0</timeCorrection>
          <azimuth>245.2456855394829</azimuth>
          <distance>0.941</distance>
          <takeoffAngle>
            <value>75.0</value>
          </takeoffAngle>
          <timeResidual>-0.2</timeResidual>
          <timeWeight>0.0</timeWeight>
          <creationInfo>
            <agencyID>UW</agencyID>
            <creationTime>2019-08-05T21:32:49.000000Z</creationTime>
          </creationInfo>
        </arrival>
        <arrival publicID="quakeml:uw.anss.org/AssocArO/UW/14887368">
          <pickID>quakeml:uw.anss.org/Arrival/UW/14887368</pickID>
          <phase>P</phase>
          <timeCorrection>-0.72</timeCorrection>
          <azimuth>260.53549352182495</azimuth>
          <distance>0.9454</distance>
          <takeoffAngle>
            <value>75.0</value>
          </takeoffAngle>
          <timeResidual>0.54</timeResidual>
          <timeWeight>0.0</timeWeight>
          <creationInfo>
            <agencyID>UW</agencyID>
            <creationTime>2019-08-05T21:32:49.000000Z</creationTime>
          </creationInfo>
        </arrival>
        <arrival publicID="quakeml:uw.anss.org/AssocArO/UW/14887373">
          <pickID>quakeml:uw.anss.org/Arrival/UW/14887373</pickID>
          <phase>S</phase>
          <timeCorrection>-1.28</timeCorrection>
          <azimuth>260.53549352182495</azimuth>
          <distance>0.9454</distance>
          <takeoffAngle>
            <value>75.0</value>
          </takeoffAngle>
          <timeResidual>-0.11</timeResidual>
          <timeWeight>0.0</timeWeight>
          <creationInfo>
            <agencyID>UW</agencyID>
            <creationTime>2019-08-05T21:32:49.000000Z</creationTime>
          </creationInfo>
        </arrival>
        <arrival publicID="quakeml:uw.anss.org/AssocArO/UW/14887378">
          <pickID>quakeml:uw.anss.org/Arrival/UW/14887378</pickID>
          <phase>P</phase>
          <timeCorrection>0.0</timeCorrection>
          <azimuth>260.57943279435256</azimuth>
          <distance>0.9479</distance>
          <takeoffAngle>
            <value>75.0</value>
          </takeoffAngle>
          <timeResidual>-0.15</timeResidual>
          <timeWeight>0.0</timeWeight>
          <creationInfo>
            <agencyID>UW</agencyID>
            <creationTime>2019-08-05T21:32:49.000000Z</creationTime>
          </creationInfo>
        </arrival>
        <arrival publicID="quakeml:uw.anss.org/AssocArO/UW/14887383">
          <pickID>quakeml:uw.anss.org/Arrival/UW/14887383</pickID>
          <phase>S</phase>
          <timeCorrection>0.0</timeCorrection>
          <azimuth>260.57943279435256</azimuth>
          <distance>0.9479</distance>
          <takeoffAngle>
            <value>75.0</value>
          </takeoffAngle>
          <timeResidual>-1.27</timeResidual>
          <timeWeight>0.0</timeWeight>
          <creationInfo>
            <agencyID>UW</agencyID>
            <creationTime>2019-08-05T21:32:49.000000Z</creationTime>
          </creationInfo>
        </arrival>
        <arrival publicID="quakeml:uw.anss.org/AssocArO/UW/14887388">
          <pickID>quakeml:uw.anss.org/Arrival/UW/14887388</pickID>
          <phase>P</phase>
          <timeCorrection>0.0</timeCorrection>
          <azimuth>278.59709970873325</azimuth>
          <distance>0.9791</distance>
          <takeoffAngle>
            <value>75.0</value>
          </takeoffAngle>
          <timeResidual>-0.27</timeResidual>
          <timeWeight>0.0</timeWeight>
          <creationInfo>
            <agencyID>UW</agencyID>
            <creationTime>2019-08-05T21:32:49.000000Z</creationTime>
          </creationInfo>
        </arrival>
        <arrival publicID="quakeml:uw.anss.org/AssocArO/UW/14887393">
          <pickID>quakeml:uw.anss.org/Arrival/UW/14887393</pickID>
          <phase>P</phase>
          <timeCorrection>0.0</timeCorrection>
          <azimuth>169.69988292723815</azimuth>
          <distance>1.026</distance>
          <takeoffAngle>
            <value>75.0</value>
          </takeoffAngle>
          <timeResidual>0.62</timeResidual>
          <timeWeight>0.0</timeWeight>
          <creationInfo>
            <agencyID>UW</agencyID>
            <creationTime>2019-08-05T21:32:49.000000Z</creationTime>
          </creationInfo>
        </arrival>
        <arrival publicID="quakeml:uw.anss.org/AssocArO/UW/14887398">
          <pickID>quakeml:uw.anss.org/Arrival/UW/14887398</pickID>
          <phase>P</phase>
          <timeCorrection>-0.24</timeCorrection>
          <azimuth>232.69859821930748</azimuth>
          <distance>1.231</distance>
          <takeoffAngle>
            <value>75.0</value>
          </takeoffAngle>
          <timeResidual>0.02</timeResidual>
          <timeWeight>0.0</timeWeight>
          <creationInfo>
            <agencyID>UW</agencyID>
            <creationTime>2019-08-05T21:32:49.000000Z</creationTime>
          </creationInfo>
        </arrival>
        <arrival publicID="quakeml:uw.anss.org/AssocArO/UW/14887403">
          <pickID>quakeml:uw.anss.org/Arrival/UW/14887403</pickID>
          <phase>P</phase>
          <timeCorrection>0.18</timeCorrection>
          <azimuth>140.71909084225547</azimuth>
          <distance>1.231</distance>
          <takeoffAngle>
            <value>75.0</value>
          </takeoffAngle>
          <timeResidual>0.49</timeResidual>
          <timeWeight>0.0</timeWeight>
          <creationInfo>
            <agencyID>UW</agencyID>
            <creationTime>2019-08-05T21:32:49.000000Z</creationTime>
          </creationInfo>
        </arrival>
        <arrival publicID="quakeml:uw.anss.org/AssocArO/UW/14887408">
          <pickID>quakeml:uw.anss.org/Arrival/UW/14887408</pickID>
          <phase>P</phase>
          <timeCorrection>-0.13</timeCorrection>
          <azimuth>210.48243321214755</azimuth>
          <distance>1.348</distance>
          <takeoffAngle>
            <value>75.0</value>
          </takeoffAngle>
          <timeResidual>-0.01</timeResidual>
          <timeWeight>0.0</timeWeight>
          <creationInfo>
            <agencyID>UW</agencyID>
            <creationTime>2019-08-05T21:32:49.000000Z</creationTime>
          </creationInfo>
        </arrival>
        <arrival publicID="quakeml:uw.anss.org/AssocArO/UW/14887413">
          <pickID>quakeml:uw.anss.org/Arrival/UW/14887413</pickID>
          <phase>S</phase>
          <timeCorrection>-0.23</timeCorrection>
          <azimuth>210.48243321214755</azimuth>
          <distance>1.348</distance>
          <takeoffAngle>
            <value>75.0</value>
          </takeoffAngle>
