<?xml version='1.0' encoding='utf-8'?>
<q:quakeml xmlns="http://quakeml.org/xmlns/bed/1.2" xmlns:q="http://quakeml.org/xmlns/quakeml/1.2" xmlns:ns0="http://anss.org/xmlns/catalog/0.1">
  <eventParameters publicID="smi:local/99d6a66c-806c-4e35-b89a-45d283b56d8c">
    <event publicID="quakeml:uw.anss.org/Event/UW/61360776" ns0:datasource="uw" ns0:dataid="uw61360776" ns0:eventsource="uw" ns0:eventid="61360776">
      <preferredOriginID>quakeml:uw.anss.org/Origin/UW/2797853</preferredOriginID>
      <preferredMagnitudeID>quakeml:uw.anss.org/Netmag/UW/2704098</preferredMagnitudeID>
      <type>explosion</type>
      <typeCertainty>suspected</typeCertainty>
      <creationInfo>
        <agencyID>UW</agencyID>
        <creationTime>2017-12-19T18:49:22.000000Z</creationTime>
        <version>2</version>
      </creationInfo>
      <origin publicID="quakeml:uw.anss.org/Origin/UW/2797853" ns0:datasource="uw" ns0:dataid="uw61360776" ns0:eventsource="uw" ns0:eventid="61360776">
        <time>
          <value>2017-12-19T02:18:34.070000Z</value>
        </time>
        <latitude>
          <value>48.696</value>
        </latitude>
        <longitude>
          <value>-121.9576667</value>
        </longitude>
        <depth>
          <value>-960.0</value>
          <uncertainty>31610.0</uncertainty>
        </depth>
        <depthType>operator assigned</depthType>
        <timeFixed>false</timeFixed>
        <epicenterFixed>false</epicenterFixed>
        <methodID>smi:uw.anss.org/origin/HYP2000</methodID>
        <quality>
          <associatedPhaseCount>7</associatedPhaseCount>
          <usedPhaseCount>7</usedPhaseCount>
          <associatedStationCount>6</associatedStationCount>
          <usedStationCount>6</usedStationCount>
          <standardError>0.23</standardError>
          <azimuthalGap>206.0</azimuthalGap>
        </quality>
        <type>hypocenter</type>
        <evaluationMode>manual</evaluationMode>
        <evaluationStatus>final</evaluationStatus>
        <creationInfo>
          <agencyID>UW</agencyID>
          <creationTime>2017-12-19T18:49:21.000000Z</creationTime>
        </creationInfo>
        <originUncertainty>
          <preferredDescription>confidence ellipsoid</preferredDescription>
          <horizontalUncertainty>1070.0</horizontalUncertainty>
          <confidenceLevel>95.0</confidenceLevel>
          <confidenceEllipsoid>
            <semiMajorAxisLength>75864.0</semiMajorAxisLength>
            <semiMinorAxisLength>1224.0</semiMinorAxisLength>
            <semiIntermediateAxisLength>2568.0</semiIntermediateAxisLength>
            <majorAxisPlunge>90.0</majorAxisPlunge>
            <majorAxisAzimuth>0.0</majorAxisAzimuth>
            <majorAxisRotation>89.0</majorAxisRotation>
          </confidenceEllipsoid>
        </originUncertainty>
        <arrival publicID="quakeml:uw.anss.org/AssocArO/UW/14210008">
          <pickID>quakeml:uw.anss.org/Arrival/UW/14210008</pickID>
          <phase>P</phase>
          <timeCorrection>0.38</timeCorrection>
          <azimuth>23.1</azimuth>
          <distance>0.09557</distance>
          <takeoffAngle>
            <value>90.0</value>
          </takeoffAngle>
          <timeResidual>-0.02</timeResidual>
          <timeWeight>0.13</timeWeight>
          <creationInfo>
            <agencyID>UW</agencyID>
            <creationTime>2017-12-19T18:49:22.000000Z</creationTime>
          </creationInfo>
        </arrival>
        <arrival publicID="quakeml:uw.anss.org/AssocArO/UW/14210013">
          <pickID>quakeml:uw.anss.org/Arrival/UW/14210013</pickID>
          <phase>S</phase>
          <timeCorrection>0.0</timeCorrection>
          <azimuth>49.6</azimuth>
          <distance>0.2432</distance>
          <takeoffAngle>
            <value>90.0</value>
          </takeoffAngle>
          <timeResidual>0.07</timeResidual>
          <timeWeight>0.13</timeWeight>
          <creationInfo>
            <agencyID>UW</agencyID>
            <creationTime>2017-12-19T18:49:22.000000Z</creationTime>
          </creationInfo>
        </arrival>
        <arrival publicID="quakeml:uw.anss.org/AssocArO/UW/14210018">
          <pickID>quakeml:uw.anss.org/Arrival/UW/14210018</pickID>
          <phase>S</phase>
          <timeCorrection>0.27</timeCorrection>
          <azimuth>119.4</azimuth>
          <distance>0.3609</distance>
          <takeoffAngle>
            <value>57.0</value>
          </takeoffAngle>
          <timeResidual>-0.28</timeResidual>
          <timeWeight>0.13</timeWeight>
          <creationInfo>
            <agencyID>UW</agencyID>
            <creationTime>2017-12-19T18:49:22.000000Z</creationTime>
          </creationInfo>
        </arrival>
        <arrival publicID="quakeml:uw.anss.org/AssocArO/UW/14210023">
          <pickID>quakeml:uw.anss.org/Arrival/UW/14210023</pickID>
          <phase>P</phase>
          <timeCorrection>0.14</timeCorrection>
          <azimuth>130.1</azimuth>
          <distance>0.3847</distance>
          <takeoffAngle>
            <value>57.0</value>
          </takeoffAngle>
          <timeResidual>-0.47</timeResidual>
          <timeWeight>0.06</timeWeight>
          <creationInfo>
            <agencyID>UW</agencyID>
            <creationTime>2017-12-19T18:49:22.000000Z</creationTime>
          </creationInfo>
        </arrival>
        <arrival publicID="quakeml:uw.anss.org/AssocArO/UW/14210028">
          <pickID>quakeml:uw.anss.org/Arrival/UW/14210028</pickID>
          <phase>S</phase>
          <timeCorrection>0.25</timeCorrection>
          <azimuth>130.1</azimuth>
          <distance>0.3847</distance>
          <takeoffAngle>
            <value>57.0</value>
          </takeoffAngle>
          <timeResidual>0.32</timeResidual>
          <timeWeight>0.13</timeWeight>
          <creationInfo>
            <agencyID>UW</agencyID>
            <creationTime>2017-12-19T18:49:22.000000Z</creationTime>
          </creationInfo>
        </arrival>
        <arrival publicID="quakeml:uw.anss.org/AssocArO/UW/14210033">
          <pickID>quakeml:uw.anss.org/Arrival/UW/14210033</pickID>
          <phase>P</phase>
          <timeCorrection>-0.06</timeCorrection>
          <azimuth>177.7</azimuth>
          <takeoffAngle>
            <value>57.0</value>
          </takeoffAngle>
          <timeResidual>0.21</timeResidual>
          <timeWeight>0.06</timeWeight>
          <creationInfo>
            <agencyID>UW</agencyID>
            <creationTime>2017-12-19T18:49:22.000000Z</creationTime>
          </creationInfo>
        </arrival>
        <arrival publicID="quakeml:uw.anss.org/AssocArO/UW/14210038">
          <pickID>quakeml:uw.anss.org/Arrival/UW/14210038</pickID>
          <phase>S</phase>
          <timeCorrection>0.0</timeCorrection>
          <azimuth>169.8</azimuth>
          <distance>1.018</distance>
          <takeoffAngle>
            <value>55.0</value>
          </takeoffAngle>
          <timeResidual>-0.04</timeResidual>
          <timeWeight>0.06</timeWeight>
          <creationInfo>
            <agencyID>UW</agencyID>
            <creationTime>2017-12-19T18:49:22.000000Z</creationTime>
          </creationInfo>
        </arrival>
      </origin>
      <magnitude publicID="quakeml:uw.anss.org/Netmag/UW/2704098">
        <mag>
          <value>1.42</value>
          <uncertainty>0.173</uncertainty>
        </mag>
        <type>Ml</type>
        <originID>quakeml:uw.anss.org/Origin/UW/2797853</originID>
        <methodID>smi:uw.anss.org/magnitude/RichterMl2</methodID>
        <stationCount>6</stationCount>
        <azimuthalGap>205.4</azimuthalGap>
        <evaluationMode>manual</evaluationMode>
        <evaluationStatus>reviewed</evaluationStatus>
        <stationMagnitudeContribution>
          <stationMagnitudeID>quakeml:uw.anss.org/AssocAmM/UW/10617268</stationMagnitudeID>
          <weight>1.0</weight>
          <residual>0.0</residual>
        </stationMagnitudeContribution>
        <stationMagnitudeContribution>
          <stationMagnitudeID>quakeml:uw.anss.org/AssocAmM/UW/10617278</stationMagnitudeID>
          <weight>1.0</weight>
          <residual>0.02</residual>
        </stationMagnitudeContribution>
        <stationMagnitudeContribution>
          <stationMagnitudeID>quakeml:uw.anss.org/AssocAmM/UW/10617293</stationMagnitudeID>
          <weight>1.0</weight>
          <residual>0.75</residual>
        </stationMagnitudeContribution>
        <stationMagnitudeContribution>
          <stationMagnitudeID>quakeml:uw.anss.org/AssocAmM/UW/10617298</stationMagnitudeID>
          <weight>1.0</weight>
          <residual>0.71</residual>
        </stationMagnitudeContribution>
        <stationMagnitudeContribution>
          <stationMagnitudeID>quakeml:uw.anss.org/AssocAmM/UW/10617283</stationMagnitudeID>
          <weight>1.0</weight>
          <residual>-0.18</residual>
        </stationMagnitudeContribution>
        <stationMagnitudeContribution>
          <stationMagnitudeID>quakeml:uw.anss.org/AssocAmM/UW/10617288</stationMagnitudeID>
          <weight>1.0</weight>
          <residual>-0.53</residual>
        </stationMagnitudeContribution>
        <stationMagnitudeContribution>
          <stationMagnitudeID>quakeml:uw.anss.org/AssocAmM/UW/10617263</stationMagnitudeID>
          <weight>1.0</weight>
          <residual>0.05</residual>
        </stationMagnitudeContribution>
        <stationMagnitudeContribution>
          <stationMagnitudeID>quakeml:uw.anss.org/AssocAmM/UW/10617273</stationMagnitudeID>
          <weight>1.0</weight>
          <residual>-0.16</residual>
        </stationMagnitudeContribution>
        <stationMagnitudeContribution>
          <stationMagnitudeID>quakeml:uw.anss.org/AssocAmM/UW/10617258</stationMagnitudeID>
          <weight>1.0</weight>
          <residual>-0.97</residual>
        </stationMagnitudeContribution>
        <creationInfo>
          <agencyID>UW</agencyID>
          <creationTime>2017-12-19T18:49:22.000000Z</creationTime>
        </creationInfo>
      </magnitude>
      <stationMagnitude publicID="quakeml:uw.anss.org/AssocAmM/UW/10617258">
        <originID>quakeml:uw.anss.org/Origin/UW/2797853</originID>
        <mag>
          <value>0.45</value>
        </mag>
        <type>ML</type>
        <amplitudeID>quakeml:uw.anss.org/Amp/UW/10617258</amplitudeID>
        <waveformID networkCode="UW" stationCode="MBW" locationCode="" channelCode="EHZ"></waveformID>
      </stationMagnitude>
      <stationMagnitude publicID="quakeml:uw.anss.org/AssocAmM/UW/10617263">
        <originID>quakeml:uw.anss.org/Origin/UW/2797853</originID>
        <mag>
          <value>1.47</value>
        </mag>
        <type>ML</type>
        <amplitudeID>quakeml:uw.anss.org/Amp/UW/10617263</amplitudeID>
        <waveformID networkCode="UW" stationCode="SHUK" locationCode="" channelCode="BHN"></waveformID>
      </stationMagnitude>
      <stationMagnitude publicID="quakeml:uw.anss.org/AssocAmM/UW/10617268">
        <originID>quakeml:uw.anss.org/Origin/UW/2797853</originID>
        <mag>
          <value>1.42</value>
        </mag>
        <type>ML</type>
        <amplitudeID>quakeml:uw.anss.org/Amp/UW/10617268</amplitudeID>
        <waveformID networkCode="UW" stationCode="SHUK" locationCode="" channelCode="BHE"></waveformID>
      </stationMagnitude>
      <stationMagnitude publicID="quakeml:uw.anss.org/AssocAmM/UW/10617273">
        <originID>quakeml:uw.anss.org/Origin/UW/2797853</originID>
        <mag>
          <value>1.26</value>
        </mag>
        <type>ML</type>
        <amplitudeID>quakeml:uw.anss.org/Amp/UW/10617273</amplitudeID>
        <waveformID networkCode="UW" stationCode="MRBL" locationCode="" channelCode="HHN"></waveformID>
      </stationMagnitude>
      <stationMagnitude publicID="quakeml:uw.anss.org/AssocAmM/UW/10617278">
        <originID>quakeml:uw.anss.org/Origin/UW/2797853</originID>
        <mag>
          <value>1.44</value>
        </mag>
        <type>ML</type>
        <amplitudeID>quakeml:uw.anss.org/Amp/UW/10617278</amplitudeID>
        <waveformID networkCode="UW" stationCode="MRBL" locationCode="" channelCode="HHE"></waveformID>
      </stationMagnitude>
      <stationMagnitude publicID="quakeml:uw.anss.org/AssocAmM/UW/10617283">
        <originID>quakeml:uw.anss.org/Origin/UW/2797853</originID>
        <mag>
          <value>1.24</value>
        </mag>
        <type>ML</type>
        <amplitudeID>quakeml:uw.anss.org/Amp/UW/10617283</amplitudeID>
        <waveformID networkCode="UW" stationCode="RPW" locationCode="" channelCode="EHZ"></waveformID>
      </stationMagnitude>
      <stationMagnitude publicID="quakeml:uw.anss.org/AssocAmM/UW/10617288">
        <originID>quakeml:uw.anss.org/Origin/UW/2797853</originID>
        <mag>
          <value>0.89</value>
        </mag>
        <type>ML</type>
        <amplitudeID>quakeml:uw.anss.org/Amp/UW/10617288</amplitudeID>
        <waveformID networkCode="UW" stationCode="JCW" locationCode="" channelCode="EHZ"></waveformID>
      </stationMagnitude>
      <stationMagnitude publicID="quakeml:uw.anss.org/AssocAmM/UW/10617293">
        <originID>quakeml:uw.anss.org/Origin/UW/2797853</originID>
        <mag>
          <value>2.17</value>
        </mag>
        <type>ML</type>
        <amplitudeID>quakeml:uw.anss.org/Amp/UW/10617293</amplitudeID>
        <waveformID networkCode="UW" stationCode="TOLT" locationCode="" channelCode="BHN"></waveformID>
      </stationMagnitude>
      <stationMagnitude publicID="quakeml:uw.anss.org/AssocAmM/UW/10617298">
        <originID>quakeml:uw.anss.org/Origin/UW/2797853</originID>
        <mag>
          <value>2.13</value>
        </mag>
        <type>ML</type>
        <amplitudeID>quakeml:uw.anss.org/Amp/UW/10617298</amplitudeID>
        <waveformID networkCode="UW" stationCode="TOLT" locationCode="" channelCode="BHE"></waveformID>
      </stationMagnitude>
      <pick publicID="quakeml:uw.anss.org/Arrival/UW/14210008">
        <time>
          <value>2017-12-19T02:18:36.390000Z</value>
          <uncertainty>0.15</uncertainty>
        </time>
        <waveformID networkCode="UW" stationCode="MBW" locationCode="" channelCode="EHZ"></waveformID>
        <onset>emergent</onset>
        <polarity>undecidable</polarity>
        <evaluationMode>manual</evaluationMode>
        <evaluationStatus>reviewed</evaluationStatus>
        <creationInfo>
          <agencyID>UW</agencyID>
          <creationTime>2017-12-19T18:49:22.000000Z</creationTime>
        </creationInfo>
      </pick>
      <pick publicID="quakeml:uw.anss.org/Arrival/UW/14210013">
        <time>
          <value>2017-12-19T02:18:43.040000Z</value>
          <uncertainty>0.15</uncertainty>
        </time>
        <waveformID networkCode="UW" stationCode="SHUK" locationCode="" channelCode="BHN"></waveformID>
        <onset>emergent</onset>
        <polarity>undecidable</polarity>
        <evaluationMode>manual</evaluationMode>
        <evaluationStatus>reviewed</evaluationStatus>
        <creationInfo>
          <agencyID>UW</agencyID>
          <creationTime>2017-12-19T18:49:22.000000Z</creationTime>
        </creationInfo>
      </pick>
      <pick publicID="quakeml:uw.anss.org/Arrival/UW/14210018">
        <time>
          <value>2017-12-19T02:18:46.640000Z</value>
          <uncertainty>0.15</uncertainty>
        </time>
        <waveformID networkCode="UW" stationCode="MRBL" locationCode="" channelCode="HHE"></waveformID>
        <onset>emergent</onset>
        <polarity>undecidable</polarity>
        <evaluationMode>manual</evaluationMode>
        <evaluationStatus>reviewed</evaluationStatus>
        <creationInfo>
          <agencyID>UW</agencyID>
          <creationTime>2017-12-19T18:49:22.000000Z</creationTime>
        </creationInfo>
      </pick>
      <pick publicID="quakeml:uw.anss.org/Arrival/UW/14210023">
        <time>
          <value>2017-12-19T02:18:41.220000Z</value>
          <uncertainty>0.3</uncertainty>
        </time>
        <waveformID networkCode="UW" stationCode="RPW" locationCode="" channelCode="EHZ"></waveformID>
        <onset>emergent</onset>
        <polarity>undecidable</polarity>
        <evaluationMode>manual</evaluationMode>
        <evaluationStatus>reviewed</evaluationStatus>
        <creationInfo>
          <agencyID>UW</agencyID>
          <creationTime>2017-12-19T18:49:22.000000Z</creationTime>
        </creationInfo>
      </pick>
      <pick publicID="quakeml:uw.anss.org/Arrival/UW/14210028">
        <time>
          <value>2017-12-19T02:18:47.950000Z</value>
          <uncertainty>0.15</uncertainty>
        </time>
        <waveformID networkCode="UW" stationCode="RPW" locationCode="" channelCode="EHZ"></waveformID>
        <onset>emergent</onset>
        <polarity>undecidable</polarity>
        <evaluationMode>manual</evaluationMode>
        <evaluationStatus>reviewed</evaluationStatus>
        <creationInfo>
          <agencyID>UW</agencyID>
          <creationTime>2017-12-19T18:49:22.000000Z</creationTime>
        </creationInfo>
      </pick>
      <pick publicID="quakeml:uw.anss.org/Arrival/UW/14210033">
        <time>
          <value>2017-12-19T02:18:43.730000Z</value>
          <uncertainty>0.3</uncertainty>
        </time>
        <waveformID networkCode="UW" stationCode="JCW" locationCode="" channelCode="EHZ"></waveformID>
        <onset>emergent</onset>
        <polarity>undecidable</polarity>
        <evaluationMode>manual</evaluationMode>
        <evaluationStatus>reviewed</evaluationStatus>
        <creationInfo>
          <agencyID>UW</agencyID>
          <creationTime>2017-12-19T18:49:22.000000Z</creationTime>
        </creationInfo>
      </pick>
      <pick publicID="quakeml:uw.anss.org/Arrival/UW/14210038">
        <time>
          <value>2017-12-19T02:19:06.780000Z</value>
          <uncertainty>0.3</uncertainty>
        </time>
        <waveformID networkCode="UW" stationCode="TOLT" locationCode="" channelCode="BHN"></waveformID>
        <onset>emergent</onset>
        <polarity>undecidable</polarity>
        <evaluationMode>manual</evaluationMode>
        <evaluationStatus>reviewed</evaluationStatus>
        <creationInfo>
          <agencyID>UW</agencyID>
          <creationTime>2017-12-19T18:49:22.000000Z</creationTime>
        </creationInfo>
      </pick>
      <amplitude publicID="quakeml:uw.anss.org/Amp/UW/10617288">
        <genericAmplitude>
          <value>9.3457e-06</value>
        </genericAmplitude>
        <type>AML</type>
        <category>point</category>
        <unit>m</unit>
        <waveformID networkCode="UW" stationCode="JCW" locationCode="" channelCode="EHZ"></waveformID>
        <magnitudeHint>ML</magnitudeHint>
        <evaluationMode>manual</evaluationMode>
        <evaluationStatus>reviewed</evaluationStatus>
      </amplitude>
      <amplitude publicID="quakeml:uw.anss.org/Amp/UW/10617258">
        <genericAmplitude>
          <value>1.3589e-05</value>
        </genericAmplitude>
        <type>AML</type>
        <category>point</category>
        <unit>m</unit>
        <waveformID networkCode="UW" stationCode="MBW" locationCode="" channelCode="EHZ"></waveformID>
        <magnitudeHint>ML</magnitudeHint>
        <evaluationMode>manual</evaluationMode>
        <evaluationStatus>reviewed</evaluationStatus>
      </amplitude>
      <amplitude publicID="quakeml:uw.anss.org/Amp/UW/10617278">
        <genericAmplitude>
          <value>0.00017994</value>
        </genericAmplitude>
        <type>AML</type>
        <category>point</category>
        <unit>m</unit>
        <waveformID networkCode="UW" stationCode="MRBL" locationCode="" channelCode="HHE"></waveformID>
        <magnitudeHint>ML</magnitudeHint>
        <evaluationMode>manual</evaluationMode>
        <evaluationStatus>reviewed</evaluationStatus>
      </amplitude>
      <amplitude publicID="quakeml:uw.anss.org/Amp/UW/10617273">
        <genericAmplitude>
          <value>0.00012045</value>
        </genericAmplitude>
        <type>AML</type>
        <category>point</category>
