<?xml version='1.0' encoding='utf-8'?>
<q:quakeml xmlns="http://quakeml.org/xmlns/bed/1.2" xmlns:q="http://quakeml.org/xmlns/quakeml/1.2" xmlns:ns0="http://anss.org/xmlns/catalog/0.1">
  <eventParameters publicID="smi:local/37d66312-2f71-40fb-a05b-fe41b9bc06ff">
    <event publicID="quakeml:uw.anss.org/Event/UW/10597303" ns0:datasource="uw" ns0:dataid="uw10597303" ns0:eventsource="uw" ns0:eventid="10597303">
      <preferredOriginID>quakeml:uw.anss.org/Origin/UW/879558</preferredOriginID>
      <preferredMagnitudeID>quakeml:uw.anss.org/Netmag/UW/688653</preferredMagnitudeID>
      <type>earthquake</type>
      <creationInfo>
        <agencyID>UW</agencyID>
        <creationTime>2012-03-05T14:56:24.000000Z</creationTime>
        <version>3</version>
      </creationInfo>
      <origin publicID="quakeml:uw.anss.org/Origin/UW/879558" ns0:datasource="uw" ns0:dataid="uw10597303" ns0:eventsource="uw" ns0:eventid="10597303">
        <time>
          <value>2004-01-07T00:11:51.190000Z</value>
          <uncertainty>0.01</uncertainty>
        </time>
        <latitude>
          <value>48.6401667</value>
          <uncertainty>0.04</uncertainty>
        </latitude>
        <longitude>
          <value>-122.444</value>
          <uncertainty>0.03</uncertainty>
        </longitude>
        <depth>
          <value>-611.0</value>
          <uncertainty>110.0</uncertainty>
        </depth>
        <depthType>operator assigned</depthType>
        <timeFixed>false</timeFixed>
        <epicenterFixed>false</epicenterFixed>
        <methodID>smi:uw.anss.org/origin/spong</methodID>
        <quality>
          <associatedPhaseCount>54</associatedPhaseCount>
          <usedPhaseCount>33</usedPhaseCount>
          <associatedStationCount>43</associatedStationCount>
          <usedStationCount>0</usedStationCount>
          <standardError>0.33</standardError>
          <azimuthalGap>104.0</azimuthalGap>
        </quality>
        <type>hypocenter</type>
        <evaluationMode>manual</evaluationMode>
        <evaluationStatus>final</evaluationStatus>
        <creationInfo>
          <agencyID>UW</agencyID>
          <creationTime>2012-03-05T14:56:24.000000Z</creationTime>
        </creationInfo>
        <originUncertainty>
          <preferredDescription>horizontal uncertainty</preferredDescription>
          <horizontalUncertainty>50.0</horizontalUncertainty>
        </originUncertainty>
        <arrival publicID="quakeml:uw.anss.org/AssocArO/UW/8074608">
          <pickID>quakeml:uw.anss.org/Arrival/UW/8074608</pickID>
          <phase>P</phase>
          <azimuth>149.6</azimuth>
          <distance>2.2</distance>
          <timeResidual>-1.21</timeResidual>
          <creationInfo>
            <agencyID>UW</agencyID>
            <creationTime>2012-03-05T14:56:24.000000Z</creationTime>
          </creationInfo>
        </arrival>
        <arrival publicID="quakeml:uw.anss.org/AssocArO/UW/8074613">
          <pickID>quakeml:uw.anss.org/Arrival/UW/8074613</pickID>
          <phase>P</phase>
          <azimuth>111.4</azimuth>
          <distance>1.514</distance>
          <timeResidual>0.17</timeResidual>
          <creationInfo>
            <agencyID>UW</agencyID>
            <creationTime>2012-03-05T14:56:24.000000Z</creationTime>
          </creationInfo>
        </arrival>
        <arrival publicID="quakeml:uw.anss.org/AssocArO/UW/8074618">
          <pickID>quakeml:uw.anss.org/Arrival/UW/8074618</pickID>
          <phase>P</phase>
          <azimuth>212.8</azimuth>
          <distance>0.2223</distance>
          <timeResidual>-0.31</timeResidual>
          <creationInfo>
            <agencyID>UW</agencyID>
            <creationTime>2012-03-05T14:56:24.000000Z</creationTime>
          </creationInfo>
        </arrival>
        <arrival publicID="quakeml:uw.anss.org/AssocArO/UW/8074623">
          <pickID>quakeml:uw.anss.org/Arrival/UW/8074623</pickID>
          <phase>S</phase>
          <azimuth>212.8</azimuth>
          <distance>0.2223</distance>
          <timeResidual>-0.16</timeResidual>
          <creationInfo>
            <agencyID>UW</agencyID>
            <creationTime>2012-03-05T14:56:24.000000Z</creationTime>
          </creationInfo>
        </arrival>
        <arrival publicID="quakeml:uw.anss.org/AssocArO/UW/8074628">
          <pickID>quakeml:uw.anss.org/Arrival/UW/8074628</pickID>
          <phase>P</phase>
          <azimuth>193.4</azimuth>
          <distance>1.107</distance>
          <timeResidual>-0.54</timeResidual>
          <creationInfo>
            <agencyID>UW</agencyID>
            <creationTime>2012-03-05T14:56:24.000000Z</creationTime>
          </creationInfo>
        </arrival>
        <arrival publicID="quakeml:uw.anss.org/AssocArO/UW/8074633">
          <pickID>quakeml:uw.anss.org/Arrival/UW/8074633</pickID>
          <phase>S</phase>
          <azimuth>193.4</azimuth>
          <distance>1.107</distance>
          <timeResidual>-1.16</timeResidual>
          <creationInfo>
            <agencyID>UW</agencyID>
            <creationTime>2012-03-05T14:56:24.000000Z</creationTime>
          </creationInfo>
        </arrival>
        <arrival publicID="quakeml:uw.anss.org/AssocArO/UW/8074638">
          <pickID>quakeml:uw.anss.org/Arrival/UW/8074638</pickID>
          <phase>P</phase>
          <azimuth>178.0</azimuth>
          <distance>0.6282</distance>
          <timeResidual>0.53</timeResidual>
          <creationInfo>
            <agencyID>UW</agencyID>
            <creationTime>2012-03-05T14:56:24.000000Z</creationTime>
          </creationInfo>
        </arrival>
        <arrival publicID="quakeml:uw.anss.org/AssocArO/UW/8074643">
          <pickID>quakeml:uw.anss.org/Arrival/UW/8074643</pickID>
          <phase>P</phase>
          <azimuth>199.7</azimuth>
          <timeResidual>-0.04</timeResidual>
          <creationInfo>
            <agencyID>UW</agencyID>
            <creationTime>2012-03-05T14:56:24.000000Z</creationTime>
          </creationInfo>
        </arrival>
        <arrival publicID="quakeml:uw.anss.org/AssocArO/UW/8074648">
          <pickID>quakeml:uw.anss.org/Arrival/UW/8074648</pickID>
          <phase>S</phase>
          <azimuth>167.0</azimuth>
          <timeResidual>-2.58</timeResidual>
          <creationInfo>
            <agencyID>UW</agencyID>
            <creationTime>2012-03-05T14:56:24.000000Z</creationTime>
          </creationInfo>
        </arrival>
        <arrival publicID="quakeml:uw.anss.org/AssocArO/UW/8074653">
          <pickID>quakeml:uw.anss.org/Arrival/UW/8074653</pickID>
          <phase>P</phase>
          <azimuth>164.9</azimuth>
          <timeResidual>-0.52</timeResidual>
          <creationInfo>
            <agencyID>UW</agencyID>
            <creationTime>2012-03-05T14:56:24.000000Z</creationTime>
          </creationInfo>
        </arrival>
        <arrival publicID="quakeml:uw.anss.org/AssocArO/UW/8074658">
          <pickID>quakeml:uw.anss.org/Arrival/UW/8074658</pickID>
          <phase>P</phase>
          <distance>0.4472</distance>
          <timeResidual>-0.15</timeResidual>
          <creationInfo>
            <agencyID>UW</agencyID>
            <creationTime>2012-03-05T14:56:24.000000Z</creationTime>
          </creationInfo>
        </arrival>
        <arrival publicID="quakeml:uw.anss.org/AssocArO/UW/8074663">
          <pickID>quakeml:uw.anss.org/Arrival/UW/8074663</pickID>
          <phase>P</phase>
          <azimuth>144.3</azimuth>
          <distance>1.839</distance>
          <timeResidual>0.95</timeResidual>
          <creationInfo>
            <agencyID>UW</agencyID>
            <creationTime>2012-03-05T14:56:24.000000Z</creationTime>
          </creationInfo>
        </arrival>
        <arrival publicID="quakeml:uw.anss.org/AssocArO/UW/8074668">
          <pickID>quakeml:uw.anss.org/Arrival/UW/8074668</pickID>
          <phase>P</phase>
          <azimuth>135.2</azimuth>
          <distance>0.3055</distance>
          <timeResidual>-0.08</timeResidual>
          <creationInfo>
            <agencyID>UW</agencyID>
            <creationTime>2012-03-05T14:56:24.000000Z</creationTime>
          </creationInfo>
        </arrival>
        <arrival publicID="quakeml:uw.anss.org/AssocArO/UW/8074673">
          <pickID>quakeml:uw.anss.org/Arrival/UW/8074673</pickID>
          <phase>P</phase>
          <azimuth>162.9</azimuth>
          <timeResidual>-0.85</timeResidual>
          <creationInfo>
            <agencyID>UW</agencyID>
            <creationTime>2012-03-05T14:56:24.000000Z</creationTime>
          </creationInfo>
        </arrival>
        <arrival publicID="quakeml:uw.anss.org/AssocArO/UW/8074678">
          <pickID>quakeml:uw.anss.org/Arrival/UW/8074678</pickID>
          <phase>S</phase>
          <azimuth>162.9</azimuth>
          <timeResidual>-2.05</timeResidual>
          <creationInfo>
            <agencyID>UW</agencyID>
            <creationTime>2012-03-05T14:56:24.000000Z</creationTime>
          </creationInfo>
        </arrival>
        <arrival publicID="quakeml:uw.anss.org/AssocArO/UW/8074683">
          <pickID>quakeml:uw.anss.org/Arrival/UW/8074683</pickID>
          <phase>P</phase>
          <azimuth>195.9</azimuth>
          <distance>1.732</distance>
          <timeResidual>-0.98</timeResidual>
          <creationInfo>
            <agencyID>UW</agencyID>
            <creationTime>2012-03-05T14:56:24.000000Z</creationTime>
          </creationInfo>
        </arrival>
        <arrival publicID="quakeml:uw.anss.org/AssocArO/UW/8074688">
          <pickID>quakeml:uw.anss.org/Arrival/UW/8074688</pickID>
          <phase>P</phase>
          <azimuth>167.0</azimuth>
          <distance>1.939</distance>
          <timeResidual>-0.78</timeResidual>
          <creationInfo>
            <agencyID>UW</agencyID>
            <creationTime>2012-03-05T14:56:24.000000Z</creationTime>
          </creationInfo>
        </arrival>
        <arrival publicID="quakeml:uw.anss.org/AssocArO/UW/8074693">
          <pickID>quakeml:uw.anss.org/Arrival/UW/8074693</pickID>
          <phase>P</phase>
          <azimuth>118.6</azimuth>
          <distance>1.914</distance>
          <timeResidual>-0.58</timeResidual>
          <creationInfo>
            <agencyID>UW</agencyID>
            <creationTime>2012-03-05T14:56:24.000000Z</creationTime>
          </creationInfo>
        </arrival>
        <arrival publicID="quakeml:uw.anss.org/AssocArO/UW/8074698">
          <pickID>quakeml:uw.anss.org/Arrival/UW/8074698</pickID>
          <phase>P</phase>
          <azimuth>159.9</azimuth>
          <distance>1.256</distance>
          <timeResidual>-0.33</timeResidual>
          <creationInfo>
            <agencyID>UW</agencyID>
            <creationTime>2012-03-05T14:56:24.000000Z</creationTime>
          </creationInfo>
        </arrival>
        <arrival publicID="quakeml:uw.anss.org/AssocArO/UW/8074703">
          <pickID>quakeml:uw.anss.org/Arrival/UW/8074703</pickID>
          <phase>P</phase>
          <azimuth>107.0</azimuth>
          <distance>0.6467</distance>
          <timeResidual>-0.37</timeResidual>
          <creationInfo>
            <agencyID>UW</agencyID>
            <creationTime>2012-03-05T14:56:24.000000Z</creationTime>
          </creationInfo>
        </arrival>
        <arrival publicID="quakeml:uw.anss.org/AssocArO/UW/8074708">
          <pickID>quakeml:uw.anss.org/Arrival/UW/8074708</pickID>
          <phase>P</phase>
          <azimuth>151.7</azimuth>
          <distance>1.073</distance>
          <timeResidual>-0.13</timeResidual>
          <creationInfo>
            <agencyID>UW</agencyID>
            <creationTime>2012-03-05T14:56:24.000000Z</creationTime>
          </creationInfo>
        </arrival>
        <arrival publicID="quakeml:uw.anss.org/AssocArO/UW/8074713">
          <pickID>quakeml:uw.anss.org/Arrival/UW/8074713</pickID>
          <phase>S</phase>
          <azimuth>151.7</azimuth>
          <distance>1.073</distance>
          <timeResidual>-0.93</timeResidual>
          <creationInfo>
            <agencyID>UW</agencyID>
            <creationTime>2012-03-05T14:56:24.000000Z</creationTime>
          </creationInfo>
        </arrival>
        <arrival publicID="quakeml:uw.anss.org/AssocArO/UW/8074718">
          <pickID>quakeml:uw.anss.org/Arrival/UW/8074718</pickID>
          <phase>P</phase>
          <azimuth>35.6</azimuth>
          <distance>0.3412</distance>
          <timeResidual>0.33</timeResidual>
          <creationInfo>
            <agencyID>UW</agencyID>
            <creationTime>2012-03-05T14:56:24.000000Z</creationTime>
          </creationInfo>
        </arrival>
        <arrival publicID="quakeml:uw.anss.org/AssocArO/UW/8074723">
          <pickID>quakeml:uw.anss.org/Arrival/UW/8074723</pickID>
          <phase>S</phase>
          <azimuth>35.6</azimuth>
          <distance>0.3412</distance>
          <timeResidual>0.42</timeResidual>
          <creationInfo>
            <agencyID>UW</agencyID>
            <creationTime>2012-03-05T14:56:24.000000Z</creationTime>
          </creationInfo>
        </arrival>
        <arrival publicID="quakeml:uw.anss.org/AssocArO/UW/8074728">
          <pickID>quakeml:uw.anss.org/Arrival/UW/8074728</pickID>
          <phase>P</phase>
          <azimuth>67.9</azimuth>
          <distance>0.3874</distance>
          <timeResidual>-0.07</timeResidual>
          <creationInfo>
            <agencyID>UW</agencyID>
            <creationTime>2012-03-05T14:56:24.000000Z</creationTime>
          </creationInfo>
        </arrival>
        <arrival publicID="quakeml:uw.anss.org/AssocArO/UW/8074733">
          <pickID>quakeml:uw.anss.org/Arrival/UW/8074733</pickID>
          <phase>P</phase>
          <azimuth>137.3</azimuth>
          <distance>2.721</distance>
          <timeResidual>-0.94</timeResidual>
          <creationInfo>
            <agencyID>UW</agencyID>
            <creationTime>2012-03-05T14:56:24.000000Z</creationTime>
          </creationInfo>
        </arrival>
        <arrival publicID="quakeml:uw.anss.org/AssocArO/UW/8074738">
          <pickID>quakeml:uw.anss.org/Arrival/UW/8074738</pickID>
          <phase>P</phase>
          <azimuth>142.2</azimuth>
          <timeResidual>-0.04</timeResidual>
          <creationInfo>
            <agencyID>UW</agencyID>
            <creationTime>2012-03-05T14:56:24.000000Z</creationTime>
          </creationInfo>
        </arrival>
        <arrival publicID="quakeml:uw.anss.org/AssocArO/UW/8074743">
          <pickID>quakeml:uw.anss.org/Arrival/UW/8074743</pickID>
          <phase>P</phase>
          <azimuth>125.5</azimuth>
          <distance>1.754</distance>
          <timeResidual>-0.01</timeResidual>
          <creationInfo>
            <agencyID>UW</agencyID>
            <creationTime>2012-03-05T14:56:24.000000Z</creationTime>
          </creationInfo>
        </arrival>
        <arrival publicID="quakeml:uw.anss.org/AssocArO/UW/8074748">
          <pickID>quakeml:uw.anss.org/Arrival/UW/8074748</pickID>
          <phase>P</phase>
          <azimuth>162.7</azimuth>
          <timeResidual>-0.47</timeResidual>
          <creationInfo>
            <agencyID>UW</agencyID>
            <creationTime>2012-03-05T14:56:24.000000Z</creationTime>
          </creationInfo>
        </arrival>
        <arrival publicID="quakeml:uw.anss.org/AssocArO/UW/8074753">
          <pickID>quakeml:uw.anss.org/Arrival/UW/8074753</pickID>
          <phase>S</phase>
          <azimuth>162.7</azimuth>
          <timeResidual>-2.01</timeResidual>
          <creationInfo>
            <agencyID>UW</agencyID>
            <creationTime>2012-03-05T14:56:24.000000Z</creationTime>
          </creationInfo>
        </arrival>
        <arrival publicID="quakeml:uw.anss.org/AssocArO/UW/8074758">
          <pickID>quakeml:uw.anss.org/Arrival/UW/8074758</pickID>
          <phase>P</phase>
          <azimuth>138.7</azimuth>
          <distance>1.83</distance>
          <timeResidual>0.3</timeResidual>
          <creationInfo>
            <agencyID>UW</agencyID>
            <creationTime>2012-03-05T14:56:24.000000Z</creationTime>
          </creationInfo>
        </arrival>
        <arrival publicID="quakeml:uw.anss.org/AssocArO/UW/8074763">
          <pickID>quakeml:uw.anss.org/Arrival/UW/8074763</pickID>
          <phase>S</phase>
          <azimuth>138.7</azimuth>
          <distance>1.83</distance>
          <timeResidual>-1.46</timeResidual>
          <creationInfo>
            <agencyID>UW</agencyID>
            <creationTime>2012-03-05T14:56:24.000000Z</creationTime>
          </creationInfo>
        </arrival>
        <arrival publicID="quakeml:uw.anss.org/AssocArO/UW/8074768">
          <pickID>quakeml:uw.anss.org/Arrival/UW/8074768</pickID>
          <phase>P</phase>
          <azimuth>109.2</azimuth>
          <distance>1.9</distance>
          <timeResidual>-0.55</timeResidual>
          <creationInfo>
            <agencyID>UW</agencyID>
            <creationTime>2012-03-05T14:56:24.000000Z</creationTime>
          </creationInfo>
        </arrival>
        <arrival publicID="quakeml:uw.anss.org/AssocArO/UW/8074773">
          <pickID>quakeml:uw.anss.org/Arrival/UW/8074773</pickID>
          <phase>P</phase>
          <azimuth>126.4</azimuth>
          <distance>1.305</distance>
          <timeResidual>-0.02</timeResidual>
          <creationInfo>
            <agencyID>UW</agencyID>
            <creationTime>2012-03-05T14:56:24.000000Z</creationTime>
          </creationInfo>
        </arrival>
        <arrival publicID="quakeml:uw.anss.org/AssocArO/UW/8074778">
          <pickID>quakeml:uw.anss.org/Arrival/UW/8074778</pickID>
          <phase>P</phase>
          <azimuth>239.5</azimuth>
          <timeResidual>-0.5</timeResidual>
          <creationInfo>
            <agencyID>UW</agencyID>
            <creationTime>2012-03-05T14:56:24.000000Z</creationTime>
          </creationInfo>
        </arrival>
        <arrival publicID="quakeml:uw.anss.org/AssocArO/UW/8074783">
          <pickID>quakeml:uw.anss.org/Arrival/UW/8074783</pickID>
          <phase>P</phase>
          <azimuth>147.6</azimuth>
          <distance>0.4782</distance>
          <timeResidual>0.0</timeResidual>
          <creationInfo>
            <agencyID>UW</agencyID>
            <creationTime>2012-03-05T14:56:24.000000Z</creationTime>
          </creationInfo>
        </arrival>
        <arrival publicID="quakeml:uw.anss.org/AssocArO/UW/8074788">
          <pickID>quakeml:uw.anss.org/Arrival/UW/8074788</pickID>
          <phase>P</phase>
          <azimuth>123.9</azimuth>
          <distance>1.554</distance>
          <timeResidual>0.31</timeResidual>
          <creationInfo>
            <agencyID>UW</agencyID>
            <creationTime>2012-03-05T14:56:24.000000Z</creationTime>
          </creationInfo>
        </arrival>
        <arrival publicID="quakeml:uw.anss.org/AssocArO/UW/8074793">
          <pickID>quakeml:uw.anss.org/Arrival/UW/8074793</pickID>
          <phase>P</phase>
          <azimuth>120.6</azimuth>
          <distance>1.016</distance>
          <timeResidual>0.17</timeResidual>
          <creationInfo>
            <agencyID>UW</agencyID>
            <creationTime>2012-03-05T14:56:24.000000Z</creationTime>
          </creationInfo>
        </arrival>
        <arrival publicID="quakeml:uw.anss.org/AssocArO/UW/8074798">
          <pickID>quakeml:uw.anss.org/Arrival/UW/8074798</pickID>
          <phase>P</phase>
          <azimuth>161.4</azimuth>
          <timeResidual>0.1</timeResidual>
          <creationInfo>
            <agencyID>UW</agencyID>
            <creationTime>2012-03-05T14:56:24.000000Z</creationTime>
          </creationInfo>
        </arrival>
        <arrival publicID="quakeml:uw.anss.org/AssocArO/UW/8074803">
          <pickID>quakeml:uw.anss.org/Arrival/UW/8074803</pickID>
          <phase>S</phase>
          <azimuth>161.4</azimuth>
          <timeResidual>-0.6</timeResidual>
          <creationInfo>
            <agencyID>UW</agencyID>
