<?xml version='1.0' encoding='utf-8'?>
<q:quakeml xmlns="http://quakeml.org/xmlns/bed/1.2" xmlns:q="http://quakeml.org/xmlns/quakeml/1.2" xmlns:ns0="http://anss.org/xmlns/catalog/0.1">
  <eventParameters publicID="smi:local/ad2690dd-624a-4e40-a938-7edc3c436157">
    <event publicID="quakeml:uw.anss.org/Event/UW/10610018" ns0:datasource="uw" ns0:dataid="uw10610018" ns0:eventsource="uw" ns0:eventid="10610018">
      <preferredOriginID>quakeml:uw.anss.org/Origin/UW/892273</preferredOriginID>
      <preferredMagnitudeID>quakeml:uw.anss.org/Netmag/UW/695703</preferredMagnitudeID>
      <type>earthquake</type>
      <creationInfo>
        <agencyID>UW</agencyID>
        <creationTime>2012-03-05T15:32:27.000000Z</creationTime>
        <version>3</version>
      </creationInfo>
      <origin publicID="quakeml:uw.anss.org/Origin/UW/892273" ns0:datasource="uw" ns0:dataid="uw10610018" ns0:eventsource="uw" ns0:eventid="10610018">
        <time>
          <value>2004-06-12T21:35:03.440000Z</value>
          <uncertainty>0.01</uncertainty>
        </time>
        <latitude>
          <value>48.4065</value>
          <uncertainty>0.07</uncertainty>
        </latitude>
        <longitude>
          <value>-121.8291667</value>
          <uncertainty>0.14</uncertainty>
        </longitude>
        <depth>
          <value>2973.0</value>
        </depth>
        <depthType>from location</depthType>
        <timeFixed>false</timeFixed>
        <epicenterFixed>false</epicenterFixed>
        <methodID>smi:uw.anss.org/origin/spong</methodID>
        <quality>
          <associatedPhaseCount>5</associatedPhaseCount>
          <usedPhaseCount>5</usedPhaseCount>
          <associatedStationCount>4</associatedStationCount>
          <usedStationCount>0</usedStationCount>
          <standardError>0.02</standardError>
          <azimuthalGap>118.0</azimuthalGap>
        </quality>
        <type>hypocenter</type>
        <evaluationMode>manual</evaluationMode>
        <evaluationStatus>final</evaluationStatus>
        <creationInfo>
          <agencyID>UW</agencyID>
          <creationTime>2012-03-05T15:32:27.000000Z</creationTime>
        </creationInfo>
        <originUncertainty>
          <preferredDescription>horizontal uncertainty</preferredDescription>
          <horizontalUncertainty>157.0</horizontalUncertainty>
        </originUncertainty>
        <arrival publicID="quakeml:uw.anss.org/AssocArO/UW/8191163">
          <pickID>quakeml:uw.anss.org/Arrival/UW/8191163</pickID>
          <phase>P</phase>
          <azimuth>275.1</azimuth>
          <distance>0.1947</distance>
          <timeResidual>-0.03</timeResidual>
          <creationInfo>
            <agencyID>UW</agencyID>
            <creationTime>2012-03-05T15:32:27.000000Z</creationTime>
          </creationInfo>
        </arrival>
        <arrival publicID="quakeml:uw.anss.org/AssocArO/UW/8191178">
          <pickID>quakeml:uw.anss.org/Arrival/UW/8191178</pickID>
          <phase>P</phase>
          <azimuth>197.2</azimuth>
          <timeResidual>0.04</timeResidual>
          <creationInfo>
            <agencyID>UW</agencyID>
            <creationTime>2012-03-05T15:32:27.000000Z</creationTime>
          </creationInfo>
        </arrival>
        <arrival publicID="quakeml:uw.anss.org/AssocArO/UW/8191188">
          <pickID>quakeml:uw.anss.org/Arrival/UW/8191188</pickID>
          <phase>P</phase>
          <azimuth>352.9</azimuth>
          <distance>0.3806</distance>
          <timeResidual>0.02</timeResidual>
          <creationInfo>
            <agencyID>UW</agencyID>
            <creationTime>2012-03-05T15:32:27.000000Z</creationTime>
          </creationInfo>
        </arrival>
        <arrival publicID="quakeml:uw.anss.org/AssocArO/UW/8191198">
          <pickID>quakeml:uw.anss.org/Arrival/UW/8191198</pickID>
          <phase>P</phase>
          <azimuth>78.6</azimuth>
          <distance>0.2135</distance>
          <timeResidual>0.02</timeResidual>
          <creationInfo>
            <agencyID>UW</agencyID>
            <creationTime>2012-03-05T15:32:27.000000Z</creationTime>
          </creationInfo>
        </arrival>
        <arrival publicID="quakeml:uw.anss.org/AssocArO/UW/8191208">
          <pickID>quakeml:uw.anss.org/Arrival/UW/8191208</pickID>
          <phase>S</phase>
          <azimuth>78.6</azimuth>
          <distance>0.2135</distance>
          <timeResidual>-0.02</timeResidual>
          <creationInfo>
            <agencyID>UW</agencyID>
            <creationTime>2012-03-05T15:32:27.000000Z</creationTime>
          </creationInfo>
        </arrival>
      </origin>
      <magnitude publicID="quakeml:uw.anss.org/Netmag/UW/695703">
        <mag>
          <value>0.3</value>
          <uncertainty>0.05</uncertainty>
        </mag>
        <type>Md</type>
        <originID>quakeml:uw.anss.org/Origin/UW/892273</originID>
        <methodID>smi:uw.anss.org/magnitude/Crosson</methodID>
        <stationCount>3</stationCount>
        <evaluationMode>manual</evaluationMode>
        <evaluationStatus>final</evaluationStatus>
        <stationMagnitudeContribution>
          <stationMagnitudeID>quakeml:uw.anss.org/AssocCoM/UW/1901833</stationMagnitudeID>
          <weight>1.0</weight>
          <residual>-0.21</residual>
        </stationMagnitudeContribution>
        <stationMagnitudeContribution>
          <stationMagnitudeID>quakeml:uw.anss.org/AssocCoM/UW/1901843</stationMagnitudeID>
          <weight>1.0</weight>
          <residual>0.28</residual>
        </stationMagnitudeContribution>
        <stationMagnitudeContribution>
          <stationMagnitudeID>quakeml:uw.anss.org/AssocCoM/UW/1901848</stationMagnitudeID>
          <weight>1.0</weight>
          <residual>-0.07</residual>
        </stationMagnitudeContribution>
        <creationInfo>
          <agencyID>UW</agencyID>
          <creationTime>2012-03-05T15:32:27.000000Z</creationTime>
        </creationInfo>
      </magnitude>
      <stationMagnitude publicID="quakeml:uw.anss.org/AssocCoM/UW/1901833">
        <originID>quakeml:uw.anss.org/Origin/UW/892273</originID>
        <mag>
          <value>0.09</value>
        </mag>
        <type>MD</type>
        <amplitudeID>quakeml:uw.anss.org/Coda/UW/1901833</amplitudeID>
        <waveformID networkCode="UW" stationCode="CMW" locationCode="" channelCode="EHZ"></waveformID>
      </stationMagnitude>
      <stationMagnitude publicID="quakeml:uw.anss.org/AssocCoM/UW/1901843">
        <originID>quakeml:uw.anss.org/Origin/UW/892273</originID>
        <mag>
          <value>0.58</value>
        </mag>
        <type>MD</type>
        <amplitudeID>quakeml:uw.anss.org/Coda/UW/1901843</amplitudeID>
        <waveformID networkCode="UW" stationCode="JCW" locationCode="" channelCode="EHZ"></waveformID>
      </stationMagnitude>
      <stationMagnitude publicID="quakeml:uw.anss.org/AssocCoM/UW/1901848">
        <originID>quakeml:uw.anss.org/Origin/UW/892273</originID>
        <mag>
          <value>0.23</value>
        </mag>
        <type>MD</type>
        <amplitudeID>quakeml:uw.anss.org/Coda/UW/1901848</amplitudeID>
        <waveformID networkCode="UW" stationCode="RPW" locationCode="" channelCode="EHZ"></waveformID>
      </stationMagnitude>
      <pick publicID="quakeml:uw.anss.org/Arrival/UW/8191163">
        <time>
          <value>2004-06-12T21:35:07.470000Z</value>
          <uncertainty>0.04</uncertainty>
        </time>
        <waveformID networkCode="UW" stationCode="CMW" locationCode="" channelCode="EHZ"></waveformID>
        <polarity>undecidable</polarity>
        <evaluationMode>manual</evaluationMode>
        <evaluationStatus>final</evaluationStatus>
        <creationInfo>
          <agencyID>UW</agencyID>
          <creationTime>2012-03-05T15:32:27.000000Z</creationTime>
        </creationInfo>
      </pick>
      <pick publicID="quakeml:uw.anss.org/Arrival/UW/8191178">
        <time>
          <value>2004-06-12T21:35:07.660000Z</value>
          <uncertainty>0.08</uncertainty>
        </time>
        <waveformID networkCode="UW" stationCode="JCW" locationCode="" channelCode="EHZ"></waveformID>
        <polarity>undecidable</polarity>
        <evaluationMode>manual</evaluationMode>
        <evaluationStatus>final</evaluationStatus>
        <creationInfo>
          <agencyID>UW</agencyID>
          <creationTime>2012-03-05T15:32:27.000000Z</creationTime>
        </creationInfo>
      </pick>
      <pick publicID="quakeml:uw.anss.org/Arrival/UW/8191188">
        <time>
          <value>2004-06-12T21:35:10.800000Z</value>
          <uncertainty>0.05</uncertainty>
        </time>
        <waveformID networkCode="UW" stationCode="MBW" locationCode="" channelCode="EHZ"></waveformID>
        <polarity>undecidable</polarity>
        <evaluationMode>manual</evaluationMode>
        <evaluationStatus>final</evaluationStatus>
        <creationInfo>
          <agencyID>UW</agencyID>
          <creationTime>2012-03-05T15:32:27.000000Z</creationTime>
        </creationInfo>
      </pick>
      <pick publicID="quakeml:uw.anss.org/Arrival/UW/8191198">
        <time>
          <value>2004-06-12T21:35:07.770000Z</value>
          <uncertainty>0.03</uncertainty>
        </time>
        <waveformID networkCode="UW" stationCode="RPW" locationCode="" channelCode="EHZ"></waveformID>
        <polarity>positive</polarity>
        <evaluationMode>manual</evaluationMode>
        <evaluationStatus>final</evaluationStatus>
        <creationInfo>
          <agencyID>UW</agencyID>
          <creationTime>2012-03-05T15:32:27.000000Z</creationTime>
        </creationInfo>
      </pick>
      <pick publicID="quakeml:uw.anss.org/Arrival/UW/8191208">
        <time>
          <value>2004-06-12T21:35:11.100000Z</value>
          <uncertainty>0.04</uncertainty>
        </time>
        <waveformID networkCode="UW" stationCode="RPW" locationCode="" channelCode="EHZ"></waveformID>
        <polarity>undecidable</polarity>
        <evaluationMode>manual</evaluationMode>
        <evaluationStatus>final</evaluationStatus>
        <creationInfo>
          <agencyID>UW</agencyID>
          <creationTime>2012-03-05T15:32:27.000000Z</creationTime>
        </creationInfo>
      </pick>
      <amplitude publicID="quakeml:uw.anss.org/Coda/UW/1901833">
        <genericAmplitude>
          <value>8.0</value>
        </genericAmplitude>
        <type>END</type>
        <category>duration</category>
        <unit>s</unit>
        <waveformID networkCode="UW" stationCode="CMW" locationCode="" channelCode="EHZ"></waveformID>
        <magnitudeHint>MD</magnitudeHint>
        <evaluationMode>manual</evaluationMode>
        <evaluationStatus>final</evaluationStatus>
      </amplitude>
      <amplitude publicID="quakeml:uw.anss.org/Coda/UW/1901843">
        <genericAmplitude>
          <value>12.0</value>
        </genericAmplitude>
        <type>END</type>
        <category>duration</category>
        <unit>s</unit>
        <waveformID networkCode="UW" stationCode="JCW" locationCode="" channelCode="EHZ"></waveformID>
        <magnitudeHint>MD</magnitudeHint>
        <evaluationMode>manual</evaluationMode>
        <evaluationStatus>final</evaluationStatus>
      </amplitude>
      <amplitude publicID="quakeml:uw.anss.org/Coda/UW/1901848">
        <genericAmplitude>
          <value>9.0</value>
        </genericAmplitude>
        <type>END</type>
        <category>duration</category>
        <unit>s</unit>
        <waveformID networkCode="UW" stationCode="RPW" locationCode="" channelCode="EHZ"></waveformID>
        <magnitudeHint>MD</magnitudeHint>
        <evaluationMode>manual</evaluationMode>
        <evaluationStatus>final</evaluationStatus>
      </amplitude>
    </event>
  </eventParameters>
</q:quakeml>
