<?xml version='1.0' encoding='utf-8'?>
<q:quakeml xmlns="http://quakeml.org/xmlns/bed/1.2" xmlns:q="http://quakeml.org/xmlns/quakeml/1.2" xmlns:ns0="http://anss.org/xmlns/catalog/0.1">
  <eventParameters publicID="smi:local/4986524b-dec5-4f29-a3dd-44bff4e88076">
    <event publicID="quakeml:uw.anss.org/Event/UW/10601248" ns0:datasource="uw" ns0:dataid="uw10601248" ns0:eventsource="uw" ns0:eventid="10601248">
      <preferredOriginID>quakeml:uw.anss.org/Origin/UW/883503</preferredOriginID>
      <preferredMagnitudeID>quakeml:uw.anss.org/Netmag/UW/690838</preferredMagnitudeID>
      <type>earthquake</type>
      <creationInfo>
        <agencyID>UW</agencyID>
        <creationTime>2012-03-05T15:06:49.000000Z</creationTime>
        <version>3</version>
      </creationInfo>
      <origin publicID="quakeml:uw.anss.org/Origin/UW/883503" ns0:datasource="uw" ns0:dataid="uw10601248" ns0:eventsource="uw" ns0:eventid="10601248">
        <time>
          <value>2004-03-17T11:34:27.260000Z</value>
          <uncertainty>0.02</uncertainty>
        </time>
        <latitude>
          <value>48.4461667</value>
          <uncertainty>0.07</uncertainty>
        </latitude>
        <longitude>
          <value>-122.269</value>
          <uncertainty>0.07</uncertainty>
        </longitude>
        <depth>
          <value>-387.0</value>
          <uncertainty>210.0</uncertainty>
        </depth>
        <depthType>operator assigned</depthType>
        <timeFixed>false</timeFixed>
        <epicenterFixed>false</epicenterFixed>
        <methodID>smi:uw.anss.org/origin/spong</methodID>
        <quality>
          <associatedPhaseCount>133</associatedPhaseCount>
          <usedPhaseCount>59</usedPhaseCount>
          <associatedStationCount>125</associatedStationCount>
          <usedStationCount>0</usedStationCount>
          <standardError>0.48</standardError>
          <azimuthalGap>79.0</azimuthalGap>
        </quality>
        <type>hypocenter</type>
        <evaluationMode>manual</evaluationMode>
        <evaluationStatus>final</evaluationStatus>
        <creationInfo>
          <agencyID>UW</agencyID>
          <creationTime>2012-03-05T15:06:49.000000Z</creationTime>
        </creationInfo>
        <originUncertainty>
          <preferredDescription>horizontal uncertainty</preferredDescription>
          <horizontalUncertainty>99.0</horizontalUncertainty>
        </originUncertainty>
        <arrival publicID="quakeml:uw.anss.org/AssocArO/UW/8112993">
          <pickID>quakeml:uw.anss.org/Arrival/UW/8112993</pickID>
          <phase>P</phase>
          <azimuth>149.8</azimuth>
          <distance>1.973</distance>
          <timeResidual>-0.54</timeResidual>
          <creationInfo>
            <agencyID>UW</agencyID>
            <creationTime>2012-03-05T15:06:49.000000Z</creationTime>
          </creationInfo>
        </arrival>
        <arrival publicID="quakeml:uw.anss.org/AssocArO/UW/8112998">
          <pickID>quakeml:uw.anss.org/Arrival/UW/8112998</pickID>
          <phase>P</phase>
          <azimuth>184.1</azimuth>
          <distance>0.8172</distance>
          <timeResidual>0.3</timeResidual>
          <creationInfo>
            <agencyID>UW</agencyID>
            <creationTime>2012-03-05T15:06:49.000000Z</creationTime>
          </creationInfo>
        </arrival>
        <arrival publicID="quakeml:uw.anss.org/AssocArO/UW/8113003">
          <pickID>quakeml:uw.anss.org/Arrival/UW/8113003</pickID>
          <phase>P</phase>
          <azimuth>180.1</azimuth>
          <distance>1.406</distance>
          <timeResidual>-0.82</timeResidual>
          <creationInfo>
            <agencyID>UW</agencyID>
            <creationTime>2012-03-05T15:06:49.000000Z</creationTime>
          </creationInfo>
        </arrival>
        <arrival publicID="quakeml:uw.anss.org/AssocArO/UW/8113008">
          <pickID>quakeml:uw.anss.org/Arrival/UW/8113008</pickID>
          <phase>P</phase>
          <azimuth>178.0</azimuth>
          <distance>2.302</distance>
          <timeResidual>-0.22</timeResidual>
          <creationInfo>
            <agencyID>UW</agencyID>
            <creationTime>2012-03-05T15:06:49.000000Z</creationTime>
          </creationInfo>
        </arrival>
        <arrival publicID="quakeml:uw.anss.org/AssocArO/UW/8113013">
          <pickID>quakeml:uw.anss.org/Arrival/UW/8113013</pickID>
          <phase>P</phase>
          <azimuth>198.6</azimuth>
          <distance>2.077</distance>
          <timeResidual>-0.91</timeResidual>
          <creationInfo>
            <agencyID>UW</agencyID>
            <creationTime>2012-03-05T15:06:49.000000Z</creationTime>
          </creationInfo>
        </arrival>
        <arrival publicID="quakeml:uw.anss.org/AssocArO/UW/8113018">
          <pickID>quakeml:uw.anss.org/Arrival/UW/8113018</pickID>
          <phase>P</phase>
          <azimuth>197.5</azimuth>
          <distance>0.8086</distance>
          <timeResidual>-0.04</timeResidual>
          <creationInfo>
            <agencyID>UW</agencyID>
            <creationTime>2012-03-05T15:06:49.000000Z</creationTime>
          </creationInfo>
        </arrival>
        <arrival publicID="quakeml:uw.anss.org/AssocArO/UW/8113023">
          <pickID>quakeml:uw.anss.org/Arrival/UW/8113023</pickID>
          <phase>P</phase>
          <azimuth>120.3</azimuth>
          <distance>2.103</distance>
          <timeResidual>-0.81</timeResidual>
          <creationInfo>
            <agencyID>UW</agencyID>
            <creationTime>2012-03-05T15:06:49.000000Z</creationTime>
          </creationInfo>
        </arrival>
        <arrival publicID="quakeml:uw.anss.org/AssocArO/UW/8113028">
          <pickID>quakeml:uw.anss.org/Arrival/UW/8113028</pickID>
          <phase>P</phase>
          <azimuth>165.5</azimuth>
          <timeResidual>-0.48</timeResidual>
          <creationInfo>
            <agencyID>UW</agencyID>
            <creationTime>2012-03-05T15:06:49.000000Z</creationTime>
          </creationInfo>
        </arrival>
        <arrival publicID="quakeml:uw.anss.org/AssocArO/UW/8113033">
          <pickID>quakeml:uw.anss.org/Arrival/UW/8113033</pickID>
          <phase>P</phase>
          <azimuth>202.0</azimuth>
          <distance>1.586</distance>
          <timeResidual>-0.91</timeResidual>
          <creationInfo>
            <agencyID>UW</agencyID>
            <creationTime>2012-03-05T15:06:49.000000Z</creationTime>
          </creationInfo>
        </arrival>
        <arrival publicID="quakeml:uw.anss.org/AssocArO/UW/8113038">
          <pickID>quakeml:uw.anss.org/Arrival/UW/8113038</pickID>
          <phase>P</phase>
          <azimuth>172.4</azimuth>
          <distance>1.516</distance>
          <timeResidual>-0.61</timeResidual>
          <creationInfo>
            <agencyID>UW</agencyID>
            <creationTime>2012-03-05T15:06:49.000000Z</creationTime>
          </creationInfo>
        </arrival>
        <arrival publicID="quakeml:uw.anss.org/AssocArO/UW/8113043">
          <pickID>quakeml:uw.anss.org/Arrival/UW/8113043</pickID>
          <phase>P</phase>
          <azimuth>141.0</azimuth>
          <distance>2.842</distance>
          <timeResidual>-0.97</timeResidual>
          <creationInfo>
            <agencyID>UW</agencyID>
            <creationTime>2012-03-05T15:06:49.000000Z</creationTime>
          </creationInfo>
        </arrival>
        <arrival publicID="quakeml:uw.anss.org/AssocArO/UW/8113048">
          <pickID>quakeml:uw.anss.org/Arrival/UW/8113048</pickID>
          <phase>P</phase>
          <azimuth>178.5</azimuth>
          <distance>2.274</distance>
          <timeResidual>-0.11</timeResidual>
          <creationInfo>
            <agencyID>UW</agencyID>
            <creationTime>2012-03-05T15:06:49.000000Z</creationTime>
          </creationInfo>
        </arrival>
        <arrival publicID="quakeml:uw.anss.org/AssocArO/UW/8113053">
          <pickID>quakeml:uw.anss.org/Arrival/UW/8113053</pickID>
          <phase>P</phase>
          <azimuth>196.9</azimuth>
          <distance>2.934</distance>
          <timeResidual>-1.21</timeResidual>
          <creationInfo>
            <agencyID>UW</agencyID>
            <creationTime>2012-03-05T15:06:49.000000Z</creationTime>
          </creationInfo>
        </arrival>
        <arrival publicID="quakeml:uw.anss.org/AssocArO/UW/8113058">
          <pickID>quakeml:uw.anss.org/Arrival/UW/8113058</pickID>
          <phase>P</phase>
          <azimuth>281.7</azimuth>
          <distance>0.505</distance>
          <timeResidual>-0.57</timeResidual>
          <creationInfo>
            <agencyID>UW</agencyID>
            <creationTime>2012-03-05T15:06:49.000000Z</creationTime>
          </creationInfo>
        </arrival>
        <arrival publicID="quakeml:uw.anss.org/AssocArO/UW/8113063">
          <pickID>quakeml:uw.anss.org/Arrival/UW/8113063</pickID>
          <phase>P</phase>
          <azimuth>123.9</azimuth>
          <distance>2.575</distance>
          <timeResidual>-0.71</timeResidual>
          <creationInfo>
            <agencyID>UW</agencyID>
            <creationTime>2012-03-05T15:06:49.000000Z</creationTime>
          </creationInfo>
        </arrival>
        <arrival publicID="quakeml:uw.anss.org/AssocArO/UW/8113068">
          <pickID>quakeml:uw.anss.org/Arrival/UW/8113068</pickID>
          <phase>P</phase>
          <azimuth>179.9</azimuth>
          <distance>4.442</distance>
          <timeResidual>0.61</timeResidual>
          <creationInfo>
            <agencyID>UW</agencyID>
            <creationTime>2012-03-05T15:06:49.000000Z</creationTime>
          </creationInfo>
        </arrival>
        <arrival publicID="quakeml:uw.anss.org/AssocArO/UW/8113073">
          <pickID>quakeml:uw.anss.org/Arrival/UW/8113073</pickID>
          <phase>P</phase>
          <azimuth>178.4</azimuth>
          <distance>4.237</distance>
          <timeResidual>0.69</timeResidual>
          <creationInfo>
            <agencyID>UW</agencyID>
            <creationTime>2012-03-05T15:06:49.000000Z</creationTime>
          </creationInfo>
        </arrival>
        <arrival publicID="quakeml:uw.anss.org/AssocArO/UW/8113078">
          <pickID>quakeml:uw.anss.org/Arrival/UW/8113078</pickID>
          <phase>P</phase>
          <azimuth>176.2</azimuth>
          <distance>2.335</distance>
          <timeResidual>-0.15</timeResidual>
          <creationInfo>
            <agencyID>UW</agencyID>
            <creationTime>2012-03-05T15:06:49.000000Z</creationTime>
          </creationInfo>
        </arrival>
        <arrival publicID="quakeml:uw.anss.org/AssocArO/UW/8113083">
          <pickID>quakeml:uw.anss.org/Arrival/UW/8113083</pickID>
          <phase>P</phase>
          <azimuth>250.9</azimuth>
          <distance>1.513</distance>
          <timeResidual>1.04</timeResidual>
          <creationInfo>
            <agencyID>UW</agencyID>
            <creationTime>2012-03-05T15:06:49.000000Z</creationTime>
          </creationInfo>
        </arrival>
        <arrival publicID="quakeml:uw.anss.org/AssocArO/UW/8113088">
          <pickID>quakeml:uw.anss.org/Arrival/UW/8113088</pickID>
          <phase>P</phase>
          <azimuth>122.0</azimuth>
          <distance>1.1</distance>
          <timeResidual>-0.2</timeResidual>
          <creationInfo>
            <agencyID>UW</agencyID>
            <creationTime>2012-03-05T15:06:49.000000Z</creationTime>
          </creationInfo>
        </arrival>
        <arrival publicID="quakeml:uw.anss.org/AssocArO/UW/8113093">
          <pickID>quakeml:uw.anss.org/Arrival/UW/8113093</pickID>
          <phase>P</phase>
          <azimuth>134.6</azimuth>
          <distance>2.298</distance>
          <timeResidual>-0.36</timeResidual>
          <creationInfo>
            <agencyID>UW</agencyID>
            <creationTime>2012-03-05T15:06:49.000000Z</creationTime>
          </creationInfo>
        </arrival>
        <arrival publicID="quakeml:uw.anss.org/AssocArO/UW/8113098">
          <pickID>quakeml:uw.anss.org/Arrival/UW/8113098</pickID>
          <phase>P</phase>
          <azimuth>175.6</azimuth>
          <timeResidual>0.21</timeResidual>
          <creationInfo>
            <agencyID>UW</agencyID>
            <creationTime>2012-03-05T15:06:49.000000Z</creationTime>
          </creationInfo>
        </arrival>
        <arrival publicID="quakeml:uw.anss.org/AssocArO/UW/8113103">
          <pickID>quakeml:uw.anss.org/Arrival/UW/8113103</pickID>
          <phase>P</phase>
          <azimuth>299.2</azimuth>
          <distance>0.6839</distance>
          <timeResidual>-0.28</timeResidual>
          <creationInfo>
            <agencyID>UW</agencyID>
            <creationTime>2012-03-05T15:06:50.000000Z</creationTime>
          </creationInfo>
        </arrival>
        <arrival publicID="quakeml:uw.anss.org/AssocArO/UW/8113108">
          <pickID>quakeml:uw.anss.org/Arrival/UW/8113108</pickID>
          <phase>P</phase>
          <azimuth>178.6</azimuth>
          <distance>2.238</distance>
          <timeResidual>0.03</timeResidual>
          <creationInfo>
            <agencyID>UW</agencyID>
            <creationTime>2012-03-05T15:06:50.000000Z</creationTime>
          </creationInfo>
        </arrival>
        <arrival publicID="quakeml:uw.anss.org/AssocArO/UW/8113113">
          <pickID>quakeml:uw.anss.org/Arrival/UW/8113113</pickID>
          <phase>P</phase>
          <azimuth>137.4</azimuth>
          <distance>2.658</distance>
          <timeResidual>-0.68</timeResidual>
          <creationInfo>
            <agencyID>UW</agencyID>
            <creationTime>2012-03-05T15:06:50.000000Z</creationTime>
          </creationInfo>
        </arrival>
        <arrival publicID="quakeml:uw.anss.org/AssocArO/UW/8113118">
          <pickID>quakeml:uw.anss.org/Arrival/UW/8113118</pickID>
          <phase>P</phase>
          <azimuth>181.1</azimuth>
          <timeResidual>-0.03</timeResidual>
          <creationInfo>
            <agencyID>UW</agencyID>
            <creationTime>2012-03-05T15:06:50.000000Z</creationTime>
          </creationInfo>
        </arrival>
        <arrival publicID="quakeml:uw.anss.org/AssocArO/UW/8113123">
          <pickID>quakeml:uw.anss.org/Arrival/UW/8113123</pickID>
          <phase>P</phase>
          <azimuth>234.6</azimuth>
          <distance>0.6403</distance>
          <timeResidual>0.11</timeResidual>
          <creationInfo>
            <agencyID>UW</agencyID>
            <creationTime>2012-03-05T15:06:50.000000Z</creationTime>
          </creationInfo>
        </arrival>
        <arrival publicID="quakeml:uw.anss.org/AssocArO/UW/8113128">
          <pickID>quakeml:uw.anss.org/Arrival/UW/8113128</pickID>
          <phase>S</phase>
          <azimuth>234.6</azimuth>
          <distance>0.6403</distance>
          <timeResidual>0.6</timeResidual>
          <creationInfo>
            <agencyID>UW</agencyID>
            <creationTime>2012-03-05T15:06:50.000000Z</creationTime>
          </creationInfo>
        </arrival>
        <arrival publicID="quakeml:uw.anss.org/AssocArO/UW/8113133">
          <pickID>quakeml:uw.anss.org/Arrival/UW/8113133</pickID>
          <phase>P</phase>
          <azimuth>184.7</azimuth>
          <distance>2.019</distance>
          <timeResidual>-0.69</timeResidual>
          <creationInfo>
            <agencyID>UW</agencyID>
            <creationTime>2012-03-05T15:06:50.000000Z</creationTime>
          </creationInfo>
        </arrival>
        <arrival publicID="quakeml:uw.anss.org/AssocArO/UW/8113138">
          <pickID>quakeml:uw.anss.org/Arrival/UW/8113138</pickID>
          <phase>P</phase>
          <azimuth>134.9</azimuth>
          <distance>2.565</distance>
          <timeResidual>-0.86</timeResidual>
          <creationInfo>
            <agencyID>UW</agencyID>
            <creationTime>2012-03-05T15:06:50.000000Z</creationTime>
          </creationInfo>
        </arrival>
        <arrival publicID="quakeml:uw.anss.org/AssocArO/UW/8113143">
          <pickID>quakeml:uw.anss.org/Arrival/UW/8113143</pickID>
          <phase>P</phase>
          <azimuth>133.2</azimuth>
          <distance>2.653</distance>
          <timeResidual>-1.51</timeResidual>
          <creationInfo>
            <agencyID>UW</agencyID>
            <creationTime>2012-03-05T15:06:50.000000Z</creationTime>
          </creationInfo>
        </arrival>
        <arrival publicID="quakeml:uw.anss.org/AssocArO/UW/8113148">
          <pickID>quakeml:uw.anss.org/Arrival/UW/8113148</pickID>
          <phase>P</phase>
          <distance>0.5908</distance>
          <timeResidual>0.51</timeResidual>
          <creationInfo>
            <agencyID>UW</agencyID>
            <creationTime>2012-03-05T15:06:50.000000Z</creationTime>
          </creationInfo>
        </arrival>
        <arrival publicID="quakeml:uw.anss.org/AssocArO/UW/8113153">
          <pickID>quakeml:uw.anss.org/Arrival/UW/8113153</pickID>
          <phase>P</phase>
          <azimuth>128.8</azimuth>
          <distance>2.535</distance>
          <timeResidual>-1.08</timeResidual>
          <creationInfo>
            <agencyID>UW</agencyID>
            <creationTime>2012-03-05T15:06:50.000000Z</creationTime>
          </creationInfo>
        </arrival>
        <arrival publicID="quakeml:uw.anss.org/AssocArO/UW/8113158">
          <pickID>quakeml:uw.anss.org/Arrival/UW/8113158</pickID>
          <phase>P</phase>
          <azimuth>178.0</azimuth>
          <distance>0.7268</distance>
          <timeResidual>-0.04</timeResidual>
          <creationInfo>
            <agencyID>UW</agencyID>
            <creationTime>2012-03-05T15:06:50.000000Z</creationTime>
          </creationInfo>
        </arrival>
        <arrival publicID="quakeml:uw.anss.org/AssocArO/UW/8113163">
          <pickID>quakeml:uw.anss.org/Arrival/UW/8113163</pickID>
          <phase>P</phase>
          <azimuth>102.9</azimuth>
          <distance>0.1016</distance>
          <timeResidual>-0.24</timeResidual>
          <creationInfo>
            <agencyID>UW</agencyID>
            <creationTime>2012-03-05T15:06:50.000000Z</creationTime>
          </creationInfo>
        </arrival>
        <arrival publicID="quakeml:uw.anss.org/AssocArO/UW/8113168">
          <pickID>quakeml:uw.anss.org/Arrival/UW/8113168</pickID>
          <phase>P</phase>
          <azimuth>265.5</azimuth>
          <timeResidual>-0.8</timeResidual>
          <creationInfo>
            <agencyID>UW</agencyID>
            <creationTime>2012-03-05T15:06:50.000000Z</creationTime>
          </creationInfo>
        </arrival>
        <arrival publicID="quakeml:uw.anss.org/AssocArO/UW/8113173">
          <pickID>quakeml:uw.anss.org/Arrival/UW/8113173</pickID>
          <phase>P</phase>
          <azimuth>177.9</azimuth>
          <distance>2.252</distance>
          <timeResidual>-0.38</timeResidual>
          <creationInfo>
            <agencyID>UW</agencyID>
            <creationTime>2012-03-05T15:06:50.000000Z</creationTime>
          </creationInfo>
        </arrival>
        <arrival publicID="quakeml:uw.anss.org/AssocArO/UW/8113178">
          <pickID>quakeml:uw.anss.org/Arrival/UW/8113178</pickID>
          <phase>P</phase>
          <azimuth>152.6</azimuth>
          <distance>0.8465</distance>
          <timeResidual>-0.34</timeResidual>
          <creationInfo>
            <agencyID>UW</agencyID>
            <creationTime>2012-03-05T15:06:50.000000Z</creationTime>
          </creationInfo>
        </arrival>
        <arrival publicID="quakeml:uw.anss.org/AssocArO/UW/8113183">
          <pickID>quakeml:uw.anss.org/Arrival/UW/8113183</pickID>
          <phase>S</phase>
          <azimuth>152.6</azimuth>
          <distance>0.8465</distance>
          <timeResidual>-0.94</timeResidual>
          <creationInfo>
            <agencyID>UW</agencyID>
            <creationTime>2012-03-05T15:06:50.000000Z</creationTime>
          </creationInfo>
        </arrival>
        <arrival publicID="quakeml:uw.anss.org/AssocArO/UW/8113188">
