<?xml version='1.0' encoding='utf-8'?>
<q:quakeml xmlns="http://quakeml.org/xmlns/bed/1.2" xmlns:q="http://quakeml.org/xmlns/quakeml/1.2" xmlns:ns0="http://anss.org/xmlns/catalog/0.1">
  <eventParameters publicID="smi:local/956a20c5-19d7-492a-9ef3-698c23db2e4a">
    <event publicID="quakeml:uw.anss.org/Event/UW/10625678" ns0:datasource="uw" ns0:dataid="uw10625678" ns0:eventsource="uw" ns0:eventid="10625678">
      <preferredOriginID>quakeml:uw.anss.org/Origin/UW/907933</preferredOriginID>
      <preferredMagnitudeID>quakeml:uw.anss.org/Netmag/UW/706453</preferredMagnitudeID>
      <type>earthquake</type>
      <creationInfo>
        <agencyID>UW</agencyID>
        <creationTime>2012-03-05T16:11:49.000000Z</creationTime>
        <version>3</version>
      </creationInfo>
      <origin publicID="quakeml:uw.anss.org/Origin/UW/907933" ns0:datasource="uw" ns0:dataid="uw10625678" ns0:eventsource="uw" ns0:eventid="10625678">
        <time>
          <value>2004-10-01T23:02:04.410000Z</value>
        </time>
        <latitude>
          <value>48.4768333</value>
        </latitude>
        <longitude>
          <value>-122.1505</value>
        </longitude>
        <depth>
          <value>6066.0</value>
        </depth>
        <depthType>from location</depthType>
        <timeFixed>false</timeFixed>
        <epicenterFixed>false</epicenterFixed>
        <methodID>smi:uw.anss.org/origin/spong</methodID>
        <quality>
          <associatedPhaseCount>4</associatedPhaseCount>
          <usedPhaseCount>4</usedPhaseCount>
          <associatedStationCount>3</associatedStationCount>
          <usedStationCount>0</usedStationCount>
          <standardError>0.0</standardError>
          <azimuthalGap>295.0</azimuthalGap>
        </quality>
        <type>hypocenter</type>
        <evaluationMode>manual</evaluationMode>
        <evaluationStatus>final</evaluationStatus>
        <creationInfo>
          <agencyID>UW</agencyID>
          <creationTime>2012-03-05T16:11:49.000000Z</creationTime>
        </creationInfo>
        <arrival publicID="quakeml:uw.anss.org/AssocArO/UW/8338508">
          <pickID>quakeml:uw.anss.org/Arrival/UW/8338508</pickID>
          <phase>P</phase>
          <azimuth>159.4</azimuth>
          <distance>0.05703</distance>
          <timeResidual>0.0</timeResidual>
          <creationInfo>
            <agencyID>UW</agencyID>
            <creationTime>2012-03-05T16:11:49.000000Z</creationTime>
          </creationInfo>
        </arrival>
        <arrival publicID="quakeml:uw.anss.org/AssocArO/UW/8338513">
          <pickID>quakeml:uw.anss.org/Arrival/UW/8338513</pickID>
          <phase>P</phase>
          <azimuth>152.1</azimuth>
          <timeResidual>0.0</timeResidual>
          <creationInfo>
            <agencyID>UW</agencyID>
            <creationTime>2012-03-05T16:11:49.000000Z</creationTime>
          </creationInfo>
        </arrival>
        <arrival publicID="quakeml:uw.anss.org/AssocArO/UW/8338518">
          <pickID>quakeml:uw.anss.org/Arrival/UW/8338518</pickID>
          <phase>S</phase>
          <azimuth>152.1</azimuth>
          <timeResidual>0.0</timeResidual>
          <creationInfo>
            <agencyID>UW</agencyID>
            <creationTime>2012-03-05T16:11:49.000000Z</creationTime>
          </creationInfo>
        </arrival>
        <arrival publicID="quakeml:uw.anss.org/AssocArO/UW/8338523">
          <pickID>quakeml:uw.anss.org/Arrival/UW/8338523</pickID>
          <phase>P</phase>
          <azimuth>93.7</azimuth>
          <distance>0.4241</distance>
          <timeResidual>0.0</timeResidual>
          <creationInfo>
            <agencyID>UW</agencyID>
            <creationTime>2012-03-05T16:11:49.000000Z</creationTime>
          </creationInfo>
        </arrival>
      </origin>
      <magnitude publicID="quakeml:uw.anss.org/Netmag/UW/706453">
        <mag>
          <value>0.7</value>
          <uncertainty>0.02</uncertainty>
        </mag>
        <type>Md</type>
        <originID>quakeml:uw.anss.org/Origin/UW/907933</originID>
        <methodID>smi:uw.anss.org/magnitude/Crosson</methodID>
        <stationCount>2</stationCount>
        <evaluationMode>manual</evaluationMode>
        <evaluationStatus>final</evaluationStatus>
        <stationMagnitudeContribution>
          <stationMagnitudeID>quakeml:uw.anss.org/AssocCoM/UW/1934663</stationMagnitudeID>
          <weight>1.0</weight>
          <residual>-0.12</residual>
        </stationMagnitudeContribution>
        <stationMagnitudeContribution>
          <stationMagnitudeID>quakeml:uw.anss.org/AssocCoM/UW/1934668</stationMagnitudeID>
          <weight>1.0</weight>
          <residual>0.07</residual>
        </stationMagnitudeContribution>
        <creationInfo>
          <agencyID>UW</agencyID>
          <creationTime>2012-03-05T16:11:49.000000Z</creationTime>
        </creationInfo>
      </magnitude>
      <stationMagnitude publicID="quakeml:uw.anss.org/AssocCoM/UW/1934663">
        <originID>quakeml:uw.anss.org/Origin/UW/907933</originID>
        <mag>
          <value>0.58</value>
        </mag>
        <type>MD</type>
        <amplitudeID>quakeml:uw.anss.org/Coda/UW/1934663</amplitudeID>
        <waveformID networkCode="UW" stationCode="CMW" locationCode="" channelCode="EHZ"></waveformID>
      </stationMagnitude>
      <stationMagnitude publicID="quakeml:uw.anss.org/AssocCoM/UW/1934668">
        <originID>quakeml:uw.anss.org/Origin/UW/907933</originID>
        <mag>
          <value>0.77</value>
        </mag>
        <type>MD</type>
        <amplitudeID>quakeml:uw.anss.org/Coda/UW/1934668</amplitudeID>
        <waveformID networkCode="UW" stationCode="JCW" locationCode="" channelCode="EHZ"></waveformID>
      </stationMagnitude>
      <pick publicID="quakeml:uw.anss.org/Arrival/UW/8338508">
        <time>
          <value>2004-10-01T23:02:06.330000Z</value>
          <uncertainty>0.01</uncertainty>
        </time>
        <waveformID networkCode="UW" stationCode="CMW" locationCode="" channelCode="EHZ"></waveformID>
        <polarity>positive</polarity>
        <evaluationMode>manual</evaluationMode>
        <evaluationStatus>final</evaluationStatus>
        <creationInfo>
          <agencyID>UW</agencyID>
          <creationTime>2012-03-05T16:11:49.000000Z</creationTime>
        </creationInfo>
      </pick>
      <pick publicID="quakeml:uw.anss.org/Arrival/UW/8338513">
        <time>
          <value>2004-10-01T23:02:10.330000Z</value>
          <uncertainty>0.01</uncertainty>
        </time>
        <waveformID networkCode="UW" stationCode="JCW" locationCode="" channelCode="EHZ"></waveformID>
        <polarity>positive</polarity>
        <evaluationMode>manual</evaluationMode>
        <evaluationStatus>final</evaluationStatus>
        <creationInfo>
          <agencyID>UW</agencyID>
          <creationTime>2012-03-05T16:11:49.000000Z</creationTime>
        </creationInfo>
      </pick>
      <pick publicID="quakeml:uw.anss.org/Arrival/UW/8338518">
        <time>
          <value>2004-10-01T23:02:14.950000Z</value>
          <uncertainty>0.04</uncertainty>
        </time>
        <waveformID networkCode="UW" stationCode="JCW" locationCode="" channelCode="EHZ"></waveformID>
        <polarity>undecidable</polarity>
        <evaluationMode>manual</evaluationMode>
        <evaluationStatus>final</evaluationStatus>
        <creationInfo>
          <agencyID>UW</agencyID>
          <creationTime>2012-03-05T16:11:49.000000Z</creationTime>
        </creationInfo>
      </pick>
      <pick publicID="quakeml:uw.anss.org/Arrival/UW/8338523">
        <time>
          <value>2004-10-01T23:02:12.410000Z</value>
          <uncertainty>0.04</uncertainty>
        </time>
        <waveformID networkCode="UW" stationCode="RPW" locationCode="" channelCode="EHZ"></waveformID>
        <polarity>undecidable</polarity>
        <evaluationMode>manual</evaluationMode>
        <evaluationStatus>final</evaluationStatus>
        <creationInfo>
          <agencyID>UW</agencyID>
          <creationTime>2012-03-05T16:11:49.000000Z</creationTime>
        </creationInfo>
      </pick>
      <amplitude publicID="quakeml:uw.anss.org/Coda/UW/1934663">
        <genericAmplitude>
          <value>12.0</value>
        </genericAmplitude>
        <type>END</type>
        <category>duration</category>
        <unit>s</unit>
        <waveformID networkCode="UW" stationCode="CMW" locationCode="" channelCode="EHZ"></waveformID>
        <magnitudeHint>MD</magnitudeHint>
        <evaluationMode>manual</evaluationMode>
        <evaluationStatus>final</evaluationStatus>
      </amplitude>
      <amplitude publicID="quakeml:uw.anss.org/Coda/UW/1934668">
        <genericAmplitude>
          <value>14.0</value>
        </genericAmplitude>
        <type>END</type>
        <category>duration</category>
        <unit>s</unit>
        <waveformID networkCode="UW" stationCode="JCW" locationCode="" channelCode="EHZ"></waveformID>
        <magnitudeHint>MD</magnitudeHint>
        <evaluationMode>manual</evaluationMode>
        <evaluationStatus>final</evaluationStatus>
      </amplitude>
    </event>
  </eventParameters>
</q:quakeml>
