<?xml version='1.0' encoding='utf-8'?>
<q:quakeml xmlns="http://quakeml.org/xmlns/bed/1.2" xmlns:q="http://quakeml.org/xmlns/quakeml/1.2" xmlns:ns0="http://anss.org/xmlns/catalog/0.1">
  <eventParameters publicID="smi:local/95f46458-a24d-44f1-b0d5-c80e097b234d">
    <event publicID="quakeml:uw.anss.org/Event/UW/10602338" ns0:datasource="uw" ns0:dataid="uw10602338" ns0:eventsource="uw" ns0:eventid="10602338">
      <preferredOriginID>quakeml:uw.anss.org/Origin/UW/884593</preferredOriginID>
      <preferredMagnitudeID>quakeml:uw.anss.org/Netmag/UW/691438</preferredMagnitudeID>
      <type>earthquake</type>
      <creationInfo>
        <agencyID>UW</agencyID>
        <creationTime>2012-03-05T15:10:24.000000Z</creationTime>
        <version>3</version>
      </creationInfo>
      <origin publicID="quakeml:uw.anss.org/Origin/UW/884593" ns0:datasource="uw" ns0:dataid="uw10602338" ns0:eventsource="uw" ns0:eventid="10602338">
        <time>
          <value>2004-03-21T08:34:26.580000Z</value>
          <uncertainty>0.04</uncertainty>
        </time>
        <latitude>
          <value>48.4528333</value>
          <uncertainty>0.11</uncertainty>
        </latitude>
        <longitude>
          <value>-121.6571667</value>
          <uncertainty>0.09</uncertainty>
        </longitude>
        <depth>
          <value>-583.0</value>
          <uncertainty>290.0</uncertainty>
        </depth>
        <depthType>operator assigned</depthType>
        <timeFixed>false</timeFixed>
        <epicenterFixed>false</epicenterFixed>
        <methodID>smi:uw.anss.org/origin/spong</methodID>
        <quality>
          <associatedPhaseCount>34</associatedPhaseCount>
          <usedPhaseCount>19</usedPhaseCount>
          <associatedStationCount>30</associatedStationCount>
          <usedStationCount>0</usedStationCount>
          <standardError>0.37</standardError>
          <azimuthalGap>119.0</azimuthalGap>
        </quality>
        <type>hypocenter</type>
        <evaluationMode>manual</evaluationMode>
        <evaluationStatus>final</evaluationStatus>
        <creationInfo>
          <agencyID>UW</agencyID>
          <creationTime>2012-03-05T15:10:24.000000Z</creationTime>
        </creationInfo>
        <originUncertainty>
          <preferredDescription>horizontal uncertainty</preferredDescription>
          <horizontalUncertainty>142.0</horizontalUncertainty>
        </originUncertainty>
        <arrival publicID="quakeml:uw.anss.org/AssocArO/UW/8125043">
          <pickID>quakeml:uw.anss.org/Arrival/UW/8125043</pickID>
          <phase>P</phase>
          <azimuth>161.6</azimuth>
          <distance>1.811</distance>
          <timeResidual>0.48</timeResidual>
          <creationInfo>
            <agencyID>UW</agencyID>
            <creationTime>2012-03-05T15:10:24.000000Z</creationTime>
          </creationInfo>
        </arrival>
        <arrival publicID="quakeml:uw.anss.org/AssocArO/UW/8125048">
          <pickID>quakeml:uw.anss.org/Arrival/UW/8125048</pickID>
          <phase>P</phase>
          <azimuth>113.1</azimuth>
          <distance>0.9591</distance>
          <timeResidual>0.26</timeResidual>
          <creationInfo>
            <agencyID>UW</agencyID>
            <creationTime>2012-03-05T15:10:24.000000Z</creationTime>
          </creationInfo>
        </arrival>
        <arrival publicID="quakeml:uw.anss.org/AssocArO/UW/8125053">
          <pickID>quakeml:uw.anss.org/Arrival/UW/8125053</pickID>
          <phase>P</phase>
          <azimuth>142.7</azimuth>
          <distance>2.301</distance>
          <timeResidual>3.03</timeResidual>
          <creationInfo>
            <agencyID>UW</agencyID>
            <creationTime>2012-03-05T15:10:24.000000Z</creationTime>
          </creationInfo>
        </arrival>
        <arrival publicID="quakeml:uw.anss.org/AssocArO/UW/8125058">
          <pickID>quakeml:uw.anss.org/Arrival/UW/8125058</pickID>
          <phase>P</phase>
          <azimuth>133.3</azimuth>
          <distance>1.229</distance>
          <timeResidual>-0.04</timeResidual>
          <creationInfo>
            <agencyID>UW</agencyID>
            <creationTime>2012-03-05T15:10:24.000000Z</creationTime>
          </creationInfo>
        </arrival>
        <arrival publicID="quakeml:uw.anss.org/AssocArO/UW/8125063">
          <pickID>quakeml:uw.anss.org/Arrival/UW/8125063</pickID>
          <phase>P</phase>
          <azimuth>256.2</azimuth>
          <timeResidual>0.2</timeResidual>
          <creationInfo>
            <agencyID>UW</agencyID>
            <creationTime>2012-03-05T15:10:24.000000Z</creationTime>
          </creationInfo>
        </arrival>
        <arrival publicID="quakeml:uw.anss.org/AssocArO/UW/8125068">
          <pickID>quakeml:uw.anss.org/Arrival/UW/8125068</pickID>
          <phase>P</phase>
          <azimuth>302.4</azimuth>
          <distance>0.5945</distance>
          <timeResidual>-0.23</timeResidual>
          <creationInfo>
            <agencyID>UW</agencyID>
            <creationTime>2012-03-05T15:10:24.000000Z</creationTime>
          </creationInfo>
        </arrival>
        <arrival publicID="quakeml:uw.anss.org/AssocArO/UW/8125073">
          <pickID>quakeml:uw.anss.org/Arrival/UW/8125073</pickID>
          <phase>S</phase>
          <azimuth>302.4</azimuth>
          <distance>0.5945</distance>
          <timeResidual>0.23</timeResidual>
          <creationInfo>
            <agencyID>UW</agencyID>
            <creationTime>2012-03-05T15:10:24.000000Z</creationTime>
          </creationInfo>
        </arrival>
        <arrival publicID="quakeml:uw.anss.org/AssocArO/UW/8125078">
          <pickID>quakeml:uw.anss.org/Arrival/UW/8125078</pickID>
          <phase>P</phase>
          <azimuth>181.9</azimuth>
          <distance>1.584</distance>
          <timeResidual>0.18</timeResidual>
          <creationInfo>
            <agencyID>UW</agencyID>
            <creationTime>2012-03-05T15:10:24.000000Z</creationTime>
          </creationInfo>
        </arrival>
        <arrival publicID="quakeml:uw.anss.org/AssocArO/UW/8125083">
          <pickID>quakeml:uw.anss.org/Arrival/UW/8125083</pickID>
          <phase>P</phase>
          <distance>0.6451</distance>
          <timeResidual>-0.46</timeResidual>
          <creationInfo>
            <agencyID>UW</agencyID>
            <creationTime>2012-03-05T15:10:24.000000Z</creationTime>
          </creationInfo>
        </arrival>
        <arrival publicID="quakeml:uw.anss.org/AssocArO/UW/8125088">
          <pickID>quakeml:uw.anss.org/Arrival/UW/8125088</pickID>
          <phase>P</phase>
          <azimuth>157.8</azimuth>
          <distance>1.419</distance>
          <timeResidual>0.9</timeResidual>
          <creationInfo>
            <agencyID>UW</agencyID>
            <creationTime>2012-03-05T15:10:24.000000Z</creationTime>
          </creationInfo>
        </arrival>
        <arrival publicID="quakeml:uw.anss.org/AssocArO/UW/8125093">
          <pickID>quakeml:uw.anss.org/Arrival/UW/8125093</pickID>
          <phase>P</phase>
          <azimuth>127.7</azimuth>
          <distance>1.768</distance>
          <timeResidual>1.18</timeResidual>
          <creationInfo>
            <agencyID>UW</agencyID>
            <creationTime>2012-03-05T15:10:24.000000Z</creationTime>
          </creationInfo>
        </arrival>
        <arrival publicID="quakeml:uw.anss.org/AssocArO/UW/8125098">
          <pickID>quakeml:uw.anss.org/Arrival/UW/8125098</pickID>
          <phase>P</phase>
          <azimuth>264.7</azimuth>
          <distance>0.3098</distance>
          <timeResidual>-0.36</timeResidual>
          <creationInfo>
            <agencyID>UW</agencyID>
            <creationTime>2012-03-05T15:10:24.000000Z</creationTime>
          </creationInfo>
        </arrival>
        <arrival publicID="quakeml:uw.anss.org/AssocArO/UW/8125103">
          <pickID>quakeml:uw.anss.org/Arrival/UW/8125103</pickID>
          <phase>P</phase>
          <azimuth>145.2</azimuth>
          <distance>2.337</distance>
          <timeResidual>2.48</timeResidual>
          <creationInfo>
            <agencyID>UW</agencyID>
            <creationTime>2012-03-05T15:10:24.000000Z</creationTime>
          </creationInfo>
        </arrival>
        <arrival publicID="quakeml:uw.anss.org/AssocArO/UW/8125108">
          <pickID>quakeml:uw.anss.org/Arrival/UW/8125108</pickID>
          <phase>P</phase>
          <azimuth>221.8</azimuth>
          <distance>1.186</distance>
          <timeResidual>-0.24</timeResidual>
          <creationInfo>
            <agencyID>UW</agencyID>
            <creationTime>2012-03-05T15:10:24.000000Z</creationTime>
          </creationInfo>
        </arrival>
        <arrival publicID="quakeml:uw.anss.org/AssocArO/UW/8125113">
          <pickID>quakeml:uw.anss.org/Arrival/UW/8125113</pickID>
          <phase>S</phase>
          <azimuth>221.8</azimuth>
          <distance>1.186</distance>
          <timeResidual>-1.24</timeResidual>
          <creationInfo>
            <agencyID>UW</agencyID>
            <creationTime>2012-03-05T15:10:24.000000Z</creationTime>
          </creationInfo>
        </arrival>
        <arrival publicID="quakeml:uw.anss.org/AssocArO/UW/8125118">
          <pickID>quakeml:uw.anss.org/Arrival/UW/8125118</pickID>
          <phase>P</phase>
          <azimuth>92.8</azimuth>
          <distance>0.09487</distance>
          <timeResidual>0.48</timeResidual>
          <creationInfo>
            <agencyID>UW</agencyID>
            <creationTime>2012-03-05T15:10:24.000000Z</creationTime>
          </creationInfo>
        </arrival>
        <arrival publicID="quakeml:uw.anss.org/AssocArO/UW/8125123">
          <pickID>quakeml:uw.anss.org/Arrival/UW/8125123</pickID>
          <phase>P</phase>
          <azimuth>117.2</azimuth>
          <distance>2.25</distance>
          <timeResidual>2.5</timeResidual>
          <creationInfo>
            <agencyID>UW</agencyID>
            <creationTime>2012-03-05T15:10:24.000000Z</creationTime>
          </creationInfo>
        </arrival>
        <arrival publicID="quakeml:uw.anss.org/AssocArO/UW/8125128">
          <pickID>quakeml:uw.anss.org/Arrival/UW/8125128</pickID>
          <phase>P</phase>
          <azimuth>215.0</azimuth>
          <timeResidual>-0.05</timeResidual>
          <creationInfo>
            <agencyID>UW</agencyID>
            <creationTime>2012-03-05T15:10:24.000000Z</creationTime>
          </creationInfo>
        </arrival>
        <arrival publicID="quakeml:uw.anss.org/AssocArO/UW/8125133">
          <pickID>quakeml:uw.anss.org/Arrival/UW/8125133</pickID>
          <phase>P</phase>
          <azimuth>154.2</azimuth>
          <distance>1.711</distance>
          <timeResidual>0.01</timeResidual>
          <creationInfo>
            <agencyID>UW</agencyID>
            <creationTime>2012-03-05T15:10:24.000000Z</creationTime>
          </creationInfo>
        </arrival>
        <arrival publicID="quakeml:uw.anss.org/AssocArO/UW/8125138">
          <pickID>quakeml:uw.anss.org/Arrival/UW/8125138</pickID>
          <phase>P</phase>
          <azimuth>180.4</azimuth>
          <timeResidual>0.02</timeResidual>
          <creationInfo>
            <agencyID>UW</agencyID>
            <creationTime>2012-03-05T15:10:24.000000Z</creationTime>
          </creationInfo>
        </arrival>
        <arrival publicID="quakeml:uw.anss.org/AssocArO/UW/8125143">
          <pickID>quakeml:uw.anss.org/Arrival/UW/8125143</pickID>
          <phase>P</phase>
          <azimuth>150.6</azimuth>
          <distance>1.372</distance>
          <timeResidual>0.32</timeResidual>
          <creationInfo>
            <agencyID>UW</agencyID>
            <creationTime>2012-03-05T15:10:24.000000Z</creationTime>
          </creationInfo>
        </arrival>
        <arrival publicID="quakeml:uw.anss.org/AssocArO/UW/8125148">
          <pickID>quakeml:uw.anss.org/Arrival/UW/8125148</pickID>
          <phase>P</phase>
          <azimuth>109.7</azimuth>
          <distance>1.344</distance>
          <timeResidual>0.74</timeResidual>
          <creationInfo>
            <agencyID>UW</agencyID>
            <creationTime>2012-03-05T15:10:24.000000Z</creationTime>
          </creationInfo>
        </arrival>
        <arrival publicID="quakeml:uw.anss.org/AssocArO/UW/8125153">
          <pickID>quakeml:uw.anss.org/Arrival/UW/8125153</pickID>
          <phase>P</phase>
          <azimuth>138.8</azimuth>
          <distance>0.7905</distance>
          <timeResidual>-0.34</timeResidual>
          <creationInfo>
            <agencyID>UW</agencyID>
            <creationTime>2012-03-05T15:10:24.000000Z</creationTime>
          </creationInfo>
        </arrival>
        <arrival publicID="quakeml:uw.anss.org/AssocArO/UW/8125158">
          <pickID>quakeml:uw.anss.org/Arrival/UW/8125158</pickID>
          <phase>P</phase>
          <azimuth>258.0</azimuth>
          <timeResidual>-0.52</timeResidual>
          <creationInfo>
            <agencyID>UW</agencyID>
            <creationTime>2012-03-05T15:10:24.000000Z</creationTime>
          </creationInfo>
        </arrival>
        <arrival publicID="quakeml:uw.anss.org/AssocArO/UW/8125163">
          <pickID>quakeml:uw.anss.org/Arrival/UW/8125163</pickID>
          <phase>P</phase>
          <azimuth>231.2</azimuth>
          <distance>0.3455</distance>
          <timeResidual>0.02</timeResidual>
          <creationInfo>
            <agencyID>UW</agencyID>
            <creationTime>2012-03-05T15:10:24.000000Z</creationTime>
          </creationInfo>
        </arrival>
        <arrival publicID="quakeml:uw.anss.org/AssocArO/UW/8125168">
          <pickID>quakeml:uw.anss.org/Arrival/UW/8125168</pickID>
          <phase>P</phase>
          <azimuth>122.9</azimuth>
          <distance>1.368</distance>
          <timeResidual>0.09</timeResidual>
          <creationInfo>
            <agencyID>UW</agencyID>
            <creationTime>2012-03-05T15:10:24.000000Z</creationTime>
          </creationInfo>
        </arrival>
        <arrival publicID="quakeml:uw.anss.org/AssocArO/UW/8125173">
          <pickID>quakeml:uw.anss.org/Arrival/UW/8125173</pickID>
          <phase>P</phase>
          <azimuth>145.1</azimuth>
          <distance>2.407</distance>
          <timeResidual>2.69</timeResidual>
          <creationInfo>
            <agencyID>UW</agencyID>
            <creationTime>2012-03-05T15:10:24.000000Z</creationTime>
          </creationInfo>
        </arrival>
        <arrival publicID="quakeml:uw.anss.org/AssocArO/UW/8125178">
          <pickID>quakeml:uw.anss.org/Arrival/UW/8125178</pickID>
          <phase>P</phase>
          <azimuth>186.6</azimuth>
          <distance>0.6538</distance>
          <timeResidual>-0.02</timeResidual>
          <creationInfo>
            <agencyID>UW</agencyID>
            <creationTime>2012-03-05T15:10:24.000000Z</creationTime>
          </creationInfo>
        </arrival>
        <arrival publicID="quakeml:uw.anss.org/AssocArO/UW/8125183">
          <pickID>quakeml:uw.anss.org/Arrival/UW/8125183</pickID>
          <phase>S</phase>
          <azimuth>186.6</azimuth>
          <distance>0.6538</distance>
          <timeResidual>-0.41</timeResidual>
          <creationInfo>
            <agencyID>UW</agencyID>
            <creationTime>2012-03-05T15:10:24.000000Z</creationTime>
          </creationInfo>
        </arrival>
        <arrival publicID="quakeml:uw.anss.org/AssocArO/UW/8125188">
          <pickID>quakeml:uw.anss.org/Arrival/UW/8125188</pickID>
          <phase>P</phase>
          <azimuth>243.5</azimuth>
          <distance>0.9864</distance>
          <timeResidual>0.43</timeResidual>
          <creationInfo>
            <agencyID>UW</agencyID>
            <creationTime>2012-03-05T15:10:24.000000Z</creationTime>
          </creationInfo>
        </arrival>
        <arrival publicID="quakeml:uw.anss.org/AssocArO/UW/8125193">
          <pickID>quakeml:uw.anss.org/Arrival/UW/8125193</pickID>
          <phase>P</phase>
          <azimuth>150.6</azimuth>
          <distance>1.469</distance>
          <timeResidual>0.09</timeResidual>
          <creationInfo>
            <agencyID>UW</agencyID>
            <creationTime>2012-03-05T15:10:24.000000Z</creationTime>
          </creationInfo>
        </arrival>
        <arrival publicID="quakeml:uw.anss.org/AssocArO/UW/8125198">
          <pickID>quakeml:uw.anss.org/Arrival/UW/8125198</pickID>
          <phase>P</phase>
          <azimuth>248.3</azimuth>
          <distance>1.004</distance>
          <timeResidual>0.49</timeResidual>
          <creationInfo>
            <agencyID>UW</agencyID>
            <creationTime>2012-03-05T15:10:24.000000Z</creationTime>
          </creationInfo>
        </arrival>
        <arrival publicID="quakeml:uw.anss.org/AssocArO/UW/8125203">
          <pickID>quakeml:uw.anss.org/Arrival/UW/8125203</pickID>
          <phase>S</phase>
          <azimuth>248.3</azimuth>
          <distance>1.004</distance>
          <timeResidual>0.18</timeResidual>
          <creationInfo>
            <agencyID>UW</agencyID>
            <creationTime>2012-03-05T15:10:24.000000Z</creationTime>
          </creationInfo>
        </arrival>
        <arrival publicID="quakeml:uw.anss.org/AssocArO/UW/8125208">
          <pickID>quakeml:uw.anss.org/Arrival/UW/8125208</pickID>
          <phase>P</phase>
          <azimuth>209.1</azimuth>
          <distance>0.6854</distance>
          <timeResidual>0.84</timeResidual>
          <creationInfo>
            <agencyID>UW</agencyID>
            <creationTime>2012-03-05T15:10:24.000000Z</creationTime>
          </creationInfo>
        </arrival>
      </origin>
      <magnitude publicID="quakeml:uw.anss.org/Netmag/UW/691438">
        <mag>
          <value>2.2</value>
          <uncertainty>0.04</uncertainty>
        </mag>
        <type>Md</type>
        <originID>quakeml:uw.anss.org/Origin/UW/884593</originID>
        <methodID>smi:uw.anss.org/magnitude/Crosson</methodID>
        <stationCount>5</stationCount>
        <evaluationMode>manual</evaluationMode>
        <evaluationStatus>final</evaluationStatus>
        <stationMagnitudeContribution>
          <stationMagnitudeID>quakeml:uw.anss.org/AssocCoM/UW/1888158</stationMagnitudeID>
          <weight>1.0</weight>
          <residual>0.11</residual>
        </stationMagnitudeContribution>
        <stationMagnitudeContribution>
          <stationMagnitudeID>quakeml:uw.anss.org/AssocCoM/UW/1888153</stationMagnitudeID>
          <weight>1.0</weight>
          <residual>0.03</residual>
        </stationMagnitudeContribution>
        <stationMagnitudeContribution>
          <stationMagnitudeID>quakeml:uw.anss.org/AssocCoM/UW/1888148</stationMagnitudeID>
          <weight>1.0</weight>
          <residual>0.0</residual>
        </stationMagnitudeContribution>
        <stationMagnitudeContribution>
          <stationMagnitudeID>quakeml:uw.anss.org/AssocCoM/UW/1888163</stationMagnitudeID>
          <weight>1.0</weight>
          <residual>0.06</residual>
        </stationMagnitudeContribution>
        <stationMagnitudeContribution>
          <stationMagnitudeID>quakeml:uw.anss.org/AssocCoM/UW/1888168</stationMagnitudeID>
          <weight>1.0</weight>
          <residual>-0.03</residual>
        </stationMagnitudeContribution>
        <creationInfo>
          <agencyID>UW</agencyID>
          <creationTime>2012-03-05T15:10:24.000000Z</creationTime>
        </creationInfo>
      </magnitude>
      <stationMagnitude publicID="quakeml:uw.anss.org/AssocCoM/UW/1888148">
        <originID>quakeml:uw.anss.org/Origin/UW/884593</originID>
        <mag>
          <value>2.2</value>
        </mag>
        <type>MD</type>
        <amplitudeID>quakeml:uw.anss.org/Coda/UW/1888148</amplitudeID>
        <waveformID networkCode="UW" stationCode="NEL" locationCode="" channelCode="EHZ"></waveformID>
      </stationMagnitude>
      <stationMagnitude publicID="quakeml:uw.anss.org/AssocCoM/UW/1888153">
