<?xml version='1.0' encoding='utf-8'?>
<q:quakeml xmlns="http://quakeml.org/xmlns/bed/1.2" xmlns:q="http://quakeml.org/xmlns/quakeml/1.2" xmlns:ns0="http://anss.org/xmlns/catalog/0.1">
  <eventParameters publicID="smi:local/e8250317-af3d-48fe-8d38-c827213c1287">
    <event publicID="quakeml:uw.anss.org/Event/UW/10609348" ns0:datasource="uw" ns0:dataid="uw10609348" ns0:eventsource="uw" ns0:eventid="10609348">
      <preferredOriginID>quakeml:uw.anss.org/Origin/UW/891603</preferredOriginID>
      <preferredMagnitudeID>quakeml:uw.anss.org/Netmag/UW/695313</preferredMagnitudeID>
      <type>earthquake</type>
      <creationInfo>
        <agencyID>UW</agencyID>
        <creationTime>2012-03-05T15:31:00.000000Z</creationTime>
        <version>3</version>
      </creationInfo>
      <origin publicID="quakeml:uw.anss.org/Origin/UW/891603" ns0:datasource="uw" ns0:dataid="uw10609348" ns0:eventsource="uw" ns0:eventid="10609348">
        <time>
          <value>2004-06-11T20:28:49.650000Z</value>
          <uncertainty>0.05</uncertainty>
        </time>
        <latitude>
          <value>48.6315</value>
          <uncertainty>0.18</uncertainty>
        </latitude>
        <longitude>
          <value>-121.6558333</value>
          <uncertainty>0.11</uncertainty>
        </longitude>
        <depth>
          <value>-1074.0</value>
          <uncertainty>410.0</uncertainty>
        </depth>
        <depthType>operator assigned</depthType>
        <timeFixed>false</timeFixed>
        <epicenterFixed>false</epicenterFixed>
        <methodID>smi:uw.anss.org/origin/spong</methodID>
        <quality>
          <associatedPhaseCount>45</associatedPhaseCount>
          <usedPhaseCount>28</usedPhaseCount>
          <associatedStationCount>41</associatedStationCount>
          <usedStationCount>0</usedStationCount>
          <standardError>0.44</standardError>
          <azimuthalGap>159.0</azimuthalGap>
        </quality>
        <type>hypocenter</type>
        <evaluationMode>manual</evaluationMode>
        <evaluationStatus>final</evaluationStatus>
        <creationInfo>
          <agencyID>UW</agencyID>
          <creationTime>2012-03-05T15:31:00.000000Z</creationTime>
        </creationInfo>
        <originUncertainty>
          <preferredDescription>horizontal uncertainty</preferredDescription>
          <horizontalUncertainty>211.0</horizontalUncertainty>
        </originUncertainty>
        <arrival publicID="quakeml:uw.anss.org/AssocArO/UW/8184788">
          <pickID>quakeml:uw.anss.org/Arrival/UW/8184788</pickID>
          <phase>P</phase>
          <azimuth>224.1</azimuth>
          <distance>1.359</distance>
          <timeResidual>-0.15</timeResidual>
          <creationInfo>
            <agencyID>UW</agencyID>
            <creationTime>2012-03-05T15:31:00.000000Z</creationTime>
          </creationInfo>
        </arrival>
        <arrival publicID="quakeml:uw.anss.org/AssocArO/UW/8184798">
          <pickID>quakeml:uw.anss.org/Arrival/UW/8184798</pickID>
          <phase>S</phase>
          <azimuth>224.1</azimuth>
          <distance>1.359</distance>
          <timeResidual>-0.53</timeResidual>
          <creationInfo>
            <agencyID>UW</agencyID>
            <creationTime>2012-03-05T15:31:00.000000Z</creationTime>
          </creationInfo>
        </arrival>
        <arrival publicID="quakeml:uw.anss.org/AssocArO/UW/8184808">
          <pickID>quakeml:uw.anss.org/Arrival/UW/8184808</pickID>
          <phase>P</phase>
          <azimuth>163.3</azimuth>
          <distance>1.981</distance>
          <timeResidual>0.12</timeResidual>
          <creationInfo>
            <agencyID>UW</agencyID>
            <creationTime>2012-03-05T15:31:00.000000Z</creationTime>
          </creationInfo>
        </arrival>
        <arrival publicID="quakeml:uw.anss.org/AssocArO/UW/8184813">
          <pickID>quakeml:uw.anss.org/Arrival/UW/8184813</pickID>
          <phase>P</phase>
          <azimuth>122.2</azimuth>
          <distance>1.041</distance>
          <timeResidual>0.34</timeResidual>
          <creationInfo>
            <agencyID>UW</agencyID>
            <creationTime>2012-03-05T15:31:00.000000Z</creationTime>
          </creationInfo>
        </arrival>
        <arrival publicID="quakeml:uw.anss.org/AssocArO/UW/8184818">
          <pickID>quakeml:uw.anss.org/Arrival/UW/8184818</pickID>
          <phase>P</phase>
          <azimuth>138.8</azimuth>
          <distance>1.357</distance>
          <timeResidual>0.82</timeResidual>
          <creationInfo>
            <agencyID>UW</agencyID>
            <creationTime>2012-03-05T15:31:00.000000Z</creationTime>
          </creationInfo>
        </arrival>
        <arrival publicID="quakeml:uw.anss.org/AssocArO/UW/8184833">
          <pickID>quakeml:uw.anss.org/Arrival/UW/8184833</pickID>
          <phase>P</phase>
          <azimuth>261.0</azimuth>
          <distance>1.452</distance>
          <timeResidual>-0.61</timeResidual>
          <creationInfo>
            <agencyID>UW</agencyID>
            <creationTime>2012-03-05T15:31:00.000000Z</creationTime>
          </creationInfo>
        </arrival>
        <arrival publicID="quakeml:uw.anss.org/AssocArO/UW/8184838">
          <pickID>quakeml:uw.anss.org/Arrival/UW/8184838</pickID>
          <phase>P</phase>
          <azimuth>285.5</azimuth>
          <distance>0.5221</distance>
          <timeResidual>0.74</timeResidual>
          <creationInfo>
            <agencyID>UW</agencyID>
            <creationTime>2012-03-05T15:31:00.000000Z</creationTime>
          </creationInfo>
        </arrival>
        <arrival publicID="quakeml:uw.anss.org/AssocArO/UW/8184848">
          <pickID>quakeml:uw.anss.org/Arrival/UW/8184848</pickID>
          <phase>P</phase>
          <azimuth>183.2</azimuth>
          <timeResidual>0.3</timeResidual>
          <creationInfo>
            <agencyID>UW</agencyID>
            <creationTime>2012-03-05T15:31:00.000000Z</creationTime>
          </creationInfo>
        </arrival>
        <arrival publicID="quakeml:uw.anss.org/AssocArO/UW/8184853">
          <pickID>quakeml:uw.anss.org/Arrival/UW/8184853</pickID>
          <phase>P</phase>
          <azimuth>181.7</azimuth>
          <distance>1.763</distance>
          <timeResidual>0.36</timeResidual>
          <creationInfo>
            <agencyID>UW</agencyID>
            <creationTime>2012-03-05T15:31:00.000000Z</creationTime>
          </creationInfo>
        </arrival>
        <arrival publicID="quakeml:uw.anss.org/AssocArO/UW/8184868">
          <pickID>quakeml:uw.anss.org/Arrival/UW/8184868</pickID>
          <phase>P</phase>
          <distance>0.4932</distance>
          <timeResidual>-0.1</timeResidual>
          <creationInfo>
            <agencyID>UW</agencyID>
            <creationTime>2012-03-05T15:31:00.000000Z</creationTime>
          </creationInfo>
        </arrival>
        <arrival publicID="quakeml:uw.anss.org/AssocArO/UW/8184873">
          <pickID>quakeml:uw.anss.org/Arrival/UW/8184873</pickID>
          <phase>S</phase>
          <distance>0.4932</distance>
          <timeResidual>-0.1</timeResidual>
          <creationInfo>
            <agencyID>UW</agencyID>
            <creationTime>2012-03-05T15:31:00.000000Z</creationTime>
          </creationInfo>
        </arrival>
        <arrival publicID="quakeml:uw.anss.org/AssocArO/UW/8184888">
          <pickID>quakeml:uw.anss.org/Arrival/UW/8184888</pickID>
          <phase>P</phase>
          <azimuth>160.3</azimuth>
          <distance>1.585</distance>
          <timeResidual>1.29</timeResidual>
          <creationInfo>
            <agencyID>UW</agencyID>
            <creationTime>2012-03-05T15:31:00.000000Z</creationTime>
          </creationInfo>
        </arrival>
        <arrival publicID="quakeml:uw.anss.org/AssocArO/UW/8184898">
          <pickID>quakeml:uw.anss.org/Arrival/UW/8184898</pickID>
          <phase>P</phase>
          <azimuth>132.0</azimuth>
          <distance>1.882</distance>
          <timeResidual>0.9</timeResidual>
          <creationInfo>
            <agencyID>UW</agencyID>
            <creationTime>2012-03-05T15:31:00.000000Z</creationTime>
          </creationInfo>
        </arrival>
        <arrival publicID="quakeml:uw.anss.org/AssocArO/UW/8184903">
          <pickID>quakeml:uw.anss.org/Arrival/UW/8184903</pickID>
          <phase>P</phase>
          <azimuth>236.1</azimuth>
          <distance>0.3723</distance>
          <timeResidual>-0.29</timeResidual>
          <creationInfo>
            <agencyID>UW</agencyID>
            <creationTime>2012-03-05T15:31:00.000000Z</creationTime>
          </creationInfo>
        </arrival>
        <arrival publicID="quakeml:uw.anss.org/AssocArO/UW/8184928">
          <pickID>quakeml:uw.anss.org/Arrival/UW/8184928</pickID>
          <phase>P</phase>
          <azimuth>183.8</azimuth>
          <timeResidual>0.4</timeResidual>
          <creationInfo>
            <agencyID>UW</agencyID>
            <creationTime>2012-03-05T15:31:00.000000Z</creationTime>
          </creationInfo>
        </arrival>
        <arrival publicID="quakeml:uw.anss.org/AssocArO/UW/8184933">
          <pickID>quakeml:uw.anss.org/Arrival/UW/8184933</pickID>
          <phase>P</phase>
          <azimuth>216.6</azimuth>
          <distance>1.325</distance>
          <timeResidual>-0.15</timeResidual>
          <creationInfo>
            <agencyID>UW</agencyID>
            <creationTime>2012-03-05T15:31:00.000000Z</creationTime>
          </creationInfo>
        </arrival>
        <arrival publicID="quakeml:uw.anss.org/AssocArO/UW/8184938">
          <pickID>quakeml:uw.anss.org/Arrival/UW/8184938</pickID>
          <phase>S</phase>
          <azimuth>216.6</azimuth>
          <distance>1.325</distance>
          <timeResidual>-0.97</timeResidual>
          <creationInfo>
            <agencyID>UW</agencyID>
            <creationTime>2012-03-05T15:31:00.000000Z</creationTime>
          </creationInfo>
        </arrival>
        <arrival publicID="quakeml:uw.anss.org/AssocArO/UW/8184943">
          <pickID>quakeml:uw.anss.org/Arrival/UW/8184943</pickID>
          <phase>P</phase>
          <azimuth>187.3</azimuth>
          <distance>1.702</distance>
          <timeResidual>0.34</timeResidual>
          <creationInfo>
            <agencyID>UW</agencyID>
            <creationTime>2012-03-05T15:31:00.000000Z</creationTime>
          </creationInfo>
        </arrival>
        <arrival publicID="quakeml:uw.anss.org/AssocArO/UW/8184948">
          <pickID>quakeml:uw.anss.org/Arrival/UW/8184948</pickID>
          <phase>P</phase>
          <azimuth>185.0</azimuth>
          <distance>1.177</distance>
          <timeResidual>0.55</timeResidual>
          <creationInfo>
            <agencyID>UW</agencyID>
            <creationTime>2012-03-05T15:31:00.000000Z</creationTime>
          </creationInfo>
        </arrival>
        <arrival publicID="quakeml:uw.anss.org/AssocArO/UW/8184953">
          <pickID>quakeml:uw.anss.org/Arrival/UW/8184953</pickID>
          <phase>P</phase>
          <azimuth>153.0</azimuth>
          <distance>0.206</distance>
          <timeResidual>-0.21</timeResidual>
          <creationInfo>
            <agencyID>UW</agencyID>
            <creationTime>2012-03-05T15:31:00.000000Z</creationTime>
          </creationInfo>
        </arrival>
        <arrival publicID="quakeml:uw.anss.org/AssocArO/UW/8184958">
          <pickID>quakeml:uw.anss.org/Arrival/UW/8184958</pickID>
          <phase>P</phase>
          <azimuth>177.6</azimuth>
          <distance>1.936</distance>
          <timeResidual>0.62</timeResidual>
          <creationInfo>
            <agencyID>UW</agencyID>
            <creationTime>2012-03-05T15:31:00.000000Z</creationTime>
          </creationInfo>
        </arrival>
        <arrival publicID="quakeml:uw.anss.org/AssocArO/UW/8184963">
          <pickID>quakeml:uw.anss.org/Arrival/UW/8184963</pickID>
          <phase>P</phase>
          <azimuth>181.4</azimuth>
          <distance>0.938</distance>
          <timeResidual>-0.03</timeResidual>
          <creationInfo>
            <agencyID>UW</agencyID>
            <creationTime>2012-03-05T15:31:00.000000Z</creationTime>
          </creationInfo>
        </arrival>
        <arrival publicID="quakeml:uw.anss.org/AssocArO/UW/8184968">
          <pickID>quakeml:uw.anss.org/Arrival/UW/8184968</pickID>
          <phase>S</phase>
          <azimuth>311.9</azimuth>
          <distance>0.4297</distance>
          <timeResidual>0.11</timeResidual>
          <creationInfo>
            <agencyID>UW</agencyID>
            <creationTime>2012-03-05T15:31:00.000000Z</creationTime>
          </creationInfo>
        </arrival>
        <arrival publicID="quakeml:uw.anss.org/AssocArO/UW/8184973">
          <pickID>quakeml:uw.anss.org/Arrival/UW/8184973</pickID>
          <phase>P</phase>
          <azimuth>184.0</azimuth>
          <timeResidual>0.39</timeResidual>
          <creationInfo>
            <agencyID>UW</agencyID>
            <creationTime>2012-03-05T15:31:00.000000Z</creationTime>
          </creationInfo>
        </arrival>
        <arrival publicID="quakeml:uw.anss.org/AssocArO/UW/8184978">
          <pickID>quakeml:uw.anss.org/Arrival/UW/8184978</pickID>
          <phase>P</phase>
          <azimuth>313.4</azimuth>
          <distance>0.2227</distance>
          <timeResidual>-0.62</timeResidual>
          <creationInfo>
            <agencyID>UW</agencyID>
            <creationTime>2012-03-05T15:31:00.000000Z</creationTime>
          </creationInfo>
        </arrival>
        <arrival publicID="quakeml:uw.anss.org/AssocArO/UW/8184983">
          <pickID>quakeml:uw.anss.org/Arrival/UW/8184983</pickID>
          <phase>P</phase>
          <azimuth>120.9</azimuth>
          <distance>1.773</distance>
          <timeResidual>1.57</timeResidual>
          <creationInfo>
            <agencyID>UW</agencyID>
            <creationTime>2012-03-05T15:31:00.000000Z</creationTime>
          </creationInfo>
        </arrival>
        <arrival publicID="quakeml:uw.anss.org/AssocArO/UW/8184988">
          <pickID>quakeml:uw.anss.org/Arrival/UW/8184988</pickID>
          <phase>P</phase>
          <azimuth>191.5</azimuth>
          <distance>2.373</distance>
          <timeResidual>0.09</timeResidual>
          <creationInfo>
            <agencyID>UW</agencyID>
            <creationTime>2012-03-05T15:31:00.000000Z</creationTime>
          </creationInfo>
        </arrival>
        <arrival publicID="quakeml:uw.anss.org/AssocArO/UW/8184993">
          <pickID>quakeml:uw.anss.org/Arrival/UW/8184993</pickID>
          <phase>P</phase>
          <azimuth>202.6</azimuth>
          <timeResidual>-0.21</timeResidual>
          <creationInfo>
            <agencyID>UW</agencyID>
            <creationTime>2012-03-05T15:31:00.000000Z</creationTime>
          </creationInfo>
        </arrival>
        <arrival publicID="quakeml:uw.anss.org/AssocArO/UW/8184998">
          <pickID>quakeml:uw.anss.org/Arrival/UW/8184998</pickID>
          <phase>P</phase>
          <azimuth>180.4</azimuth>
          <timeResidual>0.1</timeResidual>
          <creationInfo>
            <agencyID>UW</agencyID>
            <creationTime>2012-03-05T15:31:00.000000Z</creationTime>
          </creationInfo>
        </arrival>
        <arrival publicID="quakeml:uw.anss.org/AssocArO/UW/8185003">
          <pickID>quakeml:uw.anss.org/Arrival/UW/8185003</pickID>
          <phase>P</phase>
          <azimuth>121.2</azimuth>
          <distance>2.336</distance>
          <timeResidual>2.74</timeResidual>
          <creationInfo>
            <agencyID>UW</agencyID>
            <creationTime>2012-03-05T15:31:00.000000Z</creationTime>
          </creationInfo>
        </arrival>
        <arrival publicID="quakeml:uw.anss.org/AssocArO/UW/8185008">
          <pickID>quakeml:uw.anss.org/Arrival/UW/8185008</pickID>
          <phase>P</phase>
          <azimuth>116.6</azimuth>
          <distance>1.414</distance>
          <timeResidual>1.24</timeResidual>
          <creationInfo>
            <agencyID>UW</agencyID>
            <creationTime>2012-03-05T15:31:00.000000Z</creationTime>
          </creationInfo>
        </arrival>
        <arrival publicID="quakeml:uw.anss.org/AssocArO/UW/8185013">
          <pickID>quakeml:uw.anss.org/Arrival/UW/8185013</pickID>
          <phase>P</phase>
          <azimuth>146.1</azimuth>
          <distance>0.9319</distance>
          <timeResidual>-0.4</timeResidual>
          <creationInfo>
            <agencyID>UW</agencyID>
            <creationTime>2012-03-05T15:31:00.000000Z</creationTime>
          </creationInfo>
        </arrival>
        <arrival publicID="quakeml:uw.anss.org/AssocArO/UW/8185018">
          <pickID>quakeml:uw.anss.org/Arrival/UW/8185018</pickID>
          <phase>P</phase>
          <azimuth>235.0</azimuth>
          <distance>1.079</distance>
          <timeResidual>0.72</timeResidual>
          <creationInfo>
            <agencyID>UW</agencyID>
            <creationTime>2012-03-05T15:31:00.000000Z</creationTime>
          </creationInfo>
        </arrival>
        <arrival publicID="quakeml:uw.anss.org/AssocArO/UW/8185023">
          <pickID>quakeml:uw.anss.org/Arrival/UW/8185023</pickID>
          <phase>P</phase>
          <azimuth>214.3</azimuth>
          <distance>0.4787</distance>
          <timeResidual>0.17</timeResidual>
          <creationInfo>
            <agencyID>UW</agencyID>
            <creationTime>2012-03-05T15:31:00.000000Z</creationTime>
          </creationInfo>
        </arrival>
        <arrival publicID="quakeml:uw.anss.org/AssocArO/UW/8185028">
          <pickID>quakeml:uw.anss.org/Arrival/UW/8185028</pickID>
          <phase>P</phase>
          <azimuth>128.8</azimuth>
          <distance>1.472</distance>
          <timeResidual>0.26</timeResidual>
          <creationInfo>
            <agencyID>UW</agencyID>
            <creationTime>2012-03-05T15:31:00.000000Z</creationTime>
          </creationInfo>
        </arrival>
        <arrival publicID="quakeml:uw.anss.org/AssocArO/UW/8185033">
          <pickID>quakeml:uw.anss.org/Arrival/UW/8185033</pickID>
          <phase>P</phase>
          <azimuth>278.7</azimuth>
          <distance>1.015</distance>
          <timeResidual>0.5</timeResidual>
          <creationInfo>
            <agencyID>UW</agencyID>
            <creationTime>2012-03-05T15:31:01.000000Z</creationTime>
          </creationInfo>
        </arrival>
        <arrival publicID="quakeml:uw.anss.org/AssocArO/UW/8185038">
          <pickID>quakeml:uw.anss.org/Arrival/UW/8185038</pickID>
          <phase>P</phase>
          <azimuth>211.5</azimuth>
          <distance>1.936</distance>
          <timeResidual>0.92</timeResidual>
          <creationInfo>
            <agencyID>UW</agencyID>
            <creationTime>2012-03-05T15:31:01.000000Z</creationTime>
          </creationInfo>
        </arrival>
        <arrival publicID="quakeml:uw.anss.org/AssocArO/UW/8185043">
          <pickID>quakeml:uw.anss.org/Arrival/UW/8185043</pickID>
          <phase>P</phase>
          <azimuth>62.1</azimuth>
          <distance>1.506</distance>
          <timeResidual>1.18</timeResidual>
          <creationInfo>
            <agencyID>UW</agencyID>
            <creationTime>2012-03-05T15:31:01.000000Z</creationTime>
          </creationInfo>
        </arrival>
        <arrival publicID="quakeml:uw.anss.org/AssocArO/UW/8185048">
          <pickID>quakeml:uw.anss.org/Arrival/UW/8185048</pickID>
          <phase>P</phase>
          <azimuth>192.6</azimuth>
          <distance>2.011</distance>
          <timeResidual>0.03</timeResidual>
          <creationInfo>
            <agencyID>UW</agencyID>
            <creationTime>2012-03-05T15:31:01.000000Z</creationTime>
          </creationInfo>
        </arrival>
        <arrival publicID="quakeml:uw.anss.org/AssocArO/UW/8185053">
          <pickID>quakeml:uw.anss.org/Arrival/UW/8185053</pickID>
          <phase>P</phase>
