<?xml version='1.0' encoding='utf-8'?>
<q:quakeml xmlns="http://quakeml.org/xmlns/bed/1.2" xmlns:q="http://quakeml.org/xmlns/quakeml/1.2" xmlns:ns0="http://anss.org/xmlns/catalog/0.1">
  <eventParameters publicID="smi:local/03c7c0c0-8ae7-4b36-9ba7-de869c67148a">
    <event publicID="quakeml:uw.anss.org/Event/UW/10597243" ns0:datasource="uw" ns0:dataid="uw10597243" ns0:eventsource="uw" ns0:eventid="10597243">
      <preferredOriginID>quakeml:uw.anss.org/Origin/UW/879498</preferredOriginID>
      <preferredMagnitudeID>quakeml:uw.anss.org/Netmag/UW/688623</preferredMagnitudeID>
      <type>earthquake</type>
      <creationInfo>
        <agencyID>UW</agencyID>
        <creationTime>2012-03-05T14:56:17.000000Z</creationTime>
        <version>3</version>
      </creationInfo>
      <origin publicID="quakeml:uw.anss.org/Origin/UW/879498" ns0:datasource="uw" ns0:dataid="uw10597243" ns0:eventsource="uw" ns0:eventid="10597243">
        <time>
          <value>2004-01-06T22:45:51.860000Z</value>
          <uncertainty>0.01</uncertainty>
        </time>
        <latitude>
          <value>48.6366667</value>
          <uncertainty>0.04</uncertainty>
        </latitude>
        <longitude>
          <value>-122.452</value>
          <uncertainty>0.04</uncertainty>
        </longitude>
        <depth>
          <value>-641.0</value>
          <uncertainty>130.0</uncertainty>
        </depth>
        <depthType>operator assigned</depthType>
        <timeFixed>false</timeFixed>
        <epicenterFixed>false</epicenterFixed>
        <methodID>smi:uw.anss.org/origin/spong</methodID>
        <quality>
          <associatedPhaseCount>44</associatedPhaseCount>
          <usedPhaseCount>31</usedPhaseCount>
          <associatedStationCount>38</associatedStationCount>
          <usedStationCount>0</usedStationCount>
          <standardError>0.3</standardError>
          <azimuthalGap>104.0</azimuthalGap>
        </quality>
        <type>hypocenter</type>
        <evaluationMode>manual</evaluationMode>
        <evaluationStatus>final</evaluationStatus>
        <creationInfo>
          <agencyID>UW</agencyID>
          <creationTime>2012-03-05T14:56:17.000000Z</creationTime>
        </creationInfo>
        <originUncertainty>
          <preferredDescription>horizontal uncertainty</preferredDescription>
          <horizontalUncertainty>57.0</horizontalUncertainty>
        </originUncertainty>
        <arrival publicID="quakeml:uw.anss.org/AssocArO/UW/8073603">
          <pickID>quakeml:uw.anss.org/Arrival/UW/8073603</pickID>
          <phase>P</phase>
          <azimuth>111.2</azimuth>
          <distance>1.518</distance>
          <timeResidual>0.32</timeResidual>
          <creationInfo>
            <agencyID>UW</agencyID>
            <creationTime>2012-03-05T14:56:17.000000Z</creationTime>
          </creationInfo>
        </arrival>
        <arrival publicID="quakeml:uw.anss.org/AssocArO/UW/8073628">
          <pickID>quakeml:uw.anss.org/Arrival/UW/8073628</pickID>
          <phase>P</phase>
          <azimuth>212.2</azimuth>
          <distance>0.2165</distance>
          <timeResidual>-0.14</timeResidual>
          <creationInfo>
            <agencyID>UW</agencyID>
            <creationTime>2012-03-05T14:56:17.000000Z</creationTime>
          </creationInfo>
        </arrival>
        <arrival publicID="quakeml:uw.anss.org/AssocArO/UW/8073638">
          <pickID>quakeml:uw.anss.org/Arrival/UW/8073638</pickID>
          <phase>P</phase>
          <azimuth>193.2</azimuth>
          <distance>1.102</distance>
          <timeResidual>-0.45</timeResidual>
          <creationInfo>
            <agencyID>UW</agencyID>
            <creationTime>2012-03-05T14:56:17.000000Z</creationTime>
          </creationInfo>
        </arrival>
        <arrival publicID="quakeml:uw.anss.org/AssocArO/UW/8073643">
          <pickID>quakeml:uw.anss.org/Arrival/UW/8073643</pickID>
          <phase>S</phase>
          <azimuth>193.2</azimuth>
          <distance>1.102</distance>
          <timeResidual>-0.83</timeResidual>
          <creationInfo>
            <agencyID>UW</agencyID>
            <creationTime>2012-03-05T14:56:17.000000Z</creationTime>
          </creationInfo>
        </arrival>
        <arrival publicID="quakeml:uw.anss.org/AssocArO/UW/8073653">
          <pickID>quakeml:uw.anss.org/Arrival/UW/8073653</pickID>
          <phase>P</phase>
          <azimuth>199.1</azimuth>
          <timeResidual>0.16</timeResidual>
          <creationInfo>
            <agencyID>UW</agencyID>
            <creationTime>2012-03-05T14:56:17.000000Z</creationTime>
          </creationInfo>
        </arrival>
        <arrival publicID="quakeml:uw.anss.org/AssocArO/UW/8073663">
          <pickID>quakeml:uw.anss.org/Arrival/UW/8073663</pickID>
          <phase>S</phase>
          <azimuth>166.8</azimuth>
          <timeResidual>-2.5</timeResidual>
          <creationInfo>
            <agencyID>UW</agencyID>
            <creationTime>2012-03-05T14:56:17.000000Z</creationTime>
          </creationInfo>
        </arrival>
        <arrival publicID="quakeml:uw.anss.org/AssocArO/UW/8073673">
          <pickID>quakeml:uw.anss.org/Arrival/UW/8073673</pickID>
          <phase>P</phase>
          <azimuth>164.7</azimuth>
          <timeResidual>-0.47</timeResidual>
          <creationInfo>
            <agencyID>UW</agencyID>
            <creationTime>2012-03-05T14:56:17.000000Z</creationTime>
          </creationInfo>
        </arrival>
        <arrival publicID="quakeml:uw.anss.org/AssocArO/UW/8073683">
          <pickID>quakeml:uw.anss.org/Arrival/UW/8073683</pickID>
          <phase>P</phase>
          <distance>0.453</distance>
          <timeResidual>-0.22</timeResidual>
          <creationInfo>
            <agencyID>UW</agencyID>
            <creationTime>2012-03-05T14:56:17.000000Z</creationTime>
          </creationInfo>
        </arrival>
        <arrival publicID="quakeml:uw.anss.org/AssocArO/UW/8073698">
          <pickID>quakeml:uw.anss.org/Arrival/UW/8073698</pickID>
          <phase>P</phase>
          <azimuth>134.0</azimuth>
          <distance>0.3068</distance>
          <timeResidual>-0.08</timeResidual>
          <creationInfo>
            <agencyID>UW</agencyID>
            <creationTime>2012-03-05T14:56:17.000000Z</creationTime>
          </creationInfo>
        </arrival>
        <arrival publicID="quakeml:uw.anss.org/AssocArO/UW/8073708">
          <pickID>quakeml:uw.anss.org/Arrival/UW/8073708</pickID>
          <phase>S</phase>
          <azimuth>134.0</azimuth>
          <distance>0.3068</distance>
          <timeResidual>0.22</timeResidual>
          <creationInfo>
            <agencyID>UW</agencyID>
            <creationTime>2012-03-05T14:56:17.000000Z</creationTime>
          </creationInfo>
        </arrival>
        <arrival publicID="quakeml:uw.anss.org/AssocArO/UW/8073713">
          <pickID>quakeml:uw.anss.org/Arrival/UW/8073713</pickID>
          <phase>P</phase>
          <azimuth>162.7</azimuth>
          <timeResidual>-0.79</timeResidual>
          <creationInfo>
            <agencyID>UW</agencyID>
            <creationTime>2012-03-05T14:56:17.000000Z</creationTime>
          </creationInfo>
        </arrival>
        <arrival publicID="quakeml:uw.anss.org/AssocArO/UW/8073718">
          <pickID>quakeml:uw.anss.org/Arrival/UW/8073718</pickID>
          <phase>P</phase>
          <azimuth>195.7</azimuth>
          <distance>1.727</distance>
          <timeResidual>-0.93</timeResidual>
          <creationInfo>
            <agencyID>UW</agencyID>
            <creationTime>2012-03-05T14:56:17.000000Z</creationTime>
          </creationInfo>
        </arrival>
        <arrival publicID="quakeml:uw.anss.org/AssocArO/UW/8073723">
          <pickID>quakeml:uw.anss.org/Arrival/UW/8073723</pickID>
          <phase>P</phase>
          <azimuth>166.8</azimuth>
          <distance>1.936</distance>
          <timeResidual>-0.89</timeResidual>
          <creationInfo>
            <agencyID>UW</agencyID>
            <creationTime>2012-03-05T14:56:17.000000Z</creationTime>
          </creationInfo>
        </arrival>
        <arrival publicID="quakeml:uw.anss.org/AssocArO/UW/8073728">
          <pickID>quakeml:uw.anss.org/Arrival/UW/8073728</pickID>
          <phase>P</phase>
          <azimuth>159.6</azimuth>
          <distance>1.255</distance>
          <timeResidual>-0.27</timeResidual>
          <creationInfo>
            <agencyID>UW</agencyID>
            <creationTime>2012-03-05T14:56:17.000000Z</creationTime>
          </creationInfo>
        </arrival>
        <arrival publicID="quakeml:uw.anss.org/AssocArO/UW/8073733">
          <pickID>quakeml:uw.anss.org/Arrival/UW/8073733</pickID>
          <phase>P</phase>
          <azimuth>106.5</azimuth>
          <distance>0.6507</distance>
          <timeResidual>-0.32</timeResidual>
          <creationInfo>
            <agencyID>UW</agencyID>
            <creationTime>2012-03-05T14:56:17.000000Z</creationTime>
          </creationInfo>
        </arrival>
        <arrival publicID="quakeml:uw.anss.org/AssocArO/UW/8073738">
          <pickID>quakeml:uw.anss.org/Arrival/UW/8073738</pickID>
          <phase>P</phase>
          <azimuth>151.4</azimuth>
          <distance>1.072</distance>
          <timeResidual>-0.03</timeResidual>
          <creationInfo>
            <agencyID>UW</agencyID>
            <creationTime>2012-03-05T14:56:17.000000Z</creationTime>
          </creationInfo>
        </arrival>
        <arrival publicID="quakeml:uw.anss.org/AssocArO/UW/8073743">
          <pickID>quakeml:uw.anss.org/Arrival/UW/8073743</pickID>
          <phase>S</phase>
          <azimuth>151.4</azimuth>
          <distance>1.072</distance>
          <timeResidual>-0.88</timeResidual>
          <creationInfo>
            <agencyID>UW</agencyID>
            <creationTime>2012-03-05T14:56:17.000000Z</creationTime>
          </creationInfo>
        </arrival>
        <arrival publicID="quakeml:uw.anss.org/AssocArO/UW/8073748">
          <pickID>quakeml:uw.anss.org/Arrival/UW/8073748</pickID>
          <phase>P</phase>
          <azimuth>36.0</azimuth>
          <distance>0.3471</distance>
          <timeResidual>0.26</timeResidual>
          <creationInfo>
            <agencyID>UW</agencyID>
            <creationTime>2012-03-05T14:56:17.000000Z</creationTime>
          </creationInfo>
        </arrival>
        <arrival publicID="quakeml:uw.anss.org/AssocArO/UW/8073753">
          <pickID>quakeml:uw.anss.org/Arrival/UW/8073753</pickID>
          <phase>S</phase>
          <azimuth>36.0</azimuth>
          <distance>0.3471</distance>
          <timeResidual>0.26</timeResidual>
          <creationInfo>
            <agencyID>UW</agencyID>
            <creationTime>2012-03-05T14:56:17.000000Z</creationTime>
          </creationInfo>
        </arrival>
        <arrival publicID="quakeml:uw.anss.org/AssocArO/UW/8073758">
          <pickID>quakeml:uw.anss.org/Arrival/UW/8073758</pickID>
          <phase>P</phase>
          <azimuth>67.8</azimuth>
          <distance>0.3936</distance>
          <timeResidual>-0.16</timeResidual>
          <creationInfo>
            <agencyID>UW</agencyID>
            <creationTime>2012-03-05T14:56:17.000000Z</creationTime>
          </creationInfo>
        </arrival>
        <arrival publicID="quakeml:uw.anss.org/AssocArO/UW/8073763">
          <pickID>quakeml:uw.anss.org/Arrival/UW/8073763</pickID>
          <phase>P</phase>
          <azimuth>137.1</azimuth>
          <distance>2.722</distance>
          <timeResidual>-0.58</timeResidual>
          <creationInfo>
            <agencyID>UW</agencyID>
            <creationTime>2012-03-05T14:56:17.000000Z</creationTime>
          </creationInfo>
        </arrival>
        <arrival publicID="quakeml:uw.anss.org/AssocArO/UW/8073768">
          <pickID>quakeml:uw.anss.org/Arrival/UW/8073768</pickID>
          <phase>P</phase>
          <azimuth>141.5</azimuth>
          <timeResidual>-0.05</timeResidual>
          <creationInfo>
            <agencyID>UW</agencyID>
            <creationTime>2012-03-05T14:56:17.000000Z</creationTime>
          </creationInfo>
        </arrival>
        <arrival publicID="quakeml:uw.anss.org/AssocArO/UW/8073773">
          <pickID>quakeml:uw.anss.org/Arrival/UW/8073773</pickID>
          <phase>P</phase>
          <azimuth>166.6</azimuth>
          <distance>2.552</distance>
          <timeResidual>0.53</timeResidual>
          <creationInfo>
            <agencyID>UW</agencyID>
            <creationTime>2012-03-05T14:56:17.000000Z</creationTime>
          </creationInfo>
        </arrival>
        <arrival publicID="quakeml:uw.anss.org/AssocArO/UW/8073778">
          <pickID>quakeml:uw.anss.org/Arrival/UW/8073778</pickID>
          <phase>P</phase>
          <azimuth>162.5</azimuth>
          <timeResidual>-0.39</timeResidual>
          <creationInfo>
            <agencyID>UW</agencyID>
            <creationTime>2012-03-05T14:56:17.000000Z</creationTime>
          </creationInfo>
        </arrival>
        <arrival publicID="quakeml:uw.anss.org/AssocArO/UW/8073788">
          <pickID>quakeml:uw.anss.org/Arrival/UW/8073788</pickID>
          <phase>P</phase>
          <azimuth>241.5</azimuth>
          <distance>1.241</distance>
          <timeResidual>-0.62</timeResidual>
          <creationInfo>
            <agencyID>UW</agencyID>
            <creationTime>2012-03-05T14:56:17.000000Z</creationTime>
          </creationInfo>
        </arrival>
        <arrival publicID="quakeml:uw.anss.org/AssocArO/UW/8073798">
          <pickID>quakeml:uw.anss.org/Arrival/UW/8073798</pickID>
          <phase>P</phase>
          <azimuth>109.1</azimuth>
          <distance>1.904</distance>
          <timeResidual>1.81</timeResidual>
          <creationInfo>
            <agencyID>UW</agencyID>
            <creationTime>2012-03-05T14:56:17.000000Z</creationTime>
          </creationInfo>
        </arrival>
        <arrival publicID="quakeml:uw.anss.org/AssocArO/UW/8073803">
          <pickID>quakeml:uw.anss.org/Arrival/UW/8073803</pickID>
          <phase>P</phase>
          <azimuth>126.2</azimuth>
          <distance>1.307</distance>
          <timeResidual>0.0</timeResidual>
          <creationInfo>
            <agencyID>UW</agencyID>
            <creationTime>2012-03-05T14:56:17.000000Z</creationTime>
          </creationInfo>
        </arrival>
        <arrival publicID="quakeml:uw.anss.org/AssocArO/UW/8073853">
          <pickID>quakeml:uw.anss.org/Arrival/UW/8073853</pickID>
          <phase>P</phase>
          <azimuth>239.5</azimuth>
          <timeResidual>-0.42</timeResidual>
          <creationInfo>
            <agencyID>UW</agencyID>
            <creationTime>2012-03-05T14:56:17.000000Z</creationTime>
          </creationInfo>
        </arrival>
        <arrival publicID="quakeml:uw.anss.org/AssocArO/UW/8073863">
          <pickID>quakeml:uw.anss.org/Arrival/UW/8073863</pickID>
          <phase>P</phase>
          <azimuth>146.9</azimuth>
          <distance>0.4782</distance>
          <timeResidual>0.06</timeResidual>
          <creationInfo>
            <agencyID>UW</agencyID>
            <creationTime>2012-03-05T14:56:17.000000Z</creationTime>
          </creationInfo>
        </arrival>
        <arrival publicID="quakeml:uw.anss.org/AssocArO/UW/8073873">
          <pickID>quakeml:uw.anss.org/Arrival/UW/8073873</pickID>
          <phase>P</phase>
          <azimuth>123.6</azimuth>
          <distance>1.557</distance>
          <timeResidual>0.48</timeResidual>
          <creationInfo>
            <agencyID>UW</agencyID>
            <creationTime>2012-03-05T14:56:17.000000Z</creationTime>
          </creationInfo>
        </arrival>
        <arrival publicID="quakeml:uw.anss.org/AssocArO/UW/8073883">
          <pickID>quakeml:uw.anss.org/Arrival/UW/8073883</pickID>
          <phase>P</phase>
          <azimuth>120.2</azimuth>
          <distance>1.018</distance>
          <timeResidual>0.25</timeResidual>
          <creationInfo>
            <agencyID>UW</agencyID>
            <creationTime>2012-03-05T14:56:17.000000Z</creationTime>
          </creationInfo>
        </arrival>
        <arrival publicID="quakeml:uw.anss.org/AssocArO/UW/8073903">
          <pickID>quakeml:uw.anss.org/Arrival/UW/8073903</pickID>
          <phase>P</phase>
          <azimuth>191.8</azimuth>
          <distance>1.113</distance>
          <timeResidual>-0.37</timeResidual>
          <creationInfo>
            <agencyID>UW</agencyID>
            <creationTime>2012-03-05T14:56:17.000000Z</creationTime>
          </creationInfo>
        </arrival>
        <arrival publicID="quakeml:uw.anss.org/AssocArO/UW/8073933">
          <pickID>quakeml:uw.anss.org/Arrival/UW/8073933</pickID>
          <phase>S</phase>
          <azimuth>161.1</azimuth>
          <timeResidual>-0.51</timeResidual>
          <creationInfo>
            <agencyID>UW</agencyID>
            <creationTime>2012-03-05T14:56:17.000000Z</creationTime>
          </creationInfo>
        </arrival>
        <arrival publicID="quakeml:uw.anss.org/AssocArO/UW/8073938">
          <pickID>quakeml:uw.anss.org/Arrival/UW/8073938</pickID>
          <phase>P</phase>
          <azimuth>286.5</azimuth>
          <distance>0.4969</distance>
          <timeResidual>0.04</timeResidual>
          <creationInfo>
            <agencyID>UW</agencyID>
            <creationTime>2012-03-05T14:56:17.000000Z</creationTime>
          </creationInfo>
        </arrival>
        <arrival publicID="quakeml:uw.anss.org/AssocArO/UW/8073943">
          <pickID>quakeml:uw.anss.org/Arrival/UW/8073943</pickID>
          <phase>P</phase>
          <azimuth>151.1</azimuth>
          <distance>0.9505</distance>
          <timeResidual>0.08</timeResidual>
          <creationInfo>
            <agencyID>UW</agencyID>
            <creationTime>2012-03-05T14:56:17.000000Z</creationTime>
          </creationInfo>
        </arrival>
        <arrival publicID="quakeml:uw.anss.org/AssocArO/UW/8073958">
          <pickID>quakeml:uw.anss.org/Arrival/UW/8073958</pickID>
          <phase>P</phase>
          <azimuth>116.5</azimuth>
          <distance>1.813</distance>
          <timeResidual>-0.21</timeResidual>
          <creationInfo>
            <agencyID>UW</agencyID>
            <creationTime>2012-03-05T14:56:17.000000Z</creationTime>
          </creationInfo>
        </arrival>
        <arrival publicID="quakeml:uw.anss.org/AssocArO/UW/8073968">
          <pickID>quakeml:uw.anss.org/Arrival/UW/8073968</pickID>
          <phase>P</phase>
          <azimuth>185.3</azimuth>
          <timeResidual>-0.62</timeResidual>
          <creationInfo>
            <agencyID>UW</agencyID>
            <creationTime>2012-03-05T14:56:17.000000Z</creationTime>
          </creationInfo>
        </arrival>
        <arrival publicID="quakeml:uw.anss.org/AssocArO/UW/8073978">
          <pickID>quakeml:uw.anss.org/Arrival/UW/8073978</pickID>
          <phase>P</phase>
          <azimuth>209.0</azimuth>
          <distance>0.7199</distance>
          <timeResidual>0.12</timeResidual>
          <creationInfo>
            <agencyID>UW</agencyID>
            <creationTime>2012-03-05T14:56:17.000000Z</creationTime>
          </creationInfo>
        </arrival>
        <arrival publicID="quakeml:uw.anss.org/AssocArO/UW/8073983">
          <pickID>quakeml:uw.anss.org/Arrival/UW/8073983</pickID>
          <phase>P</phase>
          <azimuth>139.1</azimuth>
          <distance>1.926</distance>
          <timeResidual>-0.65</timeResidual>
          <creationInfo>
            <agencyID>UW</agencyID>
            <creationTime>2012-03-05T14:56:17.000000Z</creationTime>
          </creationInfo>
        </arrival>
        <arrival publicID="quakeml:uw.anss.org/AssocArO/UW/8073993">
          <pickID>quakeml:uw.anss.org/Arrival/UW/8073993</pickID>
          <phase>P</phase>
          <azimuth>215.4</azimuth>
          <distance>0.6896</distance>
