<?xml version='1.0' encoding='utf-8'?>
<q:quakeml xmlns="http://quakeml.org/xmlns/bed/1.2" xmlns:q="http://quakeml.org/xmlns/quakeml/1.2" xmlns:ns0="http://anss.org/xmlns/catalog/0.1">
  <eventParameters publicID="smi:local/db17e4ab-ef67-4ada-aec6-056de726e542">
    <event publicID="quakeml:uw.anss.org/Event/UW/61942152" ns0:datasource="uw" ns0:dataid="uw61942152" ns0:eventsource="uw" ns0:eventid="61942152">
      <preferredOriginID>quakeml:uw.anss.org/Origin/UW/3236538</preferredOriginID>
      <preferredMagnitudeID>quakeml:uw.anss.org/Netmag/UW/3224233</preferredMagnitudeID>
      <type>other event</type>
      <creationInfo>
        <agencyID>UW</agencyID>
        <creationTime>2023-08-18T22:05:24.000000Z</creationTime>
        <version>3</version>
      </creationInfo>
      <origin publicID="quakeml:uw.anss.org/Origin/UW/3236538" ns0:datasource="uw" ns0:dataid="uw61942152" ns0:eventsource="uw" ns0:eventid="61942152">
        <time>
          <value>2023-08-18T16:16:35.730000Z</value>
        </time>
        <latitude>
          <value>48.7841</value>
        </latitude>
        <longitude>
          <value>-121.9014</value>
        </longitude>
        <depth>
          <value>-1596.0</value>
        </depth>
        <depthType>operator assigned</depthType>
        <timeFixed>false</timeFixed>
        <epicenterFixed>false</epicenterFixed>
        <methodID>smi:uw.anss.org/origin/HAND</methodID>
        <quality>
          <associatedPhaseCount>0</associatedPhaseCount>
          <usedPhaseCount>0</usedPhaseCount>
          <associatedStationCount>1</associatedStationCount>
          <usedStationCount>0</usedStationCount>
          <minimumDistance>0.0004467</minimumDistance>
          <maximumDistance>0.0004467</maximumDistance>
          <medianDistance>0.0004467</medianDistance>
        </quality>
        <type>hypocenter</type>
        <evaluationMode>manual</evaluationMode>
        <evaluationStatus>final</evaluationStatus>
        <creationInfo>
          <agencyID>UW</agencyID>
          <creationTime>2023-08-18T21:55:49.000000Z</creationTime>
        </creationInfo>
        <arrival publicID="quakeml:uw.anss.org/AssocArO/UW/16534753">
          <pickID>quakeml:uw.anss.org/Arrival/UW/16534753</pickID>
          <phase>P</phase>
          <distance>0.0004467</distance>
          <creationInfo>
            <agencyID>UW</agencyID>
            <creationTime>2023-08-18T22:05:24.000000Z</creationTime>
          </creationInfo>
        </arrival>
      </origin>
      <magnitude publicID="quakeml:uw.anss.org/Netmag/UW/3224233">
        <mag>
          <value>-5.0</value>
        </mag>
        <type>Mh</type>
        <originID>quakeml:uw.anss.org/Origin/UW/3236538</originID>
        <methodID>smi:uw.anss.org/magnitude/HAND</methodID>
        <stationCount>0</stationCount>
        <evaluationMode>manual</evaluationMode>
        <evaluationStatus>reviewed</evaluationStatus>
        <creationInfo>
          <agencyID>UW</agencyID>
          <creationTime>2023-08-18T22:05:24.000000Z</creationTime>
        </creationInfo>
      </magnitude>
      <pick publicID="quakeml:uw.anss.org/Arrival/UW/16534753">
        <time>
          <value>2023-08-18T16:16:36.730000Z</value>
          <uncertainty>0.15</uncertainty>
        </time>
        <waveformID networkCode="UW" stationCode="MBW" locationCode="01" channelCode="EHZ"></waveformID>
        <onset>emergent</onset>
        <polarity>undecidable</polarity>
        <evaluationMode>manual</evaluationMode>
        <evaluationStatus>reviewed</evaluationStatus>
        <creationInfo>
          <agencyID>UW</agencyID>
          <creationTime>2023-08-18T22:05:24.000000Z</creationTime>
        </creationInfo>
      </pick>
    </event>
  </eventParameters>
</q:quakeml>
