<?xml version='1.0' encoding='utf-8'?>
<q:quakeml xmlns="http://quakeml.org/xmlns/bed/1.2" xmlns:q="http://quakeml.org/xmlns/quakeml/1.2" xmlns:ns0="http://anss.org/xmlns/catalog/0.1">
  <eventParameters publicID="smi:local/5ded8647-b8dc-40ef-87ce-50142093f43b">
    <event publicID="quakeml:uw.anss.org/Event/UW/61935041" ns0:datasource="uw" ns0:dataid="uw61935041" ns0:eventsource="uw" ns0:eventid="61935041">
      <preferredOriginID>quakeml:uw.anss.org/Origin/UW/3230813</preferredOriginID>
      <preferredMagnitudeID>quakeml:uw.anss.org/Netmag/UW/3214753</preferredMagnitudeID>
      <type>other event</type>
      <creationInfo>
        <agencyID>UW</agencyID>
        <creationTime>2023-06-26T22:16:02.000000Z</creationTime>
        <version>8</version>
      </creationInfo>
      <origin publicID="quakeml:uw.anss.org/Origin/UW/3230638" ns0:datasource="uw" ns0:dataid="uw61935041" ns0:eventsource="uw" ns0:eventid="61935041">
        <time>
          <value>2023-06-22T14:13:22.110000Z</value>
        </time>
        <latitude>
          <value>48.8528</value>
        </latitude>
        <longitude>
          <value>-121.677</value>
        </longitude>
        <depth>
          <value>-483.89</value>
        </depth>
        <depthType>operator assigned</depthType>
        <timeFixed>false</timeFixed>
        <epicenterFixed>false</epicenterFixed>
        <methodID>smi:uw.anss.org/origin/HAND</methodID>
        <quality>
          <associatedPhaseCount>0</associatedPhaseCount>
          <usedPhaseCount>0</usedPhaseCount>
          <associatedStationCount>22</associatedStationCount>
          <usedStationCount>0</usedStationCount>
          <secondaryAzimuthalGap>387.0</secondaryAzimuthalGap>
          <minimumDistance>0.3623</minimumDistance>
          <maximumDistance>6.701</maximumDistance>
          <medianDistance>2.855</medianDistance>
        </quality>
        <type>hypocenter</type>
        <evaluationMode>manual</evaluationMode>
        <evaluationStatus>final</evaluationStatus>
        <creationInfo>
          <agencyID>UW</agencyID>
          <creationTime>2023-06-24T03:37:32.000000Z</creationTime>
        </creationInfo>
        <arrival publicID="quakeml:uw.anss.org/AssocArO/UW/16456203">
          <pickID>quakeml:uw.anss.org/Arrival/UW/16456203</pickID>
          <phase>P</phase>
          <distance>0.3623</distance>
          <creationInfo>
            <agencyID>UW</agencyID>
            <creationTime>2023-06-24T03:40:33.000000Z</creationTime>
          </creationInfo>
        </arrival>
        <arrival publicID="quakeml:uw.anss.org/AssocArO/UW/16456208">
          <pickID>quakeml:uw.anss.org/Arrival/UW/16456208</pickID>
          <phase>P</phase>
          <distance>0.4084</distance>
          <creationInfo>
            <agencyID>UW</agencyID>
            <creationTime>2023-06-24T03:40:33.000000Z</creationTime>
          </creationInfo>
        </arrival>
        <arrival publicID="quakeml:uw.anss.org/AssocArO/UW/16456213">
          <pickID>quakeml:uw.anss.org/Arrival/UW/16456213</pickID>
          <phase>P</phase>
          <distance>0.4203</distance>
          <creationInfo>
            <agencyID>UW</agencyID>
            <creationTime>2023-06-24T03:40:33.000000Z</creationTime>
          </creationInfo>
        </arrival>
        <arrival publicID="quakeml:uw.anss.org/AssocArO/UW/16456218">
          <pickID>quakeml:uw.anss.org/Arrival/UW/16456218</pickID>
          <phase>P</phase>
          <distance>0.937</distance>
          <creationInfo>
            <agencyID>UW</agencyID>
            <creationTime>2023-06-24T03:40:33.000000Z</creationTime>
          </creationInfo>
        </arrival>
        <arrival publicID="quakeml:uw.anss.org/AssocArO/UW/16456223">
          <pickID>quakeml:uw.anss.org/Arrival/UW/16456223</pickID>
          <phase>P</phase>
          <distance>1.19</distance>
          <creationInfo>
            <agencyID>UW</agencyID>
            <creationTime>2023-06-24T03:40:33.000000Z</creationTime>
          </creationInfo>
        </arrival>
        <arrival publicID="quakeml:uw.anss.org/AssocArO/UW/16456228">
          <pickID>quakeml:uw.anss.org/Arrival/UW/16456228</pickID>
          <phase>P</phase>
          <distance>1.2</distance>
          <creationInfo>
            <agencyID>UW</agencyID>
            <creationTime>2023-06-24T03:40:33.000000Z</creationTime>
          </creationInfo>
        </arrival>
        <arrival publicID="quakeml:uw.anss.org/AssocArO/UW/16456233">
          <pickID>quakeml:uw.anss.org/Arrival/UW/16456233</pickID>
          <phase>P</phase>
          <distance>1.484</distance>
          <creationInfo>
            <agencyID>UW</agencyID>
            <creationTime>2023-06-24T03:40:33.000000Z</creationTime>
          </creationInfo>
        </arrival>
        <arrival publicID="quakeml:uw.anss.org/AssocArO/UW/16456238">
          <pickID>quakeml:uw.anss.org/Arrival/UW/16456238</pickID>
          <phase>P</phase>
          <distance>1.826</distance>
          <creationInfo>
            <agencyID>UW</agencyID>
            <creationTime>2023-06-24T03:40:33.000000Z</creationTime>
          </creationInfo>
        </arrival>
        <arrival publicID="quakeml:uw.anss.org/AssocArO/UW/16456243">
          <pickID>quakeml:uw.anss.org/Arrival/UW/16456243</pickID>
          <phase>P</phase>
          <distance>2.019</distance>
          <creationInfo>
            <agencyID>UW</agencyID>
            <creationTime>2023-06-24T03:40:33.000000Z</creationTime>
          </creationInfo>
        </arrival>
        <arrival publicID="quakeml:uw.anss.org/AssocArO/UW/16456248">
          <pickID>quakeml:uw.anss.org/Arrival/UW/16456248</pickID>
          <phase>P</phase>
          <distance>2.105</distance>
          <creationInfo>
            <agencyID>UW</agencyID>
            <creationTime>2023-06-24T03:40:33.000000Z</creationTime>
          </creationInfo>
        </arrival>
        <arrival publicID="quakeml:uw.anss.org/AssocArO/UW/16456253">
          <pickID>quakeml:uw.anss.org/Arrival/UW/16456253</pickID>
          <phase>P</phase>
          <distance>2.749</distance>
          <creationInfo>
            <agencyID>UW</agencyID>
            <creationTime>2023-06-24T03:40:33.000000Z</creationTime>
          </creationInfo>
        </arrival>
        <arrival publicID="quakeml:uw.anss.org/AssocArO/UW/16456258">
          <pickID>quakeml:uw.anss.org/Arrival/UW/16456258</pickID>
          <phase>P</phase>
          <distance>2.96</distance>
          <creationInfo>
            <agencyID>UW</agencyID>
            <creationTime>2023-06-24T03:40:33.000000Z</creationTime>
          </creationInfo>
        </arrival>
        <arrival publicID="quakeml:uw.anss.org/AssocArO/UW/16456263">
          <pickID>quakeml:uw.anss.org/Arrival/UW/16456263</pickID>
          <phase>P</phase>
          <distance>3.664</distance>
          <creationInfo>
            <agencyID>UW</agencyID>
            <creationTime>2023-06-24T03:40:33.000000Z</creationTime>
          </creationInfo>
        </arrival>
        <arrival publicID="quakeml:uw.anss.org/AssocArO/UW/16456268">
          <pickID>quakeml:uw.anss.org/Arrival/UW/16456268</pickID>
          <phase>P</phase>
          <distance>3.851</distance>
          <creationInfo>
            <agencyID>UW</agencyID>
            <creationTime>2023-06-24T03:40:33.000000Z</creationTime>
          </creationInfo>
        </arrival>
        <arrival publicID="quakeml:uw.anss.org/AssocArO/UW/16456273">
          <pickID>quakeml:uw.anss.org/Arrival/UW/16456273</pickID>
          <phase>P</phase>
          <distance>3.9</distance>
          <creationInfo>
            <agencyID>UW</agencyID>
            <creationTime>2023-06-24T03:40:33.000000Z</creationTime>
          </creationInfo>
        </arrival>
        <arrival publicID="quakeml:uw.anss.org/AssocArO/UW/16456278">
          <pickID>quakeml:uw.anss.org/Arrival/UW/16456278</pickID>
          <phase>P</phase>
          <distance>4.024</distance>
          <creationInfo>
            <agencyID>UW</agencyID>
            <creationTime>2023-06-24T03:40:33.000000Z</creationTime>
          </creationInfo>
        </arrival>
        <arrival publicID="quakeml:uw.anss.org/AssocArO/UW/16456283">
          <pickID>quakeml:uw.anss.org/Arrival/UW/16456283</pickID>
          <phase>P</phase>
          <distance>4.558</distance>
          <creationInfo>
            <agencyID>UW</agencyID>
            <creationTime>2023-06-24T03:40:33.000000Z</creationTime>
          </creationInfo>
        </arrival>
        <arrival publicID="quakeml:uw.anss.org/AssocArO/UW/16456288">
          <pickID>quakeml:uw.anss.org/Arrival/UW/16456288</pickID>
          <phase>P</phase>
          <distance>5.186</distance>
          <creationInfo>
            <agencyID>UW</agencyID>
            <creationTime>2023-06-24T03:40:33.000000Z</creationTime>
          </creationInfo>
        </arrival>
        <arrival publicID="quakeml:uw.anss.org/AssocArO/UW/16456293">
          <pickID>quakeml:uw.anss.org/Arrival/UW/16456293</pickID>
          <phase>P</phase>
          <distance>5.325</distance>
          <creationInfo>
            <agencyID>UW</agencyID>
            <creationTime>2023-06-24T03:40:33.000000Z</creationTime>
          </creationInfo>
        </arrival>
        <arrival publicID="quakeml:uw.anss.org/AssocArO/UW/16456298">
          <pickID>quakeml:uw.anss.org/Arrival/UW/16456298</pickID>
          <phase>P</phase>
          <distance>5.478</distance>
          <creationInfo>
            <agencyID>UW</agencyID>
            <creationTime>2023-06-24T03:40:33.000000Z</creationTime>
          </creationInfo>
        </arrival>
        <arrival publicID="quakeml:uw.anss.org/AssocArO/UW/16456303">
          <pickID>quakeml:uw.anss.org/Arrival/UW/16456303</pickID>
          <phase>P</phase>
          <distance>6.701</distance>
          <creationInfo>
            <agencyID>UW</agencyID>
            <creationTime>2023-06-24T03:40:33.000000Z</creationTime>
          </creationInfo>
        </arrival>
        <arrival publicID="quakeml:uw.anss.org/AssocArO/UW/16457793">
          <pickID>quakeml:uw.anss.org/Arrival/UW/16457793</pickID>
          <phase>P</phase>
          <distance>5.382e-05</distance>
          <creationInfo>
            <agencyID>UW</agencyID>
            <creationTime>2023-06-24T03:40:33.000000Z</creationTime>
          </creationInfo>
        </arrival>
      </origin>
      <origin publicID="quakeml:uw.anss.org/Origin/UW/3230813" ns0:datasource="uw" ns0:dataid="uw61935041" ns0:eventsource="uw" ns0:eventid="61935041">
        <time>
          <value>2023-06-22T14:13:22.110000Z</value>
        </time>
        <latitude>
          <value>48.8528</value>
        </latitude>
        <longitude>
          <value>-121.677</value>
        </longitude>
        <depth>
          <value>-483.89</value>
        </depth>
        <depthType>operator assigned</depthType>
        <timeFixed>false</timeFixed>
        <epicenterFixed>false</epicenterFixed>
        <methodID>smi:uw.anss.org/origin/HAND</methodID>
        <quality>
          <associatedPhaseCount>0</associatedPhaseCount>
          <usedPhaseCount>0</usedPhaseCount>
          <associatedStationCount>1</associatedStationCount>
          <usedStationCount>0</usedStationCount>
          <minimumDistance>5.382e-05</minimumDistance>
          <maximumDistance>5.382e-05</maximumDistance>
          <medianDistance>5.382e-05</medianDistance>
        </quality>
        <type>hypocenter</type>
        <evaluationMode>manual</evaluationMode>
        <evaluationStatus>final</evaluationStatus>
        <creationInfo>
          <agencyID>UW</agencyID>
          <creationTime>2023-06-26T22:16:02.000000Z</creationTime>
        </creationInfo>
        <arrival publicID="quakeml:uw.anss.org/AssocArO/UW/16457793">
          <pickID>quakeml:uw.anss.org/Arrival/UW/16457793</pickID>
          <phase>P</phase>
          <distance>5.382e-05</distance>
          <creationInfo>
            <agencyID>UW</agencyID>
            <creationTime>2023-06-26T22:16:36.000000Z</creationTime>
          </creationInfo>
        </arrival>
      </origin>
      <magnitude publicID="quakeml:uw.anss.org/Netmag/UW/3214753">
        <mag>
          <value>-5.0</value>
        </mag>
        <type>Mh</type>
        <originID>quakeml:uw.anss.org/Origin/UW/3230638</originID>
        <methodID>smi:uw.anss.org/magnitude/HAND</methodID>
        <stationCount>0</stationCount>
        <evaluationMode>manual</evaluationMode>
        <evaluationStatus>reviewed</evaluationStatus>
        <creationInfo>
          <agencyID>UW</agencyID>
          <creationTime>2023-06-24T03:40:33.000000Z</creationTime>
        </creationInfo>
      </magnitude>
      <pick publicID="quakeml:uw.anss.org/Arrival/UW/16456203">
        <time>
          <value>2023-06-22T14:13:26.000000Z</value>
        </time>
        <waveformID networkCode="UW" stationCode="SAXON" locationCode="" channelCode="HHZ"></waveformID>
        <onset>questionable</onset>
        <polarity>undecidable</polarity>
        <evaluationMode>automatic</evaluationMode>
        <evaluationStatus>preliminary</evaluationStatus>
        <creationInfo>
          <agencyID>UW</agencyID>
          <creationTime>2023-06-22T19:19:42.000000Z</creationTime>
        </creationInfo>
      </pick>
      <pick publicID="quakeml:uw.anss.org/Arrival/UW/16456208">
        <time>
          <value>2023-06-22T14:13:33.000000Z</value>
        </time>
        <waveformID networkCode="UW" stationCode="MULN" locationCode="" channelCode="HHZ"></waveformID>
        <onset>questionable</onset>
        <polarity>undecidable</polarity>
        <evaluationMode>automatic</evaluationMode>
        <evaluationStatus>preliminary</evaluationStatus>
        <creationInfo>
          <agencyID>UW</agencyID>
          <creationTime>2023-06-22T19:19:42.000000Z</creationTime>
        </creationInfo>
      </pick>
      <pick publicID="quakeml:uw.anss.org/Arrival/UW/16456213">
        <time>
          <value>2023-06-22T14:13:29.000000Z</value>
        </time>
        <waveformID networkCode="UW" stationCode="RPW2" locationCode="" channelCode="HHZ"></waveformID>
        <onset>questionable</onset>
        <polarity>undecidable</polarity>
        <evaluationMode>automatic</evaluationMode>
        <evaluationStatus>preliminary</evaluationStatus>
        <creationInfo>
          <agencyID>UW</agencyID>
          <creationTime>2023-06-22T19:19:42.000000Z</creationTime>
        </creationInfo>
      </pick>
      <pick publicID="quakeml:uw.anss.org/Arrival/UW/16456218">
        <time>
          <value>2023-06-22T14:14:15.000000Z</value>
        </time>
        <waveformID networkCode="UW" stationCode="UWFH" locationCode="" channelCode="EHZ"></waveformID>
        <onset>questionable</onset>
        <polarity>undecidable</polarity>
        <evaluationMode>automatic</evaluationMode>
        <evaluationStatus>preliminary</evaluationStatus>
        <creationInfo>
          <agencyID>UW</agencyID>
          <creationTime>2023-06-22T19:19:42.000000Z</creationTime>
        </creationInfo>
      </pick>
      <pick publicID="quakeml:uw.anss.org/Arrival/UW/16456223">
        <time>
          <value>2023-06-22T14:13:37.000000Z</value>
        </time>
        <waveformID networkCode="UW" stationCode="KNGST" locationCode="" channelCode="HHZ"></waveformID>
        <onset>questionable</onset>
        <polarity>undecidable</polarity>
        <evaluationMode>automatic</evaluationMode>
        <evaluationStatus>preliminary</evaluationStatus>
        <creationInfo>
          <agencyID>UW</agencyID>
          <creationTime>2023-06-22T19:19:42.000000Z</creationTime>
        </creationInfo>
      </pick>
      <pick publicID="quakeml:uw.anss.org/Arrival/UW/16456228">
        <time>
          <value>2023-06-22T14:13:52.000000Z</value>
        </time>
        <waveformID networkCode="UW" stationCode="COWS" locationCode="" channelCode="HHZ"></waveformID>
        <onset>questionable</onset>
        <polarity>undecidable</polarity>
        <evaluationMode>automatic</evaluationMode>
        <evaluationStatus>preliminary</evaluationStatus>
        <creationInfo>
          <agencyID>UW</agencyID>
          <creationTime>2023-06-22T19:19:42.000000Z</creationTime>
        </creationInfo>
      </pick>
      <pick publicID="quakeml:uw.anss.org/Arrival/UW/16456233">
        <time>
          <value>2023-06-22T14:13:54.000000Z</value>
        </time>
        <waveformID networkCode="UW" stationCode="TNSKT" locationCode="" channelCode="HHZ"></waveformID>
        <onset>questionable</onset>
        <polarity>undecidable</polarity>
        <evaluationMode>automatic</evaluationMode>
        <evaluationStatus>preliminary</evaluationStatus>
        <creationInfo>
          <agencyID>UW</agencyID>
          <creationTime>2023-06-22T19:19:42.000000Z</creationTime>
        </creationInfo>
      </pick>
      <pick publicID="quakeml:uw.anss.org/Arrival/UW/16456238">
        <time>
          <value>2023-06-22T14:14:11.000000Z</value>
        </time>
        <waveformID networkCode="UW" stationCode="EAGLE" locationCode="" channelCode="HHZ"></waveformID>
        <onset>questionable</onset>
        <polarity>undecidable</polarity>
        <evaluationMode>automatic</evaluationMode>
        <evaluationStatus>preliminary</evaluationStatus>
        <creationInfo>
          <agencyID>UW</agencyID>
          <creationTime>2023-06-22T19:19:42.000000Z</creationTime>
        </creationInfo>
      </pick>
      <pick publicID="quakeml:uw.anss.org/Arrival/UW/16456243">
        <time>
          <value>2023-06-22T14:14:01.000000Z</value>
        </time>
        <waveformID networkCode="UW" stationCode="RCM" locationCode="" channelCode="HHZ"></waveformID>
        <onset>questionable</onset>
        <polarity>undecidable</polarity>
        <evaluationMode>automatic</evaluationMode>
        <evaluationStatus>preliminary</evaluationStatus>
        <creationInfo>
          <agencyID>UW</agencyID>
          <creationTime>2023-06-22T19:19:42.000000Z</creationTime>
        </creationInfo>
      </pick>
      <pick publicID="quakeml:uw.anss.org/Arrival/UW/16456248">
        <time>
          <value>2023-06-22T14:14:04.000000Z</value>
        </time>
        <waveformID networkCode="UW" stationCode="LON" locationCode="" channelCode="HHZ"></waveformID>
        <onset>questionable</onset>
        <polarity>undecidable</polarity>
        <evaluationMode>automatic</evaluationMode>
        <evaluationStatus>preliminary</evaluationStatus>
        <creationInfo>
          <agencyID>UW</agencyID>
          <creationTime>2023-06-22T19:19:42.000000Z</creationTime>
        </creationInfo>
      </pick>
      <pick publicID="quakeml:uw.anss.org/Arrival/UW/16456253">
        <time>
          <value>2023-06-22T14:13:22.000000Z</value>
        </time>
        <waveformID networkCode="UW" stationCode="CDF" locationCode="" channelCode="EHZ"></waveformID>
        <onset>questionable</onset>
        <polarity>undecidable</polarity>
        <evaluationMode>automatic</evaluationMode>
        <evaluationStatus>preliminary</evaluationStatus>
        <creationInfo>
          <agencyID>UW</agencyID>
          <creationTime>2023-06-22T19:19:42.000000Z</creationTime>
        </creationInfo>
      </pick>
      <pick publicID="quakeml:uw.anss.org/Arrival/UW/16456258">
        <time>
          <value>2023-06-22T14:13:57.000000Z</value>
        </time>
        <waveformID networkCode="UW" stationCode="RED2" locationCode="" channelCode="EHZ"></waveformID>
        <onset>questionable</onset>
        <polarity>undecidable</polarity>
        <evaluationMode>automatic</evaluationMode>
        <evaluationStatus>preliminary</evaluationStatus>
        <creationInfo>
          <agencyID>UW</agencyID>
          <creationTime>2023-06-22T19:19:42.000000Z</creationTime>
        </creationInfo>
      </pick>
