<?xml version='1.0' encoding='utf-8'?>
<q:quakeml xmlns="http://quakeml.org/xmlns/bed/1.2" xmlns:q="http://quakeml.org/xmlns/quakeml/1.2" xmlns:ns0="http://anss.org/xmlns/catalog/0.1">
  <eventParameters publicID="smi:local/82b85a35-5fa5-4a61-9392-8c356a75c0bf">
    <event publicID="quakeml:uw.anss.org/Event/UW/61942752" ns0:datasource="uw" ns0:dataid="uw61942752" ns0:eventsource="uw" ns0:eventid="61942752">
      <preferredOriginID>quakeml:uw.anss.org/Origin/UW/3237008</preferredOriginID>
      <preferredMagnitudeID>quakeml:uw.anss.org/Netmag/UW/3224983</preferredMagnitudeID>
      <type>earthquake</type>
      <creationInfo>
        <agencyID>UW</agencyID>
        <creationTime>2023-08-24T01:03:09.000000Z</creationTime>
        <version>2</version>
      </creationInfo>
      <origin publicID="quakeml:uw.anss.org/Origin/UW/3237008" ns0:datasource="uw" ns0:dataid="uw61942752" ns0:eventsource="uw" ns0:eventid="61942752">
        <time>
          <value>2023-08-20T04:32:11.680000Z</value>
        </time>
        <latitude>
          <value>48.76583333333333</value>
        </latitude>
        <longitude>
          <value>-121.8455</value>
        </longitude>
        <depth>
          <value>-990.0</value>
          <uncertainty>2500.0</uncertainty>
        </depth>
        <depthType>from location</depthType>
        <timeFixed>false</timeFixed>
        <epicenterFixed>false</epicenterFixed>
        <methodID>smi:uw.anss.org/origin/HYP2000</methodID>
        <quality>
          <associatedPhaseCount>11</associatedPhaseCount>
          <usedPhaseCount>11</usedPhaseCount>
          <associatedStationCount>7</associatedStationCount>
          <usedStationCount>7</usedStationCount>
          <standardError>0.33</standardError>
          <azimuthalGap>95.0</azimuthalGap>
          <secondaryAzimuthalGap>519.0</secondaryAzimuthalGap>
          <minimumDistance>0.04082</minimumDistance>
          <maximumDistance>0.3998</maximumDistance>
          <medianDistance>0.2246</medianDistance>
        </quality>
        <type>hypocenter</type>
        <evaluationMode>manual</evaluationMode>
        <evaluationStatus>final</evaluationStatus>
        <creationInfo>
          <agencyID>UW</agencyID>
          <creationTime>2023-08-24T00:55:27.000000Z</creationTime>
        </creationInfo>
        <originUncertainty>
          <preferredDescription>confidence ellipsoid</preferredDescription>
          <horizontalUncertainty>720.0</horizontalUncertainty>
          <confidenceLevel>95.0</confidenceLevel>
          <confidenceEllipsoid>
            <semiMajorAxisLength>6240.0</semiMajorAxisLength>
            <semiMinorAxisLength>1368.0</semiMinorAxisLength>
            <semiIntermediateAxisLength>1728.0</semiIntermediateAxisLength>
            <majorAxisPlunge>74.0</majorAxisPlunge>
            <majorAxisAzimuth>327.0</majorAxisAzimuth>
            <majorAxisRotation>39.0</majorAxisRotation>
          </confidenceEllipsoid>
        </originUncertainty>
        <arrival publicID="quakeml:uw.anss.org/AssocArO/UW/16542023">
          <pickID>quakeml:uw.anss.org/Arrival/UW/16542023</pickID>
          <phase>P</phase>
          <timeCorrection>0.38</timeCorrection>
          <azimuth>296.3377108527808</azimuth>
          <distance>0.04082</distance>
          <takeoffAngle>
            <value>90.0</value>
          </takeoffAngle>
          <timeResidual>-0.48</timeResidual>
          <timeWeight>0.14</timeWeight>
          <creationInfo>
            <agencyID>UW</agencyID>
            <creationTime>2023-08-24T01:03:09.000000Z</creationTime>
          </creationInfo>
        </arrival>
        <arrival publicID="quakeml:uw.anss.org/AssocArO/UW/16542028">
          <pickID>quakeml:uw.anss.org/Arrival/UW/16542028</pickID>
          <phase>P</phase>
          <timeCorrection>0.0</timeCorrection>
          <azimuth>305.4309581400009</azimuth>
          <distance>0.06045</distance>
          <takeoffAngle>
            <value>90.0</value>
          </takeoffAngle>
          <timeResidual>-0.11</timeResidual>
          <timeWeight>0.14</timeWeight>
          <creationInfo>
            <agencyID>UW</agencyID>
            <creationTime>2023-08-24T01:03:09.000000Z</creationTime>
          </creationInfo>
        </arrival>
        <arrival publicID="quakeml:uw.anss.org/AssocArO/UW/16542033">
          <pickID>quakeml:uw.anss.org/Arrival/UW/16542033</pickID>
          <phase>S</phase>
          <timeCorrection>0.0</timeCorrection>
          <azimuth>305.4309581400009</azimuth>
          <distance>0.06045</distance>
          <takeoffAngle>
            <value>90.0</value>
          </takeoffAngle>
          <timeResidual>0.38</timeResidual>
          <timeWeight>0.1</timeWeight>
          <creationInfo>
            <agencyID>UW</agencyID>
            <creationTime>2023-08-24T01:03:09.000000Z</creationTime>
          </creationInfo>
        </arrival>
        <arrival publicID="quakeml:uw.anss.org/AssocArO/UW/16542038">
          <pickID>quakeml:uw.anss.org/Arrival/UW/16542038</pickID>
          <phase>P</phase>
          <timeCorrection>0.0</timeCorrection>
          <azimuth>51.84606055803067</azimuth>
          <distance>0.1414</distance>
          <takeoffAngle>
            <value>90.0</value>
          </takeoffAngle>
          <timeResidual>-0.05</timeResidual>
          <timeWeight>0.1</timeWeight>
          <creationInfo>
            <agencyID>UW</agencyID>
            <creationTime>2023-08-24T01:03:09.000000Z</creationTime>
          </creationInfo>
        </arrival>
        <arrival publicID="quakeml:uw.anss.org/AssocArO/UW/16542043">
          <pickID>quakeml:uw.anss.org/Arrival/UW/16542043</pickID>
          <phase>S</phase>
          <timeCorrection>0.0</timeCorrection>
          <azimuth>51.84606055803067</azimuth>
          <distance>0.1414</distance>
          <takeoffAngle>
            <value>90.0</value>
          </takeoffAngle>
          <timeResidual>0.11</timeResidual>
          <timeWeight>0.1</timeWeight>
          <creationInfo>
            <agencyID>UW</agencyID>
            <creationTime>2023-08-24T01:03:09.000000Z</creationTime>
          </creationInfo>
        </arrival>
        <arrival publicID="quakeml:uw.anss.org/AssocArO/UW/16542048">
          <pickID>quakeml:uw.anss.org/Arrival/UW/16542048</pickID>
          <phase>P</phase>
          <timeCorrection>0.0</timeCorrection>
          <azimuth>248.47509873081373</azimuth>
          <distance>0.2246</distance>
          <takeoffAngle>
            <value>90.0</value>
          </takeoffAngle>
          <timeResidual>-0.21</timeResidual>
          <timeWeight>0.14</timeWeight>
          <creationInfo>
            <agencyID>UW</agencyID>
            <creationTime>2023-08-24T01:03:09.000000Z</creationTime>
          </creationInfo>
        </arrival>
        <arrival publicID="quakeml:uw.anss.org/AssocArO/UW/16542053">
          <pickID>quakeml:uw.anss.org/Arrival/UW/16542053</pickID>
          <phase>S</phase>
          <timeCorrection>0.0</timeCorrection>
          <azimuth>248.47509873081373</azimuth>
          <distance>0.2246</distance>
          <takeoffAngle>
            <value>90.0</value>
          </takeoffAngle>
          <timeResidual>0.06</timeResidual>
          <timeWeight>0.1</timeWeight>
          <creationInfo>
            <agencyID>UW</agencyID>
            <creationTime>2023-08-24T01:03:09.000000Z</creationTime>
          </creationInfo>
        </arrival>
        <arrival publicID="quakeml:uw.anss.org/AssocArO/UW/16542058">
          <pickID>quakeml:uw.anss.org/Arrival/UW/16542058</pickID>
          <phase>P</phase>
          <timeCorrection>0.35</timeCorrection>
          <azimuth>325.9503134917774</azimuth>
          <distance>0.2814</distance>
          <takeoffAngle>
            <value>57.0</value>
          </takeoffAngle>
          <timeResidual>-0.01</timeResidual>
          <timeWeight>0.1</timeWeight>
          <creationInfo>
            <agencyID>UW</agencyID>
            <creationTime>2023-08-24T01:03:09.000000Z</creationTime>
          </creationInfo>
        </arrival>
        <arrival publicID="quakeml:uw.anss.org/AssocArO/UW/16542063">
          <pickID>quakeml:uw.anss.org/Arrival/UW/16542063</pickID>
          <phase>P</phase>
          <timeCorrection>0.0</timeCorrection>
          <azimuth>146.5622168578924</azimuth>
          <distance>0.3847</distance>
          <takeoffAngle>
            <value>57.0</value>
          </takeoffAngle>
          <timeResidual>-0.74</timeResidual>
          <timeWeight>0.09</timeWeight>
          <creationInfo>
            <agencyID>UW</agencyID>
            <creationTime>2023-08-24T01:03:09.000000Z</creationTime>
          </creationInfo>
        </arrival>
        <arrival publicID="quakeml:uw.anss.org/AssocArO/UW/16542068">
          <pickID>quakeml:uw.anss.org/Arrival/UW/16542068</pickID>
          <phase>S</phase>
          <timeCorrection>0.0</timeCorrection>
          <azimuth>146.5622168578924</azimuth>
          <distance>0.3847</distance>
          <takeoffAngle>
            <value>57.0</value>
          </takeoffAngle>
          <timeResidual>0.35</timeResidual>
          <timeWeight>0.1</timeWeight>
          <creationInfo>
            <agencyID>UW</agencyID>
            <creationTime>2023-08-24T01:03:09.000000Z</creationTime>
          </creationInfo>
        </arrival>
        <arrival publicID="quakeml:uw.anss.org/AssocArO/UW/16542073">
          <pickID>quakeml:uw.anss.org/Arrival/UW/16542073</pickID>
          <phase>P</phase>
          <timeCorrection>0.0</timeCorrection>
          <azimuth>211.15998191664494</azimuth>
          <distance>0.3998</distance>
          <takeoffAngle>
            <value>57.0</value>
          </takeoffAngle>
          <timeResidual>1.01</timeResidual>
          <timeWeight>0.0</timeWeight>
          <creationInfo>
            <agencyID>UW</agencyID>
            <creationTime>2023-08-24T01:03:09.000000Z</creationTime>
          </creationInfo>
        </arrival>
      </origin>
      <magnitude publicID="quakeml:uw.anss.org/Netmag/UW/3224983">
        <mag>
          <value>1.29</value>
          <uncertainty>0.14278016406478922</uncertainty>
        </mag>
        <type>Ml</type>
        <originID>quakeml:uw.anss.org/Origin/UW/3237008</originID>
        <methodID>smi:uw.anss.org/magnitude/RichterMl2</methodID>
        <stationCount>5</stationCount>
        <azimuthalGap>94.71615629986172</azimuthalGap>
        <evaluationMode>manual</evaluationMode>
        <evaluationStatus>reviewed</evaluationStatus>
        <stationMagnitudeContribution>
          <stationMagnitudeID>quakeml:uw.anss.org/AssocAmM/UW/15033908</stationMagnitudeID>
          <weight>1.0</weight>
          <residual>0.02</residual>
        </stationMagnitudeContribution>
        <stationMagnitudeContribution>
          <stationMagnitudeID>quakeml:uw.anss.org/AssocAmM/UW/15033888</stationMagnitudeID>
          <weight>1.0</weight>
          <residual>0.0</residual>
        </stationMagnitudeContribution>
        <stationMagnitudeContribution>
          <stationMagnitudeID>quakeml:uw.anss.org/AssocAmM/UW/15033838</stationMagnitudeID>
          <weight>0.0</weight>
          <residual>-0.52</residual>
        </stationMagnitudeContribution>
        <stationMagnitudeContribution>
          <stationMagnitudeID>quakeml:uw.anss.org/AssocAmM/UW/15033898</stationMagnitudeID>
          <weight>1.0</weight>
          <residual>-0.3</residual>
        </stationMagnitudeContribution>
        <stationMagnitudeContribution>
          <stationMagnitudeID>quakeml:uw.anss.org/AssocAmM/UW/15033878</stationMagnitudeID>
          <weight>1.0</weight>
          <residual>0.14</residual>
        </stationMagnitudeContribution>
        <stationMagnitudeContribution>
          <stationMagnitudeID>quakeml:uw.anss.org/AssocAmM/UW/15033833</stationMagnitudeID>
          <weight>0.0</weight>
          <residual>-0.1</residual>
        </stationMagnitudeContribution>
        <stationMagnitudeContribution>
          <stationMagnitudeID>quakeml:uw.anss.org/AssocAmM/UW/15033828</stationMagnitudeID>
          <weight>0.0</weight>
          <residual>-0.49</residual>
        </stationMagnitudeContribution>
        <stationMagnitudeContribution>
          <stationMagnitudeID>quakeml:uw.anss.org/AssocAmM/UW/15033843</stationMagnitudeID>
          <weight>0.0</weight>
          <residual>-0.14</residual>
        </stationMagnitudeContribution>
        <stationMagnitudeContribution>
          <stationMagnitudeID>quakeml:uw.anss.org/AssocAmM/UW/15033863</stationMagnitudeID>
          <weight>1.0</weight>
          <residual>-0.02</residual>
        </stationMagnitudeContribution>
        <stationMagnitudeContribution>
          <stationMagnitudeID>quakeml:uw.anss.org/AssocAmM/UW/15033873</stationMagnitudeID>
          <weight>1.0</weight>
          <residual>0.23</residual>
        </stationMagnitudeContribution>
        <stationMagnitudeContribution>
          <stationMagnitudeID>quakeml:uw.anss.org/AssocAmM/UW/15033858</stationMagnitudeID>
          <weight>1.0</weight>
          <residual>-0.09</residual>
        </stationMagnitudeContribution>
        <stationMagnitudeContribution>
          <stationMagnitudeID>quakeml:uw.anss.org/AssocAmM/UW/15033903</stationMagnitudeID>
          <weight>1.0</weight>
          <residual>0.19</residual>
        </stationMagnitudeContribution>
        <stationMagnitudeContribution>
          <stationMagnitudeID>quakeml:uw.anss.org/AssocAmM/UW/15033853</stationMagnitudeID>
          <weight>1.0</weight>
          <residual>-0.08</residual>
        </stationMagnitudeContribution>
        <stationMagnitudeContribution>
          <stationMagnitudeID>quakeml:uw.anss.org/AssocAmM/UW/15033883</stationMagnitudeID>
          <weight>1.0</weight>
          <residual>0.03</residual>
        </stationMagnitudeContribution>
        <stationMagnitudeContribution>
          <stationMagnitudeID>quakeml:uw.anss.org/AssocAmM/UW/15033893</stationMagnitudeID>
          <weight>1.0</weight>
          <residual>-0.3</residual>
        </stationMagnitudeContribution>
        <stationMagnitudeContribution>
          <stationMagnitudeID>quakeml:uw.anss.org/AssocAmM/UW/15033868</stationMagnitudeID>
          <weight>1.0</weight>
          <residual>0.19</residual>
        </stationMagnitudeContribution>
        <stationMagnitudeContribution>
          <stationMagnitudeID>quakeml:uw.anss.org/AssocAmM/UW/15033848</stationMagnitudeID>
          <weight>1.0</weight>
          <residual>-0.17</residual>
        </stationMagnitudeContribution>
        <creationInfo>
          <agencyID>UW</agencyID>
          <creationTime>2023-08-24T01:03:09.000000Z</creationTime>
        </creationInfo>
      </magnitude>
      <stationMagnitude publicID="quakeml:uw.anss.org/AssocAmM/UW/15033828">
        <originID>quakeml:uw.anss.org/Origin/UW/3237008</originID>
        <mag>
          <value>0.8</value>
        </mag>
        <type>ML</type>
        <amplitudeID>quakeml:uw.anss.org/Amp/UW/15033828</amplitudeID>
        <waveformID networkCode="UW" stationCode="MBW2" locationCode="" channelCode="ENN"></waveformID>
      </stationMagnitude>
      <stationMagnitude publicID="quakeml:uw.anss.org/AssocAmM/UW/15033833">
        <originID>quakeml:uw.anss.org/Origin/UW/3237008</originID>
        <mag>
          <value>1.19</value>
        </mag>
        <type>ML</type>
        <amplitudeID>quakeml:uw.anss.org/Amp/UW/15033833</amplitudeID>
        <waveformID networkCode="UW" stationCode="MBW2" locationCode="" channelCode="ENE"></waveformID>
      </stationMagnitude>
      <stationMagnitude publicID="quakeml:uw.anss.org/AssocAmM/UW/15033838">
        <originID>quakeml:uw.anss.org/Origin/UW/3237008</originID>
        <mag>
          <value>0.77</value>
        </mag>
        <type>ML</type>
        <amplitudeID>quakeml:uw.anss.org/Amp/UW/15033838</amplitudeID>
        <waveformID networkCode="UW" stationCode="MBW2" locationCode="" channelCode="HHN"></waveformID>
      </stationMagnitude>
      <stationMagnitude publicID="quakeml:uw.anss.org/AssocAmM/UW/15033843">
        <originID>quakeml:uw.anss.org/Origin/UW/3237008</originID>
        <mag>
          <value>1.15</value>
        </mag>
        <type>ML</type>
        <amplitudeID>quakeml:uw.anss.org/Amp/UW/15033843</amplitudeID>
        <waveformID networkCode="UW" stationCode="MBW2" locationCode="" channelCode="HHE"></waveformID>
      </stationMagnitude>
      <stationMagnitude publicID="quakeml:uw.anss.org/AssocAmM/UW/15033848">
        <originID>quakeml:uw.anss.org/Origin/UW/3237008</originID>
        <mag>
          <value>1.12</value>
        </mag>
        <type>ML</type>
        <amplitudeID>quakeml:uw.anss.org/Amp/UW/15033848</amplitudeID>
        <waveformID networkCode="UW" stationCode="SHUK" locationCode="" channelCode="ENN"></waveformID>
      </stationMagnitude>
      <stationMagnitude publicID="quakeml:uw.anss.org/AssocAmM/UW/15033853">
        <originID>quakeml:uw.anss.org/Origin/UW/3237008</originID>
        <mag>
          <value>1.21</value>
        </mag>
        <type>ML</type>
        <amplitudeID>quakeml:uw.anss.org/Amp/UW/15033853</amplitudeID>
        <waveformID networkCode="UW" stationCode="SHUK" locationCode="" channelCode="ENE"></waveformID>
      </stationMagnitude>
      <stationMagnitude publicID="quakeml:uw.anss.org/AssocAmM/UW/15033858">
        <originID>quakeml:uw.anss.org/Origin/UW/3237008</originID>
        <mag>
          <value>1.2</value>
        </mag>
        <type>ML</type>
        <amplitudeID>quakeml:uw.anss.org/Amp/UW/15033858</amplitudeID>
        <waveformID networkCode="UW" stationCode="SHUK" locationCode="" channelCode="HHN"></waveformID>
      </stationMagnitude>
      <stationMagnitude publicID="quakeml:uw.anss.org/AssocAmM/UW/15033863">
        <originID>quakeml:uw.anss.org/Origin/UW/3237008</originID>
        <mag>
          <value>1.27</value>
        </mag>
        <type>ML</type>
        <amplitudeID>quakeml:uw.anss.org/Amp/UW/15033863</amplitudeID>
        <waveformID networkCode="UW" stationCode="SHUK" locationCode="" channelCode="HHE"></waveformID>
      </stationMagnitude>
      <stationMagnitude publicID="quakeml:uw.anss.org/AssocAmM/UW/15033868">
        <originID>quakeml:uw.anss.org/Origin/UW/3237008</originID>
        <mag>
          <value>1.48</value>
        </mag>
        <type>ML</type>
        <amplitudeID>quakeml:uw.anss.org/Amp/UW/15033868</amplitudeID>
        <waveformID networkCode="UW" stationCode="SAXON" locationCode="" channelCode="ENN"></waveformID>
      </stationMagnitude>
      <stationMagnitude publicID="quakeml:uw.anss.org/AssocAmM/UW/15033873">
        <originID>quakeml:uw.anss.org/Origin/UW/3237008</originID>
        <mag>
          <value>1.52</value>
        </mag>
        <type>ML</type>
        <amplitudeID>quakeml:uw.anss.org/Amp/UW/15033873</amplitudeID>
        <waveformID networkCode="UW" stationCode="SAXON" locationCode="" channelCode="HHN"></waveformID>
      </stationMagnitude>
      <stationMagnitude publicID="quakeml:uw.anss.org/AssocAmM/UW/15033878">
        <originID>quakeml:uw.anss.org/Origin/UW/3237008</originID>
        <mag>
          <value>1.43</value>
        </mag>
        <type>ML</type>
        <amplitudeID>quakeml:uw.anss.org/Amp/UW/15033878</amplitudeID>
        <waveformID networkCode="UW" stationCode="SAXON" locationCode="" channelCode="HHE"></waveformID>
      </stationMagnitude>
      <stationMagnitude publicID="quakeml:uw.anss.org/AssocAmM/UW/15033883">
        <originID>quakeml:uw.anss.org/Origin/UW/3237008</originID>
        <mag>
          <value>1.32</value>
        </mag>
        <type>ML</type>
        <amplitudeID>quakeml:uw.anss.org/Amp/UW/15033883</amplitudeID>
        <waveformID networkCode="UW" stationCode="PASS" locationCode="" channelCode="HHN"></waveformID>
      </stationMagnitude>
      <stationMagnitude publicID="quakeml:uw.anss.org/AssocAmM/UW/15033888">
