<?xml version='1.0' encoding='utf-8'?>
<q:quakeml xmlns="http://quakeml.org/xmlns/bed/1.2" xmlns:q="http://quakeml.org/xmlns/quakeml/1.2" xmlns:ns0="http://anss.org/xmlns/catalog/0.1">
  <eventParameters publicID="smi:local/2b06ea1d-95da-48b5-b9bb-2bf208b1df80">
    <event publicID="quakeml:uw.anss.org/Event/UW/61944311" ns0:datasource="uw" ns0:dataid="uw61944311" ns0:eventsource="uw" ns0:eventid="61944311">
      <preferredOriginID>quakeml:uw.anss.org/Origin/UW/3233583</preferredOriginID>
      <preferredMagnitudeID>quakeml:uw.anss.org/Netmag/UW/3219413</preferredMagnitudeID>
      <type>earthquake</type>
      <creationInfo>
        <agencyID>UW</agencyID>
        <creationTime>2023-07-27T19:13:39.000000Z</creationTime>
        <version>2</version>
      </creationInfo>
      <origin publicID="quakeml:uw.anss.org/Origin/UW/3233583" ns0:datasource="uw" ns0:dataid="uw61944311" ns0:eventsource="uw" ns0:eventid="61944311">
        <time>
          <value>2023-07-27T12:20:14.800000Z</value>
        </time>
        <latitude>
          <value>48.78366666666667</value>
        </latitude>
        <longitude>
          <value>-121.8115</value>
        </longitude>
        <depth>
          <value>18750.0</value>
          <uncertainty>1700.0</uncertainty>
        </depth>
        <depthType>from location</depthType>
        <timeFixed>false</timeFixed>
        <epicenterFixed>false</epicenterFixed>
        <methodID>smi:uw.anss.org/origin/HYP2000</methodID>
        <quality>
          <associatedPhaseCount>9</associatedPhaseCount>
          <usedPhaseCount>8</usedPhaseCount>
          <associatedStationCount>6</associatedStationCount>
          <usedStationCount>5</usedStationCount>
          <standardError>0.16</standardError>
          <azimuthalGap>98.0</azimuthalGap>
          <secondaryAzimuthalGap>520.0</secondaryAzimuthalGap>
          <minimumDistance>0.1127</minimumDistance>
          <maximumDistance>0.4268</maximumDistance>
          <medianDistance>0.2902</medianDistance>
        </quality>
        <type>hypocenter</type>
        <evaluationMode>manual</evaluationMode>
        <evaluationStatus>final</evaluationStatus>
        <creationInfo>
          <agencyID>UW</agencyID>
          <creationTime>2023-07-27T19:13:34.000000Z</creationTime>
        </creationInfo>
        <originUncertainty>
          <preferredDescription>confidence ellipsoid</preferredDescription>
          <horizontalUncertainty>590.0</horizontalUncertainty>
          <confidenceLevel>95.0</confidenceLevel>
          <confidenceEllipsoid>
            <semiMajorAxisLength>4152.0</semiMajorAxisLength>
            <semiMinorAxisLength>1344.0</semiMinorAxisLength>
            <semiIntermediateAxisLength>1416.0</semiIntermediateAxisLength>
            <majorAxisPlunge>79.0</majorAxisPlunge>
            <majorAxisAzimuth>38.0</majorAxisAzimuth>
            <majorAxisRotation>65.0</majorAxisRotation>
          </confidenceEllipsoid>
        </originUncertainty>
        <arrival publicID="quakeml:uw.anss.org/AssocArO/UW/16495923">
          <pickID>quakeml:uw.anss.org/Arrival/UW/16495923</pickID>
          <phase>P</phase>
          <timeCorrection>0.0</timeCorrection>
          <azimuth>51.967138440511576</azimuth>
          <distance>0.1127</distance>
          <takeoffAngle>
            <value>144.0</value>
          </takeoffAngle>
          <timeResidual>-0.08</timeResidual>
          <timeWeight>0.08</timeWeight>
          <creationInfo>
            <agencyID>UW</agencyID>
            <creationTime>2023-07-27T19:13:38.000000Z</creationTime>
          </creationInfo>
        </arrival>
        <arrival publicID="quakeml:uw.anss.org/AssocArO/UW/16495928">
          <pickID>quakeml:uw.anss.org/Arrival/UW/16495928</pickID>
          <phase>S</phase>
          <timeCorrection>0.0</timeCorrection>
          <azimuth>51.967138440511576</azimuth>
          <distance>0.1127</distance>
          <takeoffAngle>
            <value>144.0</value>
          </takeoffAngle>
          <timeResidual>0.0</timeResidual>
          <timeWeight>0.08</timeWeight>
          <creationInfo>
            <agencyID>UW</agencyID>
            <creationTime>2023-07-27T19:13:38.000000Z</creationTime>
          </creationInfo>
        </arrival>
        <arrival publicID="quakeml:uw.anss.org/AssocArO/UW/16495933">
          <pickID>quakeml:uw.anss.org/Arrival/UW/16495933</pickID>
          <phase>P</phase>
          <timeCorrection>0.0</timeCorrection>
          <azimuth>246.5911607763845</azimuth>
          <distance>0.2522</distance>
          <takeoffAngle>
            <value>119.0</value>
          </takeoffAngle>
          <timeResidual>-0.24</timeResidual>
          <timeWeight>0.13</timeWeight>
          <creationInfo>
            <agencyID>UW</agencyID>
            <creationTime>2023-07-27T19:13:38.000000Z</creationTime>
          </creationInfo>
        </arrival>
        <arrival publicID="quakeml:uw.anss.org/AssocArO/UW/16495938">
          <pickID>quakeml:uw.anss.org/Arrival/UW/16495938</pickID>
          <phase>P</phase>
          <timeCorrection>0.35</timeCorrection>
          <azimuth>320.1255774279708</azimuth>
          <distance>0.2807</distance>
          <takeoffAngle>
            <value>116.0</value>
          </takeoffAngle>
          <timeResidual>0.32</timeResidual>
          <timeWeight>0.08</timeWeight>
          <creationInfo>
            <agencyID>UW</agencyID>
            <creationTime>2023-07-27T19:13:38.000000Z</creationTime>
          </creationInfo>
        </arrival>
        <arrival publicID="quakeml:uw.anss.org/AssocArO/UW/16495943">
          <pickID>quakeml:uw.anss.org/Arrival/UW/16495943</pickID>
          <phase>P</phase>
          <timeCorrection>0.0</timeCorrection>
          <azimuth>214.03533144376254</azimuth>
          <distance>0.2997</distance>
          <takeoffAngle>
            <value>114.0</value>
          </takeoffAngle>
          <timeResidual>-0.09</timeResidual>
          <timeWeight>0.08</timeWeight>
          <creationInfo>
            <agencyID>UW</agencyID>
            <creationTime>2023-07-27T19:13:38.000000Z</creationTime>
          </creationInfo>
        </arrival>
        <arrival publicID="quakeml:uw.anss.org/AssocArO/UW/16495948">
          <pickID>quakeml:uw.anss.org/Arrival/UW/16495948</pickID>
          <phase>S</phase>
          <timeCorrection>0.0</timeCorrection>
          <azimuth>214.03533144376254</azimuth>
          <distance>0.2997</distance>
          <takeoffAngle>
            <value>114.0</value>
          </takeoffAngle>
          <timeResidual>0.14</timeResidual>
          <timeWeight>0.13</timeWeight>
          <creationInfo>
            <agencyID>UW</agencyID>
            <creationTime>2023-07-27T19:13:38.000000Z</creationTime>
          </creationInfo>
        </arrival>
        <arrival publicID="quakeml:uw.anss.org/AssocArO/UW/16495953">
          <pickID>quakeml:uw.anss.org/Arrival/UW/16495953</pickID>
          <phase>P</phase>
          <timeCorrection>0.0</timeCorrection>
          <azimuth>150.8078961856649</azimuth>
          <distance>0.3882</distance>
          <takeoffAngle>
            <value>107.0</value>
          </takeoffAngle>
          <timeResidual>0.13</timeResidual>
          <timeWeight>0.08</timeWeight>
          <creationInfo>
            <agencyID>UW</agencyID>
            <creationTime>2023-07-27T19:13:38.000000Z</creationTime>
          </creationInfo>
        </arrival>
        <arrival publicID="quakeml:uw.anss.org/AssocArO/UW/16495958">
          <pickID>quakeml:uw.anss.org/Arrival/UW/16495958</pickID>
          <phase>S</phase>
          <timeCorrection>0.0</timeCorrection>
          <azimuth>150.8078961856649</azimuth>
          <distance>0.3882</distance>
          <takeoffAngle>
            <value>107.0</value>
          </takeoffAngle>
          <timeResidual>-0.03</timeResidual>
          <timeWeight>0.13</timeWeight>
          <creationInfo>
            <agencyID>UW</agencyID>
            <creationTime>2023-07-27T19:13:38.000000Z</creationTime>
          </creationInfo>
        </arrival>
        <arrival publicID="quakeml:uw.anss.org/AssocArO/UW/16495963">
          <pickID>quakeml:uw.anss.org/Arrival/UW/16495963</pickID>
          <phase>P</phase>
          <timeCorrection>0.0</timeCorrection>
          <azimuth>212.52220618094813</azimuth>
          <distance>0.4268</distance>
          <takeoffAngle>
            <value>105.0</value>
          </takeoffAngle>
          <timeResidual>0.85</timeResidual>
          <timeWeight>0.0</timeWeight>
          <creationInfo>
            <agencyID>UW</agencyID>
            <creationTime>2023-07-27T19:13:38.000000Z</creationTime>
          </creationInfo>
        </arrival>
      </origin>
      <magnitude publicID="quakeml:uw.anss.org/Netmag/UW/3219413">
        <mag>
          <value>1.34</value>
          <uncertainty>0.10134287086225169</uncertainty>
        </mag>
        <type>Ml</type>
        <originID>quakeml:uw.anss.org/Origin/UW/3233583</originID>
        <methodID>smi:uw.anss.org/magnitude/RichterMl2</methodID>
        <stationCount>6</stationCount>
        <azimuthalGap>98.84075774515333</azimuthalGap>
        <evaluationMode>manual</evaluationMode>
        <evaluationStatus>reviewed</evaluationStatus>
        <stationMagnitudeContribution>
          <stationMagnitudeID>quakeml:uw.anss.org/AssocAmM/UW/14863843</stationMagnitudeID>
          <weight>1.0</weight>
          <residual>-0.05</residual>
        </stationMagnitudeContribution>
        <stationMagnitudeContribution>
          <stationMagnitudeID>quakeml:uw.anss.org/AssocAmM/UW/14863838</stationMagnitudeID>
          <weight>1.0</weight>
          <residual>-0.06</residual>
        </stationMagnitudeContribution>
        <stationMagnitudeContribution>
          <stationMagnitudeID>quakeml:uw.anss.org/AssocAmM/UW/14863828</stationMagnitudeID>
          <weight>1.0</weight>
          <residual>0.01</residual>
        </stationMagnitudeContribution>
        <stationMagnitudeContribution>
          <stationMagnitudeID>quakeml:uw.anss.org/AssocAmM/UW/14863848</stationMagnitudeID>
          <weight>1.0</weight>
          <residual>0.03</residual>
        </stationMagnitudeContribution>
        <stationMagnitudeContribution>
          <stationMagnitudeID>quakeml:uw.anss.org/AssocAmM/UW/14863873</stationMagnitudeID>
          <weight>1.0</weight>
          <residual>0.0</residual>
        </stationMagnitudeContribution>
        <stationMagnitudeContribution>
          <stationMagnitudeID>quakeml:uw.anss.org/AssocAmM/UW/14863863</stationMagnitudeID>
          <weight>1.0</weight>
          <residual>-0.18</residual>
        </stationMagnitudeContribution>
        <stationMagnitudeContribution>
          <stationMagnitudeID>quakeml:uw.anss.org/AssocAmM/UW/14863798</stationMagnitudeID>
          <weight>1.0</weight>
          <residual>-0.01</residual>
        </stationMagnitudeContribution>
        <stationMagnitudeContribution>
          <stationMagnitudeID>quakeml:uw.anss.org/AssocAmM/UW/14863868</stationMagnitudeID>
          <weight>1.0</weight>
          <residual>0.09</residual>
        </stationMagnitudeContribution>
        <stationMagnitudeContribution>
          <stationMagnitudeID>quakeml:uw.anss.org/AssocAmM/UW/14863833</stationMagnitudeID>
          <weight>1.0</weight>
          <residual>-0.03</residual>
        </stationMagnitudeContribution>
        <stationMagnitudeContribution>
          <stationMagnitudeID>quakeml:uw.anss.org/AssocAmM/UW/14863808</stationMagnitudeID>
          <weight>1.0</weight>
          <residual>0.12</residual>
        </stationMagnitudeContribution>
        <stationMagnitudeContribution>
          <stationMagnitudeID>quakeml:uw.anss.org/AssocAmM/UW/14863823</stationMagnitudeID>
          <weight>1.0</weight>
          <residual>-0.16</residual>
        </stationMagnitudeContribution>
        <stationMagnitudeContribution>
          <stationMagnitudeID>quakeml:uw.anss.org/AssocAmM/UW/14863803</stationMagnitudeID>
          <weight>1.0</weight>
          <residual>0.21</residual>
        </stationMagnitudeContribution>
        <stationMagnitudeContribution>
          <stationMagnitudeID>quakeml:uw.anss.org/AssocAmM/UW/14863853</stationMagnitudeID>
          <weight>1.0</weight>
          <residual>0.11</residual>
        </stationMagnitudeContribution>
        <stationMagnitudeContribution>
          <stationMagnitudeID>quakeml:uw.anss.org/AssocAmM/UW/14863793</stationMagnitudeID>
          <weight>1.0</weight>
          <residual>-0.14</residual>
        </stationMagnitudeContribution>
        <stationMagnitudeContribution>
          <stationMagnitudeID>quakeml:uw.anss.org/AssocAmM/UW/14863788</stationMagnitudeID>
          <weight>1.0</weight>
          <residual>-0.07</residual>
        </stationMagnitudeContribution>
        <stationMagnitudeContribution>
          <stationMagnitudeID>quakeml:uw.anss.org/AssocAmM/UW/14863818</stationMagnitudeID>
          <weight>1.0</weight>
          <residual>0.11</residual>
        </stationMagnitudeContribution>
        <stationMagnitudeContribution>
          <stationMagnitudeID>quakeml:uw.anss.org/AssocAmM/UW/14863813</stationMagnitudeID>
          <weight>1.0</weight>
          <residual>0.24</residual>
        </stationMagnitudeContribution>
        <stationMagnitudeContribution>
          <stationMagnitudeID>quakeml:uw.anss.org/AssocAmM/UW/14863858</stationMagnitudeID>
          <weight>1.0</weight>
          <residual>-0.29</residual>
        </stationMagnitudeContribution>
        <creationInfo>
          <agencyID>UW</agencyID>
          <creationTime>2023-07-27T19:13:39.000000Z</creationTime>
        </creationInfo>
      </magnitude>
      <stationMagnitude publicID="quakeml:uw.anss.org/AssocAmM/UW/14863788">
        <originID>quakeml:uw.anss.org/Origin/UW/3233583</originID>
        <mag>
          <value>1.27</value>
        </mag>
        <type>ML</type>
        <amplitudeID>quakeml:uw.anss.org/Amp/UW/14863788</amplitudeID>
        <waveformID networkCode="UW" stationCode="SHUK" locationCode="" channelCode="ENE"></waveformID>
      </stationMagnitude>
      <stationMagnitude publicID="quakeml:uw.anss.org/AssocAmM/UW/14863793">
        <originID>quakeml:uw.anss.org/Origin/UW/3233583</originID>
        <mag>
          <value>1.2</value>
        </mag>
        <type>ML</type>
        <amplitudeID>quakeml:uw.anss.org/Amp/UW/14863793</amplitudeID>
        <waveformID networkCode="UW" stationCode="SHUK" locationCode="" channelCode="HHN"></waveformID>
      </stationMagnitude>
      <stationMagnitude publicID="quakeml:uw.anss.org/AssocAmM/UW/14863798">
        <originID>quakeml:uw.anss.org/Origin/UW/3233583</originID>
        <mag>
          <value>1.33</value>
        </mag>
        <type>ML</type>
        <amplitudeID>quakeml:uw.anss.org/Amp/UW/14863798</amplitudeID>
        <waveformID networkCode="UW" stationCode="SHUK" locationCode="" channelCode="HHE"></waveformID>
      </stationMagnitude>
      <stationMagnitude publicID="quakeml:uw.anss.org/AssocAmM/UW/14863803">
        <originID>quakeml:uw.anss.org/Origin/UW/3233583</originID>
        <mag>
          <value>1.55</value>
        </mag>
        <type>ML</type>
        <amplitudeID>quakeml:uw.anss.org/Amp/UW/14863803</amplitudeID>
        <waveformID networkCode="UW" stationCode="SAXON" locationCode="" channelCode="ENN"></waveformID>
      </stationMagnitude>
      <stationMagnitude publicID="quakeml:uw.anss.org/AssocAmM/UW/14863808">
        <originID>quakeml:uw.anss.org/Origin/UW/3233583</originID>
        <mag>
          <value>1.46</value>
        </mag>
        <type>ML</type>
        <amplitudeID>quakeml:uw.anss.org/Amp/UW/14863808</amplitudeID>
        <waveformID networkCode="UW" stationCode="SAXON" locationCode="" channelCode="ENE"></waveformID>
      </stationMagnitude>
      <stationMagnitude publicID="quakeml:uw.anss.org/AssocAmM/UW/14863813">
        <originID>quakeml:uw.anss.org/Origin/UW/3233583</originID>
        <mag>
          <value>1.58</value>
        </mag>
        <type>ML</type>
        <amplitudeID>quakeml:uw.anss.org/Amp/UW/14863813</amplitudeID>
        <waveformID networkCode="UW" stationCode="SAXON" locationCode="" channelCode="HHN"></waveformID>
      </stationMagnitude>
      <stationMagnitude publicID="quakeml:uw.anss.org/AssocAmM/UW/14863818">
        <originID>quakeml:uw.anss.org/Origin/UW/3233583</originID>
        <mag>
          <value>1.45</value>
        </mag>
        <type>ML</type>
        <amplitudeID>quakeml:uw.anss.org/Amp/UW/14863818</amplitudeID>
        <waveformID networkCode="UW" stationCode="SAXON" locationCode="" channelCode="HHE"></waveformID>
      </stationMagnitude>
      <stationMagnitude publicID="quakeml:uw.anss.org/AssocAmM/UW/14863823">
        <originID>quakeml:uw.anss.org/Origin/UW/3233583</originID>
        <mag>
          <value>1.18</value>
        </mag>
        <type>ML</type>
        <amplitudeID>quakeml:uw.anss.org/Amp/UW/14863823</amplitudeID>
        <waveformID networkCode="UW" stationCode="PASS" locationCode="" channelCode="ENE"></waveformID>
      </stationMagnitude>
      <stationMagnitude publicID="quakeml:uw.anss.org/AssocAmM/UW/14863828">
        <originID>quakeml:uw.anss.org/Origin/UW/3233583</originID>
        <mag>
          <value>1.35</value>
        </mag>
        <type>ML</type>
        <amplitudeID>quakeml:uw.anss.org/Amp/UW/14863828</amplitudeID>
        <waveformID networkCode="UW" stationCode="PASS" locationCode="" channelCode="HHN"></waveformID>
      </stationMagnitude>
      <stationMagnitude publicID="quakeml:uw.anss.org/AssocAmM/UW/14863833">
        <originID>quakeml:uw.anss.org/Origin/UW/3233583</originID>
        <mag>
          <value>1.31</value>
        </mag>
        <type>ML</type>
        <amplitudeID>quakeml:uw.anss.org/Amp/UW/14863833</amplitudeID>
        <waveformID networkCode="UW" stationCode="PASS" locationCode="" channelCode="HHE"></waveformID>
      </stationMagnitude>
      <stationMagnitude publicID="quakeml:uw.anss.org/AssocAmM/UW/14863838">
        <originID>quakeml:uw.anss.org/Origin/UW/3233583</originID>
        <mag>
          <value>1.28</value>
        </mag>
        <type>ML</type>
        <amplitudeID>quakeml:uw.anss.org/Amp/UW/14863838</amplitudeID>
        <waveformID networkCode="UW" stationCode="MULN" locationCode="" channelCode="ENN"></waveformID>
      </stationMagnitude>
      <stationMagnitude publicID="quakeml:uw.anss.org/AssocAmM/UW/14863843">
        <originID>quakeml:uw.anss.org/Origin/UW/3233583</originID>
        <mag>
          <value>1.29</value>
        </mag>
        <type>ML</type>
        <amplitudeID>quakeml:uw.anss.org/Amp/UW/14863843</amplitudeID>
        <waveformID networkCode="UW" stationCode="MULN" locationCode="" channelCode="ENE"></waveformID>
      </stationMagnitude>
      <stationMagnitude publicID="quakeml:uw.anss.org/AssocAmM/UW/14863848">
        <originID>quakeml:uw.anss.org/Origin/UW/3233583</originID>
        <mag>
          <value>1.37</value>
        </mag>
        <type>ML</type>
        <amplitudeID>quakeml:uw.anss.org/Amp/UW/14863848</amplitudeID>
        <waveformID networkCode="UW" stationCode="MULN" locationCode="" channelCode="HHN"></waveformID>
      </stationMagnitude>
      <stationMagnitude publicID="quakeml:uw.anss.org/AssocAmM/UW/14863853">
        <originID>quakeml:uw.anss.org/Origin/UW/3233583</originID>
        <mag>
          <value>1.45</value>
        </mag>
        <type>ML</type>
        <amplitudeID>quakeml:uw.anss.org/Amp/UW/14863853</amplitudeID>
        <waveformID networkCode="UW" stationCode="MULN" locationCode="" channelCode="HHE"></waveformID>
      </stationMagnitude>
      <stationMagnitude publicID="quakeml:uw.anss.org/AssocAmM/UW/14863858">
        <originID>quakeml:uw.anss.org/Origin/UW/3233583</originID>
        <mag>
          <value>1.05</value>
        </mag>
        <type>ML</type>
