<?xml version='1.0' encoding='utf-8'?>
<q:quakeml xmlns="http://quakeml.org/xmlns/bed/1.2" xmlns:q="http://quakeml.org/xmlns/quakeml/1.2" xmlns:ns0="http://anss.org/xmlns/catalog/0.1">
  <eventParameters publicID="smi:local/c4647f4e-392c-4f96-a451-9e05549521f2">
    <event publicID="quakeml:uw.anss.org/Event/UW/61785317" ns0:datasource="uw" ns0:dataid="uw61785317" ns0:eventsource="uw" ns0:eventid="61785317">
      <preferredOriginID>quakeml:uw.anss.org/Origin/UW/3174608</preferredOriginID>
      <preferredMagnitudeID>quakeml:uw.anss.org/Netmag/UW/3126638</preferredMagnitudeID>
      <type>earthquake</type>
      <creationInfo>
        <agencyID>UW</agencyID>
        <creationTime>2021-10-31T21:50:30.000000Z</creationTime>
        <version>2</version>
      </creationInfo>
      <origin publicID="quakeml:uw.anss.org/Origin/UW/3174608" ns0:datasource="uw" ns0:dataid="uw61785317" ns0:eventsource="uw" ns0:eventid="61785317">
        <time>
          <value>2021-10-31T17:41:52.580000Z</value>
        </time>
        <latitude>
          <value>48.734833333333334</value>
        </latitude>
        <longitude>
          <value>-121.7365</value>
        </longitude>
        <depth>
          <value>-660.0</value>
          <uncertainty>1860.0</uncertainty>
        </depth>
        <depthType>from location</depthType>
        <timeFixed>false</timeFixed>
        <epicenterFixed>false</epicenterFixed>
        <methodID>smi:uw.anss.org/origin/HYP2000</methodID>
        <quality>
          <associatedPhaseCount>10</associatedPhaseCount>
          <usedPhaseCount>9</usedPhaseCount>
          <associatedStationCount>8</associatedStationCount>
          <usedStationCount>8</usedStationCount>
          <standardError>0.1</standardError>
          <azimuthalGap>136.0</azimuthalGap>
          <secondaryAzimuthalGap>286.0</secondaryAzimuthalGap>
          <minimumDistance>0.1245</minimumDistance>
          <maximumDistance>0.6853</maximumDistance>
          <medianDistance>0.4359</medianDistance>
        </quality>
        <type>hypocenter</type>
        <evaluationMode>manual</evaluationMode>
        <evaluationStatus>final</evaluationStatus>
        <creationInfo>
          <agencyID>UW</agencyID>
          <creationTime>2021-10-31T21:50:26.000000Z</creationTime>
        </creationInfo>
        <originUncertainty>
          <preferredDescription>confidence ellipsoid</preferredDescription>
          <horizontalUncertainty>610.0</horizontalUncertainty>
          <confidenceLevel>95.0</confidenceLevel>
          <confidenceEllipsoid>
            <semiMajorAxisLength>4704.0</semiMajorAxisLength>
            <semiMinorAxisLength>624.0</semiMinorAxisLength>
            <semiIntermediateAxisLength>1272.0</semiIntermediateAxisLength>
            <majorAxisPlunge>71.0</majorAxisPlunge>
            <majorAxisAzimuth>43.0</majorAxisAzimuth>
            <majorAxisRotation>70.0</majorAxisRotation>
          </confidenceEllipsoid>
        </originUncertainty>
        <arrival publicID="quakeml:uw.anss.org/AssocArO/UW/15737638">
          <pickID>quakeml:uw.anss.org/Arrival/UW/15737638</pickID>
          <phase>P</phase>
          <timeCorrection>0.0</timeCorrection>
          <azimuth>18.366317102149765</azimuth>
          <distance>0.1245</distance>
          <takeoffAngle>
            <value>89.0</value>
          </takeoffAngle>
          <timeResidual>0.0</timeResidual>
          <timeWeight>0.17</timeWeight>
          <creationInfo>
            <agencyID>UW</agencyID>
            <creationTime>2021-10-31T21:50:30.000000Z</creationTime>
          </creationInfo>
        </arrival>
        <arrival publicID="quakeml:uw.anss.org/AssocArO/UW/15737643">
          <pickID>quakeml:uw.anss.org/Arrival/UW/15737643</pickID>
          <phase>P</phase>
          <timeCorrection>0.0</timeCorrection>
          <azimuth>227.50487324984903</azimuth>
          <distance>0.2952</distance>
          <takeoffAngle>
            <value>57.0</value>
          </takeoffAngle>
          <timeResidual>-0.69</timeResidual>
          <timeWeight>0.0</timeWeight>
          <creationInfo>
            <agencyID>UW</agencyID>
            <creationTime>2021-10-31T21:50:30.000000Z</creationTime>
          </creationInfo>
        </arrival>
        <arrival publicID="quakeml:uw.anss.org/AssocArO/UW/15737648">
          <pickID>quakeml:uw.anss.org/Arrival/UW/15737648</pickID>
          <phase>S</phase>
          <timeCorrection>0.0</timeCorrection>
          <azimuth>227.50487324984903</azimuth>
          <distance>0.2952</distance>
          <takeoffAngle>
            <value>57.0</value>
          </takeoffAngle>
          <timeResidual>-0.25</timeResidual>
          <timeWeight>0.08</timeWeight>
          <creationInfo>
            <agencyID>UW</agencyID>
            <creationTime>2021-10-31T21:50:30.000000Z</creationTime>
          </creationInfo>
        </arrival>
        <arrival publicID="quakeml:uw.anss.org/AssocArO/UW/15737653">
          <pickID>quakeml:uw.anss.org/Arrival/UW/15737653</pickID>
          <phase>P</phase>
          <timeCorrection>0.0</timeCorrection>
          <azimuth>154.32001643058766</azimuth>
          <distance>0.3219</distance>
          <takeoffAngle>
            <value>57.0</value>
          </takeoffAngle>
          <timeResidual>-0.05</timeResidual>
          <timeWeight>0.17</timeWeight>
          <creationInfo>
            <agencyID>UW</agencyID>
            <creationTime>2021-10-31T21:50:30.000000Z</creationTime>
          </creationInfo>
        </arrival>
        <arrival publicID="quakeml:uw.anss.org/AssocArO/UW/15737658">
          <pickID>quakeml:uw.anss.org/Arrival/UW/15737658</pickID>
          <phase>P</phase>
          <timeCorrection>0.0</timeCorrection>
          <azimuth>221.95334893909015</azimuth>
          <distance>0.418</distance>
          <takeoffAngle>
            <value>57.0</value>
          </takeoffAngle>
          <timeResidual>0.34</timeResidual>
          <timeWeight>0.06</timeWeight>
          <creationInfo>
            <agencyID>UW</agencyID>
            <creationTime>2021-10-31T21:50:30.000000Z</creationTime>
          </creationInfo>
        </arrival>
        <arrival publicID="quakeml:uw.anss.org/AssocArO/UW/15737663">
          <pickID>quakeml:uw.anss.org/Arrival/UW/15737663</pickID>
          <phase>S</phase>
          <timeCorrection>0.0</timeCorrection>
          <azimuth>221.95334893909015</azimuth>
          <distance>0.418</distance>
          <takeoffAngle>
            <value>57.0</value>
          </takeoffAngle>
          <timeResidual>0.09</timeResidual>
          <timeWeight>0.08</timeWeight>
          <creationInfo>
            <agencyID>UW</agencyID>
            <creationTime>2021-10-31T21:50:30.000000Z</creationTime>
          </creationInfo>
        </arrival>
        <arrival publicID="quakeml:uw.anss.org/AssocArO/UW/15737668">
          <pickID>quakeml:uw.anss.org/Arrival/UW/15737668</pickID>
          <phase>P</phase>
          <timeCorrection>0.0</timeCorrection>
          <azimuth>276.9143808822171</azimuth>
          <distance>0.4537</distance>
          <takeoffAngle>
            <value>57.0</value>
          </takeoffAngle>
          <timeResidual>0.01</timeResidual>
          <timeWeight>0.08</timeWeight>
          <creationInfo>
            <agencyID>UW</agencyID>
            <creationTime>2021-10-31T21:50:30.000000Z</creationTime>
          </creationInfo>
        </arrival>
        <arrival publicID="quakeml:uw.anss.org/AssocArO/UW/15737673">
          <pickID>quakeml:uw.anss.org/Arrival/UW/15737673</pickID>
          <phase>S</phase>
          <timeCorrection>0.0</timeCorrection>
          <azimuth>206.9764541805021</azimuth>
          <distance>0.5283</distance>
          <takeoffAngle>
            <value>57.0</value>
          </takeoffAngle>
          <timeResidual>0.41</timeResidual>
          <timeWeight>0.01</timeWeight>
          <creationInfo>
            <agencyID>UW</agencyID>
            <creationTime>2021-10-31T21:50:30.000000Z</creationTime>
          </creationInfo>
        </arrival>
        <arrival publicID="quakeml:uw.anss.org/AssocArO/UW/15737678">
          <pickID>quakeml:uw.anss.org/Arrival/UW/15737678</pickID>
          <phase>P</phase>
          <timeCorrection>-0.06</timeCorrection>
          <azimuth>193.27980222269477</azimuth>
          <distance>0.5547</distance>
          <takeoffAngle>
            <value>57.0</value>
          </takeoffAngle>
          <timeResidual>0.0</timeResidual>
          <timeWeight>0.17</timeWeight>
          <creationInfo>
            <agencyID>UW</agencyID>
            <creationTime>2021-10-31T21:50:30.000000Z</creationTime>
          </creationInfo>
        </arrival>
        <arrival publicID="quakeml:uw.anss.org/AssocArO/UW/15737683">
          <pickID>quakeml:uw.anss.org/Arrival/UW/15737683</pickID>
          <phase>P</phase>
          <timeCorrection>0.0</timeCorrection>
          <azimuth>17.48761452214177</azimuth>
          <distance>0.6853</distance>
          <takeoffAngle>
            <value>57.0</value>
          </takeoffAngle>
          <timeResidual>0.17</timeResidual>
          <timeWeight>0.08</timeWeight>
          <creationInfo>
            <agencyID>UW</agencyID>
            <creationTime>2021-10-31T21:50:30.000000Z</creationTime>
          </creationInfo>
        </arrival>
      </origin>
      <magnitude publicID="quakeml:uw.anss.org/Netmag/UW/3126638">
        <mag>
          <value>1.62</value>
          <uncertainty>0.17782439087547175</uncertainty>
        </mag>
        <type>Ml</type>
        <originID>quakeml:uw.anss.org/Origin/UW/3174608</originID>
        <methodID>smi:uw.anss.org/magnitude/RichterMl2</methodID>
        <stationCount>3</stationCount>
        <azimuthalGap>307.3435622500856</azimuthalGap>
        <evaluationMode>manual</evaluationMode>
        <evaluationStatus>reviewed</evaluationStatus>
        <stationMagnitudeContribution>
          <stationMagnitudeID>quakeml:uw.anss.org/AssocAmM/UW/13300788</stationMagnitudeID>
          <weight>0.0</weight>
          <residual>0.24</residual>
        </stationMagnitudeContribution>
        <stationMagnitudeContribution>
          <stationMagnitudeID>quakeml:uw.anss.org/AssocAmM/UW/13300743</stationMagnitudeID>
          <weight>0.0</weight>
          <residual>-0.15</residual>
        </stationMagnitudeContribution>
        <stationMagnitudeContribution>
          <stationMagnitudeID>quakeml:uw.anss.org/AssocAmM/UW/13300793</stationMagnitudeID>
          <weight>0.0</weight>
          <residual>0.38</residual>
        </stationMagnitudeContribution>
        <stationMagnitudeContribution>
          <stationMagnitudeID>quakeml:uw.anss.org/AssocAmM/UW/13300778</stationMagnitudeID>
          <weight>0.0</weight>
          <residual>0.25</residual>
        </stationMagnitudeContribution>
        <stationMagnitudeContribution>
          <stationMagnitudeID>quakeml:uw.anss.org/AssocAmM/UW/13300733</stationMagnitudeID>
          <weight>0.0</weight>
          <residual>-0.11</residual>
        </stationMagnitudeContribution>
        <stationMagnitudeContribution>
          <stationMagnitudeID>quakeml:uw.anss.org/AssocAmM/UW/13300763</stationMagnitudeID>
          <weight>0.0</weight>
          <residual>-0.33</residual>
        </stationMagnitudeContribution>
        <stationMagnitudeContribution>
          <stationMagnitudeID>quakeml:uw.anss.org/AssocAmM/UW/13300728</stationMagnitudeID>
          <weight>0.0</weight>
          <residual>-0.52</residual>
        </stationMagnitudeContribution>
        <stationMagnitudeContribution>
          <stationMagnitudeID>quakeml:uw.anss.org/AssocAmM/UW/13300808</stationMagnitudeID>
          <weight>1.0</weight>
          <residual>0.18</residual>
        </stationMagnitudeContribution>
        <stationMagnitudeContribution>
          <stationMagnitudeID>quakeml:uw.anss.org/AssocAmM/UW/13300798</stationMagnitudeID>
          <weight>1.0</weight>
          <residual>0.03</residual>
        </stationMagnitudeContribution>
        <stationMagnitudeContribution>
          <stationMagnitudeID>quakeml:uw.anss.org/AssocAmM/UW/13300768</stationMagnitudeID>
          <weight>0.0</weight>
          <residual>-0.56</residual>
        </stationMagnitudeContribution>
        <stationMagnitudeContribution>
          <stationMagnitudeID>quakeml:uw.anss.org/AssocAmM/UW/13300723</stationMagnitudeID>
          <weight>0.0</weight>
          <residual>-0.69</residual>
        </stationMagnitudeContribution>
        <stationMagnitudeContribution>
          <stationMagnitudeID>quakeml:uw.anss.org/AssocAmM/UW/13300803</stationMagnitudeID>
          <weight>1.0</weight>
          <residual>0.0</residual>
        </stationMagnitudeContribution>
        <stationMagnitudeContribution>
          <stationMagnitudeID>quakeml:uw.anss.org/AssocAmM/UW/13300713</stationMagnitudeID>
          <weight>0.0</weight>
          <residual>-0.69</residual>
        </stationMagnitudeContribution>
        <stationMagnitudeContribution>
          <stationMagnitudeID>quakeml:uw.anss.org/AssocAmM/UW/13300783</stationMagnitudeID>
          <weight>0.0</weight>
          <residual>0.46</residual>
        </stationMagnitudeContribution>
        <stationMagnitudeContribution>
          <stationMagnitudeID>quakeml:uw.anss.org/AssocAmM/UW/13300718</stationMagnitudeID>
          <weight>0.0</weight>
          <residual>-0.49</residual>
        </stationMagnitudeContribution>
        <stationMagnitudeContribution>
          <stationMagnitudeID>quakeml:uw.anss.org/AssocAmM/UW/13300738</stationMagnitudeID>
          <weight>0.0</weight>
          <residual>0.05</residual>
        </stationMagnitudeContribution>
        <stationMagnitudeContribution>
          <stationMagnitudeID>quakeml:uw.anss.org/AssocAmM/UW/13300753</stationMagnitudeID>
          <weight>1.0</weight>
          <residual>-0.62</residual>
        </stationMagnitudeContribution>
        <stationMagnitudeContribution>
          <stationMagnitudeID>quakeml:uw.anss.org/AssocAmM/UW/13300758</stationMagnitudeID>
          <weight>1.0</weight>
          <residual>-0.67</residual>
        </stationMagnitudeContribution>
        <stationMagnitudeContribution>
          <stationMagnitudeID>quakeml:uw.anss.org/AssocAmM/UW/13300748</stationMagnitudeID>
          <weight>0.0</weight>
          <residual>0.05</residual>
        </stationMagnitudeContribution>
        <stationMagnitudeContribution>
          <stationMagnitudeID>quakeml:uw.anss.org/AssocAmM/UW/13300773</stationMagnitudeID>
          <weight>0.0</weight>
          <residual>-0.57</residual>
        </stationMagnitudeContribution>
        <creationInfo>
          <agencyID>UW</agencyID>
          <creationTime>2021-10-31T21:50:30.000000Z</creationTime>
        </creationInfo>
      </magnitude>
      <stationMagnitude publicID="quakeml:uw.anss.org/AssocAmM/UW/13300713">
        <originID>quakeml:uw.anss.org/Origin/UW/3174608</originID>
        <mag>
          <value>0.93</value>
        </mag>
        <type>ML</type>
        <amplitudeID>quakeml:uw.anss.org/Amp/UW/13300713</amplitudeID>
        <waveformID networkCode="UW" stationCode="SHUK" locationCode="" channelCode="ENN"></waveformID>
      </stationMagnitude>
      <stationMagnitude publicID="quakeml:uw.anss.org/AssocAmM/UW/13300718">
        <originID>quakeml:uw.anss.org/Origin/UW/3174608</originID>
        <mag>
          <value>1.13</value>
        </mag>
        <type>ML</type>
        <amplitudeID>quakeml:uw.anss.org/Amp/UW/13300718</amplitudeID>
        <waveformID networkCode="UW" stationCode="SHUK" locationCode="" channelCode="ENE"></waveformID>
      </stationMagnitude>
      <stationMagnitude publicID="quakeml:uw.anss.org/AssocAmM/UW/13300723">
        <originID>quakeml:uw.anss.org/Origin/UW/3174608</originID>
        <mag>
          <value>0.93</value>
        </mag>
        <type>ML</type>
        <amplitudeID>quakeml:uw.anss.org/Amp/UW/13300723</amplitudeID>
        <waveformID networkCode="UW" stationCode="SHUK" locationCode="" channelCode="HHN"></waveformID>
      </stationMagnitude>
      <stationMagnitude publicID="quakeml:uw.anss.org/AssocAmM/UW/13300728">
        <originID>quakeml:uw.anss.org/Origin/UW/3174608</originID>
        <mag>
          <value>1.1</value>
        </mag>
        <type>ML</type>
        <amplitudeID>quakeml:uw.anss.org/Amp/UW/13300728</amplitudeID>
        <waveformID networkCode="UW" stationCode="SHUK" locationCode="" channelCode="HHE"></waveformID>
      </stationMagnitude>
      <stationMagnitude publicID="quakeml:uw.anss.org/AssocAmM/UW/13300733">
        <originID>quakeml:uw.anss.org/Origin/UW/3174608</originID>
        <mag>
          <value>1.51</value>
        </mag>
        <type>ML</type>
        <amplitudeID>quakeml:uw.anss.org/Amp/UW/13300733</amplitudeID>
        <waveformID networkCode="UW" stationCode="MULN" locationCode="" channelCode="ENN"></waveformID>
      </stationMagnitude>
      <stationMagnitude publicID="quakeml:uw.anss.org/AssocAmM/UW/13300738">
        <originID>quakeml:uw.anss.org/Origin/UW/3174608</originID>
        <mag>
          <value>1.67</value>
        </mag>
        <type>ML</type>
        <amplitudeID>quakeml:uw.anss.org/Amp/UW/13300738</amplitudeID>
        <waveformID networkCode="UW" stationCode="MULN" locationCode="" channelCode="ENE"></waveformID>
      </stationMagnitude>
      <stationMagnitude publicID="quakeml:uw.anss.org/AssocAmM/UW/13300743">
        <originID>quakeml:uw.anss.org/Origin/UW/3174608</originID>
        <mag>
          <value>1.47</value>
        </mag>
        <type>ML</type>
        <amplitudeID>quakeml:uw.anss.org/Amp/UW/13300743</amplitudeID>
        <waveformID networkCode="UW" stationCode="MULN" locationCode="" channelCode="HHN"></waveformID>
      </stationMagnitude>
      <stationMagnitude publicID="quakeml:uw.anss.org/AssocAmM/UW/13300748">
        <originID>quakeml:uw.anss.org/Origin/UW/3174608</originID>
        <mag>
          <value>1.67</value>
        </mag>
        <type>ML</type>
        <amplitudeID>quakeml:uw.anss.org/Amp/UW/13300748</amplitudeID>
        <waveformID networkCode="UW" stationCode="MULN" locationCode="" channelCode="HHE"></waveformID>
      </stationMagnitude>
      <stationMagnitude publicID="quakeml:uw.anss.org/AssocAmM/UW/13300753">
        <originID>quakeml:uw.anss.org/Origin/UW/3174608</originID>
        <mag>
          <value>1.0</value>
        </mag>
        <type>ML</type>
        <amplitudeID>quakeml:uw.anss.org/Amp/UW/13300753</amplitudeID>
        <waveformID networkCode="UW" stationCode="RPW2" locationCode="" channelCode="HHN"></waveformID>
      </stationMagnitude>
      <stationMagnitude publicID="quakeml:uw.anss.org/AssocAmM/UW/13300758">
        <originID>quakeml:uw.anss.org/Origin/UW/3174608</originID>
        <mag>
          <value>0.95</value>
        </mag>
        <type>ML</type>
        <amplitudeID>quakeml:uw.anss.org/Amp/UW/13300758</amplitudeID>
        <waveformID networkCode="UW" stationCode="RPW2" locationCode="" channelCode="HHE"></waveformID>
      </stationMagnitude>
      <stationMagnitude publicID="quakeml:uw.anss.org/AssocAmM/UW/13300763">
        <originID>quakeml:uw.anss.org/Origin/UW/3174608</originID>
        <mag>
          <value>1.29</value>
        </mag>
        <type>ML</type>
        <amplitudeID>quakeml:uw.anss.org/Amp/UW/13300763</amplitudeID>
        <waveformID networkCode="UW" stationCode="DONK" locationCode="" channelCode="ENN"></waveformID>
      </stationMagnitude>
      <stationMagnitude publicID="quakeml:uw.anss.org/AssocAmM/UW/13300768">
        <originID>quakeml:uw.anss.org/Origin/UW/3174608</originID>
        <mag>
          <value>1.06</value>
        </mag>
        <type>ML</type>
        <amplitudeID>quakeml:uw.anss.org/Amp/UW/13300768</amplitudeID>
        <waveformID networkCode="UW" stationCode="DONK" locationCode="" channelCode="HHN"></waveformID>
      </stationMagnitude>
