<?xml version='1.0' encoding='utf-8'?>
<q:quakeml xmlns="http://quakeml.org/xmlns/bed/1.2" xmlns:q="http://quakeml.org/xmlns/quakeml/1.2" xmlns:ns0="http://anss.org/xmlns/catalog/0.1">
  <eventParameters publicID="smi:local/4a5f94f1-2af5-4e17-984f-526c30a10b8e">
    <event publicID="quakeml:uw.anss.org/Event/UW/10194863" ns0:datasource="uw" ns0:dataid="uw10194863" ns0:eventsource="uw" ns0:eventid="10194863">
      <preferredOriginID>quakeml:uw.anss.org/Origin/UW/471788</preferredOriginID>
      <preferredMagnitudeID>quakeml:uw.anss.org/Netmag/UW/394578</preferredMagnitudeID>
      <type>earthquake</type>
      <creationInfo>
        <agencyID>UW</agencyID>
        <creationTime>2012-02-27T14:28:02.000000Z</creationTime>
        <version>2</version>
      </creationInfo>
      <origin publicID="quakeml:uw.anss.org/Origin/UW/471788" ns0:datasource="uw" ns0:dataid="uw10194863" ns0:eventsource="uw" ns0:eventid="10194863">
        <time>
          <value>1985-08-19T10:42:41.950000Z</value>
          <uncertainty>0.07</uncertainty>
        </time>
        <latitude>
          <value>48.7213333</value>
          <uncertainty>0.72</uncertainty>
        </latitude>
        <longitude>
          <value>-122.1948333</value>
          <uncertainty>0.62</uncertainty>
        </longitude>
        <depth>
          <value>5679.0</value>
          <uncertainty>3030.0</uncertainty>
        </depth>
        <depthType>from location</depthType>
        <timeFixed>false</timeFixed>
        <epicenterFixed>false</epicenterFixed>
        <methodID>smi:uw.anss.org/origin/spong</methodID>
        <quality>
          <associatedPhaseCount>32</associatedPhaseCount>
          <usedPhaseCount>17</usedPhaseCount>
          <associatedStationCount>22</associatedStationCount>
          <usedStationCount>0</usedStationCount>
          <standardError>0.27</standardError>
          <azimuthalGap>89.0</azimuthalGap>
        </quality>
        <type>hypocenter</type>
        <evaluationMode>manual</evaluationMode>
        <evaluationStatus>final</evaluationStatus>
        <creationInfo>
          <agencyID>UW</agencyID>
          <creationTime>2012-02-27T14:28:02.000000Z</creationTime>
        </creationInfo>
        <originUncertainty>
          <preferredDescription>horizontal uncertainty</preferredDescription>
          <horizontalUncertainty>950.0</horizontalUncertainty>
        </originUncertainty>
        <arrival publicID="quakeml:uw.anss.org/AssocArO/UW/2651393">
          <pickID>quakeml:uw.anss.org/Arrival/UW/2651393</pickID>
          <phase>P</phase>
          <azimuth>293.6</azimuth>
          <timeResidual>-0.58</timeResidual>
          <creationInfo>
            <agencyID>UW</agencyID>
            <creationTime>2012-02-27T14:28:02.000000Z</creationTime>
          </creationInfo>
        </arrival>
        <arrival publicID="quakeml:uw.anss.org/AssocArO/UW/2651398">
          <pickID>quakeml:uw.anss.org/Arrival/UW/2651398</pickID>
          <phase>S</phase>
          <azimuth>293.6</azimuth>
          <timeResidual>-1.35</timeResidual>
          <creationInfo>
            <agencyID>UW</agencyID>
            <creationTime>2012-02-27T14:28:02.000000Z</creationTime>
          </creationInfo>
        </arrival>
        <arrival publicID="quakeml:uw.anss.org/AssocArO/UW/2651403">
          <pickID>quakeml:uw.anss.org/Arrival/UW/2651403</pickID>
          <phase>P</phase>
          <azimuth>335.6</azimuth>
          <timeResidual>-0.11</timeResidual>
          <creationInfo>
            <agencyID>UW</agencyID>
            <creationTime>2012-02-27T14:28:02.000000Z</creationTime>
          </creationInfo>
        </arrival>
        <arrival publicID="quakeml:uw.anss.org/AssocArO/UW/2651408">
          <pickID>quakeml:uw.anss.org/Arrival/UW/2651408</pickID>
          <phase>S</phase>
          <azimuth>335.6</azimuth>
          <timeResidual>-0.38</timeResidual>
          <creationInfo>
            <agencyID>UW</agencyID>
            <creationTime>2012-02-27T14:28:02.000000Z</creationTime>
          </creationInfo>
        </arrival>
        <arrival publicID="quakeml:uw.anss.org/AssocArO/UW/2651418">
          <pickID>quakeml:uw.anss.org/Arrival/UW/2651418</pickID>
          <phase>P</phase>
          <timeResidual>0.32</timeResidual>
          <creationInfo>
            <agencyID>UW</agencyID>
            <creationTime>2012-02-27T14:28:02.000000Z</creationTime>
          </creationInfo>
        </arrival>
        <arrival publicID="quakeml:uw.anss.org/AssocArO/UW/2651428">
          <pickID>quakeml:uw.anss.org/Arrival/UW/2651428</pickID>
          <phase>P</phase>
          <timeResidual>0.1</timeResidual>
          <creationInfo>
            <agencyID>UW</agencyID>
            <creationTime>2012-02-27T14:28:02.000000Z</creationTime>
          </creationInfo>
        </arrival>
        <arrival publicID="quakeml:uw.anss.org/AssocArO/UW/2651438">
          <pickID>quakeml:uw.anss.org/Arrival/UW/2651438</pickID>
          <phase>S</phase>
          <timeResidual>-0.11</timeResidual>
          <creationInfo>
            <agencyID>UW</agencyID>
            <creationTime>2012-02-27T14:28:02.000000Z</creationTime>
          </creationInfo>
        </arrival>
        <arrival publicID="quakeml:uw.anss.org/AssocArO/UW/2651448">
          <pickID>quakeml:uw.anss.org/Arrival/UW/2651448</pickID>
          <phase>P</phase>
          <azimuth>340.9</azimuth>
          <distance>1.493</distance>
          <timeResidual>-0.05</timeResidual>
          <creationInfo>
            <agencyID>UW</agencyID>
            <creationTime>2012-02-27T14:28:02.000000Z</creationTime>
          </creationInfo>
        </arrival>
        <arrival publicID="quakeml:uw.anss.org/AssocArO/UW/2651458">
          <pickID>quakeml:uw.anss.org/Arrival/UW/2651458</pickID>
          <phase>P</phase>
          <azimuth>313.8</azimuth>
          <timeResidual>-0.44</timeResidual>
          <creationInfo>
            <agencyID>UW</agencyID>
            <creationTime>2012-02-27T14:28:02.000000Z</creationTime>
          </creationInfo>
        </arrival>
        <arrival publicID="quakeml:uw.anss.org/AssocArO/UW/2651463">
          <pickID>quakeml:uw.anss.org/Arrival/UW/2651463</pickID>
          <phase>P</phase>
          <azimuth>151.0</azimuth>
          <distance>2.29</distance>
          <timeResidual>2.88</timeResidual>
          <creationInfo>
            <agencyID>UW</agencyID>
            <creationTime>2012-02-27T14:28:02.000000Z</creationTime>
          </creationInfo>
        </arrival>
        <arrival publicID="quakeml:uw.anss.org/AssocArO/UW/2651478">
          <pickID>quakeml:uw.anss.org/Arrival/UW/2651478</pickID>
          <phase>P</phase>
          <azimuth>72.0</azimuth>
          <distance>0.2043</distance>
          <timeResidual>0.02</timeResidual>
          <creationInfo>
            <agencyID>UW</agencyID>
            <creationTime>2012-02-27T14:28:02.000000Z</creationTime>
          </creationInfo>
        </arrival>
        <arrival publicID="quakeml:uw.anss.org/AssocArO/UW/2651493">
          <pickID>quakeml:uw.anss.org/Arrival/UW/2651493</pickID>
          <phase>P</phase>
          <azimuth>324.8</azimuth>
          <timeResidual>-0.22</timeResidual>
          <creationInfo>
            <agencyID>UW</agencyID>
            <creationTime>2012-02-27T14:28:02.000000Z</creationTime>
          </creationInfo>
        </arrival>
        <arrival publicID="quakeml:uw.anss.org/AssocArO/UW/2651503">
          <pickID>quakeml:uw.anss.org/Arrival/UW/2651503</pickID>
          <phase>S</phase>
          <azimuth>324.8</azimuth>
          <timeResidual>-1.19</timeResidual>
          <creationInfo>
            <agencyID>UW</agencyID>
            <creationTime>2012-02-27T14:28:03.000000Z</creationTime>
          </creationInfo>
        </arrival>
        <arrival publicID="quakeml:uw.anss.org/AssocArO/UW/2651543">
          <pickID>quakeml:uw.anss.org/Arrival/UW/2651543</pickID>
          <phase>P</phase>
          <azimuth>161.3</azimuth>
          <timeResidual>-0.19</timeResidual>
          <creationInfo>
            <agencyID>UW</agencyID>
            <creationTime>2012-02-27T14:28:03.000000Z</creationTime>
          </creationInfo>
        </arrival>
        <arrival publicID="quakeml:uw.anss.org/AssocArO/UW/2651548">
          <pickID>quakeml:uw.anss.org/Arrival/UW/2651548</pickID>
          <phase>P</phase>
          <azimuth>113.7</azimuth>
          <distance>1.776</distance>
          <timeResidual>1.31</timeResidual>
          <creationInfo>
            <agencyID>UW</agencyID>
            <creationTime>2012-02-27T14:28:03.000000Z</creationTime>
          </creationInfo>
        </arrival>
        <arrival publicID="quakeml:uw.anss.org/AssocArO/UW/2651553">
          <pickID>quakeml:uw.anss.org/Arrival/UW/2651553</pickID>
          <phase>P</phase>
          <azimuth>288.2</azimuth>
          <distance>0.9619</distance>
          <timeResidual>-0.1</timeResidual>
          <creationInfo>
            <agencyID>UW</agencyID>
            <creationTime>2012-02-27T14:28:03.000000Z</creationTime>
          </creationInfo>
        </arrival>
        <arrival publicID="quakeml:uw.anss.org/AssocArO/UW/2651558">
          <pickID>quakeml:uw.anss.org/Arrival/UW/2651558</pickID>
          <phase>S</phase>
          <azimuth>288.2</azimuth>
          <distance>0.9619</distance>
          <timeResidual>-0.31</timeResidual>
          <creationInfo>
            <agencyID>UW</agencyID>
            <creationTime>2012-02-27T14:28:03.000000Z</creationTime>
          </creationInfo>
        </arrival>
        <arrival publicID="quakeml:uw.anss.org/AssocArO/UW/2651563">
          <pickID>quakeml:uw.anss.org/Arrival/UW/2651563</pickID>
          <phase>P</phase>
          <timeResidual>-0.25</timeResidual>
          <creationInfo>
            <agencyID>UW</agencyID>
            <creationTime>2012-02-27T14:28:03.000000Z</creationTime>
          </creationInfo>
        </arrival>
        <arrival publicID="quakeml:uw.anss.org/AssocArO/UW/2651568">
          <pickID>quakeml:uw.anss.org/Arrival/UW/2651568</pickID>
          <phase>S</phase>
          <timeResidual>-0.65</timeResidual>
          <creationInfo>
            <agencyID>UW</agencyID>
            <creationTime>2012-02-27T14:28:03.000000Z</creationTime>
          </creationInfo>
        </arrival>
        <arrival publicID="quakeml:uw.anss.org/AssocArO/UW/2651573">
          <pickID>quakeml:uw.anss.org/Arrival/UW/2651573</pickID>
          <phase>P</phase>
          <timeResidual>0.19</timeResidual>
          <creationInfo>
            <agencyID>UW</agencyID>
            <creationTime>2012-02-27T14:28:03.000000Z</creationTime>
          </creationInfo>
        </arrival>
        <arrival publicID="quakeml:uw.anss.org/AssocArO/UW/2651578">
          <pickID>quakeml:uw.anss.org/Arrival/UW/2651578</pickID>
          <phase>S</phase>
          <timeResidual>0.08</timeResidual>
          <creationInfo>
            <agencyID>UW</agencyID>
            <creationTime>2012-02-27T14:28:03.000000Z</creationTime>
          </creationInfo>
        </arrival>
        <arrival publicID="quakeml:uw.anss.org/AssocArO/UW/2651583">
          <pickID>quakeml:uw.anss.org/Arrival/UW/2651583</pickID>
          <phase>P</phase>
          <azimuth>168.2</azimuth>
          <distance>1.289</distance>
          <timeResidual>0.15</timeResidual>
          <creationInfo>
            <agencyID>UW</agencyID>
            <creationTime>2012-02-27T14:28:03.000000Z</creationTime>
          </creationInfo>
        </arrival>
        <arrival publicID="quakeml:uw.anss.org/AssocArO/UW/2651588">
          <pickID>quakeml:uw.anss.org/Arrival/UW/2651588</pickID>
          <phase>P</phase>
          <timeResidual>-0.56</timeResidual>
          <creationInfo>
            <agencyID>UW</agencyID>
            <creationTime>2012-02-27T14:28:03.000000Z</creationTime>
          </creationInfo>
        </arrival>
        <arrival publicID="quakeml:uw.anss.org/AssocArO/UW/2651593">
          <pickID>quakeml:uw.anss.org/Arrival/UW/2651593</pickID>
          <phase>P</phase>
          <timeResidual>-0.61</timeResidual>
          <creationInfo>
            <agencyID>UW</agencyID>
            <creationTime>2012-02-27T14:28:03.000000Z</creationTime>
          </creationInfo>
        </arrival>
        <arrival publicID="quakeml:uw.anss.org/AssocArO/UW/2651598">
          <pickID>quakeml:uw.anss.org/Arrival/UW/2651598</pickID>
          <phase>S</phase>
          <timeResidual>-2.05</timeResidual>
          <creationInfo>
            <agencyID>UW</agencyID>
            <creationTime>2012-02-27T14:28:03.000000Z</creationTime>
          </creationInfo>
        </arrival>
        <arrival publicID="quakeml:uw.anss.org/AssocArO/UW/2651603">
          <pickID>quakeml:uw.anss.org/Arrival/UW/2651603</pickID>
          <phase>P</phase>
          <timeResidual>0.14</timeResidual>
          <creationInfo>
            <agencyID>UW</agencyID>
            <creationTime>2012-02-27T14:28:03.000000Z</creationTime>
          </creationInfo>
        </arrival>
        <arrival publicID="quakeml:uw.anss.org/AssocArO/UW/2651608">
          <pickID>quakeml:uw.anss.org/Arrival/UW/2651608</pickID>
          <phase>S</phase>
          <timeResidual>0.42</timeResidual>
          <creationInfo>
            <agencyID>UW</agencyID>
            <creationTime>2012-02-27T14:28:03.000000Z</creationTime>
          </creationInfo>
        </arrival>
        <arrival publicID="quakeml:uw.anss.org/AssocArO/UW/2651613">
          <pickID>quakeml:uw.anss.org/Arrival/UW/2651613</pickID>
          <phase>P</phase>
          <azimuth>308.5</azimuth>
          <distance>0.5227</distance>
          <timeResidual>0.34</timeResidual>
          <creationInfo>
            <agencyID>UW</agencyID>
            <creationTime>2012-02-27T14:28:03.000000Z</creationTime>
          </creationInfo>
        </arrival>
        <arrival publicID="quakeml:uw.anss.org/AssocArO/UW/2651618">
          <pickID>quakeml:uw.anss.org/Arrival/UW/2651618</pickID>
          <phase>P</phase>
          <azimuth>288.7</azimuth>
          <timeResidual>-0.87</timeResidual>
          <creationInfo>
            <agencyID>UW</agencyID>
            <creationTime>2012-02-27T14:28:03.000000Z</creationTime>
          </creationInfo>
        </arrival>
        <arrival publicID="quakeml:uw.anss.org/AssocArO/UW/2651623">
          <pickID>quakeml:uw.anss.org/Arrival/UW/2651623</pickID>
          <phase>S</phase>
          <azimuth>288.7</azimuth>
          <timeResidual>-1.64</timeResidual>
          <creationInfo>
            <agencyID>UW</agencyID>
            <creationTime>2012-02-27T14:28:03.000000Z</creationTime>
          </creationInfo>
        </arrival>
        <arrival publicID="quakeml:uw.anss.org/AssocArO/UW/2651628">
          <pickID>quakeml:uw.anss.org/Arrival/UW/2651628</pickID>
          <phase>P</phase>
          <azimuth>162.7</azimuth>
          <distance>0.9613</distance>
          <timeResidual>0.44</timeResidual>
          <creationInfo>
            <agencyID>UW</agencyID>
            <creationTime>2012-02-27T14:28:03.000000Z</creationTime>
          </creationInfo>
        </arrival>
        <arrival publicID="quakeml:uw.anss.org/AssocArO/UW/2651633">
          <pickID>quakeml:uw.anss.org/Arrival/UW/2651633</pickID>
          <phase>P</phase>
          <azimuth>264.5</azimuth>
          <distance>0.4246</distance>
          <timeResidual>0.06</timeResidual>
          <creationInfo>
            <agencyID>UW</agencyID>
            <creationTime>2012-02-27T14:28:03.000000Z</creationTime>
          </creationInfo>
        </arrival>
      </origin>
      <magnitude publicID="quakeml:uw.anss.org/Netmag/UW/394578">
        <mag>
          <value>1.6</value>
          <uncertainty>0.11</uncertainty>
        </mag>
        <type>Md</type>
        <originID>quakeml:uw.anss.org/Origin/UW/471788</originID>
        <methodID>smi:uw.anss.org/magnitude/Crosson</methodID>
        <stationCount>9</stationCount>
        <evaluationMode>manual</evaluationMode>
        <evaluationStatus>final</evaluationStatus>
        <stationMagnitudeContribution>
          <stationMagnitudeID>quakeml:uw.anss.org/AssocCoM/UW/854118</stationMagnitudeID>
          <weight>1.0</weight>
          <residual>0.66</residual>
        </stationMagnitudeContribution>
        <stationMagnitudeContribution>
          <stationMagnitudeID>quakeml:uw.anss.org/AssocCoM/UW/854103</stationMagnitudeID>
          <weight>1.0</weight>
          <residual>-0.22</residual>
        </stationMagnitudeContribution>
        <stationMagnitudeContribution>
          <stationMagnitudeID>quakeml:uw.anss.org/AssocCoM/UW/854088</stationMagnitudeID>
          <weight>1.0</weight>
          <residual>-0.02</residual>
        </stationMagnitudeContribution>
        <stationMagnitudeContribution>
          <stationMagnitudeID>quakeml:uw.anss.org/AssocCoM/UW/854108</stationMagnitudeID>
          <weight>1.0</weight>
          <residual>-0.45</residual>
        </stationMagnitudeContribution>
        <stationMagnitudeContribution>
          <stationMagnitudeID>quakeml:uw.anss.org/AssocCoM/UW/854128</stationMagnitudeID>
          <weight>1.0</weight>
          <residual>-0.22</residual>
        </stationMagnitudeContribution>
        <stationMagnitudeContribution>
          <stationMagnitudeID>quakeml:uw.anss.org/AssocCoM/UW/854083</stationMagnitudeID>
          <weight>1.0</weight>
          <residual>-0.74</residual>
        </stationMagnitudeContribution>
        <stationMagnitudeContribution>
          <stationMagnitudeID>quakeml:uw.anss.org/AssocCoM/UW/854123</stationMagnitudeID>
          <weight>1.0</weight>
          <residual>0.29</residual>
        </stationMagnitudeContribution>
        <stationMagnitudeContribution>
          <stationMagnitudeID>quakeml:uw.anss.org/AssocCoM/UW/854113</stationMagnitudeID>
          <weight>1.0</weight>
          <residual>0.02</residual>
        </stationMagnitudeContribution>
        <stationMagnitudeContribution>
          <stationMagnitudeID>quakeml:uw.anss.org/AssocCoM/UW/854073</stationMagnitudeID>
          <weight>1.0</weight>
          <residual>0.43</residual>
        </stationMagnitudeContribution>
        <creationInfo>
          <agencyID>UW</agencyID>
          <creationTime>2012-02-27T14:28:02.000000Z</creationTime>
        </creationInfo>
      </magnitude>
      <stationMagnitude publicID="quakeml:uw.anss.org/AssocCoM/UW/854073">
        <originID>quakeml:uw.anss.org/Origin/UW/471788</originID>
        <mag>
          <value>2.03</value>
        </mag>
        <type>MD</type>
        <amplitudeID>quakeml:uw.anss.org/Coda/UW/854073</amplitudeID>
        <waveformID networkCode="CN" stationCode="HNB" locationCode="" channelCode="EHZ"></waveformID>
      </stationMagnitude>
      <stationMagnitude publicID="quakeml:uw.anss.org/AssocCoM/UW/854083">
        <originID>quakeml:uw.anss.org/Origin/UW/471788</originID>
        <mag>
          <value>0.86</value>
        </mag>
        <type>MD</type>
        <amplitudeID>quakeml:uw.anss.org/Coda/UW/854083</amplitudeID>
        <waveformID networkCode="UW" stationCode="WNS" locationCode="" channelCode="EHZ"></waveformID>
      </stationMagnitude>
      <stationMagnitude publicID="quakeml:uw.anss.org/AssocCoM/UW/854088">
        <originID>quakeml:uw.anss.org/Origin/UW/471788</originID>
        <mag>
          <value>1.58</value>
        </mag>
        <type>MD</type>
        <amplitudeID>quakeml:uw.anss.org/Coda/UW/854088</amplitudeID>
        <waveformID networkCode="UW" stationCode="MBW" locationCode="" channelCode="EHZ"></waveformID>
      </stationMagnitude>
      <stationMagnitude publicID="quakeml:uw.anss.org/AssocCoM/UW/854103">
        <originID>quakeml:uw.anss.org/Origin/UW/471788</originID>
        <mag>
          <value>1.38</value>
        </mag>
        <type>MD</type>
