<?xml version='1.0' encoding='utf-8'?>
<q:quakeml xmlns="http://quakeml.org/xmlns/bed/1.2" xmlns:q="http://quakeml.org/xmlns/quakeml/1.2" xmlns:ns0="http://anss.org/xmlns/catalog/0.1">
  <eventParameters publicID="smi:local/eec360b9-dd2a-4c10-b3a3-354520bd6bb9">
    <event publicID="quakeml:uw.anss.org/Event/UW/10199108" ns0:datasource="uw" ns0:dataid="uw10199108" ns0:eventsource="uw" ns0:eventid="10199108">
      <preferredOriginID>quakeml:uw.anss.org/Origin/UW/476033</preferredOriginID>
      <preferredMagnitudeID>quakeml:uw.anss.org/Netmag/UW/397313</preferredMagnitudeID>
      <type>earthquake</type>
      <creationInfo>
        <agencyID>UW</agencyID>
        <creationTime>2012-02-27T14:36:30.000000Z</creationTime>
        <version>3</version>
      </creationInfo>
      <origin publicID="quakeml:uw.anss.org/Origin/UW/476033" ns0:datasource="uw" ns0:dataid="uw10199108" ns0:eventsource="uw" ns0:eventid="10199108">
        <time>
          <value>1985-11-10T00:53:09.100000Z</value>
          <uncertainty>0.35</uncertainty>
        </time>
        <latitude>
          <value>48.7051667</value>
          <uncertainty>2.6</uncertainty>
        </latitude>
        <longitude>
          <value>-121.8306667</value>
          <uncertainty>2.55</uncertainty>
        </longitude>
        <depth>
          <value>13054.0</value>
          <uncertainty>3780.0</uncertainty>
        </depth>
        <depthType>from location</depthType>
        <timeFixed>false</timeFixed>
        <epicenterFixed>false</epicenterFixed>
        <methodID>smi:uw.anss.org/origin/spong</methodID>
        <quality>
          <associatedPhaseCount>6</associatedPhaseCount>
          <usedPhaseCount>6</usedPhaseCount>
          <associatedStationCount>5</associatedStationCount>
          <usedStationCount>0</usedStationCount>
          <standardError>0.28</standardError>
          <azimuthalGap>169.0</azimuthalGap>
        </quality>
        <type>hypocenter</type>
        <evaluationMode>manual</evaluationMode>
        <evaluationStatus>final</evaluationStatus>
        <creationInfo>
          <agencyID>UW</agencyID>
          <creationTime>2012-02-27T14:36:30.000000Z</creationTime>
        </creationInfo>
        <originUncertainty>
          <preferredDescription>horizontal uncertainty</preferredDescription>
          <horizontalUncertainty>3642.0</horizontalUncertainty>
        </originUncertainty>
        <arrival publicID="quakeml:uw.anss.org/AssocArO/UW/2699923">
          <pickID>quakeml:uw.anss.org/Arrival/UW/2699923</pickID>
          <phase>P</phase>
          <azimuth>177.4</azimuth>
          <distance>0.903</distance>
          <timeResidual>0.23</timeResidual>
          <creationInfo>
            <agencyID>UW</agencyID>
            <creationTime>2012-02-27T14:36:30.000000Z</creationTime>
          </creationInfo>
        </arrival>
        <arrival publicID="quakeml:uw.anss.org/AssocArO/UW/2699928">
          <pickID>quakeml:uw.anss.org/Arrival/UW/2699928</pickID>
          <phase>P</phase>
          <azimuth>187.2</azimuth>
          <timeResidual>-0.05</timeResidual>
          <creationInfo>
            <agencyID>UW</agencyID>
            <creationTime>2012-02-27T14:36:30.000000Z</creationTime>
          </creationInfo>
        </arrival>
        <arrival publicID="quakeml:uw.anss.org/AssocArO/UW/2699933">
          <pickID>quakeml:uw.anss.org/Arrival/UW/2699933</pickID>
          <phase>P</phase>
          <azimuth>329.5</azimuth>
          <distance>0.09141</distance>
          <timeResidual>0.13</timeResidual>
          <creationInfo>
            <agencyID>UW</agencyID>
            <creationTime>2012-02-27T14:36:30.000000Z</creationTime>
          </creationInfo>
        </arrival>
        <arrival publicID="quakeml:uw.anss.org/AssocArO/UW/2699938">
          <pickID>quakeml:uw.anss.org/Arrival/UW/2699938</pickID>
          <phase>P</phase>
          <azimuth>140.8</azimuth>
          <distance>0.3319</distance>
          <timeResidual>-0.24</timeResidual>
          <creationInfo>
            <agencyID>UW</agencyID>
            <creationTime>2012-02-27T14:36:30.000000Z</creationTime>
          </creationInfo>
        </arrival>
        <arrival publicID="quakeml:uw.anss.org/AssocArO/UW/2699943">
          <pickID>quakeml:uw.anss.org/Arrival/UW/2699943</pickID>
          <phase>S</phase>
          <azimuth>140.8</azimuth>
          <distance>0.3319</distance>
          <timeResidual>0.1</timeResidual>
          <creationInfo>
            <agencyID>UW</agencyID>
            <creationTime>2012-02-27T14:36:30.000000Z</creationTime>
          </creationInfo>
        </arrival>
        <arrival publicID="quakeml:uw.anss.org/AssocArO/UW/2699948">
          <pickID>quakeml:uw.anss.org/Arrival/UW/2699948</pickID>
          <phase>P</phase>
          <azimuth>138.7</azimuth>
          <distance>1.22</distance>
          <timeResidual>0.58</timeResidual>
          <creationInfo>
            <agencyID>UW</agencyID>
            <creationTime>2012-02-27T14:36:30.000000Z</creationTime>
          </creationInfo>
        </arrival>
      </origin>
      <magnitude publicID="quakeml:uw.anss.org/Netmag/UW/397313">
        <mag>
          <value>1.8</value>
          <uncertainty>0.1</uncertainty>
        </mag>
        <type>Md</type>
        <originID>quakeml:uw.anss.org/Origin/UW/476033</originID>
        <methodID>smi:uw.anss.org/magnitude/Crosson</methodID>
        <stationCount>1</stationCount>
        <evaluationMode>manual</evaluationMode>
        <evaluationStatus>final</evaluationStatus>
        <stationMagnitudeContribution>
          <stationMagnitudeID>quakeml:uw.anss.org/AssocCoM/UW/868318</stationMagnitudeID>
          <weight>1.0</weight>
          <residual>0.02</residual>
        </stationMagnitudeContribution>
        <creationInfo>
          <agencyID>UW</agencyID>
          <creationTime>2012-02-27T14:36:30.000000Z</creationTime>
        </creationInfo>
      </magnitude>
      <stationMagnitude publicID="quakeml:uw.anss.org/AssocCoM/UW/868318">
        <originID>quakeml:uw.anss.org/Origin/UW/476033</originID>
        <mag>
          <value>1.82</value>
        </mag>
        <type>MD</type>
        <amplitudeID>quakeml:uw.anss.org/Coda/UW/868318</amplitudeID>
        <waveformID networkCode="UW" stationCode="MBW" locationCode="" channelCode="EHZ"></waveformID>
      </stationMagnitude>
      <pick publicID="quakeml:uw.anss.org/Arrival/UW/2699923">
        <time>
          <value>1985-11-10T00:53:25.210000Z</value>
          <uncertainty>0.19</uncertainty>
        </time>
        <waveformID networkCode="UW" stationCode="HTW" locationCode="" channelCode="EHZ"></waveformID>
        <polarity>undecidable</polarity>
        <evaluationMode>manual</evaluationMode>
        <evaluationStatus>final</evaluationStatus>
        <creationInfo>
          <agencyID>UW</agencyID>
          <creationTime>2012-02-27T14:36:30.000000Z</creationTime>
        </creationInfo>
      </pick>
      <pick publicID="quakeml:uw.anss.org/Arrival/UW/2699928">
        <time>
          <value>1985-11-10T00:53:18.380000Z</value>
          <uncertainty>0.07</uncertainty>
        </time>
        <waveformID networkCode="UW" stationCode="JCW" locationCode="" channelCode="EHZ"></waveformID>
        <polarity>undecidable</polarity>
        <evaluationMode>manual</evaluationMode>
        <evaluationStatus>final</evaluationStatus>
        <creationInfo>
          <agencyID>UW</agencyID>
          <creationTime>2012-02-27T14:36:30.000000Z</creationTime>
        </creationInfo>
      </pick>
      <pick publicID="quakeml:uw.anss.org/Arrival/UW/2699933">
        <time>
          <value>1985-11-10T00:53:12.380000Z</value>
          <uncertainty>0.06</uncertainty>
        </time>
        <waveformID networkCode="UW" stationCode="MBW" locationCode="" channelCode="EHZ"></waveformID>
        <polarity>undecidable</polarity>
        <evaluationMode>manual</evaluationMode>
        <evaluationStatus>final</evaluationStatus>
        <creationInfo>
          <agencyID>UW</agencyID>
          <creationTime>2012-02-27T14:36:30.000000Z</creationTime>
        </creationInfo>
      </pick>
      <pick publicID="quakeml:uw.anss.org/Arrival/UW/2699938">
        <time>
          <value>1985-11-10T00:53:15.400000Z</value>
          <uncertainty>0.05</uncertainty>
        </time>
        <waveformID networkCode="UW" stationCode="RPW" locationCode="" channelCode="EHZ"></waveformID>
        <polarity>undecidable</polarity>
        <evaluationMode>manual</evaluationMode>
        <evaluationStatus>final</evaluationStatus>
        <creationInfo>
          <agencyID>UW</agencyID>
          <creationTime>2012-02-27T14:36:30.000000Z</creationTime>
        </creationInfo>
      </pick>
      <pick publicID="quakeml:uw.anss.org/Arrival/UW/2699943">
        <time>
          <value>1985-11-10T00:53:20.840000Z</value>
          <uncertainty>0.03</uncertainty>
        </time>
        <waveformID networkCode="UW" stationCode="RPW" locationCode="" channelCode="EHZ"></waveformID>
        <polarity>undecidable</polarity>
        <evaluationMode>manual</evaluationMode>
        <evaluationStatus>final</evaluationStatus>
        <creationInfo>
          <agencyID>UW</agencyID>
          <creationTime>2012-02-27T14:36:30.000000Z</creationTime>
        </creationInfo>
      </pick>
      <pick publicID="quakeml:uw.anss.org/Arrival/UW/2699948">
        <time>
          <value>1985-11-10T00:53:31.260000Z</value>
          <uncertainty>0.21</uncertainty>
        </time>
        <waveformID networkCode="UW" stationCode="PLN" locationCode="" channelCode="EHZ"></waveformID>
        <polarity>undecidable</polarity>
        <evaluationMode>manual</evaluationMode>
        <evaluationStatus>final</evaluationStatus>
        <creationInfo>
          <agencyID>UW</agencyID>
          <creationTime>2012-02-27T14:36:30.000000Z</creationTime>
        </creationInfo>
      </pick>
      <amplitude publicID="quakeml:uw.anss.org/Coda/UW/868318">
        <genericAmplitude>
          <value>33.0</value>
        </genericAmplitude>
        <type>END</type>
        <category>duration</category>
        <unit>s</unit>
        <waveformID networkCode="UW" stationCode="MBW" locationCode="" channelCode="EHZ"></waveformID>
        <magnitudeHint>MD</magnitudeHint>
        <evaluationMode>manual</evaluationMode>
        <evaluationStatus>final</evaluationStatus>
      </amplitude>
    </event>
  </eventParameters>
</q:quakeml>
