<?xml version='1.0' encoding='utf-8'?>
<q:quakeml xmlns="http://quakeml.org/xmlns/bed/1.2" xmlns:q="http://quakeml.org/xmlns/quakeml/1.2" xmlns:ns0="http://anss.org/xmlns/catalog/0.1">
  <eventParameters publicID="smi:local/f11cb315-f3fc-4f47-ba5a-43552ccef131">
    <event publicID="quakeml:uw.anss.org/Event/UW/10285328" ns0:datasource="uw" ns0:dataid="uw10285328" ns0:eventsource="uw" ns0:eventid="10285328">
      <preferredOriginID>quakeml:uw.anss.org/Origin/UW/562273</preferredOriginID>
      <preferredMagnitudeID>quakeml:uw.anss.org/Netmag/UW/471818</preferredMagnitudeID>
      <type>earthquake</type>
      <creationInfo>
        <agencyID>UW</agencyID>
        <creationTime>2012-02-27T17:54:30.000000Z</creationTime>
        <version>3</version>
      </creationInfo>
      <origin publicID="quakeml:uw.anss.org/Origin/UW/562273" ns0:datasource="uw" ns0:dataid="uw10285328" ns0:eventsource="uw" ns0:eventid="10285328">
        <time>
          <value>1992-01-13T05:17:30.320000Z</value>
          <uncertainty>0.12</uncertainty>
        </time>
        <latitude>
          <value>48.6848333</value>
          <uncertainty>0.7</uncertainty>
        </latitude>
        <longitude>
          <value>-121.5475</value>
          <uncertainty>0.59</uncertainty>
        </longitude>
        <depth>
          <value>2620.0</value>
          <uncertainty>1450.0</uncertainty>
        </depth>
        <depthType>from location</depthType>
        <timeFixed>false</timeFixed>
        <epicenterFixed>false</epicenterFixed>
        <methodID>smi:uw.anss.org/origin/spong</methodID>
        <quality>
          <associatedPhaseCount>58</associatedPhaseCount>
          <usedPhaseCount>29</usedPhaseCount>
          <associatedStationCount>38</associatedStationCount>
          <usedStationCount>0</usedStationCount>
          <standardError>0.33</standardError>
          <azimuthalGap>110.0</azimuthalGap>
        </quality>
        <type>hypocenter</type>
        <evaluationMode>manual</evaluationMode>
        <evaluationStatus>final</evaluationStatus>
        <creationInfo>
          <agencyID>UW</agencyID>
          <creationTime>2012-02-27T17:54:30.000000Z</creationTime>
        </creationInfo>
        <originUncertainty>
          <preferredDescription>horizontal uncertainty</preferredDescription>
          <horizontalUncertainty>915.0</horizontalUncertainty>
        </originUncertainty>
        <arrival publicID="quakeml:uw.anss.org/AssocArO/UW/4362988">
          <pickID>quakeml:uw.anss.org/Arrival/UW/4362988</pickID>
          <phase>P</phase>
          <azimuth>224.7</azimuth>
          <distance>1.447</distance>
          <timeResidual>-0.06</timeResidual>
          <creationInfo>
            <agencyID>UW</agencyID>
            <creationTime>2012-02-27T17:54:30.000000Z</creationTime>
          </creationInfo>
        </arrival>
        <arrival publicID="quakeml:uw.anss.org/AssocArO/UW/4362998">
          <pickID>quakeml:uw.anss.org/Arrival/UW/4362998</pickID>
          <phase>S</phase>
          <azimuth>224.7</azimuth>
          <distance>1.447</distance>
          <timeResidual>-0.68</timeResidual>
          <creationInfo>
            <agencyID>UW</agencyID>
            <creationTime>2012-02-27T17:54:30.000000Z</creationTime>
          </creationInfo>
        </arrival>
        <arrival publicID="quakeml:uw.anss.org/AssocArO/UW/4363008">
          <pickID>quakeml:uw.anss.org/Arrival/UW/4363008</pickID>
          <phase>P</phase>
          <azimuth>165.7</azimuth>
          <distance>2.013</distance>
          <timeResidual>0.58</timeResidual>
          <creationInfo>
            <agencyID>UW</agencyID>
            <creationTime>2012-02-27T17:54:30.000000Z</creationTime>
          </creationInfo>
        </arrival>
        <arrival publicID="quakeml:uw.anss.org/AssocArO/UW/4363013">
          <pickID>quakeml:uw.anss.org/Arrival/UW/4363013</pickID>
          <phase>S</phase>
          <azimuth>165.7</azimuth>
          <distance>2.013</distance>
          <timeResidual>0.83</timeResidual>
          <creationInfo>
            <agencyID>UW</agencyID>
            <creationTime>2012-02-27T17:54:30.000000Z</creationTime>
          </creationInfo>
        </arrival>
        <arrival publicID="quakeml:uw.anss.org/AssocArO/UW/4363018">
          <pickID>quakeml:uw.anss.org/Arrival/UW/4363018</pickID>
          <phase>P</phase>
          <azimuth>127.1</azimuth>
          <distance>1.013</distance>
          <timeResidual>-0.16</timeResidual>
          <creationInfo>
            <agencyID>UW</agencyID>
            <creationTime>2012-02-27T17:54:30.000000Z</creationTime>
          </creationInfo>
        </arrival>
        <arrival publicID="quakeml:uw.anss.org/AssocArO/UW/4363023">
          <pickID>quakeml:uw.anss.org/Arrival/UW/4363023</pickID>
          <phase>S</phase>
          <azimuth>127.1</azimuth>
          <distance>1.013</distance>
          <timeResidual>-0.98</timeResidual>
          <creationInfo>
            <agencyID>UW</agencyID>
            <creationTime>2012-02-27T17:54:30.000000Z</creationTime>
          </creationInfo>
        </arrival>
        <arrival publicID="quakeml:uw.anss.org/AssocArO/UW/4363028">
          <pickID>quakeml:uw.anss.org/Arrival/UW/4363028</pickID>
          <phase>P</phase>
          <azimuth>311.4</azimuth>
          <timeResidual>0.0</timeResidual>
          <creationInfo>
            <agencyID>UW</agencyID>
            <creationTime>2012-02-27T17:54:30.000000Z</creationTime>
          </creationInfo>
        </arrival>
        <arrival publicID="quakeml:uw.anss.org/AssocArO/UW/4363033">
          <pickID>quakeml:uw.anss.org/Arrival/UW/4363033</pickID>
          <phase>S</phase>
          <azimuth>311.4</azimuth>
          <timeResidual>-0.81</timeResidual>
          <creationInfo>
            <agencyID>UW</agencyID>
            <creationTime>2012-02-27T17:54:30.000000Z</creationTime>
          </creationInfo>
        </arrival>
        <arrival publicID="quakeml:uw.anss.org/AssocArO/UW/4363038">
          <pickID>quakeml:uw.anss.org/Arrival/UW/4363038</pickID>
          <phase>P</phase>
          <azimuth>142.7</azimuth>
          <distance>1.353</distance>
          <timeResidual>0.01</timeResidual>
          <creationInfo>
            <agencyID>UW</agencyID>
            <creationTime>2012-02-27T17:54:30.000000Z</creationTime>
          </creationInfo>
        </arrival>
        <arrival publicID="quakeml:uw.anss.org/AssocArO/UW/4363048">
          <pickID>quakeml:uw.anss.org/Arrival/UW/4363048</pickID>
          <phase>S</phase>
          <azimuth>142.7</azimuth>
          <distance>1.353</distance>
          <timeResidual>-1.49</timeResidual>
          <creationInfo>
            <agencyID>UW</agencyID>
            <creationTime>2012-02-27T17:54:30.000000Z</creationTime>
          </creationInfo>
        </arrival>
        <arrival publicID="quakeml:uw.anss.org/AssocArO/UW/4363058">
          <pickID>quakeml:uw.anss.org/Arrival/UW/4363058</pickID>
          <phase>P</phase>
          <azimuth>186.2</azimuth>
          <timeResidual>-0.02</timeResidual>
          <creationInfo>
            <agencyID>UW</agencyID>
            <creationTime>2012-02-27T17:54:30.000000Z</creationTime>
          </creationInfo>
        </arrival>
        <arrival publicID="quakeml:uw.anss.org/AssocArO/UW/4363068">
          <pickID>quakeml:uw.anss.org/Arrival/UW/4363068</pickID>
          <phase>P</phase>
          <azimuth>108.8</azimuth>
          <distance>2.377</distance>
          <timeResidual>2.33</timeResidual>
          <creationInfo>
            <agencyID>UW</agencyID>
            <creationTime>2012-02-27T17:54:30.000000Z</creationTime>
          </creationInfo>
        </arrival>
        <arrival publicID="quakeml:uw.anss.org/AssocArO/UW/4363073">
          <pickID>quakeml:uw.anss.org/Arrival/UW/4363073</pickID>
          <phase>P</phase>
          <timeResidual>0.48</timeResidual>
          <creationInfo>
            <agencyID>UW</agencyID>
            <creationTime>2012-02-27T17:54:30.000000Z</creationTime>
          </creationInfo>
        </arrival>
        <arrival publicID="quakeml:uw.anss.org/AssocArO/UW/4363083">
          <pickID>quakeml:uw.anss.org/Arrival/UW/4363083</pickID>
          <phase>S</phase>
          <timeResidual>0.2</timeResidual>
          <creationInfo>
            <agencyID>UW</agencyID>
            <creationTime>2012-02-27T17:54:30.000000Z</creationTime>
          </creationInfo>
        </arrival>
        <arrival publicID="quakeml:uw.anss.org/AssocArO/UW/4363093">
          <pickID>quakeml:uw.anss.org/Arrival/UW/4363093</pickID>
          <phase>P</phase>
          <azimuth>134.8</azimuth>
          <distance>1.866</distance>
          <timeResidual>0.57</timeResidual>
          <creationInfo>
            <agencyID>UW</agencyID>
            <creationTime>2012-02-27T17:54:30.000000Z</creationTime>
          </creationInfo>
        </arrival>
        <arrival publicID="quakeml:uw.anss.org/AssocArO/UW/4363103">
          <pickID>quakeml:uw.anss.org/Arrival/UW/4363103</pickID>
          <phase>S</phase>
          <azimuth>134.8</azimuth>
          <distance>1.866</distance>
          <timeResidual>-0.54</timeResidual>
          <creationInfo>
            <agencyID>UW</agencyID>
            <creationTime>2012-02-27T17:54:30.000000Z</creationTime>
          </creationInfo>
        </arrival>
        <arrival publicID="quakeml:uw.anss.org/AssocArO/UW/4363113">
          <pickID>quakeml:uw.anss.org/Arrival/UW/4363113</pickID>
          <phase>P</phase>
          <azimuth>235.6</azimuth>
          <distance>0.4617</distance>
          <timeResidual>0.04</timeResidual>
          <creationInfo>
            <agencyID>UW</agencyID>
            <creationTime>2012-02-27T17:54:30.000000Z</creationTime>
          </creationInfo>
        </arrival>
        <arrival publicID="quakeml:uw.anss.org/AssocArO/UW/4363118">
          <pickID>quakeml:uw.anss.org/Arrival/UW/4363118</pickID>
          <phase>S</phase>
          <azimuth>235.6</azimuth>
          <distance>0.4617</distance>
          <timeResidual>0.39</timeResidual>
          <creationInfo>
            <agencyID>UW</agencyID>
            <creationTime>2012-02-27T17:54:30.000000Z</creationTime>
          </creationInfo>
        </arrival>
        <arrival publicID="quakeml:uw.anss.org/AssocArO/UW/4363123">
          <pickID>quakeml:uw.anss.org/Arrival/UW/4363123</pickID>
          <phase>P</phase>
          <azimuth>186.5</azimuth>
          <timeResidual>-0.17</timeResidual>
          <creationInfo>
            <agencyID>UW</agencyID>
            <creationTime>2012-02-27T17:54:30.000000Z</creationTime>
          </creationInfo>
        </arrival>
        <arrival publicID="quakeml:uw.anss.org/AssocArO/UW/4363128">
          <pickID>quakeml:uw.anss.org/Arrival/UW/4363128</pickID>
          <phase>S</phase>
          <azimuth>186.5</azimuth>
          <timeResidual>-0.98</timeResidual>
          <creationInfo>
            <agencyID>UW</agencyID>
            <creationTime>2012-02-27T17:54:30.000000Z</creationTime>
          </creationInfo>
        </arrival>
        <arrival publicID="quakeml:uw.anss.org/AssocArO/UW/4363133">
          <pickID>quakeml:uw.anss.org/Arrival/UW/4363133</pickID>
          <phase>P</phase>
          <azimuth>189.5</azimuth>
          <distance>1.765</distance>
          <timeResidual>0.01</timeResidual>
          <creationInfo>
            <agencyID>UW</agencyID>
            <creationTime>2012-02-27T17:54:30.000000Z</creationTime>
          </creationInfo>
        </arrival>
        <arrival publicID="quakeml:uw.anss.org/AssocArO/UW/4363138">
          <pickID>quakeml:uw.anss.org/Arrival/UW/4363138</pickID>
          <phase>S</phase>
          <azimuth>189.5</azimuth>
          <distance>1.765</distance>
          <timeResidual>-0.71</timeResidual>
          <creationInfo>
            <agencyID>UW</agencyID>
            <creationTime>2012-02-27T17:54:30.000000Z</creationTime>
          </creationInfo>
        </arrival>
        <arrival publicID="quakeml:uw.anss.org/AssocArO/UW/4363143">
          <pickID>quakeml:uw.anss.org/Arrival/UW/4363143</pickID>
          <phase>P</phase>
          <azimuth>185.3</azimuth>
          <distance>1.943</distance>
          <timeResidual>-0.19</timeResidual>
          <creationInfo>
            <agencyID>UW</agencyID>
            <creationTime>2012-02-27T17:54:30.000000Z</creationTime>
          </creationInfo>
        </arrival>
        <arrival publicID="quakeml:uw.anss.org/AssocArO/UW/4363148">
          <pickID>quakeml:uw.anss.org/Arrival/UW/4363148</pickID>
          <phase>S</phase>
          <azimuth>185.3</azimuth>
          <distance>1.943</distance>
          <timeResidual>-1.84</timeResidual>
          <creationInfo>
            <agencyID>UW</agencyID>
            <creationTime>2012-02-27T17:54:30.000000Z</creationTime>
          </creationInfo>
        </arrival>
        <arrival publicID="quakeml:uw.anss.org/AssocArO/UW/4363153">
          <pickID>quakeml:uw.anss.org/Arrival/UW/4363153</pickID>
          <phase>P</phase>
          <azimuth>188.1</azimuth>
          <distance>1.238</distance>
          <timeResidual>0.0</timeResidual>
          <creationInfo>
            <agencyID>UW</agencyID>
            <creationTime>2012-02-27T17:54:30.000000Z</creationTime>
          </creationInfo>
        </arrival>
        <arrival publicID="quakeml:uw.anss.org/AssocArO/UW/4363158">
          <pickID>quakeml:uw.anss.org/Arrival/UW/4363158</pickID>
          <phase>P</phase>
          <azimuth>174.8</azimuth>
          <distance>0.2378</distance>
          <timeResidual>-0.47</timeResidual>
          <creationInfo>
            <agencyID>UW</agencyID>
            <creationTime>2012-02-27T17:54:30.000000Z</creationTime>
          </creationInfo>
        </arrival>
        <arrival publicID="quakeml:uw.anss.org/AssocArO/UW/4363163">
          <pickID>quakeml:uw.anss.org/Arrival/UW/4363163</pickID>
          <phase>S</phase>
          <azimuth>174.8</azimuth>
          <distance>0.2378</distance>
          <timeResidual>-0.24</timeResidual>
          <creationInfo>
            <agencyID>UW</agencyID>
            <creationTime>2012-02-27T17:54:30.000000Z</creationTime>
          </creationInfo>
        </arrival>
        <arrival publicID="quakeml:uw.anss.org/AssocArO/UW/4363168">
          <pickID>quakeml:uw.anss.org/Arrival/UW/4363168</pickID>
          <phase>P</phase>
          <azimuth>179.8</azimuth>
          <distance>1.987</distance>
          <timeResidual>0.54</timeResidual>
          <creationInfo>
            <agencyID>UW</agencyID>
            <creationTime>2012-02-27T17:54:30.000000Z</creationTime>
          </creationInfo>
        </arrival>
        <arrival publicID="quakeml:uw.anss.org/AssocArO/UW/4363173">
          <pickID>quakeml:uw.anss.org/Arrival/UW/4363173</pickID>
          <phase>S</phase>
          <azimuth>179.8</azimuth>
          <distance>1.987</distance>
          <timeResidual>-0.94</timeResidual>
          <creationInfo>
            <agencyID>UW</agencyID>
            <creationTime>2012-02-27T17:54:30.000000Z</creationTime>
          </creationInfo>
        </arrival>
        <arrival publicID="quakeml:uw.anss.org/AssocArO/UW/4363183">
          <pickID>quakeml:uw.anss.org/Arrival/UW/4363183</pickID>
          <phase>P</phase>
          <azimuth>302.8</azimuth>
          <timeResidual>0.14</timeResidual>
          <creationInfo>
            <agencyID>UW</agencyID>
            <creationTime>2012-02-27T17:54:30.000000Z</creationTime>
          </creationInfo>
        </arrival>
        <arrival publicID="quakeml:uw.anss.org/AssocArO/UW/4363193">
          <pickID>quakeml:uw.anss.org/Arrival/UW/4363193</pickID>
          <phase>P</phase>
          <azimuth>202.7</azimuth>
          <distance>1.225</distance>
          <timeResidual>0.46</timeResidual>
          <creationInfo>
            <agencyID>UW</agencyID>
            <creationTime>2012-02-27T17:54:30.000000Z</creationTime>
          </creationInfo>
        </arrival>
        <arrival publicID="quakeml:uw.anss.org/AssocArO/UW/4363203">
          <pickID>quakeml:uw.anss.org/Arrival/UW/4363203</pickID>
          <phase>P</phase>
          <azimuth>219.5</azimuth>
          <distance>1.114</distance>
          <timeResidual>0.69</timeResidual>
          <creationInfo>
            <agencyID>UW</agencyID>
            <creationTime>2012-02-27T17:54:30.000000Z</creationTime>
          </creationInfo>
        </arrival>
        <arrival publicID="quakeml:uw.anss.org/AssocArO/UW/4363223">
          <pickID>quakeml:uw.anss.org/Arrival/UW/4363223</pickID>
          <phase>P</phase>
          <azimuth>293.1</azimuth>
          <distance>0.2541</distance>
          <timeResidual>-0.2</timeResidual>
          <creationInfo>
            <agencyID>UW</agencyID>
            <creationTime>2012-02-27T17:54:30.000000Z</creationTime>
          </creationInfo>
        </arrival>
        <arrival publicID="quakeml:uw.anss.org/AssocArO/UW/4363233">
          <pickID>quakeml:uw.anss.org/Arrival/UW/4363233</pickID>
          <phase>S</phase>
          <azimuth>293.1</azimuth>
          <distance>0.2541</distance>
          <timeResidual>-0.14</timeResidual>
          <creationInfo>
            <agencyID>UW</agencyID>
            <creationTime>2012-02-27T17:54:30.000000Z</creationTime>
          </creationInfo>
        </arrival>
        <arrival publicID="quakeml:uw.anss.org/AssocArO/UW/4363263">
          <pickID>quakeml:uw.anss.org/Arrival/UW/4363263</pickID>
          <phase>P</phase>
          <azimuth>123.7</azimuth>
          <distance>1.741</distance>
          <timeResidual>0.67</timeResidual>
          <creationInfo>
            <agencyID>UW</agencyID>
            <creationTime>2012-02-27T17:54:30.000000Z</creationTime>
          </creationInfo>
        </arrival>
        <arrival publicID="quakeml:uw.anss.org/AssocArO/UW/4363273">
          <pickID>quakeml:uw.anss.org/Arrival/UW/4363273</pickID>
          <phase>P</phase>
          <azimuth>207.4</azimuth>
          <timeResidual>-0.25</timeResidual>
          <creationInfo>
            <agencyID>UW</agencyID>
            <creationTime>2012-02-27T17:54:30.000000Z</creationTime>
          </creationInfo>
        </arrival>
        <arrival publicID="quakeml:uw.anss.org/AssocArO/UW/4363283">
          <pickID>quakeml:uw.anss.org/Arrival/UW/4363283</pickID>
          <phase>S</phase>
          <azimuth>207.4</azimuth>
          <timeResidual>-0.84</timeResidual>
          <creationInfo>
            <agencyID>UW</agencyID>
            <creationTime>2012-02-27T17:54:30.000000Z</creationTime>
          </creationInfo>
        </arrival>
        <arrival publicID="quakeml:uw.anss.org/AssocArO/UW/4363298">
          <pickID>quakeml:uw.anss.org/Arrival/UW/4363298</pickID>
          <phase>P</phase>
          <azimuth>159.3</azimuth>
          <distance>1.895</distance>
          <timeResidual>2.04</timeResidual>
          <creationInfo>
            <agencyID>UW</agencyID>
            <creationTime>2012-02-27T17:54:30.000000Z</creationTime>
          </creationInfo>
        </arrival>
        <arrival publicID="quakeml:uw.anss.org/AssocArO/UW/4363308">
          <pickID>quakeml:uw.anss.org/Arrival/UW/4363308</pickID>
          <phase>P</phase>
          <azimuth>182.8</azimuth>
          <timeResidual>-0.14</timeResidual>
          <creationInfo>
            <agencyID>UW</agencyID>
            <creationTime>2012-02-27T17:54:30.000000Z</creationTime>
          </creationInfo>
        </arrival>
        <arrival publicID="quakeml:uw.anss.org/AssocArO/UW/4363313">
          <pickID>quakeml:uw.anss.org/Arrival/UW/4363313</pickID>
          <phase>S</phase>
          <azimuth>182.8</azimuth>
          <timeResidual>-0.97</timeResidual>
          <creationInfo>
            <agencyID>UW</agencyID>
            <creationTime>2012-02-27T17:54:30.000000Z</creationTime>
