<?xml version='1.0' encoding='utf-8'?>
<q:quakeml xmlns="http://quakeml.org/xmlns/bed/1.2" xmlns:q="http://quakeml.org/xmlns/quakeml/1.2" xmlns:ns0="http://anss.org/xmlns/catalog/0.1">
  <eventParameters publicID="smi:local/27a15864-897c-42a0-bcbd-57534d27a0b0">
    <event publicID="quakeml:uw.anss.org/Event/UW/10295203" ns0:datasource="uw" ns0:dataid="uw10295203" ns0:eventsource="uw" ns0:eventid="10295203">
      <preferredOriginID>quakeml:uw.anss.org/Origin/UW/572148</preferredOriginID>
      <preferredMagnitudeID>quakeml:uw.anss.org/Netmag/UW/480928</preferredMagnitudeID>
      <type>earthquake</type>
      <creationInfo>
        <agencyID>UW</agencyID>
        <creationTime>2012-02-27T18:19:11.000000Z</creationTime>
        <version>3</version>
      </creationInfo>
      <origin publicID="quakeml:uw.anss.org/Origin/UW/572148" ns0:datasource="uw" ns0:dataid="uw10295203" ns0:eventsource="uw" ns0:eventid="10295203">
        <time>
          <value>1992-10-14T13:49:20.210000Z</value>
          <uncertainty>0.87</uncertainty>
        </time>
        <latitude>
          <value>49.0316667</value>
          <uncertainty>2.18</uncertainty>
        </latitude>
        <longitude>
          <value>-121.3676667</value>
          <uncertainty>3.5</uncertainty>
        </longitude>
        <depth>
          <value>1435.0</value>
          <uncertainty>18520.0</uncertainty>
        </depth>
        <depthType>operator assigned</depthType>
        <timeFixed>false</timeFixed>
        <epicenterFixed>true</epicenterFixed>
        <methodID>smi:uw.anss.org/origin/spong</methodID>
        <quality>
          <associatedPhaseCount>48</associatedPhaseCount>
          <usedPhaseCount>27</usedPhaseCount>
          <associatedStationCount>35</associatedStationCount>
          <usedStationCount>0</usedStationCount>
          <standardError>0.51</standardError>
          <azimuthalGap>197.0</azimuthalGap>
        </quality>
        <type>hypocenter</type>
        <evaluationMode>manual</evaluationMode>
        <evaluationStatus>final</evaluationStatus>
        <creationInfo>
          <agencyID>UW</agencyID>
          <creationTime>2012-02-27T18:19:11.000000Z</creationTime>
        </creationInfo>
        <originUncertainty>
          <preferredDescription>horizontal uncertainty</preferredDescription>
          <horizontalUncertainty>4123.0</horizontalUncertainty>
        </originUncertainty>
        <arrival publicID="quakeml:uw.anss.org/AssocArO/UW/4546218">
          <pickID>quakeml:uw.anss.org/Arrival/UW/4546218</pickID>
          <phase>P</phase>
          <azimuth>277.3</azimuth>
          <timeResidual>-0.47</timeResidual>
          <creationInfo>
            <agencyID>UW</agencyID>
            <creationTime>2012-02-27T18:19:11.000000Z</creationTime>
          </creationInfo>
        </arrival>
        <arrival publicID="quakeml:uw.anss.org/AssocArO/UW/4546228">
          <pickID>quakeml:uw.anss.org/Arrival/UW/4546228</pickID>
          <phase>S</phase>
          <azimuth>277.3</azimuth>
          <timeResidual>-1.88</timeResidual>
          <creationInfo>
            <agencyID>UW</agencyID>
            <creationTime>2012-02-27T18:19:11.000000Z</creationTime>
          </creationInfo>
        </arrival>
        <arrival publicID="quakeml:uw.anss.org/AssocArO/UW/4546238">
          <pickID>quakeml:uw.anss.org/Arrival/UW/4546238</pickID>
          <phase>P</phase>
          <azimuth>219.7</azimuth>
          <distance>1.784</distance>
          <timeResidual>-0.37</timeResidual>
          <creationInfo>
            <agencyID>UW</agencyID>
            <creationTime>2012-02-27T18:19:11.000000Z</creationTime>
          </creationInfo>
        </arrival>
        <arrival publicID="quakeml:uw.anss.org/AssocArO/UW/4546248">
          <pickID>quakeml:uw.anss.org/Arrival/UW/4546248</pickID>
          <phase>P</phase>
          <azimuth>144.4</azimuth>
          <distance>1.179</distance>
          <timeResidual>-0.47</timeResidual>
          <creationInfo>
            <agencyID>UW</agencyID>
            <creationTime>2012-02-27T18:19:11.000000Z</creationTime>
          </creationInfo>
        </arrival>
        <arrival publicID="quakeml:uw.anss.org/AssocArO/UW/4546253">
          <pickID>quakeml:uw.anss.org/Arrival/UW/4546253</pickID>
          <phase>S</phase>
          <azimuth>144.4</azimuth>
          <distance>1.179</distance>
          <timeResidual>-1.41</timeResidual>
          <creationInfo>
            <agencyID>UW</agencyID>
            <creationTime>2012-02-27T18:19:11.000000Z</creationTime>
          </creationInfo>
        </arrival>
        <arrival publicID="quakeml:uw.anss.org/AssocArO/UW/4546268">
          <pickID>quakeml:uw.anss.org/Arrival/UW/4546268</pickID>
          <phase>P</phase>
          <azimuth>287.5</azimuth>
          <timeResidual>-0.74</timeResidual>
          <creationInfo>
            <agencyID>UW</agencyID>
            <creationTime>2012-02-27T18:19:11.000000Z</creationTime>
          </creationInfo>
        </arrival>
        <arrival publicID="quakeml:uw.anss.org/AssocArO/UW/4546273">
          <pickID>quakeml:uw.anss.org/Arrival/UW/4546273</pickID>
          <phase>S</phase>
          <azimuth>287.5</azimuth>
          <timeResidual>-1.24</timeResidual>
          <creationInfo>
            <agencyID>UW</agencyID>
            <creationTime>2012-02-27T18:19:11.000000Z</creationTime>
          </creationInfo>
        </arrival>
        <arrival publicID="quakeml:uw.anss.org/AssocArO/UW/4546283">
          <pickID>quakeml:uw.anss.org/Arrival/UW/4546283</pickID>
          <phase>P</phase>
          <azimuth>153.9</azimuth>
          <distance>1.587</distance>
          <timeResidual>-0.02</timeResidual>
          <creationInfo>
            <agencyID>UW</agencyID>
            <creationTime>2012-02-27T18:19:11.000000Z</creationTime>
          </creationInfo>
        </arrival>
        <arrival publicID="quakeml:uw.anss.org/AssocArO/UW/4546293">
          <pickID>quakeml:uw.anss.org/Arrival/UW/4546293</pickID>
          <phase>S</phase>
          <azimuth>153.9</azimuth>
          <distance>1.587</distance>
          <timeResidual>-0.56</timeResidual>
          <creationInfo>
            <agencyID>UW</agencyID>
            <creationTime>2012-02-27T18:19:11.000000Z</creationTime>
          </creationInfo>
        </arrival>
        <arrival publicID="quakeml:uw.anss.org/AssocArO/UW/4546298">
          <pickID>quakeml:uw.anss.org/Arrival/UW/4546298</pickID>
          <phase>P</phase>
          <azimuth>170.8</azimuth>
          <distance>2.329</distance>
          <timeResidual>0.96</timeResidual>
          <creationInfo>
            <agencyID>UW</agencyID>
            <creationTime>2012-02-27T18:19:11.000000Z</creationTime>
          </creationInfo>
        </arrival>
        <arrival publicID="quakeml:uw.anss.org/AssocArO/UW/4546308">
          <pickID>quakeml:uw.anss.org/Arrival/UW/4546308</pickID>
          <phase>P</phase>
          <azimuth>117.8</azimuth>
          <distance>2.405</distance>
          <timeResidual>2.13</timeResidual>
          <creationInfo>
            <agencyID>UW</agencyID>
            <creationTime>2012-02-27T18:19:11.000000Z</creationTime>
          </creationInfo>
        </arrival>
        <arrival publicID="quakeml:uw.anss.org/AssocArO/UW/4546313">
          <pickID>quakeml:uw.anss.org/Arrival/UW/4546313</pickID>
          <phase>P</phase>
          <timeResidual>-0.38</timeResidual>
          <creationInfo>
            <agencyID>UW</agencyID>
            <creationTime>2012-02-27T18:19:11.000000Z</creationTime>
          </creationInfo>
        </arrival>
        <arrival publicID="quakeml:uw.anss.org/AssocArO/UW/4546318">
          <pickID>quakeml:uw.anss.org/Arrival/UW/4546318</pickID>
          <phase>S</phase>
          <timeResidual>-0.63</timeResidual>
          <creationInfo>
            <agencyID>UW</agencyID>
            <creationTime>2012-02-27T18:19:11.000000Z</creationTime>
          </creationInfo>
        </arrival>
        <arrival publicID="quakeml:uw.anss.org/AssocArO/UW/4546323">
          <pickID>quakeml:uw.anss.org/Arrival/UW/4546323</pickID>
          <phase>P</phase>
          <azimuth>148.3</azimuth>
          <distance>2.578</distance>
          <timeResidual>3.58</timeResidual>
          <creationInfo>
            <agencyID>UW</agencyID>
            <creationTime>2012-02-27T18:19:11.000000Z</creationTime>
          </creationInfo>
        </arrival>
        <arrival publicID="quakeml:uw.anss.org/AssocArO/UW/4546328">
          <pickID>quakeml:uw.anss.org/Arrival/UW/4546328</pickID>
          <phase>P</phase>
          <azimuth>144.2</azimuth>
          <distance>2.053</distance>
          <timeResidual>0.95</timeResidual>
          <creationInfo>
            <agencyID>UW</agencyID>
            <creationTime>2012-02-27T18:19:11.000000Z</creationTime>
          </creationInfo>
        </arrival>
        <arrival publicID="quakeml:uw.anss.org/AssocArO/UW/4546338">
          <pickID>quakeml:uw.anss.org/Arrival/UW/4546338</pickID>
          <phase>P</phase>
          <azimuth>219.5</azimuth>
          <distance>0.7866</distance>
          <timeResidual>-0.12</timeResidual>
          <creationInfo>
            <agencyID>UW</agencyID>
            <creationTime>2012-02-27T18:19:11.000000Z</creationTime>
          </creationInfo>
        </arrival>
        <arrival publicID="quakeml:uw.anss.org/AssocArO/UW/4546343">
          <pickID>quakeml:uw.anss.org/Arrival/UW/4546343</pickID>
          <phase>S</phase>
          <azimuth>219.5</azimuth>
          <distance>0.7866</distance>
          <timeResidual>-0.31</timeResidual>
          <creationInfo>
            <agencyID>UW</agencyID>
            <creationTime>2012-02-27T18:19:11.000000Z</creationTime>
          </creationInfo>
        </arrival>
        <arrival publicID="quakeml:uw.anss.org/AssocArO/UW/4546358">
          <pickID>quakeml:uw.anss.org/Arrival/UW/4546358</pickID>
          <phase>P</phase>
          <azimuth>191.2</azimuth>
          <distance>2.128</distance>
          <timeResidual>-0.52</timeResidual>
          <creationInfo>
            <agencyID>UW</agencyID>
            <creationTime>2012-02-27T18:19:11.000000Z</creationTime>
          </creationInfo>
        </arrival>
        <arrival publicID="quakeml:uw.anss.org/AssocArO/UW/4546363">
          <pickID>quakeml:uw.anss.org/Arrival/UW/4546363</pickID>
          <phase>P</phase>
          <azimuth>187.6</azimuth>
          <distance>2.302</distance>
          <timeResidual>0.11</timeResidual>
          <creationInfo>
            <agencyID>UW</agencyID>
            <creationTime>2012-02-27T18:19:11.000000Z</creationTime>
          </creationInfo>
        </arrival>
        <arrival publicID="quakeml:uw.anss.org/AssocArO/UW/4546373">
          <pickID>quakeml:uw.anss.org/Arrival/UW/4546373</pickID>
          <phase>P</phase>
          <timeResidual>0.29</timeResidual>
          <creationInfo>
            <agencyID>UW</agencyID>
            <creationTime>2012-02-27T18:19:11.000000Z</creationTime>
          </creationInfo>
        </arrival>
        <arrival publicID="quakeml:uw.anss.org/AssocArO/UW/4546383">
          <pickID>quakeml:uw.anss.org/Arrival/UW/4546383</pickID>
          <phase>S</phase>
          <timeResidual>-0.33</timeResidual>
          <creationInfo>
            <agencyID>UW</agencyID>
            <creationTime>2012-02-27T18:19:11.000000Z</creationTime>
          </creationInfo>
        </arrival>
        <arrival publicID="quakeml:uw.anss.org/AssocArO/UW/4546393">
          <pickID>quakeml:uw.anss.org/Arrival/UW/4546393</pickID>
          <phase>P</phase>
          <azimuth>189.5</azimuth>
          <distance>0.5921</distance>
          <timeResidual>-0.82</timeResidual>
          <creationInfo>
            <agencyID>UW</agencyID>
            <creationTime>2012-02-27T18:19:11.000000Z</creationTime>
          </creationInfo>
        </arrival>
        <arrival publicID="quakeml:uw.anss.org/AssocArO/UW/4546398">
          <pickID>quakeml:uw.anss.org/Arrival/UW/4546398</pickID>
          <phase>S</phase>
          <azimuth>189.5</azimuth>
          <distance>0.5921</distance>
          <timeResidual>-1.18</timeResidual>
          <creationInfo>
            <agencyID>UW</agencyID>
            <creationTime>2012-02-27T18:19:11.000000Z</creationTime>
          </creationInfo>
        </arrival>
        <arrival publicID="quakeml:uw.anss.org/AssocArO/UW/4546403">
          <pickID>quakeml:uw.anss.org/Arrival/UW/4546403</pickID>
          <phase>P</phase>
          <azimuth>182.9</azimuth>
          <distance>2.337</distance>
          <timeResidual>-0.16</timeResidual>
          <creationInfo>
            <agencyID>UW</agencyID>
            <creationTime>2012-02-27T18:19:11.000000Z</creationTime>
          </creationInfo>
        </arrival>
        <arrival publicID="quakeml:uw.anss.org/AssocArO/UW/4546408">
          <pickID>quakeml:uw.anss.org/Arrival/UW/4546408</pickID>
          <phase>P</phase>
          <azimuth>287.3</azimuth>
          <timeResidual>-0.89</timeResidual>
          <creationInfo>
            <agencyID>UW</agencyID>
            <creationTime>2012-02-27T18:19:11.000000Z</creationTime>
          </creationInfo>
        </arrival>
        <arrival publicID="quakeml:uw.anss.org/AssocArO/UW/4546413">
          <pickID>quakeml:uw.anss.org/Arrival/UW/4546413</pickID>
          <phase>P</phase>
          <azimuth>201.9</azimuth>
          <distance>1.592</distance>
          <timeResidual>0.17</timeResidual>
          <creationInfo>
            <agencyID>UW</agencyID>
            <creationTime>2012-02-27T18:19:11.000000Z</creationTime>
          </creationInfo>
        </arrival>
        <arrival publicID="quakeml:uw.anss.org/AssocArO/UW/4546418">
          <pickID>quakeml:uw.anss.org/Arrival/UW/4546418</pickID>
          <phase>P</phase>
          <azimuth>234.9</azimuth>
          <distance>0.4305</distance>
          <timeResidual>-0.88</timeResidual>
          <creationInfo>
            <agencyID>UW</agencyID>
            <creationTime>2012-02-27T18:19:11.000000Z</creationTime>
          </creationInfo>
        </arrival>
        <arrival publicID="quakeml:uw.anss.org/AssocArO/UW/4546423">
          <pickID>quakeml:uw.anss.org/Arrival/UW/4546423</pickID>
          <phase>S</phase>
          <azimuth>234.9</azimuth>
          <distance>0.4305</distance>
          <timeResidual>-1.11</timeResidual>
          <creationInfo>
            <agencyID>UW</agencyID>
            <creationTime>2012-02-27T18:19:11.000000Z</creationTime>
          </creationInfo>
        </arrival>
        <arrival publicID="quakeml:uw.anss.org/AssocArO/UW/4546428">
          <pickID>quakeml:uw.anss.org/Arrival/UW/4546428</pickID>
          <phase>P</phase>
          <azimuth>134.8</azimuth>
          <distance>1.868</distance>
          <timeResidual>1.15</timeResidual>
          <creationInfo>
            <agencyID>UW</agencyID>
            <creationTime>2012-02-27T18:19:11.000000Z</creationTime>
          </creationInfo>
        </arrival>
        <arrival publicID="quakeml:uw.anss.org/AssocArO/UW/4546433">
          <pickID>quakeml:uw.anss.org/Arrival/UW/4546433</pickID>
          <phase>S</phase>
          <azimuth>134.8</azimuth>
          <distance>1.868</distance>
          <timeResidual>0.82</timeResidual>
          <creationInfo>
            <agencyID>UW</agencyID>
            <creationTime>2012-02-27T18:19:11.000000Z</creationTime>
          </creationInfo>
        </arrival>
        <arrival publicID="quakeml:uw.anss.org/AssocArO/UW/4546438">
          <pickID>quakeml:uw.anss.org/Arrival/UW/4546438</pickID>
          <phase>P</phase>
          <azimuth>297.9</azimuth>
          <timeResidual>-0.84</timeResidual>
          <creationInfo>
            <agencyID>UW</agencyID>
            <creationTime>2012-02-27T18:19:11.000000Z</creationTime>
          </creationInfo>
        </arrival>
        <arrival publicID="quakeml:uw.anss.org/AssocArO/UW/4546443">
          <pickID>quakeml:uw.anss.org/Arrival/UW/4546443</pickID>
          <phase>S</phase>
          <azimuth>297.9</azimuth>
          <timeResidual>-1.67</timeResidual>
          <creationInfo>
            <agencyID>UW</agencyID>
            <creationTime>2012-02-27T18:19:11.000000Z</creationTime>
          </creationInfo>
        </arrival>
        <arrival publicID="quakeml:uw.anss.org/AssocArO/UW/4546448">
          <pickID>quakeml:uw.anss.org/Arrival/UW/4546448</pickID>
          <phase>P</phase>
          <azimuth>204.1</azimuth>
          <timeResidual>-0.07</timeResidual>
          <creationInfo>
            <agencyID>UW</agencyID>
            <creationTime>2012-02-27T18:19:11.000000Z</creationTime>
          </creationInfo>
        </arrival>
        <arrival publicID="quakeml:uw.anss.org/AssocArO/UW/4546453">
          <pickID>quakeml:uw.anss.org/Arrival/UW/4546453</pickID>
          <phase>P</phase>
          <azimuth>185.7</azimuth>
          <timeResidual>-0.24</timeResidual>
          <creationInfo>
            <agencyID>UW</agencyID>
            <creationTime>2012-02-27T18:19:11.000000Z</creationTime>
          </creationInfo>
        </arrival>
        <arrival publicID="quakeml:uw.anss.org/AssocArO/UW/4546458">
          <pickID>quakeml:uw.anss.org/Arrival/UW/4546458</pickID>
          <phase>P</phase>
          <azimuth>134.1</azimuth>
          <distance>1.49</distance>
          <timeResidual>-0.2</timeResidual>
          <creationInfo>
            <agencyID>UW</agencyID>
            <creationTime>2012-02-27T18:19:12.000000Z</creationTime>
          </creationInfo>
        </arrival>
        <arrival publicID="quakeml:uw.anss.org/AssocArO/UW/4546463">
          <pickID>quakeml:uw.anss.org/Arrival/UW/4546463</pickID>
          <phase>P</phase>
          <azimuth>240.8</azimuth>
          <timeResidual>0.31</timeResidual>
          <creationInfo>
            <agencyID>UW</agencyID>
            <creationTime>2012-02-27T18:19:12.000000Z</creationTime>
          </creationInfo>
        </arrival>
        <arrival publicID="quakeml:uw.anss.org/AssocArO/UW/4546468">
          <pickID>quakeml:uw.anss.org/Arrival/UW/4546468</pickID>
          <phase>P</phase>
          <timeResidual>0.56</timeResidual>
          <creationInfo>
            <agencyID>UW</agencyID>
            <creationTime>2012-02-27T18:19:12.000000Z</creationTime>
          </creationInfo>
        </arrival>
        <arrival publicID="quakeml:uw.anss.org/AssocArO/UW/4546473">
          <pickID>quakeml:uw.anss.org/Arrival/UW/4546473</pickID>
          <phase>P</phase>
          <azimuth>144.3</azimuth>
          <distance>1.633</distance>
          <timeResidual>0.14</timeResidual>
          <creationInfo>
            <agencyID>UW</agencyID>
            <creationTime>2012-02-27T18:19:12.000000Z</creationTime>
          </creationInfo>
        </arrival>
        <arrival publicID="quakeml:uw.anss.org/AssocArO/UW/4546478">
          <pickID>quakeml:uw.anss.org/Arrival/UW/4546478</pickID>
          <phase>S</phase>
          <azimuth>213.0</azimuth>
          <distance>1.762</distance>
          <timeResidual>0.41</timeResidual>
          <creationInfo>
            <agencyID>UW</agencyID>
            <creationTime>2012-02-27T18:19:12.000000Z</creationTime>
          </creationInfo>
        </arrival>
        <arrival publicID="quakeml:uw.anss.org/AssocArO/UW/4546483">
          <pickID>quakeml:uw.anss.org/Arrival/UW/4546483</pickID>
          <phase>P</phase>
          <azimuth>190.7</azimuth>
          <distance>1.6</distance>
          <timeResidual>-0.36</timeResidual>
          <creationInfo>
            <agencyID>UW</agencyID>
            <creationTime>2012-02-27T18:19:12.000000Z</creationTime>
          </creationInfo>
        </arrival>
        <arrival publicID="quakeml:uw.anss.org/AssocArO/UW/4546488">
          <pickID>quakeml:uw.anss.org/Arrival/UW/4546488</pickID>
          <phase>P</phase>
