<?xml version='1.0' encoding='utf-8'?>
<q:quakeml xmlns="http://quakeml.org/xmlns/bed/1.2" xmlns:q="http://quakeml.org/xmlns/quakeml/1.2" xmlns:ns0="http://anss.org/xmlns/catalog/0.1">
  <eventParameters publicID="smi:local/c29be63b-5a5c-4aa5-9bd5-c72faa4ae550">
    <event publicID="quakeml:uw.anss.org/Event/UW/10293803" ns0:datasource="uw" ns0:dataid="uw10293803" ns0:eventsource="uw" ns0:eventid="10293803">
      <preferredOriginID>quakeml:uw.anss.org/Origin/UW/570748</preferredOriginID>
      <preferredMagnitudeID>quakeml:uw.anss.org/Netmag/UW/479678</preferredMagnitudeID>
      <type>earthquake</type>
      <creationInfo>
        <agencyID>UW</agencyID>
        <creationTime>2012-02-27T18:16:23.000000Z</creationTime>
        <version>3</version>
      </creationInfo>
      <origin publicID="quakeml:uw.anss.org/Origin/UW/570748" ns0:datasource="uw" ns0:dataid="uw10293803" ns0:eventsource="uw" ns0:eventid="10293803">
        <time>
          <value>1992-10-09T17:39:50.350000Z</value>
          <uncertainty>0.24</uncertainty>
        </time>
        <latitude>
          <value>49.0365</value>
          <uncertainty>0.87</uncertainty>
        </latitude>
        <longitude>
          <value>-121.3766667</value>
          <uncertainty>0.94</uncertainty>
        </longitude>
        <depth>
          <value>915.0</value>
          <uncertainty>1920.0</uncertainty>
        </depth>
        <depthType>from location</depthType>
        <timeFixed>false</timeFixed>
        <epicenterFixed>false</epicenterFixed>
        <methodID>smi:uw.anss.org/origin/spong</methodID>
        <quality>
          <associatedPhaseCount>45</associatedPhaseCount>
          <usedPhaseCount>24</usedPhaseCount>
          <associatedStationCount>27</associatedStationCount>
          <usedStationCount>0</usedStationCount>
          <standardError>0.43</standardError>
          <azimuthalGap>177.0</azimuthalGap>
        </quality>
        <type>hypocenter</type>
        <evaluationMode>manual</evaluationMode>
        <evaluationStatus>final</evaluationStatus>
        <creationInfo>
          <agencyID>UW</agencyID>
          <creationTime>2012-02-27T18:16:23.000000Z</creationTime>
        </creationInfo>
        <originUncertainty>
          <preferredDescription>horizontal uncertainty</preferredDescription>
          <horizontalUncertainty>1281.0</horizontalUncertainty>
        </originUncertainty>
        <arrival publicID="quakeml:uw.anss.org/AssocArO/UW/4522063">
          <pickID>quakeml:uw.anss.org/Arrival/UW/4522063</pickID>
          <phase>P</phase>
          <azimuth>219.4</azimuth>
          <distance>1.784</distance>
          <timeResidual>0.27</timeResidual>
          <creationInfo>
            <agencyID>UW</agencyID>
            <creationTime>2012-02-27T18:16:23.000000Z</creationTime>
          </creationInfo>
        </arrival>
        <arrival publicID="quakeml:uw.anss.org/AssocArO/UW/4522068">
          <pickID>quakeml:uw.anss.org/Arrival/UW/4522068</pickID>
          <phase>S</phase>
          <azimuth>219.4</azimuth>
          <distance>1.784</distance>
          <timeResidual>0.49</timeResidual>
          <creationInfo>
            <agencyID>UW</agencyID>
            <creationTime>2012-02-27T18:16:23.000000Z</creationTime>
          </creationInfo>
        </arrival>
        <arrival publicID="quakeml:uw.anss.org/AssocArO/UW/4522073">
          <pickID>quakeml:uw.anss.org/Arrival/UW/4522073</pickID>
          <phase>P</phase>
          <azimuth>144.3</azimuth>
          <distance>1.187</distance>
          <timeResidual>-0.16</timeResidual>
          <creationInfo>
            <agencyID>UW</agencyID>
            <creationTime>2012-02-27T18:16:23.000000Z</creationTime>
          </creationInfo>
        </arrival>
        <arrival publicID="quakeml:uw.anss.org/AssocArO/UW/4522078">
          <pickID>quakeml:uw.anss.org/Arrival/UW/4522078</pickID>
          <phase>S</phase>
          <azimuth>144.3</azimuth>
          <distance>1.187</distance>
          <timeResidual>-1.52</timeResidual>
          <creationInfo>
            <agencyID>UW</agencyID>
            <creationTime>2012-02-27T18:16:23.000000Z</creationTime>
          </creationInfo>
        </arrival>
        <arrival publicID="quakeml:uw.anss.org/AssocArO/UW/4522083">
          <pickID>quakeml:uw.anss.org/Arrival/UW/4522083</pickID>
          <phase>P</phase>
          <azimuth>287.3</azimuth>
          <timeResidual>-0.37</timeResidual>
          <creationInfo>
            <agencyID>UW</agencyID>
            <creationTime>2012-02-27T18:16:23.000000Z</creationTime>
          </creationInfo>
        </arrival>
        <arrival publicID="quakeml:uw.anss.org/AssocArO/UW/4522088">
          <pickID>quakeml:uw.anss.org/Arrival/UW/4522088</pickID>
          <phase>P</phase>
          <azimuth>153.8</azimuth>
          <distance>1.594</distance>
          <timeResidual>0.31</timeResidual>
          <creationInfo>
            <agencyID>UW</agencyID>
            <creationTime>2012-02-27T18:16:23.000000Z</creationTime>
          </creationInfo>
        </arrival>
        <arrival publicID="quakeml:uw.anss.org/AssocArO/UW/4522093">
          <pickID>quakeml:uw.anss.org/Arrival/UW/4522093</pickID>
          <phase>S</phase>
          <azimuth>153.8</azimuth>
          <distance>1.594</distance>
          <timeResidual>-0.93</timeResidual>
          <creationInfo>
            <agencyID>UW</agencyID>
            <creationTime>2012-02-27T18:16:23.000000Z</creationTime>
          </creationInfo>
        </arrival>
        <arrival publicID="quakeml:uw.anss.org/AssocArO/UW/4522098">
          <pickID>quakeml:uw.anss.org/Arrival/UW/4522098</pickID>
          <phase>P</phase>
          <timeResidual>0.38</timeResidual>
          <creationInfo>
            <agencyID>UW</agencyID>
            <creationTime>2012-02-27T18:16:23.000000Z</creationTime>
          </creationInfo>
        </arrival>
        <arrival publicID="quakeml:uw.anss.org/AssocArO/UW/4522103">
          <pickID>quakeml:uw.anss.org/Arrival/UW/4522103</pickID>
          <phase>S</phase>
          <timeResidual>0.24</timeResidual>
          <creationInfo>
            <agencyID>UW</agencyID>
            <creationTime>2012-02-27T18:16:23.000000Z</creationTime>
          </creationInfo>
        </arrival>
        <arrival publicID="quakeml:uw.anss.org/AssocArO/UW/4522108">
          <pickID>quakeml:uw.anss.org/Arrival/UW/4522108</pickID>
          <phase>P</phase>
          <azimuth>144.1</azimuth>
          <distance>2.06</distance>
          <timeResidual>1.12</timeResidual>
          <creationInfo>
            <agencyID>UW</agencyID>
            <creationTime>2012-02-27T18:16:23.000000Z</creationTime>
          </creationInfo>
        </arrival>
        <arrival publicID="quakeml:uw.anss.org/AssocArO/UW/4522113">
          <pickID>quakeml:uw.anss.org/Arrival/UW/4522113</pickID>
          <phase>S</phase>
          <azimuth>144.1</azimuth>
          <distance>2.06</distance>
          <timeResidual>-0.1</timeResidual>
          <creationInfo>
            <agencyID>UW</agencyID>
            <creationTime>2012-02-27T18:16:23.000000Z</creationTime>
          </creationInfo>
        </arrival>
        <arrival publicID="quakeml:uw.anss.org/AssocArO/UW/4522118">
          <pickID>quakeml:uw.anss.org/Arrival/UW/4522118</pickID>
          <phase>P</phase>
          <azimuth>218.9</azimuth>
          <distance>0.7866</distance>
          <timeResidual>0.57</timeResidual>
          <creationInfo>
            <agencyID>UW</agencyID>
            <creationTime>2012-02-27T18:16:23.000000Z</creationTime>
          </creationInfo>
        </arrival>
        <arrival publicID="quakeml:uw.anss.org/AssocArO/UW/4522123">
          <pickID>quakeml:uw.anss.org/Arrival/UW/4522123</pickID>
          <phase>S</phase>
          <azimuth>218.9</azimuth>
          <distance>0.7866</distance>
          <timeResidual>0.44</timeResidual>
          <creationInfo>
            <agencyID>UW</agencyID>
            <creationTime>2012-02-27T18:16:23.000000Z</creationTime>
          </creationInfo>
        </arrival>
        <arrival publicID="quakeml:uw.anss.org/AssocArO/UW/4522128">
          <pickID>quakeml:uw.anss.org/Arrival/UW/4522128</pickID>
          <phase>P</phase>
          <azimuth>188.8</azimuth>
          <timeResidual>0.25</timeResidual>
          <creationInfo>
            <agencyID>UW</agencyID>
            <creationTime>2012-02-27T18:16:23.000000Z</creationTime>
          </creationInfo>
        </arrival>
        <arrival publicID="quakeml:uw.anss.org/AssocArO/UW/4522133">
          <pickID>quakeml:uw.anss.org/Arrival/UW/4522133</pickID>
          <phase>S</phase>
          <azimuth>188.8</azimuth>
          <timeResidual>-0.43</timeResidual>
          <creationInfo>
            <agencyID>UW</agencyID>
            <creationTime>2012-02-27T18:16:23.000000Z</creationTime>
          </creationInfo>
        </arrival>
        <arrival publicID="quakeml:uw.anss.org/AssocArO/UW/4522138">
          <pickID>quakeml:uw.anss.org/Arrival/UW/4522138</pickID>
          <phase>P</phase>
          <azimuth>191.0</azimuth>
          <distance>2.132</distance>
          <timeResidual>0.47</timeResidual>
          <creationInfo>
            <agencyID>UW</agencyID>
            <creationTime>2012-02-27T18:16:23.000000Z</creationTime>
          </creationInfo>
        </arrival>
        <arrival publicID="quakeml:uw.anss.org/AssocArO/UW/4522143">
          <pickID>quakeml:uw.anss.org/Arrival/UW/4522143</pickID>
          <phase>S</phase>
          <azimuth>191.0</azimuth>
          <distance>2.132</distance>
          <timeResidual>0.41</timeResidual>
          <creationInfo>
            <agencyID>UW</agencyID>
            <creationTime>2012-02-27T18:16:23.000000Z</creationTime>
          </creationInfo>
        </arrival>
        <arrival publicID="quakeml:uw.anss.org/AssocArO/UW/4522148">
          <pickID>quakeml:uw.anss.org/Arrival/UW/4522148</pickID>
          <phase>P</phase>
          <timeResidual>0.56</timeResidual>
          <creationInfo>
            <agencyID>UW</agencyID>
            <creationTime>2012-02-27T18:16:23.000000Z</creationTime>
          </creationInfo>
        </arrival>
        <arrival publicID="quakeml:uw.anss.org/AssocArO/UW/4522153">
          <pickID>quakeml:uw.anss.org/Arrival/UW/4522153</pickID>
          <phase>P</phase>
          <azimuth>317.4</azimuth>
          <distance>1.5</distance>
          <timeResidual>0.53</timeResidual>
          <creationInfo>
            <agencyID>UW</agencyID>
            <creationTime>2012-02-27T18:16:23.000000Z</creationTime>
          </creationInfo>
        </arrival>
        <arrival publicID="quakeml:uw.anss.org/AssocArO/UW/4522158">
          <pickID>quakeml:uw.anss.org/Arrival/UW/4522158</pickID>
          <phase>P</phase>
          <azimuth>287.2</azimuth>
          <timeResidual>-0.37</timeResidual>
          <creationInfo>
            <agencyID>UW</agencyID>
            <creationTime>2012-02-27T18:16:23.000000Z</creationTime>
          </creationInfo>
        </arrival>
        <arrival publicID="quakeml:uw.anss.org/AssocArO/UW/4522163">
          <pickID>quakeml:uw.anss.org/Arrival/UW/4522163</pickID>
          <phase>S</phase>
          <azimuth>287.2</azimuth>
          <timeResidual>-1.14</timeResidual>
          <creationInfo>
            <agencyID>UW</agencyID>
            <creationTime>2012-02-27T18:16:23.000000Z</creationTime>
          </creationInfo>
        </arrival>
        <arrival publicID="quakeml:uw.anss.org/AssocArO/UW/4522168">
          <pickID>quakeml:uw.anss.org/Arrival/UW/4522168</pickID>
          <phase>P</phase>
          <azimuth>233.9</azimuth>
          <distance>0.4285</distance>
          <timeResidual>-0.29</timeResidual>
          <creationInfo>
            <agencyID>UW</agencyID>
            <creationTime>2012-02-27T18:16:23.000000Z</creationTime>
          </creationInfo>
        </arrival>
        <arrival publicID="quakeml:uw.anss.org/AssocArO/UW/4522173">
          <pickID>quakeml:uw.anss.org/Arrival/UW/4522173</pickID>
          <phase>S</phase>
          <azimuth>233.9</azimuth>
          <distance>0.4285</distance>
          <timeResidual>-0.57</timeResidual>
          <creationInfo>
            <agencyID>UW</agencyID>
            <creationTime>2012-02-27T18:16:23.000000Z</creationTime>
          </creationInfo>
        </arrival>
        <arrival publicID="quakeml:uw.anss.org/AssocArO/UW/4522178">
          <pickID>quakeml:uw.anss.org/Arrival/UW/4522178</pickID>
          <phase>P</phase>
          <azimuth>134.8</azimuth>
          <distance>1.876</distance>
          <timeResidual>1.14</timeResidual>
          <creationInfo>
            <agencyID>UW</agencyID>
            <creationTime>2012-02-27T18:16:23.000000Z</creationTime>
          </creationInfo>
        </arrival>
        <arrival publicID="quakeml:uw.anss.org/AssocArO/UW/4522183">
          <pickID>quakeml:uw.anss.org/Arrival/UW/4522183</pickID>
          <phase>S</phase>
          <azimuth>134.8</azimuth>
          <distance>1.876</distance>
          <timeResidual>-0.2</timeResidual>
          <creationInfo>
            <agencyID>UW</agencyID>
            <creationTime>2012-02-27T18:16:23.000000Z</creationTime>
          </creationInfo>
        </arrival>
        <arrival publicID="quakeml:uw.anss.org/AssocArO/UW/4522188">
          <pickID>quakeml:uw.anss.org/Arrival/UW/4522188</pickID>
          <phase>P</phase>
          <azimuth>297.8</azimuth>
          <timeResidual>-0.13</timeResidual>
          <creationInfo>
            <agencyID>UW</agencyID>
            <creationTime>2012-02-27T18:16:23.000000Z</creationTime>
          </creationInfo>
        </arrival>
        <arrival publicID="quakeml:uw.anss.org/AssocArO/UW/4522193">
          <pickID>quakeml:uw.anss.org/Arrival/UW/4522193</pickID>
          <phase>S</phase>
          <azimuth>297.8</azimuth>
          <timeResidual>-1.48</timeResidual>
          <creationInfo>
            <agencyID>UW</agencyID>
            <creationTime>2012-02-27T18:16:23.000000Z</creationTime>
          </creationInfo>
        </arrival>
        <arrival publicID="quakeml:uw.anss.org/AssocArO/UW/4522198">
          <pickID>quakeml:uw.anss.org/Arrival/UW/4522198</pickID>
          <phase>P</phase>
          <azimuth>203.6</azimuth>
          <timeResidual>0.11</timeResidual>
          <creationInfo>
            <agencyID>UW</agencyID>
            <creationTime>2012-02-27T18:16:23.000000Z</creationTime>
          </creationInfo>
        </arrival>
        <arrival publicID="quakeml:uw.anss.org/AssocArO/UW/4522203">
          <pickID>quakeml:uw.anss.org/Arrival/UW/4522203</pickID>
          <phase>S</phase>
          <azimuth>203.6</azimuth>
          <timeResidual>-0.24</timeResidual>
          <creationInfo>
            <agencyID>UW</agencyID>
            <creationTime>2012-02-27T18:16:23.000000Z</creationTime>
          </creationInfo>
        </arrival>
        <arrival publicID="quakeml:uw.anss.org/AssocArO/UW/4522208">
          <pickID>quakeml:uw.anss.org/Arrival/UW/4522208</pickID>
          <phase>P</phase>
          <azimuth>185.5</azimuth>
          <timeResidual>0.11</timeResidual>
          <creationInfo>
            <agencyID>UW</agencyID>
            <creationTime>2012-02-27T18:16:23.000000Z</creationTime>
          </creationInfo>
        </arrival>
        <arrival publicID="quakeml:uw.anss.org/AssocArO/UW/4522213">
          <pickID>quakeml:uw.anss.org/Arrival/UW/4522213</pickID>
          <phase>S</phase>
          <azimuth>185.5</azimuth>
          <timeResidual>-0.29</timeResidual>
          <creationInfo>
            <agencyID>UW</agencyID>
            <creationTime>2012-02-27T18:16:23.000000Z</creationTime>
          </creationInfo>
        </arrival>
        <arrival publicID="quakeml:uw.anss.org/AssocArO/UW/4522218">
          <pickID>quakeml:uw.anss.org/Arrival/UW/4522218</pickID>
          <phase>P</phase>
          <azimuth>134.1</azimuth>
          <distance>1.498</distance>
          <timeResidual>0.4</timeResidual>
          <creationInfo>
            <agencyID>UW</agencyID>
            <creationTime>2012-02-27T18:16:23.000000Z</creationTime>
          </creationInfo>
        </arrival>
        <arrival publicID="quakeml:uw.anss.org/AssocArO/UW/4522223">
          <pickID>quakeml:uw.anss.org/Arrival/UW/4522223</pickID>
          <phase>S</phase>
          <azimuth>134.1</azimuth>
          <distance>1.498</distance>
          <timeResidual>-0.77</timeResidual>
          <creationInfo>
            <agencyID>UW</agencyID>
            <creationTime>2012-02-27T18:16:23.000000Z</creationTime>
          </creationInfo>
        </arrival>
        <arrival publicID="quakeml:uw.anss.org/AssocArO/UW/4522228">
          <pickID>quakeml:uw.anss.org/Arrival/UW/4522228</pickID>
          <phase>P</phase>
          <timeResidual>-0.28</timeResidual>
          <creationInfo>
            <agencyID>UW</agencyID>
            <creationTime>2012-02-27T18:16:23.000000Z</creationTime>
          </creationInfo>
        </arrival>
        <arrival publicID="quakeml:uw.anss.org/AssocArO/UW/4522233">
          <pickID>quakeml:uw.anss.org/Arrival/UW/4522233</pickID>
          <phase>P</phase>
          <timeResidual>0.86</timeResidual>
          <creationInfo>
            <agencyID>UW</agencyID>
            <creationTime>2012-02-27T18:16:23.000000Z</creationTime>
          </creationInfo>
        </arrival>
        <arrival publicID="quakeml:uw.anss.org/AssocArO/UW/4522238">
          <pickID>quakeml:uw.anss.org/Arrival/UW/4522238</pickID>
          <phase>P</phase>
          <azimuth>144.3</azimuth>
          <distance>1.641</distance>
          <timeResidual>0.07</timeResidual>
          <creationInfo>
            <agencyID>UW</agencyID>
            <creationTime>2012-02-27T18:16:23.000000Z</creationTime>
          </creationInfo>
        </arrival>
        <arrival publicID="quakeml:uw.anss.org/AssocArO/UW/4522243">
          <pickID>quakeml:uw.anss.org/Arrival/UW/4522243</pickID>
          <phase>P</phase>
          <azimuth>190.4</azimuth>
          <distance>1.604</distance>
          <timeResidual>0.52</timeResidual>
          <creationInfo>
            <agencyID>UW</agencyID>
            <creationTime>2012-02-27T18:16:23.000000Z</creationTime>
          </creationInfo>
        </arrival>
        <arrival publicID="quakeml:uw.anss.org/AssocArO/UW/4522248">
          <pickID>quakeml:uw.anss.org/Arrival/UW/4522248</pickID>
          <phase>P</phase>
          <timeResidual>0.83</timeResidual>
          <creationInfo>
            <agencyID>UW</agencyID>
            <creationTime>2012-02-27T18:16:23.000000Z</creationTime>
          </creationInfo>
        </arrival>
        <arrival publicID="quakeml:uw.anss.org/AssocArO/UW/4522253">
          <pickID>quakeml:uw.anss.org/Arrival/UW/4522253</pickID>
          <phase>P</phase>
          <azimuth>188.9</azimuth>
          <distance>0.5959</distance>
          <timeResidual>-0.38</timeResidual>
          <creationInfo>
            <agencyID>UW</agencyID>
            <creationTime>2012-02-27T18:16:23.000000Z</creationTime>
          </creationInfo>
        </arrival>
        <arrival publicID="quakeml:uw.anss.org/AssocArO/UW/4522258">
          <pickID>quakeml:uw.anss.org/Arrival/UW/4522258</pickID>
          <phase>S</phase>
          <azimuth>188.9</azimuth>
          <distance>0.5959</distance>
          <timeResidual>-1.0</timeResidual>
          <creationInfo>
            <agencyID>UW</agencyID>
            <creationTime>2012-02-27T18:16:23.000000Z</creationTime>
          </creationInfo>
        </arrival>
        <arrival publicID="quakeml:uw.anss.org/AssocArO/UW/4522263">
          <pickID>quakeml:uw.anss.org/Arrival/UW/4522263</pickID>
          <phase>P</phase>
          <azimuth>187.4</azimuth>
          <distance>2.306</distance>
          <timeResidual>0.52</timeResidual>
