<?xml version='1.0' encoding='utf-8'?>
<q:quakeml xmlns="http://quakeml.org/xmlns/bed/1.2" xmlns:q="http://quakeml.org/xmlns/quakeml/1.2" xmlns:ns0="http://anss.org/xmlns/catalog/0.1">
  <eventParameters publicID="smi:local/25898142-1b8c-4d04-b908-6b148767665b">
    <event publicID="quakeml:uw.anss.org/Event/UW/10286903" ns0:datasource="uw" ns0:dataid="uw10286903" ns0:eventsource="uw" ns0:eventid="10286903">
      <preferredOriginID>quakeml:uw.anss.org/Origin/UW/563848</preferredOriginID>
      <preferredMagnitudeID>quakeml:uw.anss.org/Netmag/UW/473278</preferredMagnitudeID>
      <type>earthquake</type>
      <creationInfo>
        <agencyID>UW</agencyID>
        <creationTime>2012-02-27T17:57:50.000000Z</creationTime>
        <version>3</version>
      </creationInfo>
      <origin publicID="quakeml:uw.anss.org/Origin/UW/563848" ns0:datasource="uw" ns0:dataid="uw10286903" ns0:eventsource="uw" ns0:eventid="10286903">
        <time>
          <value>1992-01-19T03:00:17.190000Z</value>
          <uncertainty>0.15</uncertainty>
        </time>
        <latitude>
          <value>48.6738333</value>
          <uncertainty>0.82</uncertainty>
        </latitude>
        <longitude>
          <value>-121.5533333</value>
          <uncertainty>0.72</uncertainty>
        </longitude>
        <depth>
          <value>5998.0</value>
          <uncertainty>1290.0</uncertainty>
        </depth>
        <depthType>from location</depthType>
        <timeFixed>false</timeFixed>
        <epicenterFixed>false</epicenterFixed>
        <methodID>smi:uw.anss.org/origin/spong</methodID>
        <quality>
          <associatedPhaseCount>56</associatedPhaseCount>
          <usedPhaseCount>32</usedPhaseCount>
          <associatedStationCount>44</associatedStationCount>
          <usedStationCount>0</usedStationCount>
          <standardError>0.38</standardError>
          <azimuthalGap>165.0</azimuthalGap>
        </quality>
        <type>hypocenter</type>
        <evaluationMode>manual</evaluationMode>
        <evaluationStatus>final</evaluationStatus>
        <creationInfo>
          <agencyID>UW</agencyID>
          <creationTime>2012-02-27T17:57:50.000000Z</creationTime>
        </creationInfo>
        <originUncertainty>
          <preferredDescription>horizontal uncertainty</preferredDescription>
          <horizontalUncertainty>1091.0</horizontalUncertainty>
        </originUncertainty>
        <arrival publicID="quakeml:uw.anss.org/AssocArO/UW/4397478">
          <pickID>quakeml:uw.anss.org/Arrival/UW/4397478</pickID>
          <phase>P</phase>
          <azimuth>224.9</azimuth>
          <distance>1.437</distance>
          <timeResidual>0.09</timeResidual>
          <creationInfo>
            <agencyID>UW</agencyID>
            <creationTime>2012-02-27T17:57:50.000000Z</creationTime>
          </creationInfo>
        </arrival>
        <arrival publicID="quakeml:uw.anss.org/AssocArO/UW/4397483">
          <pickID>quakeml:uw.anss.org/Arrival/UW/4397483</pickID>
          <phase>S</phase>
          <azimuth>224.9</azimuth>
          <distance>1.437</distance>
          <timeResidual>-0.17</timeResidual>
          <creationInfo>
            <agencyID>UW</agencyID>
            <creationTime>2012-02-27T17:57:50.000000Z</creationTime>
          </creationInfo>
        </arrival>
        <arrival publicID="quakeml:uw.anss.org/AssocArO/UW/4397488">
          <pickID>quakeml:uw.anss.org/Arrival/UW/4397488</pickID>
          <phase>P</phase>
          <azimuth>165.6</azimuth>
          <distance>2.003</distance>
          <timeResidual>0.5</timeResidual>
          <creationInfo>
            <agencyID>UW</agencyID>
            <creationTime>2012-02-27T17:57:50.000000Z</creationTime>
          </creationInfo>
        </arrival>
        <arrival publicID="quakeml:uw.anss.org/AssocArO/UW/4397493">
          <pickID>quakeml:uw.anss.org/Arrival/UW/4397493</pickID>
          <phase>P</phase>
          <azimuth>126.4</azimuth>
          <distance>1.009</distance>
          <timeResidual>-0.25</timeResidual>
          <creationInfo>
            <agencyID>UW</agencyID>
            <creationTime>2012-02-27T17:57:50.000000Z</creationTime>
          </creationInfo>
        </arrival>
        <arrival publicID="quakeml:uw.anss.org/AssocArO/UW/4397498">
          <pickID>quakeml:uw.anss.org/Arrival/UW/4397498</pickID>
          <phase>P</phase>
          <azimuth>312.1</azimuth>
          <timeResidual>-0.02</timeResidual>
          <creationInfo>
            <agencyID>UW</agencyID>
            <creationTime>2012-02-27T17:57:50.000000Z</creationTime>
          </creationInfo>
        </arrival>
        <arrival publicID="quakeml:uw.anss.org/AssocArO/UW/4397503">
          <pickID>quakeml:uw.anss.org/Arrival/UW/4397503</pickID>
          <phase>S</phase>
          <azimuth>312.1</azimuth>
          <timeResidual>-0.6</timeResidual>
          <creationInfo>
            <agencyID>UW</agencyID>
            <creationTime>2012-02-27T17:57:50.000000Z</creationTime>
          </creationInfo>
        </arrival>
        <arrival publicID="quakeml:uw.anss.org/AssocArO/UW/4397508">
          <pickID>quakeml:uw.anss.org/Arrival/UW/4397508</pickID>
          <phase>P</phase>
          <azimuth>142.3</azimuth>
          <distance>1.347</distance>
          <timeResidual>0.12</timeResidual>
          <creationInfo>
            <agencyID>UW</agencyID>
            <creationTime>2012-02-27T17:57:50.000000Z</creationTime>
          </creationInfo>
        </arrival>
        <arrival publicID="quakeml:uw.anss.org/AssocArO/UW/4397513">
          <pickID>quakeml:uw.anss.org/Arrival/UW/4397513</pickID>
          <phase>S</phase>
          <azimuth>142.3</azimuth>
          <distance>1.347</distance>
          <timeResidual>-1.29</timeResidual>
          <creationInfo>
            <agencyID>UW</agencyID>
            <creationTime>2012-02-27T17:57:50.000000Z</creationTime>
          </creationInfo>
        </arrival>
        <arrival publicID="quakeml:uw.anss.org/AssocArO/UW/4397518">
          <pickID>quakeml:uw.anss.org/Arrival/UW/4397518</pickID>
          <phase>P</phase>
          <azimuth>186.1</azimuth>
          <timeResidual>-0.04</timeResidual>
          <creationInfo>
            <agencyID>UW</agencyID>
            <creationTime>2012-02-27T17:57:50.000000Z</creationTime>
          </creationInfo>
        </arrival>
        <arrival publicID="quakeml:uw.anss.org/AssocArO/UW/4397523">
          <pickID>quakeml:uw.anss.org/Arrival/UW/4397523</pickID>
          <phase>P</phase>
          <azimuth>183.9</azimuth>
          <distance>1.808</distance>
          <timeResidual>0.21</timeResidual>
          <creationInfo>
            <agencyID>UW</agencyID>
            <creationTime>2012-02-27T17:57:50.000000Z</creationTime>
          </creationInfo>
        </arrival>
        <arrival publicID="quakeml:uw.anss.org/AssocArO/UW/4397528">
          <pickID>quakeml:uw.anss.org/Arrival/UW/4397528</pickID>
          <phase>P</phase>
          <azimuth>108.6</azimuth>
          <distance>2.377</distance>
          <timeResidual>2.26</timeResidual>
          <creationInfo>
            <agencyID>UW</agencyID>
            <creationTime>2012-02-27T17:57:50.000000Z</creationTime>
          </creationInfo>
        </arrival>
        <arrival publicID="quakeml:uw.anss.org/AssocArO/UW/4397533">
          <pickID>quakeml:uw.anss.org/Arrival/UW/4397533</pickID>
          <phase>P</phase>
          <timeResidual>0.01</timeResidual>
          <creationInfo>
            <agencyID>UW</agencyID>
            <creationTime>2012-02-27T17:57:50.000000Z</creationTime>
          </creationInfo>
        </arrival>
        <arrival publicID="quakeml:uw.anss.org/AssocArO/UW/4397538">
          <pickID>quakeml:uw.anss.org/Arrival/UW/4397538</pickID>
          <phase>P</phase>
          <azimuth>134.5</azimuth>
          <distance>1.861</distance>
          <timeResidual>0.65</timeResidual>
          <creationInfo>
            <agencyID>UW</agencyID>
            <creationTime>2012-02-27T17:57:50.000000Z</creationTime>
          </creationInfo>
        </arrival>
        <arrival publicID="quakeml:uw.anss.org/AssocArO/UW/4397543">
          <pickID>quakeml:uw.anss.org/Arrival/UW/4397543</pickID>
          <phase>P</phase>
          <azimuth>236.5</azimuth>
          <distance>0.4524</distance>
          <timeResidual>-0.02</timeResidual>
          <creationInfo>
            <agencyID>UW</agencyID>
            <creationTime>2012-02-27T17:57:50.000000Z</creationTime>
          </creationInfo>
        </arrival>
        <arrival publicID="quakeml:uw.anss.org/AssocArO/UW/4397548">
          <pickID>quakeml:uw.anss.org/Arrival/UW/4397548</pickID>
          <phase>S</phase>
          <azimuth>236.5</azimuth>
          <distance>0.4524</distance>
          <timeResidual>0.18</timeResidual>
          <creationInfo>
            <agencyID>UW</agencyID>
            <creationTime>2012-02-27T17:57:50.000000Z</creationTime>
          </creationInfo>
        </arrival>
        <arrival publicID="quakeml:uw.anss.org/AssocArO/UW/4397553">
          <pickID>quakeml:uw.anss.org/Arrival/UW/4397553</pickID>
          <phase>P</phase>
          <azimuth>186.4</azimuth>
          <timeResidual>0.01</timeResidual>
          <creationInfo>
            <agencyID>UW</agencyID>
            <creationTime>2012-02-27T17:57:50.000000Z</creationTime>
          </creationInfo>
        </arrival>
        <arrival publicID="quakeml:uw.anss.org/AssocArO/UW/4397558">
          <pickID>quakeml:uw.anss.org/Arrival/UW/4397558</pickID>
          <phase>S</phase>
          <azimuth>186.4</azimuth>
          <timeResidual>-0.14</timeResidual>
          <creationInfo>
            <agencyID>UW</agencyID>
            <creationTime>2012-02-27T17:57:50.000000Z</creationTime>
          </creationInfo>
        </arrival>
        <arrival publicID="quakeml:uw.anss.org/AssocArO/UW/4397563">
          <pickID>quakeml:uw.anss.org/Arrival/UW/4397563</pickID>
          <phase>P</phase>
          <azimuth>212.6</azimuth>
          <distance>2.008</distance>
          <timeResidual>-0.01</timeResidual>
          <creationInfo>
            <agencyID>UW</agencyID>
            <creationTime>2012-02-27T17:57:50.000000Z</creationTime>
          </creationInfo>
        </arrival>
        <arrival publicID="quakeml:uw.anss.org/AssocArO/UW/4397568">
          <pickID>quakeml:uw.anss.org/Arrival/UW/4397568</pickID>
          <phase>P</phase>
          <azimuth>189.4</azimuth>
          <distance>1.754</distance>
          <timeResidual>0.18</timeResidual>
          <creationInfo>
            <agencyID>UW</agencyID>
            <creationTime>2012-02-27T17:57:50.000000Z</creationTime>
          </creationInfo>
        </arrival>
        <arrival publicID="quakeml:uw.anss.org/AssocArO/UW/4397573">
          <pickID>quakeml:uw.anss.org/Arrival/UW/4397573</pickID>
          <phase>P</phase>
          <azimuth>185.2</azimuth>
          <distance>1.932</distance>
          <timeResidual>-0.23</timeResidual>
          <creationInfo>
            <agencyID>UW</agencyID>
            <creationTime>2012-02-27T17:57:50.000000Z</creationTime>
          </creationInfo>
        </arrival>
        <arrival publicID="quakeml:uw.anss.org/AssocArO/UW/4397578">
          <pickID>quakeml:uw.anss.org/Arrival/UW/4397578</pickID>
          <phase>P</phase>
          <azimuth>188.0</azimuth>
          <distance>1.227</distance>
          <timeResidual>0.17</timeResidual>
          <creationInfo>
            <agencyID>UW</agencyID>
            <creationTime>2012-02-27T17:57:50.000000Z</creationTime>
          </creationInfo>
        </arrival>
        <arrival publicID="quakeml:uw.anss.org/AssocArO/UW/4397583">
          <pickID>quakeml:uw.anss.org/Arrival/UW/4397583</pickID>
          <phase>P</phase>
          <azimuth>173.5</azimuth>
          <distance>0.2273</distance>
          <timeResidual>-0.56</timeResidual>
          <creationInfo>
            <agencyID>UW</agencyID>
            <creationTime>2012-02-27T17:57:50.000000Z</creationTime>
          </creationInfo>
        </arrival>
        <arrival publicID="quakeml:uw.anss.org/AssocArO/UW/4397588">
          <pickID>quakeml:uw.anss.org/Arrival/UW/4397588</pickID>
          <phase>P</phase>
          <azimuth>179.7</azimuth>
          <distance>1.976</distance>
          <timeResidual>0.01</timeResidual>
          <creationInfo>
            <agencyID>UW</agencyID>
            <creationTime>2012-02-27T17:57:50.000000Z</creationTime>
          </creationInfo>
        </arrival>
        <arrival publicID="quakeml:uw.anss.org/AssocArO/UW/4397593">
          <pickID>quakeml:uw.anss.org/Arrival/UW/4397593</pickID>
          <phase>P</phase>
          <azimuth>303.3</azimuth>
          <timeResidual>0.09</timeResidual>
          <creationInfo>
            <agencyID>UW</agencyID>
            <creationTime>2012-02-27T17:57:50.000000Z</creationTime>
          </creationInfo>
        </arrival>
        <arrival publicID="quakeml:uw.anss.org/AssocArO/UW/4397598">
          <pickID>quakeml:uw.anss.org/Arrival/UW/4397598</pickID>
          <phase>P</phase>
          <azimuth>202.7</azimuth>
          <distance>1.214</distance>
          <timeResidual>0.6</timeResidual>
          <creationInfo>
            <agencyID>UW</agencyID>
            <creationTime>2012-02-27T17:57:50.000000Z</creationTime>
          </creationInfo>
        </arrival>
        <arrival publicID="quakeml:uw.anss.org/AssocArO/UW/4397603">
          <pickID>quakeml:uw.anss.org/Arrival/UW/4397603</pickID>
          <phase>P</phase>
          <azimuth>219.7</azimuth>
          <distance>1.103</distance>
          <timeResidual>1.01</timeResidual>
          <creationInfo>
            <agencyID>UW</agencyID>
            <creationTime>2012-02-27T17:57:50.000000Z</creationTime>
          </creationInfo>
        </arrival>
        <arrival publicID="quakeml:uw.anss.org/AssocArO/UW/4397608">
          <pickID>quakeml:uw.anss.org/Arrival/UW/4397608</pickID>
          <phase>S</phase>
          <azimuth>219.7</azimuth>
          <distance>1.103</distance>
          <timeResidual>1.45</timeResidual>
          <creationInfo>
            <agencyID>UW</agencyID>
            <creationTime>2012-02-27T17:57:50.000000Z</creationTime>
          </creationInfo>
        </arrival>
        <arrival publicID="quakeml:uw.anss.org/AssocArO/UW/4397613">
          <pickID>quakeml:uw.anss.org/Arrival/UW/4397613</pickID>
          <phase>P</phase>
          <azimuth>242.0</azimuth>
          <distance>0.7402</distance>
          <timeResidual>0.88</timeResidual>
          <creationInfo>
            <agencyID>UW</agencyID>
            <creationTime>2012-02-27T17:57:50.000000Z</creationTime>
          </creationInfo>
        </arrival>
        <arrival publicID="quakeml:uw.anss.org/AssocArO/UW/4397618">
          <pickID>quakeml:uw.anss.org/Arrival/UW/4397618</pickID>
          <phase>P</phase>
          <azimuth>123.3</azimuth>
          <distance>1.738</distance>
          <timeResidual>0.53</timeResidual>
          <creationInfo>
            <agencyID>UW</agencyID>
            <creationTime>2012-02-27T17:57:50.000000Z</creationTime>
          </creationInfo>
        </arrival>
        <arrival publicID="quakeml:uw.anss.org/AssocArO/UW/4397623">
          <pickID>quakeml:uw.anss.org/Arrival/UW/4397623</pickID>
          <phase>P</phase>
          <azimuth>239.9</azimuth>
          <distance>1.675</distance>
          <timeResidual>0.62</timeResidual>
          <creationInfo>
            <agencyID>UW</agencyID>
            <creationTime>2012-02-27T17:57:50.000000Z</creationTime>
          </creationInfo>
        </arrival>
        <arrival publicID="quakeml:uw.anss.org/AssocArO/UW/4397628">
          <pickID>quakeml:uw.anss.org/Arrival/UW/4397628</pickID>
          <phase>P</phase>
          <azimuth>207.6</azimuth>
          <timeResidual>-0.13</timeResidual>
          <creationInfo>
            <agencyID>UW</agencyID>
            <creationTime>2012-02-27T17:57:50.000000Z</creationTime>
          </creationInfo>
        </arrival>
        <arrival publicID="quakeml:uw.anss.org/AssocArO/UW/4397633">
          <pickID>quakeml:uw.anss.org/Arrival/UW/4397633</pickID>
          <phase>S</phase>
          <azimuth>207.6</azimuth>
          <timeResidual>-0.61</timeResidual>
          <creationInfo>
            <agencyID>UW</agencyID>
            <creationTime>2012-02-27T17:57:50.000000Z</creationTime>
          </creationInfo>
        </arrival>
        <arrival publicID="quakeml:uw.anss.org/AssocArO/UW/4397638">
          <pickID>quakeml:uw.anss.org/Arrival/UW/4397638</pickID>
          <phase>P</phase>
          <azimuth>147.9</azimuth>
          <distance>2.015</distance>
          <timeResidual>0.88</timeResidual>
          <creationInfo>
            <agencyID>UW</agencyID>
            <creationTime>2012-02-27T17:57:50.000000Z</creationTime>
          </creationInfo>
        </arrival>
        <arrival publicID="quakeml:uw.anss.org/AssocArO/UW/4397643">
          <pickID>quakeml:uw.anss.org/Arrival/UW/4397643</pickID>
          <phase>P</phase>
          <azimuth>182.7</azimuth>
          <timeResidual>0.04</timeResidual>
          <creationInfo>
            <agencyID>UW</agencyID>
            <creationTime>2012-02-27T17:57:50.000000Z</creationTime>
          </creationInfo>
        </arrival>
        <arrival publicID="quakeml:uw.anss.org/AssocArO/UW/4397648">
          <pickID>quakeml:uw.anss.org/Arrival/UW/4397648</pickID>
          <phase>P</phase>
          <azimuth>123.0</azimuth>
          <distance>2.301</distance>
          <timeResidual>2.01</timeResidual>
          <creationInfo>
            <agencyID>UW</agencyID>
            <creationTime>2012-02-27T17:57:50.000000Z</creationTime>
          </creationInfo>
        </arrival>
        <arrival publicID="quakeml:uw.anss.org/AssocArO/UW/4397653">
          <pickID>quakeml:uw.anss.org/Arrival/UW/4397653</pickID>
          <phase>P</phase>
          <azimuth>119.5</azimuth>
          <distance>1.374</distance>
          <timeResidual>0.28</timeResidual>
          <creationInfo>
            <agencyID>UW</agencyID>
            <creationTime>2012-02-27T17:57:50.000000Z</creationTime>
          </creationInfo>
        </arrival>
        <arrival publicID="quakeml:uw.anss.org/AssocArO/UW/4397658">
          <pickID>quakeml:uw.anss.org/Arrival/UW/4397658</pickID>
          <phase>S</phase>
          <azimuth>119.5</azimuth>
          <distance>1.374</distance>
          <timeResidual>-1.28</timeResidual>
          <creationInfo>
            <agencyID>UW</agencyID>
            <creationTime>2012-02-27T17:57:50.000000Z</creationTime>
          </creationInfo>
        </arrival>
        <arrival publicID="quakeml:uw.anss.org/AssocArO/UW/4397663">
          <pickID>quakeml:uw.anss.org/Arrival/UW/4397663</pickID>
          <phase>P</phase>
          <timeResidual>-0.04</timeResidual>
          <creationInfo>
            <agencyID>UW</agencyID>
            <creationTime>2012-02-27T17:57:50.000000Z</creationTime>
          </creationInfo>
        </arrival>
        <arrival publicID="quakeml:uw.anss.org/AssocArO/UW/4397668">
          <pickID>quakeml:uw.anss.org/Arrival/UW/4397668</pickID>
          <phase>S</phase>
          <timeResidual>-0.5</timeResidual>
          <creationInfo>
            <agencyID>UW</agencyID>
            <creationTime>2012-02-27T17:57:50.000000Z</creationTime>
          </creationInfo>
        </arrival>
        <arrival publicID="quakeml:uw.anss.org/AssocArO/UW/4397673">
          <pickID>quakeml:uw.anss.org/Arrival/UW/4397673</pickID>
          <phase>P</phase>
          <azimuth>235.3</azimuth>
          <distance>1.159</distance>
          <timeResidual>0.86</timeResidual>
          <creationInfo>
            <agencyID>UW</agencyID>
            <creationTime>2012-02-27T17:57:50.000000Z</creationTime>
          </creationInfo>
        </arrival>
