<?xml version='1.0' encoding='utf-8'?>
<q:quakeml xmlns="http://quakeml.org/xmlns/bed/1.2" xmlns:q="http://quakeml.org/xmlns/quakeml/1.2" xmlns:ns0="http://anss.org/xmlns/catalog/0.1">
  <eventParameters publicID="smi:local/fa9567ef-d1fd-49a5-b008-9169b58be0c7">
    <event publicID="quakeml:uw.anss.org/Event/UW/10288923" ns0:datasource="uw" ns0:dataid="uw10288923" ns0:eventsource="uw" ns0:eventid="10288923">
      <preferredOriginID>quakeml:uw.anss.org/Origin/UW/565868</preferredOriginID>
      <preferredMagnitudeID>quakeml:uw.anss.org/Netmag/UW/475148</preferredMagnitudeID>
      <type>earthquake</type>
      <creationInfo>
        <agencyID>UW</agencyID>
        <creationTime>2012-02-27T18:01:38.000000Z</creationTime>
        <version>3</version>
      </creationInfo>
      <origin publicID="quakeml:uw.anss.org/Origin/UW/565868" ns0:datasource="uw" ns0:dataid="uw10288923" ns0:eventsource="uw" ns0:eventid="10288923">
        <time>
          <value>1992-04-18T20:47:07.060000Z</value>
          <uncertainty>0.1</uncertainty>
        </time>
        <latitude>
          <value>48.8561667</value>
          <uncertainty>0.88</uncertainty>
        </latitude>
        <longitude>
          <value>-122.1365</value>
          <uncertainty>0.76</uncertainty>
        </longitude>
        <depth>
          <value>1412.0</value>
          <uncertainty>1520.0</uncertainty>
        </depth>
        <depthType>operator assigned</depthType>
        <timeFixed>false</timeFixed>
        <epicenterFixed>true</epicenterFixed>
        <methodID>smi:uw.anss.org/origin/spong</methodID>
        <quality>
          <associatedPhaseCount>82</associatedPhaseCount>
          <usedPhaseCount>38</usedPhaseCount>
          <associatedStationCount>60</associatedStationCount>
          <usedStationCount>0</usedStationCount>
          <standardError>0.4</standardError>
          <azimuthalGap>107.0</azimuthalGap>
        </quality>
        <type>hypocenter</type>
        <evaluationMode>manual</evaluationMode>
        <evaluationStatus>final</evaluationStatus>
        <creationInfo>
          <agencyID>UW</agencyID>
          <creationTime>2012-02-27T18:01:38.000000Z</creationTime>
        </creationInfo>
        <originUncertainty>
          <preferredDescription>horizontal uncertainty</preferredDescription>
          <horizontalUncertainty>1163.0</horizontalUncertainty>
        </originUncertainty>
        <arrival publicID="quakeml:uw.anss.org/AssocArO/UW/4433358">
          <pickID>quakeml:uw.anss.org/Arrival/UW/4433358</pickID>
          <phase>P</phase>
          <azimuth>287.4</azimuth>
          <timeResidual>-0.36</timeResidual>
          <creationInfo>
            <agencyID>UW</agencyID>
            <creationTime>2012-02-27T18:01:38.000000Z</creationTime>
          </creationInfo>
        </arrival>
        <arrival publicID="quakeml:uw.anss.org/AssocArO/UW/4433363">
          <pickID>quakeml:uw.anss.org/Arrival/UW/4433363</pickID>
          <phase>S</phase>
          <azimuth>287.4</azimuth>
          <timeResidual>-0.57</timeResidual>
          <creationInfo>
            <agencyID>UW</agencyID>
            <creationTime>2012-02-27T18:01:38.000000Z</creationTime>
          </creationInfo>
        </arrival>
        <arrival publicID="quakeml:uw.anss.org/AssocArO/UW/4433368">
          <pickID>quakeml:uw.anss.org/Arrival/UW/4433368</pickID>
          <phase>P</phase>
          <azimuth>207.2</azimuth>
          <distance>1.356</distance>
          <timeResidual>-0.11</timeResidual>
          <creationInfo>
            <agencyID>UW</agencyID>
            <creationTime>2012-02-27T18:01:38.000000Z</creationTime>
          </creationInfo>
        </arrival>
        <arrival publicID="quakeml:uw.anss.org/AssocArO/UW/4433373">
          <pickID>quakeml:uw.anss.org/Arrival/UW/4433373</pickID>
          <phase>P</phase>
          <azimuth>122.8</azimuth>
          <distance>1.431</distance>
          <timeResidual>1.01</timeResidual>
          <creationInfo>
            <agencyID>UW</agencyID>
            <creationTime>2012-02-27T18:01:38.000000Z</creationTime>
          </creationInfo>
        </arrival>
        <arrival publicID="quakeml:uw.anss.org/AssocArO/UW/4433378">
          <pickID>quakeml:uw.anss.org/Arrival/UW/4433378</pickID>
          <phase>P</phase>
          <azimuth>325.4</azimuth>
          <timeResidual>0.04</timeResidual>
          <creationInfo>
            <agencyID>UW</agencyID>
            <creationTime>2012-02-27T18:01:38.000000Z</creationTime>
          </creationInfo>
        </arrival>
        <arrival publicID="quakeml:uw.anss.org/AssocArO/UW/4433383">
          <pickID>quakeml:uw.anss.org/Arrival/UW/4433383</pickID>
          <phase>S</phase>
          <azimuth>325.4</azimuth>
          <timeResidual>0.06</timeResidual>
          <creationInfo>
            <agencyID>UW</agencyID>
            <creationTime>2012-02-27T18:01:38.000000Z</creationTime>
          </creationInfo>
        </arrival>
        <arrival publicID="quakeml:uw.anss.org/AssocArO/UW/4433388">
          <pickID>quakeml:uw.anss.org/Arrival/UW/4433388</pickID>
          <phase>P</phase>
          <azimuth>135.5</azimuth>
          <distance>1.739</distance>
          <timeResidual>1.43</timeResidual>
          <creationInfo>
            <agencyID>UW</agencyID>
            <creationTime>2012-02-27T18:01:38.000000Z</creationTime>
          </creationInfo>
        </arrival>
        <arrival publicID="quakeml:uw.anss.org/AssocArO/UW/4433393">
          <pickID>quakeml:uw.anss.org/Arrival/UW/4433393</pickID>
          <phase>P</phase>
          <azimuth>157.0</azimuth>
          <distance>2.301</distance>
          <timeResidual>0.6</timeResidual>
          <creationInfo>
            <agencyID>UW</agencyID>
            <creationTime>2012-02-27T18:01:38.000000Z</creationTime>
          </creationInfo>
        </arrival>
        <arrival publicID="quakeml:uw.anss.org/AssocArO/UW/4433398">
          <pickID>quakeml:uw.anss.org/Arrival/UW/4433398</pickID>
          <phase>P</phase>
          <azimuth>208.2</azimuth>
          <distance>1.738</distance>
          <timeResidual>1.12</timeResidual>
          <creationInfo>
            <agencyID>UW</agencyID>
            <creationTime>2012-02-27T18:01:38.000000Z</creationTime>
          </creationInfo>
        </arrival>
        <arrival publicID="quakeml:uw.anss.org/AssocArO/UW/4433403">
          <pickID>quakeml:uw.anss.org/Arrival/UW/4433403</pickID>
          <phase>P</phase>
          <azimuth>186.0</azimuth>
          <distance>2.435</distance>
          <timeResidual>0.57</timeResidual>
          <creationInfo>
            <agencyID>UW</agencyID>
            <creationTime>2012-02-27T18:01:38.000000Z</creationTime>
          </creationInfo>
        </arrival>
        <arrival publicID="quakeml:uw.anss.org/AssocArO/UW/4433408">
          <pickID>quakeml:uw.anss.org/Arrival/UW/4433408</pickID>
          <phase>P</phase>
          <azimuth>172.1</azimuth>
          <distance>2.005</distance>
          <timeResidual>0.38</timeResidual>
          <creationInfo>
            <agencyID>UW</agencyID>
            <creationTime>2012-02-27T18:01:38.000000Z</creationTime>
          </creationInfo>
        </arrival>
        <arrival publicID="quakeml:uw.anss.org/AssocArO/UW/4433413">
          <pickID>quakeml:uw.anss.org/Arrival/UW/4433413</pickID>
          <phase>P</phase>
          <timeResidual>0.52</timeResidual>
          <creationInfo>
            <agencyID>UW</agencyID>
            <creationTime>2012-02-27T18:01:38.000000Z</creationTime>
          </creationInfo>
        </arrival>
        <arrival publicID="quakeml:uw.anss.org/AssocArO/UW/4433418">
          <pickID>quakeml:uw.anss.org/Arrival/UW/4433418</pickID>
          <phase>S</phase>
          <timeResidual>1.54</timeResidual>
          <creationInfo>
            <agencyID>UW</agencyID>
            <creationTime>2012-02-27T18:01:38.000000Z</creationTime>
          </creationInfo>
        </arrival>
        <arrival publicID="quakeml:uw.anss.org/AssocArO/UW/4433423">
          <pickID>quakeml:uw.anss.org/Arrival/UW/4433423</pickID>
          <phase>P</phase>
          <azimuth>130.5</azimuth>
          <distance>2.269</distance>
          <timeResidual>2.64</timeResidual>
          <creationInfo>
            <agencyID>UW</agencyID>
            <creationTime>2012-02-27T18:01:38.000000Z</creationTime>
          </creationInfo>
        </arrival>
        <arrival publicID="quakeml:uw.anss.org/AssocArO/UW/4433428">
          <pickID>quakeml:uw.anss.org/Arrival/UW/4433428</pickID>
          <phase>P</phase>
          <azimuth>178.6</azimuth>
          <distance>0.4331</distance>
          <timeResidual>-0.66</timeResidual>
          <creationInfo>
            <agencyID>UW</agencyID>
            <creationTime>2012-02-27T18:01:38.000000Z</creationTime>
          </creationInfo>
        </arrival>
        <arrival publicID="quakeml:uw.anss.org/AssocArO/UW/4433433">
          <pickID>quakeml:uw.anss.org/Arrival/UW/4433433</pickID>
          <phase>S</phase>
          <azimuth>178.6</azimuth>
          <distance>0.4331</distance>
          <timeResidual>0.35</timeResidual>
          <creationInfo>
            <agencyID>UW</agencyID>
            <creationTime>2012-02-27T18:01:38.000000Z</creationTime>
          </creationInfo>
        </arrival>
        <arrival publicID="quakeml:uw.anss.org/AssocArO/UW/4433438">
          <pickID>quakeml:uw.anss.org/Arrival/UW/4433438</pickID>
          <phase>P</phase>
          <azimuth>181.0</azimuth>
          <distance>2.395</distance>
          <timeResidual>0.64</timeResidual>
          <creationInfo>
            <agencyID>UW</agencyID>
            <creationTime>2012-02-27T18:01:38.000000Z</creationTime>
          </creationInfo>
        </arrival>
        <arrival publicID="quakeml:uw.anss.org/AssocArO/UW/4433443">
          <pickID>quakeml:uw.anss.org/Arrival/UW/4433443</pickID>
          <phase>P</phase>
          <azimuth>180.2</azimuth>
          <distance>2.661</distance>
          <timeResidual>1.32</timeResidual>
          <creationInfo>
            <agencyID>UW</agencyID>
            <creationTime>2012-02-27T18:01:38.000000Z</creationTime>
          </creationInfo>
        </arrival>
        <arrival publicID="quakeml:uw.anss.org/AssocArO/UW/4433448">
          <pickID>quakeml:uw.anss.org/Arrival/UW/4433448</pickID>
          <phase>P</phase>
          <azimuth>172.0</azimuth>
          <timeResidual>0.04</timeResidual>
          <creationInfo>
            <agencyID>UW</agencyID>
            <creationTime>2012-02-27T18:01:38.000000Z</creationTime>
          </creationInfo>
        </arrival>
        <arrival publicID="quakeml:uw.anss.org/AssocArO/UW/4433453">
          <pickID>quakeml:uw.anss.org/Arrival/UW/4433453</pickID>
          <phase>P</phase>
          <timeResidual>0.13</timeResidual>
          <creationInfo>
            <agencyID>UW</agencyID>
            <creationTime>2012-02-27T18:01:38.000000Z</creationTime>
          </creationInfo>
        </arrival>
        <arrival publicID="quakeml:uw.anss.org/AssocArO/UW/4433458">
          <pickID>quakeml:uw.anss.org/Arrival/UW/4433458</pickID>
          <phase>S</phase>
          <timeResidual>-1.44</timeResidual>
          <creationInfo>
            <agencyID>UW</agencyID>
            <creationTime>2012-02-27T18:01:38.000000Z</creationTime>
          </creationInfo>
        </arrival>
        <arrival publicID="quakeml:uw.anss.org/AssocArO/UW/4433463">
          <pickID>quakeml:uw.anss.org/Arrival/UW/4433463</pickID>
          <phase>P</phase>
          <azimuth>176.7</azimuth>
          <distance>1.916</distance>
          <timeResidual>0.11</timeResidual>
          <creationInfo>
            <agencyID>UW</agencyID>
            <creationTime>2012-02-27T18:01:38.000000Z</creationTime>
          </creationInfo>
        </arrival>
        <arrival publicID="quakeml:uw.anss.org/AssocArO/UW/4433468">
          <pickID>quakeml:uw.anss.org/Arrival/UW/4433468</pickID>
          <phase>S</phase>
          <azimuth>176.7</azimuth>
          <distance>1.916</distance>
          <timeResidual>-0.33</timeResidual>
          <creationInfo>
            <agencyID>UW</agencyID>
            <creationTime>2012-02-27T18:01:38.000000Z</creationTime>
          </creationInfo>
        </arrival>
        <arrival publicID="quakeml:uw.anss.org/AssocArO/UW/4433473">
          <pickID>quakeml:uw.anss.org/Arrival/UW/4433473</pickID>
          <phase>P</phase>
          <azimuth>173.9</azimuth>
          <distance>2.118</distance>
          <timeResidual>-0.05</timeResidual>
          <creationInfo>
            <agencyID>UW</agencyID>
            <creationTime>2012-02-27T18:01:38.000000Z</creationTime>
          </creationInfo>
        </arrival>
        <arrival publicID="quakeml:uw.anss.org/AssocArO/UW/4433478">
          <pickID>quakeml:uw.anss.org/Arrival/UW/4433478</pickID>
          <phase>S</phase>
          <azimuth>173.9</azimuth>
          <distance>2.118</distance>
          <timeResidual>-1.13</timeResidual>
          <creationInfo>
            <agencyID>UW</agencyID>
            <creationTime>2012-02-27T18:01:38.000000Z</creationTime>
          </creationInfo>
        </arrival>
        <arrival publicID="quakeml:uw.anss.org/AssocArO/UW/4433483">
          <pickID>quakeml:uw.anss.org/Arrival/UW/4433483</pickID>
          <phase>P</phase>
          <azimuth>172.2</azimuth>
          <distance>2.729</distance>
          <timeResidual>1.78</timeResidual>
          <creationInfo>
            <agencyID>UW</agencyID>
            <creationTime>2012-02-27T18:01:38.000000Z</creationTime>
          </creationInfo>
        </arrival>
        <arrival publicID="quakeml:uw.anss.org/AssocArO/UW/4433488">
          <pickID>quakeml:uw.anss.org/Arrival/UW/4433488</pickID>
          <phase>P</phase>
          <azimuth>170.9</azimuth>
          <distance>1.415</distance>
          <timeResidual>0.49</timeResidual>
          <creationInfo>
            <agencyID>UW</agencyID>
            <creationTime>2012-02-27T18:01:38.000000Z</creationTime>
          </creationInfo>
        </arrival>
        <arrival publicID="quakeml:uw.anss.org/AssocArO/UW/4433493">
          <pickID>quakeml:uw.anss.org/Arrival/UW/4433493</pickID>
          <phase>S</phase>
          <azimuth>170.9</azimuth>
          <distance>1.415</distance>
          <timeResidual>-0.15</timeResidual>
          <creationInfo>
            <agencyID>UW</agencyID>
            <creationTime>2012-02-27T18:01:38.000000Z</creationTime>
          </creationInfo>
        </arrival>
        <arrival publicID="quakeml:uw.anss.org/AssocArO/UW/4433498">
          <pickID>quakeml:uw.anss.org/Arrival/UW/4433498</pickID>
          <phase>P</phase>
          <azimuth>337.6</azimuth>
          <distance>1.381</distance>
          <timeResidual>0.12</timeResidual>
          <creationInfo>
            <agencyID>UW</agencyID>
            <creationTime>2012-02-27T18:01:38.000000Z</creationTime>
          </creationInfo>
        </arrival>
        <arrival publicID="quakeml:uw.anss.org/AssocArO/UW/4433503">
          <pickID>quakeml:uw.anss.org/Arrival/UW/4433503</pickID>
          <phase>S</phase>
          <azimuth>337.6</azimuth>
          <distance>1.381</distance>
          <timeResidual>-0.82</timeResidual>
          <creationInfo>
            <agencyID>UW</agencyID>
            <creationTime>2012-02-27T18:01:38.000000Z</creationTime>
          </creationInfo>
        </arrival>
        <arrival publicID="quakeml:uw.anss.org/AssocArO/UW/4433508">
          <pickID>quakeml:uw.anss.org/Arrival/UW/4433508</pickID>
          <phase>P</phase>
          <azimuth>171.1</azimuth>
          <distance>2.327</distance>
          <timeResidual>1.06</timeResidual>
          <creationInfo>
            <agencyID>UW</agencyID>
            <creationTime>2012-02-27T18:01:38.000000Z</creationTime>
          </creationInfo>
        </arrival>
        <arrival publicID="quakeml:uw.anss.org/AssocArO/UW/4433513">
          <pickID>quakeml:uw.anss.org/Arrival/UW/4433513</pickID>
          <phase>P</phase>
          <azimuth>306.3</azimuth>
          <timeResidual>-0.34</timeResidual>
          <creationInfo>
            <agencyID>UW</agencyID>
            <creationTime>2012-02-27T18:01:38.000000Z</creationTime>
          </creationInfo>
        </arrival>
        <arrival publicID="quakeml:uw.anss.org/AssocArO/UW/4433518">
          <pickID>quakeml:uw.anss.org/Arrival/UW/4433518</pickID>
          <phase>S</phase>
          <azimuth>306.3</azimuth>
          <timeResidual>0.01</timeResidual>
          <creationInfo>
            <agencyID>UW</agencyID>
            <creationTime>2012-02-27T18:01:38.000000Z</creationTime>
          </creationInfo>
        </arrival>
        <arrival publicID="quakeml:uw.anss.org/AssocArO/UW/4433523">
          <pickID>quakeml:uw.anss.org/Arrival/UW/4433523</pickID>
          <phase>P</phase>
          <azimuth>183.3</azimuth>
          <distance>1.306</distance>
          <timeResidual>0.43</timeResidual>
          <creationInfo>
            <agencyID>UW</agencyID>
            <creationTime>2012-02-27T18:01:38.000000Z</creationTime>
          </creationInfo>
        </arrival>
        <arrival publicID="quakeml:uw.anss.org/AssocArO/UW/4433528">
          <pickID>quakeml:uw.anss.org/Arrival/UW/4433528</pickID>
          <phase>P</phase>
          <azimuth>174.4</azimuth>
          <timeResidual>0.17</timeResidual>
          <creationInfo>
            <agencyID>UW</agencyID>
            <creationTime>2012-02-27T18:01:38.000000Z</creationTime>
          </creationInfo>
        </arrival>
        <arrival publicID="quakeml:uw.anss.org/AssocArO/UW/4433533">
          <pickID>quakeml:uw.anss.org/Arrival/UW/4433533</pickID>
          <phase>P</phase>
          <azimuth>180.0</azimuth>
          <distance>2.614</distance>
          <timeResidual>0.61</timeResidual>
          <creationInfo>
            <agencyID>UW</agencyID>
            <creationTime>2012-02-27T18:01:38.000000Z</creationTime>
          </creationInfo>
        </arrival>
        <arrival publicID="quakeml:uw.anss.org/AssocArO/UW/4433538">
          <pickID>quakeml:uw.anss.org/Arrival/UW/4433538</pickID>
          <phase>P</phase>
          <azimuth>206.4</azimuth>
          <distance>0.5949</distance>
          <timeResidual>0.68</timeResidual>
          <creationInfo>
            <agencyID>UW</agencyID>
            <creationTime>2012-02-27T18:01:38.000000Z</creationTime>
          </creationInfo>
        </arrival>
        <arrival publicID="quakeml:uw.anss.org/AssocArO/UW/4433543">
          <pickID>quakeml:uw.anss.org/Arrival/UW/4433543</pickID>
          <phase>P</phase>
          <azimuth>121.4</azimuth>
          <distance>2.161</distance>
          <timeResidual>2.86</timeResidual>
          <creationInfo>
            <agencyID>UW</agencyID>
            <creationTime>2012-02-27T18:01:38.000000Z</creationTime>
          </creationInfo>
        </arrival>
        <arrival publicID="quakeml:uw.anss.org/AssocArO/UW/4433548">
          <pickID>quakeml:uw.anss.org/Arrival/UW/4433548</pickID>
          <phase>P</phase>
          <azimuth>225.7</azimuth>
          <distance>1.476</distance>
          <timeResidual>0.13</timeResidual>
          <creationInfo>
            <agencyID>UW</agencyID>
            <creationTime>2012-02-27T18:01:38.000000Z</creationTime>
          </creationInfo>
        </arrival>
        <arrival publicID="quakeml:uw.anss.org/AssocArO/UW/4433553">
          <pickID>quakeml:uw.anss.org/Arrival/UW/4433553</pickID>
          <phase>P</phase>
          <azimuth>318.9</azimuth>
          <timeResidual>-0.12</timeResidual>
          <creationInfo>
            <agencyID>UW</agencyID>
            <creationTime>2012-02-27T18:01:38.000000Z</creationTime>
          </creationInfo>
        </arrival>
        <arrival publicID="quakeml:uw.anss.org/AssocArO/UW/4433558">
