<?xml version='1.0' encoding='utf-8'?>
<q:quakeml xmlns="http://quakeml.org/xmlns/bed/1.2" xmlns:q="http://quakeml.org/xmlns/quakeml/1.2" xmlns:ns0="http://anss.org/xmlns/catalog/0.1">
  <eventParameters publicID="smi:local/2fb8db40-22ee-42a7-978d-d03c96fabd8c">
    <event publicID="quakeml:uw.anss.org/Event/UW/10534193" ns0:datasource="uw" ns0:dataid="uw10534193" ns0:eventsource="uw" ns0:eventid="10534193">
      <preferredOriginID>quakeml:uw.anss.org/Origin/UW/816398</preferredOriginID>
      <preferredMagnitudeID>quakeml:uw.anss.org/Netmag/UW/654753</preferredMagnitudeID>
      <type>earthquake</type>
      <creationInfo>
        <agencyID>UW</agencyID>
        <creationTime>2012-03-05T11:37:08.000000Z</creationTime>
        <version>3</version>
      </creationInfo>
      <origin publicID="quakeml:uw.anss.org/Origin/UW/816398" ns0:datasource="uw" ns0:dataid="uw10534193" ns0:eventsource="uw" ns0:eventid="10534193">
        <time>
          <value>2001-10-05T02:26:41.210000Z</value>
          <uncertainty>0.11</uncertainty>
        </time>
        <latitude>
          <value>48.8298333</value>
          <uncertainty>0.47</uncertainty>
        </latitude>
        <longitude>
          <value>-122.1133333</value>
          <uncertainty>0.76</uncertainty>
        </longitude>
        <depth>
          <value>11152.0</value>
          <uncertainty>2460.0</uncertainty>
        </depth>
        <depthType>operator assigned</depthType>
        <timeFixed>false</timeFixed>
        <epicenterFixed>true</epicenterFixed>
        <methodID>smi:uw.anss.org/origin/spong</methodID>
        <quality>
          <associatedPhaseCount>65</associatedPhaseCount>
          <usedPhaseCount>32</usedPhaseCount>
          <associatedStationCount>53</associatedStationCount>
          <usedStationCount>0</usedStationCount>
          <standardError>0.27</standardError>
          <azimuthalGap>105.0</azimuthalGap>
        </quality>
        <type>hypocenter</type>
        <evaluationMode>manual</evaluationMode>
        <evaluationStatus>final</evaluationStatus>
        <creationInfo>
          <agencyID>UW</agencyID>
          <creationTime>2012-03-05T11:37:08.000000Z</creationTime>
        </creationInfo>
        <originUncertainty>
          <preferredDescription>horizontal uncertainty</preferredDescription>
          <horizontalUncertainty>894.0</horizontalUncertainty>
        </originUncertainty>
        <arrival publicID="quakeml:uw.anss.org/AssocArO/UW/7514368">
          <pickID>quakeml:uw.anss.org/Arrival/UW/7514368</pickID>
          <phase>P</phase>
          <azimuth>208.3</azimuth>
          <distance>1.34</distance>
          <timeResidual>-0.32</timeResidual>
          <creationInfo>
            <agencyID>UW</agencyID>
            <creationTime>2012-03-05T11:37:08.000000Z</creationTime>
          </creationInfo>
        </arrival>
        <arrival publicID="quakeml:uw.anss.org/AssocArO/UW/7514373">
          <pickID>quakeml:uw.anss.org/Arrival/UW/7514373</pickID>
          <phase>P</phase>
          <azimuth>122.2</azimuth>
          <distance>1.403</distance>
          <timeResidual>1.0</timeResidual>
          <creationInfo>
            <agencyID>UW</agencyID>
            <creationTime>2012-03-05T11:37:08.000000Z</creationTime>
          </creationInfo>
        </arrival>
        <arrival publicID="quakeml:uw.anss.org/AssocArO/UW/7514378">
          <pickID>quakeml:uw.anss.org/Arrival/UW/7514378</pickID>
          <phase>P</phase>
          <azimuth>222.2</azimuth>
          <distance>0.5072</distance>
          <timeResidual>0.04</timeResidual>
          <creationInfo>
            <agencyID>UW</agencyID>
            <creationTime>2012-03-05T11:37:08.000000Z</creationTime>
          </creationInfo>
        </arrival>
        <arrival publicID="quakeml:uw.anss.org/AssocArO/UW/7514383">
          <pickID>quakeml:uw.anss.org/Arrival/UW/7514383</pickID>
          <phase>P</phase>
          <azimuth>200.8</azimuth>
          <distance>1.353</distance>
          <timeResidual>-0.23</timeResidual>
          <creationInfo>
            <agencyID>UW</agencyID>
            <creationTime>2012-03-05T11:37:08.000000Z</creationTime>
          </creationInfo>
        </arrival>
        <arrival publicID="quakeml:uw.anss.org/AssocArO/UW/7514388">
          <pickID>quakeml:uw.anss.org/Arrival/UW/7514388</pickID>
          <phase>S</phase>
          <azimuth>200.8</azimuth>
          <distance>1.353</distance>
          <timeResidual>-0.65</timeResidual>
          <creationInfo>
            <agencyID>UW</agencyID>
            <creationTime>2012-03-05T11:37:08.000000Z</creationTime>
          </creationInfo>
        </arrival>
        <arrival publicID="quakeml:uw.anss.org/AssocArO/UW/7514393">
          <pickID>quakeml:uw.anss.org/Arrival/UW/7514393</pickID>
          <phase>P</phase>
          <azimuth>174.7</azimuth>
          <timeResidual>0.32</timeResidual>
          <creationInfo>
            <agencyID>UW</agencyID>
            <creationTime>2012-03-05T11:37:08.000000Z</creationTime>
          </creationInfo>
        </arrival>
        <arrival publicID="quakeml:uw.anss.org/AssocArO/UW/7514398">
          <pickID>quakeml:uw.anss.org/Arrival/UW/7514398</pickID>
          <phase>S</phase>
          <azimuth>193.7</azimuth>
          <distance>0.8413</distance>
          <timeResidual>1.24</timeResidual>
          <creationInfo>
            <agencyID>UW</agencyID>
            <creationTime>2012-03-05T11:37:08.000000Z</creationTime>
          </creationInfo>
        </arrival>
        <arrival publicID="quakeml:uw.anss.org/AssocArO/UW/7514403">
          <pickID>quakeml:uw.anss.org/Arrival/UW/7514403</pickID>
          <phase>P</phase>
          <azimuth>212.7</azimuth>
          <timeResidual>0.41</timeResidual>
          <creationInfo>
            <agencyID>UW</agencyID>
            <creationTime>2012-03-05T11:37:08.000000Z</creationTime>
          </creationInfo>
        </arrival>
        <arrival publicID="quakeml:uw.anss.org/AssocArO/UW/7514408">
          <pickID>quakeml:uw.anss.org/Arrival/UW/7514408</pickID>
          <phase>P</phase>
          <azimuth>252.9</azimuth>
          <distance>0.2096</distance>
          <timeResidual>0.11</timeResidual>
          <creationInfo>
            <agencyID>UW</agencyID>
            <creationTime>2012-03-05T11:37:08.000000Z</creationTime>
          </creationInfo>
        </arrival>
        <arrival publicID="quakeml:uw.anss.org/AssocArO/UW/7514413">
          <pickID>quakeml:uw.anss.org/Arrival/UW/7514413</pickID>
          <phase>P</phase>
          <azimuth>252.9</azimuth>
          <distance>0.2096</distance>
          <timeResidual>0.03</timeResidual>
          <creationInfo>
            <agencyID>UW</agencyID>
            <creationTime>2012-03-05T11:37:08.000000Z</creationTime>
          </creationInfo>
        </arrival>
        <arrival publicID="quakeml:uw.anss.org/AssocArO/UW/7514418">
          <pickID>quakeml:uw.anss.org/Arrival/UW/7514418</pickID>
          <phase>S</phase>
          <azimuth>174.3</azimuth>
          <timeResidual>-0.44</timeResidual>
          <creationInfo>
            <agencyID>UW</agencyID>
            <creationTime>2012-03-05T11:37:08.000000Z</creationTime>
          </creationInfo>
        </arrival>
        <arrival publicID="quakeml:uw.anss.org/AssocArO/UW/7514423">
          <pickID>quakeml:uw.anss.org/Arrival/UW/7514423</pickID>
          <phase>P</phase>
          <azimuth>163.6</azimuth>
          <distance>1.878</distance>
          <timeResidual>0.99</timeResidual>
          <creationInfo>
            <agencyID>UW</agencyID>
            <creationTime>2012-03-05T11:37:08.000000Z</creationTime>
          </creationInfo>
        </arrival>
        <arrival publicID="quakeml:uw.anss.org/AssocArO/UW/7514428">
          <pickID>quakeml:uw.anss.org/Arrival/UW/7514428</pickID>
          <phase>P</phase>
          <distance>0.1966</distance>
          <timeResidual>0.02</timeResidual>
          <creationInfo>
            <agencyID>UW</agencyID>
            <creationTime>2012-03-05T11:37:08.000000Z</creationTime>
          </creationInfo>
        </arrival>
        <arrival publicID="quakeml:uw.anss.org/AssocArO/UW/7514433">
          <pickID>quakeml:uw.anss.org/Arrival/UW/7514433</pickID>
          <phase>S</phase>
          <azimuth>153.3</azimuth>
          <distance>1.888</distance>
          <timeResidual>2.82</timeResidual>
          <creationInfo>
            <agencyID>UW</agencyID>
            <creationTime>2012-03-05T11:37:08.000000Z</creationTime>
          </creationInfo>
        </arrival>
        <arrival publicID="quakeml:uw.anss.org/AssocArO/UW/7514438">
          <pickID>quakeml:uw.anss.org/Arrival/UW/7514438</pickID>
          <phase>P</phase>
          <azimuth>180.6</azimuth>
          <distance>0.4067</distance>
          <timeResidual>-0.57</timeResidual>
          <creationInfo>
            <agencyID>UW</agencyID>
            <creationTime>2012-03-05T11:37:08.000000Z</creationTime>
          </creationInfo>
        </arrival>
        <arrival publicID="quakeml:uw.anss.org/AssocArO/UW/7514443">
          <pickID>quakeml:uw.anss.org/Arrival/UW/7514443</pickID>
          <phase>S</phase>
          <azimuth>180.6</azimuth>
          <distance>0.4067</distance>
          <timeResidual>-1.32</timeResidual>
          <creationInfo>
            <agencyID>UW</agencyID>
            <creationTime>2012-03-05T11:37:08.000000Z</creationTime>
          </creationInfo>
        </arrival>
        <arrival publicID="quakeml:uw.anss.org/AssocArO/UW/7514448">
          <pickID>quakeml:uw.anss.org/Arrival/UW/7514448</pickID>
          <phase>S</phase>
          <azimuth>172.4</azimuth>
          <timeResidual>-0.37</timeResidual>
          <creationInfo>
            <agencyID>UW</agencyID>
            <creationTime>2012-03-05T11:37:08.000000Z</creationTime>
          </creationInfo>
        </arrival>
        <arrival publicID="quakeml:uw.anss.org/AssocArO/UW/7514453">
          <pickID>quakeml:uw.anss.org/Arrival/UW/7514453</pickID>
          <phase>P</phase>
          <azimuth>135.3</azimuth>
          <distance>1.709</distance>
          <timeResidual>1.34</timeResidual>
          <creationInfo>
            <agencyID>UW</agencyID>
            <creationTime>2012-03-05T11:37:08.000000Z</creationTime>
          </creationInfo>
        </arrival>
        <arrival publicID="quakeml:uw.anss.org/AssocArO/UW/7514458">
          <pickID>quakeml:uw.anss.org/Arrival/UW/7514458</pickID>
          <phase>P</phase>
          <azimuth>177.1</azimuth>
          <distance>1.889</distance>
          <timeResidual>0.08</timeResidual>
          <creationInfo>
            <agencyID>UW</agencyID>
            <creationTime>2012-03-05T11:37:08.000000Z</creationTime>
          </creationInfo>
        </arrival>
        <arrival publicID="quakeml:uw.anss.org/AssocArO/UW/7514463">
          <pickID>quakeml:uw.anss.org/Arrival/UW/7514463</pickID>
          <phase>P</phase>
          <azimuth>174.3</azimuth>
          <distance>2.091</distance>
          <timeResidual>0.15</timeResidual>
          <creationInfo>
            <agencyID>UW</agencyID>
            <creationTime>2012-03-05T11:37:08.000000Z</creationTime>
          </creationInfo>
        </arrival>
        <arrival publicID="quakeml:uw.anss.org/AssocArO/UW/7514468">
          <pickID>quakeml:uw.anss.org/Arrival/UW/7514468</pickID>
          <phase>P</phase>
          <azimuth>127.4</azimuth>
          <distance>1.833</distance>
          <timeResidual>1.63</timeResidual>
          <creationInfo>
            <agencyID>UW</agencyID>
            <creationTime>2012-03-05T11:37:08.000000Z</creationTime>
          </creationInfo>
        </arrival>
        <arrival publicID="quakeml:uw.anss.org/AssocArO/UW/7514473">
          <pickID>quakeml:uw.anss.org/Arrival/UW/7514473</pickID>
          <phase>P</phase>
          <azimuth>171.4</azimuth>
          <distance>1.387</distance>
          <timeResidual>0.31</timeResidual>
          <creationInfo>
            <agencyID>UW</agencyID>
            <creationTime>2012-03-05T11:37:08.000000Z</creationTime>
          </creationInfo>
        </arrival>
        <arrival publicID="quakeml:uw.anss.org/AssocArO/UW/7514478">
          <pickID>quakeml:uw.anss.org/Arrival/UW/7514478</pickID>
          <phase>P</phase>
          <azimuth>133.8</azimuth>
          <distance>0.5509</distance>
          <timeResidual>-0.11</timeResidual>
          <creationInfo>
            <agencyID>UW</agencyID>
            <creationTime>2012-03-05T11:37:08.000000Z</creationTime>
          </creationInfo>
        </arrival>
        <arrival publicID="quakeml:uw.anss.org/AssocArO/UW/7514483">
          <pickID>quakeml:uw.anss.org/Arrival/UW/7514483</pickID>
          <phase>S</phase>
          <azimuth>133.8</azimuth>
          <distance>0.5509</distance>
          <timeResidual>-0.41</timeResidual>
          <creationInfo>
            <agencyID>UW</agencyID>
            <creationTime>2012-03-05T11:37:08.000000Z</creationTime>
          </creationInfo>
        </arrival>
        <arrival publicID="quakeml:uw.anss.org/AssocArO/UW/7514488">
          <pickID>quakeml:uw.anss.org/Arrival/UW/7514488</pickID>
          <phase>P</phase>
          <azimuth>171.3</azimuth>
          <distance>2.299</distance>
          <timeResidual>1.12</timeResidual>
          <creationInfo>
            <agencyID>UW</agencyID>
            <creationTime>2012-03-05T11:37:08.000000Z</creationTime>
          </creationInfo>
        </arrival>
        <arrival publicID="quakeml:uw.anss.org/AssocArO/UW/7514493">
          <pickID>quakeml:uw.anss.org/Arrival/UW/7514493</pickID>
          <phase>P</phase>
          <azimuth>165.9</azimuth>
          <distance>1.171</distance>
          <timeResidual>0.32</timeResidual>
          <creationInfo>
            <agencyID>UW</agencyID>
            <creationTime>2012-03-05T11:37:08.000000Z</creationTime>
          </creationInfo>
        </arrival>
        <arrival publicID="quakeml:uw.anss.org/AssocArO/UW/7514498">
          <pickID>quakeml:uw.anss.org/Arrival/UW/7514498</pickID>
          <phase>S</phase>
          <azimuth>165.9</azimuth>
          <distance>1.171</distance>
          <timeResidual>-0.08</timeResidual>
          <creationInfo>
            <agencyID>UW</agencyID>
            <creationTime>2012-03-05T11:37:08.000000Z</creationTime>
          </creationInfo>
        </arrival>
        <arrival publicID="quakeml:uw.anss.org/AssocArO/UW/7514503">
          <pickID>quakeml:uw.anss.org/Arrival/UW/7514503</pickID>
          <phase>P</phase>
          <azimuth>348.1</azimuth>
          <distance>0.08863</distance>
          <timeResidual>-0.11</timeResidual>
          <creationInfo>
            <agencyID>UW</agencyID>
            <creationTime>2012-03-05T11:37:09.000000Z</creationTime>
          </creationInfo>
        </arrival>
        <arrival publicID="quakeml:uw.anss.org/AssocArO/UW/7514508">
          <pickID>quakeml:uw.anss.org/Arrival/UW/7514508</pickID>
          <phase>S</phase>
          <azimuth>348.1</azimuth>
          <distance>0.08863</distance>
          <timeResidual>0.43</timeResidual>
          <creationInfo>
            <agencyID>UW</agencyID>
            <creationTime>2012-03-05T11:37:09.000000Z</creationTime>
          </creationInfo>
        </arrival>
        <arrival publicID="quakeml:uw.anss.org/AssocArO/UW/7514513">
          <pickID>quakeml:uw.anss.org/Arrival/UW/7514513</pickID>
          <phase>S</phase>
          <azimuth>198.3</azimuth>
          <distance>1.135</distance>
          <timeResidual>0.78</timeResidual>
          <creationInfo>
            <agencyID>UW</agencyID>
            <creationTime>2012-03-05T11:37:09.000000Z</creationTime>
          </creationInfo>
        </arrival>
        <arrival publicID="quakeml:uw.anss.org/AssocArO/UW/7514518">
          <pickID>quakeml:uw.anss.org/Arrival/UW/7514518</pickID>
          <phase>P</phase>
          <azimuth>208.9</azimuth>
          <distance>0.5787</distance>
          <timeResidual>0.34</timeResidual>
          <creationInfo>
            <agencyID>UW</agencyID>
            <creationTime>2012-03-05T11:37:09.000000Z</creationTime>
          </creationInfo>
        </arrival>
        <arrival publicID="quakeml:uw.anss.org/AssocArO/UW/7514523">
          <pickID>quakeml:uw.anss.org/Arrival/UW/7514523</pickID>
          <phase>S</phase>
          <azimuth>121.0</azimuth>
          <distance>2.135</distance>
          <timeResidual>3.62</timeResidual>
          <creationInfo>
            <agencyID>UW</agencyID>
            <creationTime>2012-03-05T11:37:09.000000Z</creationTime>
          </creationInfo>
        </arrival>
        <arrival publicID="quakeml:uw.anss.org/AssocArO/UW/7514528">
          <pickID>quakeml:uw.anss.org/Arrival/UW/7514528</pickID>
          <phase>P</phase>
          <azimuth>226.8</azimuth>
          <distance>1.469</distance>
          <timeResidual>-0.15</timeResidual>
          <creationInfo>
            <agencyID>UW</agencyID>
            <creationTime>2012-03-05T11:37:09.000000Z</creationTime>
          </creationInfo>
        </arrival>
        <arrival publicID="quakeml:uw.anss.org/AssocArO/UW/7514533">
          <pickID>quakeml:uw.anss.org/Arrival/UW/7514533</pickID>
          <phase>P</phase>
          <azimuth>168.9</azimuth>
          <timeResidual>0.02</timeResidual>
          <creationInfo>
            <agencyID>UW</agencyID>
            <creationTime>2012-03-05T11:37:09.000000Z</creationTime>
          </creationInfo>
        </arrival>
        <arrival publicID="quakeml:uw.anss.org/AssocArO/UW/7514538">
          <pickID>quakeml:uw.anss.org/Arrival/UW/7514538</pickID>
          <phase>P</phase>
          <azimuth>170.9</azimuth>
          <timeResidual>0.34</timeResidual>
          <creationInfo>
            <agencyID>UW</agencyID>
            <creationTime>2012-03-05T11:37:09.000000Z</creationTime>
          </creationInfo>
        </arrival>
        <arrival publicID="quakeml:uw.anss.org/AssocArO/UW/7514543">
          <pickID>quakeml:uw.anss.org/Arrival/UW/7514543</pickID>
          <phase>P</phase>
          <azimuth>147.9</azimuth>
          <distance>1.851</distance>
          <timeResidual>0.93</timeResidual>
          <creationInfo>
            <agencyID>UW</agencyID>
            <creationTime>2012-03-05T11:37:09.000000Z</creationTime>
          </creationInfo>
        </arrival>
        <arrival publicID="quakeml:uw.anss.org/AssocArO/UW/7514548">
          <pickID>quakeml:uw.anss.org/Arrival/UW/7514548</pickID>
          <phase>S</phase>
          <azimuth>147.9</azimuth>
          <distance>1.851</distance>
          <timeResidual>0.03</timeResidual>
          <creationInfo>
            <agencyID>UW</agencyID>
            <creationTime>2012-03-05T11:37:09.000000Z</creationTime>
          </creationInfo>
        </arrival>
        <arrival publicID="quakeml:uw.anss.org/AssocArO/UW/7514553">
          <pickID>quakeml:uw.anss.org/Arrival/UW/7514553</pickID>
          <phase>P</phase>
          <azimuth>239.4</azimuth>
          <distance>1.532</distance>
          <timeResidual>-0.37</timeResidual>
          <creationInfo>
            <agencyID>UW</agencyID>
            <creationTime>2012-03-05T11:37:09.000000Z</creationTime>
          </creationInfo>
        </arrival>
        <arrival publicID="quakeml:uw.anss.org/AssocArO/UW/7514558">
          <pickID>quakeml:uw.anss.org/Arrival/UW/7514558</pickID>
          <phase>S</phase>
          <azimuth>239.4</azimuth>
          <distance>1.532</distance>
          <timeResidual>-1.42</timeResidual>
          <creationInfo>
            <agencyID>UW</agencyID>
            <creationTime>2012-03-05T11:37:09.000000Z</creationTime>
          </creationInfo>
        </arrival>
        <arrival publicID="quakeml:uw.anss.org/AssocArO/UW/7514563">
          <pickID>quakeml:uw.anss.org/Arrival/UW/7514563</pickID>
