<?xml version='1.0' encoding='utf-8'?>
<q:quakeml xmlns="http://quakeml.org/xmlns/bed/1.2" xmlns:q="http://quakeml.org/xmlns/quakeml/1.2" xmlns:ns0="http://anss.org/xmlns/catalog/0.1">
  <eventParameters publicID="smi:local/e89384df-cbc4-4228-9210-89f8cdfe1049">
    <event publicID="quakeml:uw.anss.org/Event/UW/10535218" ns0:datasource="uw" ns0:dataid="uw10535218" ns0:eventsource="uw" ns0:eventid="10535218">
      <preferredOriginID>quakeml:uw.anss.org/Origin/UW/817423</preferredOriginID>
      <preferredMagnitudeID>quakeml:uw.anss.org/Netmag/UW/655238</preferredMagnitudeID>
      <type>earthquake</type>
      <creationInfo>
        <agencyID>UW</agencyID>
        <creationTime>2012-03-05T11:40:34.000000Z</creationTime>
        <version>3</version>
      </creationInfo>
      <origin publicID="quakeml:uw.anss.org/Origin/UW/817423" ns0:datasource="uw" ns0:dataid="uw10535218" ns0:eventsource="uw" ns0:eventid="10535218">
        <time>
          <value>2001-10-06T10:52:09.980000Z</value>
          <uncertainty>0.11</uncertainty>
        </time>
        <latitude>
          <value>48.839</value>
          <uncertainty>0.49</uncertainty>
        </latitude>
        <longitude>
          <value>-122.1073333</value>
          <uncertainty>0.65</uncertainty>
        </longitude>
        <depth>
          <value>12272.0</value>
          <uncertainty>1490.0</uncertainty>
        </depth>
        <depthType>from location</depthType>
        <timeFixed>false</timeFixed>
        <epicenterFixed>false</epicenterFixed>
        <methodID>smi:uw.anss.org/origin/spong</methodID>
        <quality>
          <associatedPhaseCount>52</associatedPhaseCount>
          <usedPhaseCount>41</usedPhaseCount>
          <associatedStationCount>39</associatedStationCount>
          <usedStationCount>0</usedStationCount>
          <standardError>0.3</standardError>
          <azimuthalGap>110.0</azimuthalGap>
        </quality>
        <type>hypocenter</type>
        <evaluationMode>manual</evaluationMode>
        <evaluationStatus>final</evaluationStatus>
        <creationInfo>
          <agencyID>UW</agencyID>
          <creationTime>2012-03-05T11:40:34.000000Z</creationTime>
        </creationInfo>
        <originUncertainty>
          <preferredDescription>horizontal uncertainty</preferredDescription>
          <horizontalUncertainty>814.0</horizontalUncertainty>
        </originUncertainty>
        <arrival publicID="quakeml:uw.anss.org/AssocArO/UW/7523278">
          <pickID>quakeml:uw.anss.org/Arrival/UW/7523278</pickID>
          <phase>P</phase>
          <azimuth>208.3</azimuth>
          <distance>1.35</distance>
          <timeResidual>-0.38</timeResidual>
          <creationInfo>
            <agencyID>UW</agencyID>
            <creationTime>2012-03-05T11:40:34.000000Z</creationTime>
          </creationInfo>
        </arrival>
        <arrival publicID="quakeml:uw.anss.org/AssocArO/UW/7523288">
          <pickID>quakeml:uw.anss.org/Arrival/UW/7523288</pickID>
          <phase>S</phase>
          <azimuth>208.3</azimuth>
          <distance>1.35</distance>
          <timeResidual>0.09</timeResidual>
          <creationInfo>
            <agencyID>UW</agencyID>
            <creationTime>2012-03-05T11:40:34.000000Z</creationTime>
          </creationInfo>
        </arrival>
        <arrival publicID="quakeml:uw.anss.org/AssocArO/UW/7523298">
          <pickID>quakeml:uw.anss.org/Arrival/UW/7523298</pickID>
          <phase>P</phase>
          <azimuth>122.6</azimuth>
          <distance>1.405</distance>
          <timeResidual>1.1</timeResidual>
          <creationInfo>
            <agencyID>UW</agencyID>
            <creationTime>2012-03-05T11:40:34.000000Z</creationTime>
          </creationInfo>
        </arrival>
        <arrival publicID="quakeml:uw.anss.org/AssocArO/UW/7523308">
          <pickID>quakeml:uw.anss.org/Arrival/UW/7523308</pickID>
          <phase>P</phase>
          <azimuth>221.8</azimuth>
          <distance>0.5166</distance>
          <timeResidual>0.05</timeResidual>
          <creationInfo>
            <agencyID>UW</agencyID>
            <creationTime>2012-03-05T11:40:34.000000Z</creationTime>
          </creationInfo>
        </arrival>
        <arrival publicID="quakeml:uw.anss.org/AssocArO/UW/7523313">
          <pickID>quakeml:uw.anss.org/Arrival/UW/7523313</pickID>
          <phase>S</phase>
          <azimuth>221.8</azimuth>
          <distance>0.5166</distance>
          <timeResidual>0.11</timeResidual>
          <creationInfo>
            <agencyID>UW</agencyID>
            <creationTime>2012-03-05T11:40:34.000000Z</creationTime>
          </creationInfo>
        </arrival>
        <arrival publicID="quakeml:uw.anss.org/AssocArO/UW/7523318">
          <pickID>quakeml:uw.anss.org/Arrival/UW/7523318</pickID>
          <phase>P</phase>
          <azimuth>200.8</azimuth>
          <distance>1.363</distance>
          <timeResidual>-0.25</timeResidual>
          <creationInfo>
            <agencyID>UW</agencyID>
            <creationTime>2012-03-05T11:40:34.000000Z</creationTime>
          </creationInfo>
        </arrival>
        <arrival publicID="quakeml:uw.anss.org/AssocArO/UW/7523323">
          <pickID>quakeml:uw.anss.org/Arrival/UW/7523323</pickID>
          <phase>S</phase>
          <azimuth>200.8</azimuth>
          <distance>1.363</distance>
          <timeResidual>-0.74</timeResidual>
          <creationInfo>
            <agencyID>UW</agencyID>
            <creationTime>2012-03-05T11:40:34.000000Z</creationTime>
          </creationInfo>
        </arrival>
        <arrival publicID="quakeml:uw.anss.org/AssocArO/UW/7523328">
          <pickID>quakeml:uw.anss.org/Arrival/UW/7523328</pickID>
          <phase>S</phase>
          <azimuth>193.8</azimuth>
          <distance>0.8512</distance>
          <timeResidual>1.0</timeResidual>
          <creationInfo>
            <agencyID>UW</agencyID>
            <creationTime>2012-03-05T11:40:34.000000Z</creationTime>
          </creationInfo>
        </arrival>
        <arrival publicID="quakeml:uw.anss.org/AssocArO/UW/7523338">
          <pickID>quakeml:uw.anss.org/Arrival/UW/7523338</pickID>
          <phase>P</phase>
          <azimuth>212.5</azimuth>
          <timeResidual>0.54</timeResidual>
          <creationInfo>
            <agencyID>UW</agencyID>
            <creationTime>2012-03-05T11:40:34.000000Z</creationTime>
          </creationInfo>
        </arrival>
        <arrival publicID="quakeml:uw.anss.org/AssocArO/UW/7523343">
          <pickID>quakeml:uw.anss.org/Arrival/UW/7523343</pickID>
          <phase>P</phase>
          <azimuth>250.9</azimuth>
          <distance>0.2163</distance>
          <timeResidual>-0.02</timeResidual>
          <creationInfo>
            <agencyID>UW</agencyID>
            <creationTime>2012-03-05T11:40:34.000000Z</creationTime>
          </creationInfo>
        </arrival>
        <arrival publicID="quakeml:uw.anss.org/AssocArO/UW/7523348">
          <pickID>quakeml:uw.anss.org/Arrival/UW/7523348</pickID>
          <phase>P</phase>
          <azimuth>163.8</azimuth>
          <distance>1.885</distance>
          <timeResidual>0.88</timeResidual>
          <creationInfo>
            <agencyID>UW</agencyID>
            <creationTime>2012-03-05T11:40:34.000000Z</creationTime>
          </creationInfo>
        </arrival>
        <arrival publicID="quakeml:uw.anss.org/AssocArO/UW/7523358">
          <pickID>quakeml:uw.anss.org/Arrival/UW/7523358</pickID>
          <phase>P</phase>
          <distance>0.1873</distance>
          <timeResidual>0.24</timeResidual>
          <creationInfo>
            <agencyID>UW</agencyID>
            <creationTime>2012-03-05T11:40:34.000000Z</creationTime>
          </creationInfo>
        </arrival>
        <arrival publicID="quakeml:uw.anss.org/AssocArO/UW/7523363">
          <pickID>quakeml:uw.anss.org/Arrival/UW/7523363</pickID>
          <phase>P</phase>
          <azimuth>180.3</azimuth>
          <distance>1.073</distance>
          <timeResidual>0.69</timeResidual>
          <creationInfo>
            <agencyID>UW</agencyID>
            <creationTime>2012-03-05T11:40:34.000000Z</creationTime>
          </creationInfo>
        </arrival>
        <arrival publicID="quakeml:uw.anss.org/AssocArO/UW/7523368">
          <pickID>quakeml:uw.anss.org/Arrival/UW/7523368</pickID>
          <phase>S</phase>
          <azimuth>180.3</azimuth>
          <distance>1.073</distance>
          <timeResidual>0.61</timeResidual>
          <creationInfo>
            <agencyID>UW</agencyID>
            <creationTime>2012-03-05T11:40:34.000000Z</creationTime>
          </creationInfo>
        </arrival>
        <arrival publicID="quakeml:uw.anss.org/AssocArO/UW/7523373">
          <pickID>quakeml:uw.anss.org/Arrival/UW/7523373</pickID>
          <phase>P</phase>
          <azimuth>181.2</azimuth>
          <distance>0.4159</distance>
          <timeResidual>-0.67</timeResidual>
          <creationInfo>
            <agencyID>UW</agencyID>
            <creationTime>2012-03-05T11:40:34.000000Z</creationTime>
          </creationInfo>
        </arrival>
        <arrival publicID="quakeml:uw.anss.org/AssocArO/UW/7523378">
          <pickID>quakeml:uw.anss.org/Arrival/UW/7523378</pickID>
          <phase>P</phase>
          <azimuth>172.6</azimuth>
          <timeResidual>0.07</timeResidual>
          <creationInfo>
            <agencyID>UW</agencyID>
            <creationTime>2012-03-05T11:40:34.000000Z</creationTime>
          </creationInfo>
        </arrival>
        <arrival publicID="quakeml:uw.anss.org/AssocArO/UW/7523383">
          <pickID>quakeml:uw.anss.org/Arrival/UW/7523383</pickID>
          <phase>P</phase>
          <azimuth>171.6</azimuth>
          <distance>1.395</distance>
          <timeResidual>0.33</timeResidual>
          <creationInfo>
            <agencyID>UW</agencyID>
            <creationTime>2012-03-05T11:40:34.000000Z</creationTime>
          </creationInfo>
        </arrival>
        <arrival publicID="quakeml:uw.anss.org/AssocArO/UW/7523388">
          <pickID>quakeml:uw.anss.org/Arrival/UW/7523388</pickID>
          <phase>P</phase>
          <azimuth>134.7</azimuth>
          <distance>0.5545</distance>
          <timeResidual>-0.08</timeResidual>
          <creationInfo>
            <agencyID>UW</agencyID>
            <creationTime>2012-03-05T11:40:34.000000Z</creationTime>
          </creationInfo>
        </arrival>
        <arrival publicID="quakeml:uw.anss.org/AssocArO/UW/7523393">
          <pickID>quakeml:uw.anss.org/Arrival/UW/7523393</pickID>
          <phase>S</phase>
          <azimuth>134.7</azimuth>
          <distance>0.5545</distance>
          <timeResidual>-0.42</timeResidual>
          <creationInfo>
            <agencyID>UW</agencyID>
            <creationTime>2012-03-05T11:40:34.000000Z</creationTime>
          </creationInfo>
        </arrival>
        <arrival publicID="quakeml:uw.anss.org/AssocArO/UW/7523398">
          <pickID>quakeml:uw.anss.org/Arrival/UW/7523398</pickID>
          <phase>P</phase>
          <azimuth>166.2</azimuth>
          <distance>1.179</distance>
          <timeResidual>0.31</timeResidual>
          <creationInfo>
            <agencyID>UW</agencyID>
            <creationTime>2012-03-05T11:40:34.000000Z</creationTime>
          </creationInfo>
        </arrival>
        <arrival publicID="quakeml:uw.anss.org/AssocArO/UW/7523403">
          <pickID>quakeml:uw.anss.org/Arrival/UW/7523403</pickID>
          <phase>S</phase>
          <azimuth>166.2</azimuth>
          <distance>1.179</distance>
          <timeResidual>-0.22</timeResidual>
          <creationInfo>
            <agencyID>UW</agencyID>
            <creationTime>2012-03-05T11:40:34.000000Z</creationTime>
          </creationInfo>
        </arrival>
        <arrival publicID="quakeml:uw.anss.org/AssocArO/UW/7523408">
          <pickID>quakeml:uw.anss.org/Arrival/UW/7523408</pickID>
          <phase>P</phase>
          <azimuth>344.0</azimuth>
          <distance>0.08071</distance>
          <timeResidual>-0.02</timeResidual>
          <creationInfo>
            <agencyID>UW</agencyID>
            <creationTime>2012-03-05T11:40:34.000000Z</creationTime>
          </creationInfo>
        </arrival>
        <arrival publicID="quakeml:uw.anss.org/AssocArO/UW/7523413">
          <pickID>quakeml:uw.anss.org/Arrival/UW/7523413</pickID>
          <phase>S</phase>
          <azimuth>344.0</azimuth>
          <distance>0.08071</distance>
          <timeResidual>0.46</timeResidual>
          <creationInfo>
            <agencyID>UW</agencyID>
            <creationTime>2012-03-05T11:40:34.000000Z</creationTime>
          </creationInfo>
        </arrival>
        <arrival publicID="quakeml:uw.anss.org/AssocArO/UW/7523418">
          <pickID>quakeml:uw.anss.org/Arrival/UW/7523418</pickID>
          <phase>S</phase>
          <azimuth>198.3</azimuth>
          <distance>1.145</distance>
          <timeResidual>0.64</timeResidual>
          <creationInfo>
            <agencyID>UW</agencyID>
            <creationTime>2012-03-05T11:40:34.000000Z</creationTime>
          </creationInfo>
        </arrival>
        <arrival publicID="quakeml:uw.anss.org/AssocArO/UW/7523423">
          <pickID>quakeml:uw.anss.org/Arrival/UW/7523423</pickID>
          <phase>P</phase>
          <azimuth>208.8</azimuth>
          <distance>0.5886</distance>
          <timeResidual>0.29</timeResidual>
          <creationInfo>
            <agencyID>UW</agencyID>
            <creationTime>2012-03-05T11:40:34.000000Z</creationTime>
          </creationInfo>
        </arrival>
        <arrival publicID="quakeml:uw.anss.org/AssocArO/UW/7523428">
          <pickID>quakeml:uw.anss.org/Arrival/UW/7523428</pickID>
          <phase>P</phase>
          <azimuth>148.2</azimuth>
          <distance>1.857</distance>
          <timeResidual>1.02</timeResidual>
          <creationInfo>
            <agencyID>UW</agencyID>
            <creationTime>2012-03-05T11:40:34.000000Z</creationTime>
          </creationInfo>
        </arrival>
        <arrival publicID="quakeml:uw.anss.org/AssocArO/UW/7523433">
          <pickID>quakeml:uw.anss.org/Arrival/UW/7523433</pickID>
          <phase>S</phase>
          <azimuth>148.2</azimuth>
          <distance>1.857</distance>
          <timeResidual>0.06</timeResidual>
          <creationInfo>
            <agencyID>UW</agencyID>
            <creationTime>2012-03-05T11:40:34.000000Z</creationTime>
          </creationInfo>
        </arrival>
        <arrival publicID="quakeml:uw.anss.org/AssocArO/UW/7523438">
          <pickID>quakeml:uw.anss.org/Arrival/UW/7523438</pickID>
          <phase>P</phase>
          <azimuth>169.4</azimuth>
          <timeResidual>-0.04</timeResidual>
          <creationInfo>
            <agencyID>UW</agencyID>
            <creationTime>2012-03-05T11:40:34.000000Z</creationTime>
          </creationInfo>
        </arrival>
        <arrival publicID="quakeml:uw.anss.org/AssocArO/UW/7523443">
          <pickID>quakeml:uw.anss.org/Arrival/UW/7523443</pickID>
          <phase>S</phase>
          <azimuth>184.3</azimuth>
          <timeResidual>0.13</timeResidual>
          <creationInfo>
            <agencyID>UW</agencyID>
            <creationTime>2012-03-05T11:40:34.000000Z</creationTime>
          </creationInfo>
        </arrival>
        <arrival publicID="quakeml:uw.anss.org/AssocArO/UW/7523448">
          <pickID>quakeml:uw.anss.org/Arrival/UW/7523448</pickID>
          <phase>P</phase>
          <azimuth>183.6</azimuth>
          <distance>1.802</distance>
          <timeResidual>0.11</timeResidual>
          <creationInfo>
            <agencyID>UW</agencyID>
            <creationTime>2012-03-05T11:40:34.000000Z</creationTime>
          </creationInfo>
        </arrival>
        <arrival publicID="quakeml:uw.anss.org/AssocArO/UW/7523453">
          <pickID>quakeml:uw.anss.org/Arrival/UW/7523453</pickID>
          <phase>P</phase>
          <azimuth>139.9</azimuth>
          <distance>1.278</distance>
          <timeResidual>0.25</timeResidual>
          <creationInfo>
            <agencyID>UW</agencyID>
            <creationTime>2012-03-05T11:40:34.000000Z</creationTime>
          </creationInfo>
        </arrival>
        <arrival publicID="quakeml:uw.anss.org/AssocArO/UW/7523458">
          <pickID>quakeml:uw.anss.org/Arrival/UW/7523458</pickID>
          <phase>P</phase>
          <azimuth>215.0</azimuth>
          <distance>1.013</distance>
          <timeResidual>0.18</timeResidual>
          <creationInfo>
            <agencyID>UW</agencyID>
            <creationTime>2012-03-05T11:40:34.000000Z</creationTime>
          </creationInfo>
        </arrival>
        <arrival publicID="quakeml:uw.anss.org/AssocArO/UW/7523463">
          <pickID>quakeml:uw.anss.org/Arrival/UW/7523463</pickID>
          <phase>P</phase>
          <azimuth>242.6</azimuth>
          <distance>0.9135</distance>
          <timeResidual>-0.02</timeResidual>
          <creationInfo>
            <agencyID>UW</agencyID>
            <creationTime>2012-03-05T11:40:34.000000Z</creationTime>
          </creationInfo>
        </arrival>
        <arrival publicID="quakeml:uw.anss.org/AssocArO/UW/7523468">
          <pickID>quakeml:uw.anss.org/Arrival/UW/7523468</pickID>
          <phase>S</phase>
          <azimuth>242.6</azimuth>
          <distance>0.9135</distance>
          <timeResidual>-0.64</timeResidual>
          <creationInfo>
            <agencyID>UW</agencyID>
            <creationTime>2012-03-05T11:40:34.000000Z</creationTime>
          </creationInfo>
        </arrival>
        <arrival publicID="quakeml:uw.anss.org/AssocArO/UW/7523473">
          <pickID>quakeml:uw.anss.org/Arrival/UW/7523473</pickID>
          <phase>P</phase>
          <azimuth>177.0</azimuth>
          <distance>0.6041</distance>
          <timeResidual>0.07</timeResidual>
          <creationInfo>
            <agencyID>UW</agencyID>
            <creationTime>2012-03-05T11:40:34.000000Z</creationTime>
          </creationInfo>
        </arrival>
        <arrival publicID="quakeml:uw.anss.org/AssocArO/UW/7523478">
          <pickID>quakeml:uw.anss.org/Arrival/UW/7523478</pickID>
          <phase>S</phase>
          <azimuth>177.0</azimuth>
          <distance>0.6041</distance>
          <timeResidual>0.54</timeResidual>
          <creationInfo>
            <agencyID>UW</agencyID>
            <creationTime>2012-03-05T11:40:34.000000Z</creationTime>
          </creationInfo>
        </arrival>
        <arrival publicID="quakeml:uw.anss.org/AssocArO/UW/7523483">
          <pickID>quakeml:uw.anss.org/Arrival/UW/7523483</pickID>
          <phase>P</phase>
          <azimuth>137.9</azimuth>
          <distance>0.9679</distance>
          <timeResidual>0.38</timeResidual>
          <creationInfo>
            <agencyID>UW</agencyID>
            <creationTime>2012-03-05T11:40:34.000000Z</creationTime>
          </creationInfo>
        </arrival>
        <arrival publicID="quakeml:uw.anss.org/AssocArO/UW/7523488">
          <pickID>quakeml:uw.anss.org/Arrival/UW/7523488</pickID>
          <phase>P</phase>
          <azimuth>199.6</azimuth>
          <distance>1.37</distance>
          <timeResidual>-0.24</timeResidual>
          <creationInfo>
            <agencyID>UW</agencyID>
            <creationTime>2012-03-05T11:40:34.000000Z</creationTime>
          </creationInfo>
        </arrival>
        <arrival publicID="quakeml:uw.anss.org/AssocArO/UW/7523493">
          <pickID>quakeml:uw.anss.org/Arrival/UW/7523493</pickID>
          <phase>S</phase>
          <azimuth>173.3</azimuth>
          <timeResidual>0.46</timeResidual>
          <creationInfo>
            <agencyID>UW</agencyID>
            <creationTime>2012-03-05T11:40:34.000000Z</creationTime>
          </creationInfo>
        </arrival>
        <arrival publicID="quakeml:uw.anss.org/AssocArO/UW/7523498">
