<?xml version='1.0' encoding='utf-8'?>
<q:quakeml xmlns="http://quakeml.org/xmlns/bed/1.2" xmlns:q="http://quakeml.org/xmlns/quakeml/1.2" xmlns:ns0="http://anss.org/xmlns/catalog/0.1">
  <eventParameters publicID="smi:local/c86a6e63-dfcc-4332-bc1d-58c1b3c561c7">
    <event publicID="quakeml:uw.anss.org/Event/UW/10542558" ns0:datasource="uw" ns0:dataid="uw10542558" ns0:eventsource="uw" ns0:eventid="10542558">
      <preferredOriginID>quakeml:uw.anss.org/Origin/UW/824788</preferredOriginID>
      <preferredMagnitudeID>quakeml:uw.anss.org/Netmag/UW/658713</preferredMagnitudeID>
      <type>earthquake</type>
      <creationInfo>
        <agencyID>UW</agencyID>
        <creationTime>2012-03-05T12:01:49.000000Z</creationTime>
        <version>3</version>
      </creationInfo>
      <origin publicID="quakeml:uw.anss.org/Origin/UW/824788" ns0:datasource="uw" ns0:dataid="uw10542558" ns0:eventsource="uw" ns0:eventid="10542558">
        <time>
          <value>2001-10-20T11:39:36.950000Z</value>
          <uncertainty>0.08</uncertainty>
        </time>
        <latitude>
          <value>48.9188333</value>
          <uncertainty>0.8</uncertainty>
        </latitude>
        <longitude>
          <value>-122.1763333</value>
          <uncertainty>0.27</uncertainty>
        </longitude>
        <depth>
          <value>12397.0</value>
          <uncertainty>370.0</uncertainty>
        </depth>
        <depthType>from location</depthType>
        <timeFixed>false</timeFixed>
        <epicenterFixed>false</epicenterFixed>
        <methodID>smi:uw.anss.org/origin/spong</methodID>
        <quality>
          <associatedPhaseCount>5</associatedPhaseCount>
          <usedPhaseCount>5</usedPhaseCount>
          <associatedStationCount>3</associatedStationCount>
          <usedStationCount>0</usedStationCount>
          <standardError>0.05</standardError>
          <azimuthalGap>257.0</azimuthalGap>
          <secondaryAzimuthalGap>462.0</secondaryAzimuthalGap>
          <minimumDistance>0.02294</minimumDistance>
          <maximumDistance>0.2266</maximumDistance>
          <medianDistance>0.1178</medianDistance>
        </quality>
        <type>hypocenter</type>
        <evaluationMode>manual</evaluationMode>
        <evaluationStatus>final</evaluationStatus>
        <creationInfo>
          <agencyID>UW</agencyID>
          <creationTime>2012-03-05T12:01:49.000000Z</creationTime>
        </creationInfo>
        <originUncertainty>
          <preferredDescription>horizontal uncertainty</preferredDescription>
          <horizontalUncertainty>844.0</horizontalUncertainty>
        </originUncertainty>
        <arrival publicID="quakeml:uw.anss.org/AssocArO/UW/7581998">
          <pickID>quakeml:uw.anss.org/Arrival/UW/7581998</pickID>
          <phase>P</phase>
          <azimuth>126.6</azimuth>
          <distance>0.2266</distance>
          <timeResidual>0.0</timeResidual>
          <creationInfo>
            <agencyID>UW</agencyID>
            <creationTime>2012-03-05T12:01:49.000000Z</creationTime>
          </creationInfo>
        </arrival>
        <arrival publicID="quakeml:uw.anss.org/AssocArO/UW/7582003">
          <pickID>quakeml:uw.anss.org/Arrival/UW/7582003</pickID>
          <phase>P</phase>
          <distance>0.1178</distance>
          <timeResidual>0.06</timeResidual>
          <creationInfo>
            <agencyID>UW</agencyID>
            <creationTime>2012-03-05T12:01:49.000000Z</creationTime>
          </creationInfo>
        </arrival>
        <arrival publicID="quakeml:uw.anss.org/AssocArO/UW/7582008">
          <pickID>quakeml:uw.anss.org/Arrival/UW/7582008</pickID>
          <phase>S</phase>
          <distance>0.1178</distance>
          <timeResidual>-0.08</timeResidual>
          <creationInfo>
            <agencyID>UW</agencyID>
            <creationTime>2012-03-05T12:01:49.000000Z</creationTime>
          </creationInfo>
        </arrival>
        <arrival publicID="quakeml:uw.anss.org/AssocArO/UW/7582013">
          <pickID>quakeml:uw.anss.org/Arrival/UW/7582013</pickID>
          <phase>P</phase>
          <azimuth>94.0</azimuth>
          <distance>0.02294</distance>
          <timeResidual>-0.06</timeResidual>
          <creationInfo>
            <agencyID>UW</agencyID>
            <creationTime>2012-03-05T12:01:49.000000Z</creationTime>
          </creationInfo>
        </arrival>
        <arrival publicID="quakeml:uw.anss.org/AssocArO/UW/7582018">
          <pickID>quakeml:uw.anss.org/Arrival/UW/7582018</pickID>
          <phase>S</phase>
          <azimuth>94.0</azimuth>
          <distance>0.02294</distance>
          <timeResidual>0.08</timeResidual>
          <creationInfo>
            <agencyID>UW</agencyID>
            <creationTime>2012-03-05T12:01:49.000000Z</creationTime>
          </creationInfo>
        </arrival>
      </origin>
      <magnitude publicID="quakeml:uw.anss.org/Netmag/UW/658713">
        <mag>
          <value>0.7</value>
          <uncertainty>0.03</uncertainty>
        </mag>
        <type>Md</type>
        <originID>quakeml:uw.anss.org/Origin/UW/824788</originID>
        <methodID>smi:uw.anss.org/magnitude/Crosson</methodID>
        <stationCount>1</stationCount>
        <evaluationMode>manual</evaluationMode>
        <evaluationStatus>final</evaluationStatus>
        <stationMagnitudeContribution>
          <stationMagnitudeID>quakeml:uw.anss.org/AssocCoM/UW/1779453</stationMagnitudeID>
          <weight>1.0</weight>
          <residual>-0.02</residual>
        </stationMagnitudeContribution>
        <creationInfo>
          <agencyID>UW</agencyID>
          <creationTime>2012-03-05T12:01:49.000000Z</creationTime>
        </creationInfo>
      </magnitude>
      <stationMagnitude publicID="quakeml:uw.anss.org/AssocCoM/UW/1779453">
        <originID>quakeml:uw.anss.org/Origin/UW/824788</originID>
        <mag>
          <value>0.68</value>
        </mag>
        <type>MD</type>
        <amplitudeID>quakeml:uw.anss.org/Coda/UW/1779453</amplitudeID>
        <waveformID networkCode="CN" stationCode="VDB" locationCode="" channelCode="EHZ"></waveformID>
      </stationMagnitude>
      <pick publicID="quakeml:uw.anss.org/Arrival/UW/7581998">
        <time>
          <value>2001-10-20T11:39:41.920000Z</value>
          <uncertainty>0.04</uncertainty>
        </time>
        <waveformID networkCode="UW" stationCode="MBW" locationCode="" channelCode="EHZ"></waveformID>
        <polarity>undecidable</polarity>
        <evaluationMode>manual</evaluationMode>
        <evaluationStatus>final</evaluationStatus>
        <creationInfo>
          <agencyID>UW</agencyID>
          <creationTime>2012-03-05T12:01:49.000000Z</creationTime>
        </creationInfo>
      </pick>
      <pick publicID="quakeml:uw.anss.org/Arrival/UW/7582003">
        <time>
          <value>2001-10-20T11:39:40.100000Z</value>
          <uncertainty>0.01</uncertainty>
        </time>
        <waveformID networkCode="CN" stationCode="VDB" locationCode="" channelCode="EHZ"></waveformID>
        <polarity>negative</polarity>
        <evaluationMode>manual</evaluationMode>
        <evaluationStatus>final</evaluationStatus>
        <creationInfo>
          <agencyID>UW</agencyID>
          <creationTime>2012-03-05T12:01:49.000000Z</creationTime>
        </creationInfo>
      </pick>
      <pick publicID="quakeml:uw.anss.org/Arrival/UW/7582008">
        <time>
          <value>2001-10-20T11:39:42.370000Z</value>
          <uncertainty>0.04</uncertainty>
        </time>
        <waveformID networkCode="CN" stationCode="VDB" locationCode="" channelCode="EHZ"></waveformID>
        <polarity>undecidable</polarity>
        <evaluationMode>manual</evaluationMode>
        <evaluationStatus>final</evaluationStatus>
        <creationInfo>
          <agencyID>UW</agencyID>
          <creationTime>2012-03-05T12:01:49.000000Z</creationTime>
        </creationInfo>
      </pick>
      <pick publicID="quakeml:uw.anss.org/Arrival/UW/7582013">
        <time>
          <value>2001-10-20T11:39:39.170000Z</value>
          <uncertainty>0.02</uncertainty>
        </time>
        <waveformID networkCode="UW" stationCode="MBKE" locationCode="" channelCode="ENZ"></waveformID>
        <polarity>undecidable</polarity>
        <evaluationMode>manual</evaluationMode>
        <evaluationStatus>final</evaluationStatus>
        <creationInfo>
          <agencyID>UW</agencyID>
          <creationTime>2012-03-05T12:01:49.000000Z</creationTime>
        </creationInfo>
      </pick>
      <pick publicID="quakeml:uw.anss.org/Arrival/UW/7582018">
        <time>
          <value>2001-10-20T11:39:41.090000Z</value>
          <uncertainty>0.05</uncertainty>
        </time>
        <waveformID networkCode="UW" stationCode="MBKE" locationCode="" channelCode="ENN"></waveformID>
        <polarity>undecidable</polarity>
        <evaluationMode>manual</evaluationMode>
        <evaluationStatus>final</evaluationStatus>
        <creationInfo>
          <agencyID>UW</agencyID>
          <creationTime>2012-03-05T12:01:49.000000Z</creationTime>
        </creationInfo>
      </pick>
      <amplitude publicID="quakeml:uw.anss.org/Coda/UW/1779453">
        <genericAmplitude>
          <value>13.0</value>
        </genericAmplitude>
        <type>END</type>
        <category>duration</category>
        <unit>s</unit>
        <waveformID networkCode="CN" stationCode="VDB" locationCode="" channelCode="EHZ"></waveformID>
        <magnitudeHint>MD</magnitudeHint>
        <evaluationMode>manual</evaluationMode>
        <evaluationStatus>final</evaluationStatus>
      </amplitude>
    </event>
  </eventParameters>
</q:quakeml>
