<?xml version='1.0' encoding='utf-8'?>
<q:quakeml xmlns="http://quakeml.org/xmlns/bed/1.2" xmlns:q="http://quakeml.org/xmlns/quakeml/1.2" xmlns:ns0="http://anss.org/xmlns/catalog/0.1">
  <eventParameters publicID="smi:local/c4debfa8-ec51-4f78-b0c0-82c0eeeb4235">
    <event publicID="quakeml:uw.anss.org/Event/UW/10534363" ns0:datasource="uw" ns0:dataid="uw10534363" ns0:eventsource="uw" ns0:eventid="10534363">
      <preferredOriginID>quakeml:uw.anss.org/Origin/UW/816568</preferredOriginID>
      <preferredMagnitudeID>quakeml:uw.anss.org/Netmag/UW/654818</preferredMagnitudeID>
      <type>earthquake</type>
      <creationInfo>
        <agencyID>UW</agencyID>
        <creationTime>2012-03-05T11:37:53.000000Z</creationTime>
        <version>3</version>
      </creationInfo>
      <origin publicID="quakeml:uw.anss.org/Origin/UW/816568" ns0:datasource="uw" ns0:dataid="uw10534363" ns0:eventsource="uw" ns0:eventid="10534363">
        <time>
          <value>2001-10-05T12:23:58.650000Z</value>
          <uncertainty>0.14</uncertainty>
        </time>
        <latitude>
          <value>48.8235</value>
          <uncertainty>0.64</uncertainty>
        </latitude>
        <longitude>
          <value>-122.1116667</value>
          <uncertainty>0.9</uncertainty>
        </longitude>
        <depth>
          <value>11482.0</value>
          <uncertainty>2210.0</uncertainty>
        </depth>
        <depthType>from location</depthType>
        <timeFixed>false</timeFixed>
        <epicenterFixed>false</epicenterFixed>
        <methodID>smi:uw.anss.org/origin/spong</methodID>
        <quality>
          <associatedPhaseCount>36</associatedPhaseCount>
          <usedPhaseCount>25</usedPhaseCount>
          <associatedStationCount>27</associatedStationCount>
          <usedStationCount>0</usedStationCount>
          <standardError>0.29</standardError>
          <azimuthalGap>104.0</azimuthalGap>
        </quality>
        <type>hypocenter</type>
        <evaluationMode>manual</evaluationMode>
        <evaluationStatus>final</evaluationStatus>
        <creationInfo>
          <agencyID>UW</agencyID>
          <creationTime>2012-03-05T11:37:53.000000Z</creationTime>
        </creationInfo>
        <originUncertainty>
          <preferredDescription>horizontal uncertainty</preferredDescription>
          <horizontalUncertainty>1104.0</horizontalUncertainty>
        </originUncertainty>
        <arrival publicID="quakeml:uw.anss.org/AssocArO/UW/7515878">
          <pickID>quakeml:uw.anss.org/Arrival/UW/7515878</pickID>
          <phase>P</phase>
          <azimuth>208.5</azimuth>
          <distance>1.335</distance>
          <timeResidual>-0.08</timeResidual>
          <creationInfo>
            <agencyID>UW</agencyID>
            <creationTime>2012-03-05T11:37:53.000000Z</creationTime>
          </creationInfo>
        </arrival>
        <arrival publicID="quakeml:uw.anss.org/AssocArO/UW/7515883">
          <pickID>quakeml:uw.anss.org/Arrival/UW/7515883</pickID>
          <phase>P</phase>
          <azimuth>122.0</azimuth>
          <distance>1.399</distance>
          <timeResidual>1.25</timeResidual>
          <creationInfo>
            <agencyID>UW</agencyID>
            <creationTime>2012-03-05T11:37:53.000000Z</creationTime>
          </creationInfo>
        </arrival>
        <arrival publicID="quakeml:uw.anss.org/AssocArO/UW/7515888">
          <pickID>quakeml:uw.anss.org/Arrival/UW/7515888</pickID>
          <phase>S</phase>
          <azimuth>122.0</azimuth>
          <distance>1.399</distance>
          <timeResidual>0.68</timeResidual>
          <creationInfo>
            <agencyID>UW</agencyID>
            <creationTime>2012-03-05T11:37:53.000000Z</creationTime>
          </creationInfo>
        </arrival>
        <arrival publicID="quakeml:uw.anss.org/AssocArO/UW/7515893">
          <pickID>quakeml:uw.anss.org/Arrival/UW/7515893</pickID>
          <phase>P</phase>
          <azimuth>183.5</azimuth>
          <distance>1.787</distance>
          <timeResidual>0.28</timeResidual>
          <creationInfo>
            <agencyID>UW</agencyID>
            <creationTime>2012-03-05T11:37:53.000000Z</creationTime>
          </creationInfo>
        </arrival>
        <arrival publicID="quakeml:uw.anss.org/AssocArO/UW/7515898">
          <pickID>quakeml:uw.anss.org/Arrival/UW/7515898</pickID>
          <phase>P</phase>
          <azimuth>201.0</azimuth>
          <distance>1.348</distance>
          <timeResidual>0.05</timeResidual>
          <creationInfo>
            <agencyID>UW</agencyID>
            <creationTime>2012-03-05T11:37:53.000000Z</creationTime>
          </creationInfo>
        </arrival>
        <arrival publicID="quakeml:uw.anss.org/AssocArO/UW/7515903">
          <pickID>quakeml:uw.anss.org/Arrival/UW/7515903</pickID>
          <phase>S</phase>
          <azimuth>201.0</azimuth>
          <distance>1.348</distance>
          <timeResidual>-0.36</timeResidual>
          <creationInfo>
            <agencyID>UW</agencyID>
            <creationTime>2012-03-05T11:37:54.000000Z</creationTime>
          </creationInfo>
        </arrival>
        <arrival publicID="quakeml:uw.anss.org/AssocArO/UW/7515908">
          <pickID>quakeml:uw.anss.org/Arrival/UW/7515908</pickID>
          <phase>S</phase>
          <azimuth>193.8</azimuth>
          <distance>0.8354</distance>
          <timeResidual>1.49</timeResidual>
          <creationInfo>
            <agencyID>UW</agencyID>
            <creationTime>2012-03-05T11:37:54.000000Z</creationTime>
          </creationInfo>
        </arrival>
        <arrival publicID="quakeml:uw.anss.org/AssocArO/UW/7515913">
          <pickID>quakeml:uw.anss.org/Arrival/UW/7515913</pickID>
          <phase>P</phase>
          <azimuth>254.7</azimuth>
          <distance>0.2089</distance>
          <timeResidual>0.14</timeResidual>
          <creationInfo>
            <agencyID>UW</agencyID>
            <creationTime>2012-03-05T11:37:54.000000Z</creationTime>
          </creationInfo>
        </arrival>
        <arrival publicID="quakeml:uw.anss.org/AssocArO/UW/7515918">
          <pickID>quakeml:uw.anss.org/Arrival/UW/7515918</pickID>
          <phase>P</phase>
          <distance>0.2029</distance>
          <timeResidual>0.0</timeResidual>
          <creationInfo>
            <agencyID>UW</agencyID>
            <creationTime>2012-03-05T11:37:54.000000Z</creationTime>
          </creationInfo>
        </arrival>
        <arrival publicID="quakeml:uw.anss.org/AssocArO/UW/7515923">
          <pickID>quakeml:uw.anss.org/Arrival/UW/7515923</pickID>
          <phase>P</phase>
          <azimuth>180.8</azimuth>
          <distance>0.4004</distance>
          <timeResidual>-0.41</timeResidual>
          <creationInfo>
            <agencyID>UW</agencyID>
            <creationTime>2012-03-05T11:37:54.000000Z</creationTime>
          </creationInfo>
        </arrival>
        <arrival publicID="quakeml:uw.anss.org/AssocArO/UW/7515928">
          <pickID>quakeml:uw.anss.org/Arrival/UW/7515928</pickID>
          <phase>P</phase>
          <azimuth>135.2</azimuth>
          <distance>1.704</distance>
          <timeResidual>1.97</timeResidual>
          <creationInfo>
            <agencyID>UW</agencyID>
            <creationTime>2012-03-05T11:37:54.000000Z</creationTime>
          </creationInfo>
        </arrival>
        <arrival publicID="quakeml:uw.anss.org/AssocArO/UW/7515933">
          <pickID>quakeml:uw.anss.org/Arrival/UW/7515933</pickID>
          <phase>S</phase>
          <azimuth>174.3</azimuth>
          <distance>2.084</distance>
          <timeResidual>0.02</timeResidual>
          <creationInfo>
            <agencyID>UW</agencyID>
            <creationTime>2012-03-05T11:37:54.000000Z</creationTime>
          </creationInfo>
        </arrival>
        <arrival publicID="quakeml:uw.anss.org/AssocArO/UW/7515938">
          <pickID>quakeml:uw.anss.org/Arrival/UW/7515938</pickID>
          <phase>P</phase>
          <azimuth>133.4</azimuth>
          <distance>0.5457</distance>
          <timeResidual>0.05</timeResidual>
          <creationInfo>
            <agencyID>UW</agencyID>
            <creationTime>2012-03-05T11:37:54.000000Z</creationTime>
          </creationInfo>
        </arrival>
        <arrival publicID="quakeml:uw.anss.org/AssocArO/UW/7515948">
          <pickID>quakeml:uw.anss.org/Arrival/UW/7515948</pickID>
          <phase>S</phase>
          <azimuth>133.4</azimuth>
          <distance>0.5457</distance>
          <timeResidual>-0.18</timeResidual>
          <creationInfo>
            <agencyID>UW</agencyID>
            <creationTime>2012-03-05T11:37:54.000000Z</creationTime>
          </creationInfo>
        </arrival>
        <arrival publicID="quakeml:uw.anss.org/AssocArO/UW/7515953">
          <pickID>quakeml:uw.anss.org/Arrival/UW/7515953</pickID>
          <phase>P</phase>
          <azimuth>165.9</azimuth>
          <distance>1.164</distance>
          <timeResidual>0.53</timeResidual>
          <creationInfo>
            <agencyID>UW</agencyID>
            <creationTime>2012-03-05T11:37:54.000000Z</creationTime>
          </creationInfo>
        </arrival>
        <arrival publicID="quakeml:uw.anss.org/AssocArO/UW/7515958">
          <pickID>quakeml:uw.anss.org/Arrival/UW/7515958</pickID>
          <phase>P</phase>
          <azimuth>348.2</azimuth>
          <distance>0.09506</distance>
          <timeResidual>-0.11</timeResidual>
          <creationInfo>
            <agencyID>UW</agencyID>
            <creationTime>2012-03-05T11:37:54.000000Z</creationTime>
          </creationInfo>
        </arrival>
        <arrival publicID="quakeml:uw.anss.org/AssocArO/UW/7515963">
          <pickID>quakeml:uw.anss.org/Arrival/UW/7515963</pickID>
          <phase>S</phase>
          <azimuth>348.2</azimuth>
          <distance>0.09506</distance>
          <timeResidual>0.39</timeResidual>
          <creationInfo>
            <agencyID>UW</agencyID>
            <creationTime>2012-03-05T11:37:54.000000Z</creationTime>
          </creationInfo>
        </arrival>
        <arrival publicID="quakeml:uw.anss.org/AssocArO/UW/7515968">
          <pickID>quakeml:uw.anss.org/Arrival/UW/7515968</pickID>
          <phase>P</phase>
          <azimuth>209.3</azimuth>
          <distance>0.5737</distance>
          <timeResidual>0.55</timeResidual>
          <creationInfo>
            <agencyID>UW</agencyID>
            <creationTime>2012-03-05T11:37:54.000000Z</creationTime>
          </creationInfo>
        </arrival>
        <arrival publicID="quakeml:uw.anss.org/AssocArO/UW/7515973">
          <pickID>quakeml:uw.anss.org/Arrival/UW/7515973</pickID>
          <phase>P</phase>
          <azimuth>168.9</azimuth>
          <timeResidual>0.2</timeResidual>
          <creationInfo>
            <agencyID>UW</agencyID>
            <creationTime>2012-03-05T11:37:54.000000Z</creationTime>
          </creationInfo>
        </arrival>
        <arrival publicID="quakeml:uw.anss.org/AssocArO/UW/7515978">
          <pickID>quakeml:uw.anss.org/Arrival/UW/7515978</pickID>
          <phase>P</phase>
          <azimuth>147.8</azimuth>
          <distance>1.845</distance>
          <timeResidual>1.44</timeResidual>
          <creationInfo>
            <agencyID>UW</agencyID>
            <creationTime>2012-03-05T11:37:54.000000Z</creationTime>
          </creationInfo>
        </arrival>
        <arrival publicID="quakeml:uw.anss.org/AssocArO/UW/7515983">
          <pickID>quakeml:uw.anss.org/Arrival/UW/7515983</pickID>
          <phase>S</phase>
          <azimuth>147.8</azimuth>
          <distance>1.845</distance>
          <timeResidual>0.68</timeResidual>
          <creationInfo>
            <agencyID>UW</agencyID>
            <creationTime>2012-03-05T11:37:54.000000Z</creationTime>
          </creationInfo>
        </arrival>
        <arrival publicID="quakeml:uw.anss.org/AssocArO/UW/7515988">
          <pickID>quakeml:uw.anss.org/Arrival/UW/7515988</pickID>
          <phase>P</phase>
          <azimuth>237.5</azimuth>
          <timeResidual>-0.34</timeResidual>
          <creationInfo>
            <agencyID>UW</agencyID>
            <creationTime>2012-03-05T11:37:54.000000Z</creationTime>
          </creationInfo>
        </arrival>
        <arrival publicID="quakeml:uw.anss.org/AssocArO/UW/7515993">
          <pickID>quakeml:uw.anss.org/Arrival/UW/7515993</pickID>
          <phase>P</phase>
          <azimuth>243.4</azimuth>
          <distance>0.9039</distance>
          <timeResidual>0.12</timeResidual>
          <creationInfo>
            <agencyID>UW</agencyID>
            <creationTime>2012-03-05T11:37:54.000000Z</creationTime>
          </creationInfo>
        </arrival>
        <arrival publicID="quakeml:uw.anss.org/AssocArO/UW/7515998">
          <pickID>quakeml:uw.anss.org/Arrival/UW/7515998</pickID>
          <phase>S</phase>
          <azimuth>243.4</azimuth>
          <distance>0.9039</distance>
          <timeResidual>-0.4</timeResidual>
          <creationInfo>
            <agencyID>UW</agencyID>
            <creationTime>2012-03-05T11:37:54.000000Z</creationTime>
          </creationInfo>
        </arrival>
        <arrival publicID="quakeml:uw.anss.org/AssocArO/UW/7516003">
          <pickID>quakeml:uw.anss.org/Arrival/UW/7516003</pickID>
          <phase>S</phase>
          <azimuth>173.1</azimuth>
          <timeResidual>0.86</timeResidual>
          <creationInfo>
            <agencyID>UW</agencyID>
            <creationTime>2012-03-05T11:37:54.000000Z</creationTime>
          </creationInfo>
        </arrival>
        <arrival publicID="quakeml:uw.anss.org/AssocArO/UW/7516018">
          <pickID>quakeml:uw.anss.org/Arrival/UW/7516018</pickID>
          <phase>P</phase>
          <azimuth>105.9</azimuth>
          <distance>0.1449</distance>
          <timeResidual>0.01</timeResidual>
          <creationInfo>
            <agencyID>UW</agencyID>
            <creationTime>2012-03-05T11:37:54.000000Z</creationTime>
          </creationInfo>
        </arrival>
        <arrival publicID="quakeml:uw.anss.org/AssocArO/UW/7516033">
          <pickID>quakeml:uw.anss.org/Arrival/UW/7516033</pickID>
          <phase>P</phase>
          <azimuth>266.4</azimuth>
          <distance>0.703</distance>
          <timeResidual>-0.08</timeResidual>
          <creationInfo>
            <agencyID>UW</agencyID>
            <creationTime>2012-03-05T11:37:54.000000Z</creationTime>
          </creationInfo>
        </arrival>
        <arrival publicID="quakeml:uw.anss.org/AssocArO/UW/7516048">
          <pickID>quakeml:uw.anss.org/Arrival/UW/7516048</pickID>
          <phase>S</phase>
          <azimuth>266.4</azimuth>
          <distance>0.703</distance>
          <timeResidual>-0.37</timeResidual>
          <creationInfo>
            <agencyID>UW</agencyID>
            <creationTime>2012-03-05T11:37:54.000000Z</creationTime>
          </creationInfo>
        </arrival>
        <arrival publicID="quakeml:uw.anss.org/AssocArO/UW/7516058">
          <pickID>quakeml:uw.anss.org/Arrival/UW/7516058</pickID>
          <phase>P</phase>
          <azimuth>72.3</azimuth>
          <distance>1.709</distance>
          <timeResidual>2.4</timeResidual>
          <creationInfo>
            <agencyID>UW</agencyID>
            <creationTime>2012-03-05T11:37:54.000000Z</creationTime>
          </creationInfo>
        </arrival>
        <arrival publicID="quakeml:uw.anss.org/AssocArO/UW/7516068">
          <pickID>quakeml:uw.anss.org/Arrival/UW/7516068</pickID>
          <phase>P</phase>
          <azimuth>167.3</azimuth>
          <distance>1.046</distance>
          <timeResidual>0.47</timeResidual>
          <creationInfo>
            <agencyID>UW</agencyID>
            <creationTime>2012-03-05T11:37:54.000000Z</creationTime>
          </creationInfo>
        </arrival>
        <arrival publicID="quakeml:uw.anss.org/AssocArO/UW/7516093">
          <pickID>quakeml:uw.anss.org/Arrival/UW/7516093</pickID>
          <phase>P</phase>
          <azimuth>215.3</azimuth>
          <distance>0.9987</distance>
          <timeResidual>0.58</timeResidual>
          <creationInfo>
            <agencyID>UW</agencyID>
            <creationTime>2012-03-05T11:37:54.000000Z</creationTime>
          </creationInfo>
        </arrival>
        <arrival publicID="quakeml:uw.anss.org/AssocArO/UW/7516098">
          <pickID>quakeml:uw.anss.org/Arrival/UW/7516098</pickID>
          <phase>P</phase>
          <azimuth>220.0</azimuth>
          <distance>0.9756</distance>
          <timeResidual>0.56</timeResidual>
          <creationInfo>
            <agencyID>UW</agencyID>
            <creationTime>2012-03-05T11:37:54.000000Z</creationTime>
          </creationInfo>
        </arrival>
        <arrival publicID="quakeml:uw.anss.org/AssocArO/UW/7516103">
          <pickID>quakeml:uw.anss.org/Arrival/UW/7516103</pickID>
          <phase>S</phase>
          <azimuth>220.0</azimuth>
          <distance>0.9756</distance>
          <timeResidual>0.89</timeResidual>
          <creationInfo>
            <agencyID>UW</agencyID>
            <creationTime>2012-03-05T11:37:54.000000Z</creationTime>
          </creationInfo>
        </arrival>
        <arrival publicID="quakeml:uw.anss.org/AssocArO/UW/7516108">
          <pickID>quakeml:uw.anss.org/Arrival/UW/7516108</pickID>
          <phase>P</phase>
          <azimuth>230.5</azimuth>
          <distance>1.129</distance>
          <timeResidual>0.02</timeResidual>
          <creationInfo>
            <agencyID>UW</agencyID>
            <creationTime>2012-03-05T11:37:54.000000Z</creationTime>
          </creationInfo>
        </arrival>
        <arrival publicID="quakeml:uw.anss.org/AssocArO/UW/7516113">
          <pickID>quakeml:uw.anss.org/Arrival/UW/7516113</pickID>
          <phase>S</phase>
          <azimuth>230.5</azimuth>
          <distance>1.129</distance>
          <timeResidual>-0.41</timeResidual>
          <creationInfo>
            <agencyID>UW</agencyID>
            <creationTime>2012-03-05T11:37:54.000000Z</creationTime>
          </creationInfo>
        </arrival>
        <arrival publicID="quakeml:uw.anss.org/AssocArO/UW/7516118">
          <pickID>quakeml:uw.anss.org/Arrival/UW/7516118</pickID>
          <phase>P</phase>
          <azimuth>253.4</azimuth>
          <distance>0.4986</distance>
          <timeResidual>-0.04</timeResidual>
          <creationInfo>
            <agencyID>UW</agencyID>
            <creationTime>2012-03-05T11:37:54.000000Z</creationTime>
          </creationInfo>
        </arrival>
      </origin>
      <magnitude publicID="quakeml:uw.anss.org/Netmag/UW/654818">
        <mag>
          <value>2.5</value>
          <uncertainty>0.04</uncertainty>
        </mag>
        <type>Md</type>
        <originID>quakeml:uw.anss.org/Origin/UW/816568</originID>
        <methodID>smi:uw.anss.org/magnitude/Crosson</methodID>
        <stationCount>6</stationCount>
        <evaluationMode>manual</evaluationMode>
        <evaluationStatus>final</evaluationStatus>
        <stationMagnitudeContribution>
          <stationMagnitudeID>quakeml:uw.anss.org/AssocCoM/UW/1766883</stationMagnitudeID>
          <weight>1.0</weight>
          <residual>-0.07</residual>
        </stationMagnitudeContribution>
        <stationMagnitudeContribution>
          <stationMagnitudeID>quakeml:uw.anss.org/AssocCoM/UW/1766873</stationMagnitudeID>
          <weight>1.0</weight>
          <residual>0.05</residual>
        </stationMagnitudeContribution>
        <stationMagnitudeContribution>
          <stationMagnitudeID>quakeml:uw.anss.org/AssocCoM/UW/1766878</stationMagnitudeID>
          <weight>1.0</weight>
          <residual>0.17</residual>
        </stationMagnitudeContribution>
        <stationMagnitudeContribution>
          <stationMagnitudeID>quakeml:uw.anss.org/AssocCoM/UW/1766888</stationMagnitudeID>
          <weight>1.0</weight>
          <residual>0.01</residual>
