<?xml version='1.0' encoding='utf-8'?>
<q:quakeml xmlns="http://quakeml.org/xmlns/bed/1.2" xmlns:q="http://quakeml.org/xmlns/quakeml/1.2" xmlns:ns0="http://anss.org/xmlns/catalog/0.1">
  <eventParameters publicID="smi:local/9ae2de0b-a546-4a21-8bee-c8c89294ed52">
    <event publicID="quakeml:uw.anss.org/Event/UW/10543758" ns0:datasource="uw" ns0:dataid="uw10543758" ns0:eventsource="uw" ns0:eventid="10543758">
      <preferredOriginID>quakeml:uw.anss.org/Origin/UW/825993</preferredOriginID>
      <preferredMagnitudeID>quakeml:uw.anss.org/Netmag/UW/659353</preferredMagnitudeID>
      <type>earthquake</type>
      <creationInfo>
        <agencyID>UW</agencyID>
        <creationTime>2012-03-05T12:05:48.000000Z</creationTime>
        <version>3</version>
      </creationInfo>
      <origin publicID="quakeml:uw.anss.org/Origin/UW/825993" ns0:datasource="uw" ns0:dataid="uw10543758" ns0:eventsource="uw" ns0:eventid="10543758">
        <time>
          <value>2001-07-25T06:09:00.190000Z</value>
          <uncertainty>0.12</uncertainty>
        </time>
        <latitude>
          <value>48.8665</value>
          <uncertainty>0.44</uncertainty>
        </latitude>
        <longitude>
          <value>-122.4775</value>
          <uncertainty>0.63</uncertainty>
        </longitude>
        <depth>
          <value>17554.0</value>
          <uncertainty>1410.0</uncertainty>
        </depth>
        <depthType>from location</depthType>
        <timeFixed>false</timeFixed>
        <epicenterFixed>false</epicenterFixed>
        <methodID>smi:uw.anss.org/origin/spong</methodID>
        <quality>
          <associatedPhaseCount>14</associatedPhaseCount>
          <usedPhaseCount>12</usedPhaseCount>
          <associatedStationCount>12</associatedStationCount>
          <usedStationCount>0</usedStationCount>
          <standardError>0.16</standardError>
          <azimuthalGap>158.0</azimuthalGap>
        </quality>
        <type>hypocenter</type>
        <evaluationMode>manual</evaluationMode>
        <evaluationStatus>final</evaluationStatus>
        <creationInfo>
          <agencyID>UW</agencyID>
          <creationTime>2012-03-05T12:05:48.000000Z</creationTime>
        </creationInfo>
        <originUncertainty>
          <preferredDescription>horizontal uncertainty</preferredDescription>
          <horizontalUncertainty>768.0</horizontalUncertainty>
        </originUncertainty>
        <arrival publicID="quakeml:uw.anss.org/AssocArO/UW/7592683">
          <pickID>quakeml:uw.anss.org/Arrival/UW/7592683</pickID>
          <phase>P</phase>
          <azimuth>197.7</azimuth>
          <distance>1.279</distance>
          <timeResidual>-0.16</timeResidual>
          <creationInfo>
            <agencyID>UW</agencyID>
            <creationTime>2012-03-05T12:05:48.000000Z</creationTime>
          </creationInfo>
        </arrival>
        <arrival publicID="quakeml:uw.anss.org/AssocArO/UW/7592688">
          <pickID>quakeml:uw.anss.org/Arrival/UW/7592688</pickID>
          <phase>P</phase>
          <azimuth>183.9</azimuth>
          <distance>0.545</distance>
          <timeResidual>0.3</timeResidual>
          <creationInfo>
            <agencyID>UW</agencyID>
            <creationTime>2012-03-05T12:05:48.000000Z</creationTime>
          </creationInfo>
        </arrival>
        <arrival publicID="quakeml:uw.anss.org/AssocArO/UW/7592693">
          <pickID>quakeml:uw.anss.org/Arrival/UW/7592693</pickID>
          <phase>S</phase>
          <azimuth>259.0</azimuth>
          <distance>0.4682</distance>
          <timeResidual>0.16</timeResidual>
          <creationInfo>
            <agencyID>UW</agencyID>
            <creationTime>2012-03-05T12:05:48.000000Z</creationTime>
          </creationInfo>
        </arrival>
        <arrival publicID="quakeml:uw.anss.org/AssocArO/UW/7592698">
          <pickID>quakeml:uw.anss.org/Arrival/UW/7592698</pickID>
          <phase>P</phase>
          <azimuth>157.7</azimuth>
          <distance>0.1064</distance>
          <timeResidual>0.06</timeResidual>
          <creationInfo>
            <agencyID>UW</agencyID>
            <creationTime>2012-03-05T12:05:48.000000Z</creationTime>
          </creationInfo>
        </arrival>
        <arrival publicID="quakeml:uw.anss.org/AssocArO/UW/7592703">
          <pickID>quakeml:uw.anss.org/Arrival/UW/7592703</pickID>
          <phase>S</phase>
          <azimuth>193.3</azimuth>
          <distance>0.4246</distance>
          <timeResidual>-0.01</timeResidual>
          <creationInfo>
            <agencyID>UW</agencyID>
            <creationTime>2012-03-05T12:05:48.000000Z</creationTime>
          </creationInfo>
        </arrival>
        <arrival publicID="quakeml:uw.anss.org/AssocArO/UW/7592708">
          <pickID>quakeml:uw.anss.org/Arrival/UW/7592708</pickID>
          <phase>P</phase>
          <azimuth>151.3</azimuth>
          <timeResidual>0.36</timeResidual>
          <creationInfo>
            <agencyID>UW</agencyID>
            <creationTime>2012-03-05T12:05:48.000000Z</creationTime>
          </creationInfo>
        </arrival>
        <arrival publicID="quakeml:uw.anss.org/AssocArO/UW/7592713">
          <pickID>quakeml:uw.anss.org/Arrival/UW/7592713</pickID>
          <phase>S</phase>
          <azimuth>151.3</azimuth>
          <timeResidual>0.03</timeResidual>
          <creationInfo>
            <agencyID>UW</agencyID>
            <creationTime>2012-03-05T12:05:48.000000Z</creationTime>
          </creationInfo>
        </arrival>
        <arrival publicID="quakeml:uw.anss.org/AssocArO/UW/7592718">
          <pickID>quakeml:uw.anss.org/Arrival/UW/7592718</pickID>
          <phase>P</phase>
          <azimuth>155.8</azimuth>
          <distance>1.164</distance>
          <timeResidual>0.62</timeResidual>
          <creationInfo>
            <agencyID>UW</agencyID>
            <creationTime>2012-03-05T12:05:48.000000Z</creationTime>
          </creationInfo>
        </arrival>
        <arrival publicID="quakeml:uw.anss.org/AssocArO/UW/7592723">
          <pickID>quakeml:uw.anss.org/Arrival/UW/7592723</pickID>
          <phase>P</phase>
          <azimuth>151.8</azimuth>
          <distance>0.5027</distance>
          <timeResidual>-0.16</timeResidual>
          <creationInfo>
            <agencyID>UW</agencyID>
            <creationTime>2012-03-05T12:05:48.000000Z</creationTime>
          </creationInfo>
        </arrival>
        <arrival publicID="quakeml:uw.anss.org/AssocArO/UW/7592728">
          <pickID>quakeml:uw.anss.org/Arrival/UW/7592728</pickID>
          <phase>S</phase>
          <azimuth>151.8</azimuth>
          <distance>0.5027</distance>
          <timeResidual>-0.09</timeResidual>
          <creationInfo>
            <agencyID>UW</agencyID>
            <creationTime>2012-03-05T12:05:48.000000Z</creationTime>
          </creationInfo>
        </arrival>
        <arrival publicID="quakeml:uw.anss.org/AssocArO/UW/7592733">
          <pickID>quakeml:uw.anss.org/Arrival/UW/7592733</pickID>
          <phase>P</phase>
          <distance>0.2942</distance>
          <timeResidual>-0.03</timeResidual>
          <creationInfo>
            <agencyID>UW</agencyID>
            <creationTime>2012-03-05T12:05:48.000000Z</creationTime>
          </creationInfo>
        </arrival>
        <arrival publicID="quakeml:uw.anss.org/AssocArO/UW/7592738">
          <pickID>quakeml:uw.anss.org/Arrival/UW/7592738</pickID>
          <phase>S</phase>
          <azimuth>205.7</azimuth>
          <distance>0.8796</distance>
          <timeResidual>1.01</timeResidual>
          <creationInfo>
            <agencyID>UW</agencyID>
            <creationTime>2012-03-05T12:05:48.000000Z</creationTime>
          </creationInfo>
        </arrival>
        <arrival publicID="quakeml:uw.anss.org/AssocArO/UW/7592743">
          <pickID>quakeml:uw.anss.org/Arrival/UW/7592743</pickID>
          <phase>P</phase>
          <azimuth>231.4</azimuth>
          <distance>0.3007</distance>
          <timeResidual>-0.18</timeResidual>
          <creationInfo>
            <agencyID>UW</agencyID>
            <creationTime>2012-03-05T12:05:48.000000Z</creationTime>
          </creationInfo>
        </arrival>
        <arrival publicID="quakeml:uw.anss.org/AssocArO/UW/7592748">
          <pickID>quakeml:uw.anss.org/Arrival/UW/7592748</pickID>
          <phase>P</phase>
          <azimuth>102.1</azimuth>
          <distance>0.3899</distance>
          <timeResidual>0.08</timeResidual>
          <creationInfo>
            <agencyID>UW</agencyID>
            <creationTime>2012-03-05T12:05:48.000000Z</creationTime>
          </creationInfo>
        </arrival>
      </origin>
      <magnitude publicID="quakeml:uw.anss.org/Netmag/UW/659353">
        <mag>
          <value>1.1</value>
          <uncertainty>0.03</uncertainty>
        </mag>
        <type>Md</type>
        <originID>quakeml:uw.anss.org/Origin/UW/825993</originID>
        <methodID>smi:uw.anss.org/magnitude/Crosson</methodID>
        <stationCount>3</stationCount>
        <evaluationMode>manual</evaluationMode>
        <evaluationStatus>final</evaluationStatus>
        <stationMagnitudeContribution>
          <stationMagnitudeID>quakeml:uw.anss.org/AssocCoM/UW/1781428</stationMagnitudeID>
          <weight>1.0</weight>
          <residual>0.38</residual>
        </stationMagnitudeContribution>
        <stationMagnitudeContribution>
          <stationMagnitudeID>quakeml:uw.anss.org/AssocCoM/UW/1781423</stationMagnitudeID>
          <weight>1.0</weight>
          <residual>-0.24</residual>
        </stationMagnitudeContribution>
        <stationMagnitudeContribution>
          <stationMagnitudeID>quakeml:uw.anss.org/AssocCoM/UW/1781418</stationMagnitudeID>
          <weight>1.0</weight>
          <residual>-0.24</residual>
        </stationMagnitudeContribution>
        <creationInfo>
          <agencyID>UW</agencyID>
          <creationTime>2012-03-05T12:05:48.000000Z</creationTime>
        </creationInfo>
      </magnitude>
      <stationMagnitude publicID="quakeml:uw.anss.org/AssocCoM/UW/1781418">
        <originID>quakeml:uw.anss.org/Origin/UW/825993</originID>
        <mag>
          <value>0.86</value>
        </mag>
        <type>MD</type>
        <amplitudeID>quakeml:uw.anss.org/Coda/UW/1781418</amplitudeID>
        <waveformID networkCode="UW" stationCode="SBES" locationCode="" channelCode="EHZ"></waveformID>
      </stationMagnitude>
      <stationMagnitude publicID="quakeml:uw.anss.org/AssocCoM/UW/1781423">
        <originID>quakeml:uw.anss.org/Origin/UW/825993</originID>
        <mag>
          <value>0.86</value>
        </mag>
        <type>MD</type>
        <amplitudeID>quakeml:uw.anss.org/Coda/UW/1781423</amplitudeID>
        <waveformID networkCode="UW" stationCode="CMW" locationCode="" channelCode="EHZ"></waveformID>
      </stationMagnitude>
      <stationMagnitude publicID="quakeml:uw.anss.org/AssocCoM/UW/1781428">
        <originID>quakeml:uw.anss.org/Origin/UW/825993</originID>
        <mag>
          <value>1.48</value>
        </mag>
        <type>MD</type>
        <amplitudeID>quakeml:uw.anss.org/Coda/UW/1781428</amplitudeID>
        <waveformID networkCode="CN" stationCode="VDB" locationCode="" channelCode="EHZ"></waveformID>
      </stationMagnitude>
      <pick publicID="quakeml:uw.anss.org/Arrival/UW/7592683">
        <time>
          <value>2001-07-25T06:09:21.840000Z</value>
          <uncertainty>0.03</uncertainty>
        </time>
        <waveformID networkCode="UW" stationCode="HDW" locationCode="" channelCode="EHZ"></waveformID>
        <polarity>undecidable</polarity>
        <evaluationMode>manual</evaluationMode>
        <evaluationStatus>final</evaluationStatus>
        <creationInfo>
          <agencyID>UW</agencyID>
          <creationTime>2012-03-05T12:05:48.000000Z</creationTime>
        </creationInfo>
      </pick>
      <pick publicID="quakeml:uw.anss.org/Arrival/UW/7592688">
        <time>
          <value>2001-07-25T06:09:10.260000Z</value>
          <uncertainty>0.04</uncertainty>
        </time>
        <waveformID networkCode="UW" stationCode="OHW" locationCode="" channelCode="EHZ"></waveformID>
        <polarity>undecidable</polarity>
        <evaluationMode>manual</evaluationMode>
        <evaluationStatus>final</evaluationStatus>
        <creationInfo>
          <agencyID>UW</agencyID>
          <creationTime>2012-03-05T12:05:48.000000Z</creationTime>
        </creationInfo>
      </pick>
      <pick publicID="quakeml:uw.anss.org/Arrival/UW/7592693">
        <time>
          <value>2001-07-25T06:09:15.880000Z</value>
          <uncertainty>0.04</uncertainty>
        </time>
        <waveformID networkCode="CN" stationCode="SNB" locationCode="" channelCode="BHZ"></waveformID>
        <polarity>undecidable</polarity>
        <evaluationMode>manual</evaluationMode>
        <evaluationStatus>final</evaluationStatus>
        <creationInfo>
          <agencyID>UW</agencyID>
          <creationTime>2012-03-05T12:05:48.000000Z</creationTime>
        </creationInfo>
      </pick>
      <pick publicID="quakeml:uw.anss.org/Arrival/UW/7592698">
        <time>
          <value>2001-07-25T06:09:03.170000Z</value>
          <uncertainty>0.01</uncertainty>
        </time>
        <waveformID networkCode="UW" stationCode="SBES" locationCode="" channelCode="EHZ"></waveformID>
        <polarity>positive</polarity>
        <evaluationMode>manual</evaluationMode>
        <evaluationStatus>final</evaluationStatus>
        <creationInfo>
          <agencyID>UW</agencyID>
          <creationTime>2012-03-05T12:05:48.000000Z</creationTime>
        </creationInfo>
      </pick>
      <pick publicID="quakeml:uw.anss.org/Arrival/UW/7592703">
        <time>
          <value>2001-07-25T06:09:14.390000Z</value>
          <uncertainty>0.05</uncertainty>
        </time>
        <waveformID networkCode="UW" stationCode="ERW" locationCode="" channelCode="HHE"></waveformID>
        <polarity>undecidable</polarity>
        <evaluationMode>manual</evaluationMode>
        <evaluationStatus>final</evaluationStatus>
        <creationInfo>
          <agencyID>UW</agencyID>
          <creationTime>2012-03-05T12:05:48.000000Z</creationTime>
        </creationInfo>
      </pick>
      <pick publicID="quakeml:uw.anss.org/Arrival/UW/7592708">
        <time>
          <value>2001-07-25T06:09:14.050000Z</value>
          <uncertainty>0.04</uncertainty>
        </time>
        <waveformID networkCode="UW" stationCode="JCW" locationCode="" channelCode="EHZ"></waveformID>
        <polarity>undecidable</polarity>
        <evaluationMode>manual</evaluationMode>
        <evaluationStatus>final</evaluationStatus>
        <creationInfo>
          <agencyID>UW</agencyID>
          <creationTime>2012-03-05T12:05:48.000000Z</creationTime>
        </creationInfo>
      </pick>
      <pick publicID="quakeml:uw.anss.org/Arrival/UW/7592713">
        <time>
          <value>2001-07-25T06:09:24.250000Z</value>
          <uncertainty>0.04</uncertainty>
        </time>
        <waveformID networkCode="UW" stationCode="JCW" locationCode="" channelCode="EHZ"></waveformID>
        <polarity>undecidable</polarity>
        <evaluationMode>manual</evaluationMode>
        <evaluationStatus>final</evaluationStatus>
        <creationInfo>
          <agencyID>UW</agencyID>
          <creationTime>2012-03-05T12:05:48.000000Z</creationTime>
        </creationInfo>
      </pick>
      <pick publicID="quakeml:uw.anss.org/Arrival/UW/7592718">
        <time>
          <value>2001-07-25T06:09:20.870000Z</value>
          <uncertainty>0.04</uncertainty>
        </time>
        <waveformID networkCode="UW" stationCode="HTW" locationCode="" channelCode="EHZ"></waveformID>
        <polarity>undecidable</polarity>
        <evaluationMode>manual</evaluationMode>
        <evaluationStatus>final</evaluationStatus>
        <creationInfo>
          <agencyID>UW</agencyID>
          <creationTime>2012-03-05T12:05:48.000000Z</creationTime>
        </creationInfo>
      </pick>
      <pick publicID="quakeml:uw.anss.org/Arrival/UW/7592723">
        <time>
          <value>2001-07-25T06:09:09.580000Z</value>
          <uncertainty>0.01</uncertainty>
        </time>
        <waveformID networkCode="UW" stationCode="CMW" locationCode="" channelCode="EHZ"></waveformID>
        <polarity>negative</polarity>
        <evaluationMode>manual</evaluationMode>
        <evaluationStatus>final</evaluationStatus>
        <creationInfo>
          <agencyID>UW</agencyID>
          <creationTime>2012-03-05T12:05:48.000000Z</creationTime>
        </creationInfo>
      </pick>
      <pick publicID="quakeml:uw.anss.org/Arrival/UW/7592728">
        <time>
          <value>2001-07-25T06:09:17.090000Z</value>
          <uncertainty>0.06</uncertainty>
        </time>
        <waveformID networkCode="UW" stationCode="CMW" locationCode="" channelCode="EHZ"></waveformID>
        <polarity>undecidable</polarity>
        <evaluationMode>manual</evaluationMode>
        <evaluationStatus>final</evaluationStatus>
        <creationInfo>
          <agencyID>UW</agencyID>
          <creationTime>2012-03-05T12:05:48.000000Z</creationTime>
        </creationInfo>
      </pick>
      <pick publicID="quakeml:uw.anss.org/Arrival/UW/7592733">
        <time>
          <value>2001-07-25T06:09:06.100000Z</value>
          <uncertainty>0.04</uncertainty>
        </time>
        <waveformID networkCode="CN" stationCode="VDB" locationCode="" channelCode="EHZ"></waveformID>
        <polarity>undecidable</polarity>
        <evaluationMode>manual</evaluationMode>
        <evaluationStatus>final</evaluationStatus>
        <creationInfo>
          <agencyID>UW</agencyID>
          <creationTime>2012-03-05T12:05:48.000000Z</creationTime>
        </creationInfo>
      </pick>
      <pick publicID="quakeml:uw.anss.org/Arrival/UW/7592738">
        <time>
          <value>2001-07-25T06:09:28.560000Z</value>
          <uncertainty>0.08</uncertainty>
        </time>
        <waveformID networkCode="UW" stationCode="SQM" locationCode="" channelCode="BHN"></waveformID>
        <polarity>undecidable</polarity>
        <evaluationMode>manual</evaluationMode>
        <evaluationStatus>final</evaluationStatus>
        <creationInfo>
          <agencyID>UW</agencyID>
          <creationTime>2012-03-05T12:05:48.000000Z</creationTime>
        </creationInfo>
      </pick>
      <pick publicID="quakeml:uw.anss.org/Arrival/UW/7592743">
        <time>
          <value>2001-07-25T06:09:05.960000Z</value>
          <uncertainty>0.01</uncertainty>
        </time>
        <waveformID networkCode="UW" stationCode="MCW" locationCode="" channelCode="EHZ"></waveformID>
        <polarity>positive</polarity>
        <evaluationMode>manual</evaluationMode>
        <evaluationStatus>final</evaluationStatus>
        <creationInfo>
          <agencyID>UW</agencyID>
          <creationTime>2012-03-05T12:05:48.000000Z</creationTime>
        </creationInfo>
      </pick>
      <pick publicID="quakeml:uw.anss.org/Arrival/UW/7592748">
        <time>
          <value>2001-07-25T06:09:08.040000Z</value>
          <uncertainty>0.05</uncertainty>
        </time>
        <waveformID networkCode="UW" stationCode="MBW" locationCode="" channelCode="EHZ"></waveformID>
        <polarity>undecidable</polarity>
        <evaluationMode>manual</evaluationMode>
        <evaluationStatus>final</evaluationStatus>
        <creationInfo>
          <agencyID>UW</agencyID>
          <creationTime>2012-03-05T12:05:48.000000Z</creationTime>
        </creationInfo>
      </pick>
      <amplitude publicID="quakeml:uw.anss.org/Coda/UW/1781428">
        <genericAmplitude>
          <value>25.0</value>
        </genericAmplitude>
        <type>END</type>
        <category>duration</category>
        <unit>s</unit>
        <waveformID networkCode="CN" stationCode="VDB" locationCode="" channelCode="EHZ"></waveformID>
        <magnitudeHint>MD</magnitudeHint>
