<?xml version='1.0' encoding='utf-8'?>
<q:quakeml xmlns="http://quakeml.org/xmlns/bed/1.2" xmlns:q="http://quakeml.org/xmlns/quakeml/1.2" xmlns:ns0="http://anss.org/xmlns/catalog/0.1">
  <eventParameters publicID="smi:local/ec2602cd-4178-4668-aadc-9dd1981cc0da">
    <event publicID="quakeml:uw.anss.org/Event/UW/10262313" ns0:datasource="uw" ns0:dataid="uw10262313" ns0:eventsource="uw" ns0:eventid="10262313">
      <preferredOriginID>quakeml:uw.anss.org/Origin/UW/539258</preferredOriginID>
      <preferredMagnitudeID>quakeml:uw.anss.org/Netmag/UW/451518</preferredMagnitudeID>
      <type>earthquake</type>
      <creationInfo>
        <agencyID>UW</agencyID>
        <creationTime>2012-02-27T16:51:35.000000Z</creationTime>
        <version>3</version>
      </creationInfo>
      <origin publicID="quakeml:uw.anss.org/Origin/UW/539258" ns0:datasource="uw" ns0:dataid="uw10262313" ns0:eventsource="uw" ns0:eventid="10262313">
        <time>
          <value>1990-06-21T04:49:57.130000Z</value>
          <uncertainty>0.42</uncertainty>
        </time>
        <latitude>
          <value>48.8383333</value>
          <uncertainty>1.17</uncertainty>
        </latitude>
        <longitude>
          <value>-122.1531667</value>
          <uncertainty>1.11</uncertainty>
        </longitude>
        <depth>
          <value>731.0</value>
          <uncertainty>4700.0</uncertainty>
        </depth>
        <depthType>operator assigned</depthType>
        <timeFixed>false</timeFixed>
        <epicenterFixed>true</epicenterFixed>
        <methodID>smi:uw.anss.org/origin/spong</methodID>
        <quality>
          <associatedPhaseCount>108</associatedPhaseCount>
          <usedPhaseCount>26</usedPhaseCount>
          <associatedStationCount>84</associatedStationCount>
          <usedStationCount>0</usedStationCount>
          <standardError>0.45</standardError>
          <azimuthalGap>130.0</azimuthalGap>
        </quality>
        <type>hypocenter</type>
        <evaluationMode>manual</evaluationMode>
        <evaluationStatus>final</evaluationStatus>
        <creationInfo>
          <agencyID>UW</agencyID>
          <creationTime>2012-02-27T16:51:35.000000Z</creationTime>
        </creationInfo>
        <originUncertainty>
          <preferredDescription>horizontal uncertainty</preferredDescription>
          <horizontalUncertainty>1613.0</horizontalUncertainty>
        </originUncertainty>
        <arrival publicID="quakeml:uw.anss.org/AssocArO/UW/3907318">
          <pickID>quakeml:uw.anss.org/Arrival/UW/3907318</pickID>
          <phase>P</phase>
          <azimuth>288.3</azimuth>
          <timeResidual>-0.35</timeResidual>
          <creationInfo>
            <agencyID>UW</agencyID>
            <creationTime>2012-02-27T16:51:35.000000Z</creationTime>
          </creationInfo>
        </arrival>
        <arrival publicID="quakeml:uw.anss.org/AssocArO/UW/3907323">
          <pickID>quakeml:uw.anss.org/Arrival/UW/3907323</pickID>
          <phase>S</phase>
          <azimuth>288.3</azimuth>
          <timeResidual>-1.27</timeResidual>
          <creationInfo>
            <agencyID>UW</agencyID>
            <creationTime>2012-02-27T16:51:35.000000Z</creationTime>
          </creationInfo>
        </arrival>
        <arrival publicID="quakeml:uw.anss.org/AssocArO/UW/3907328">
          <pickID>quakeml:uw.anss.org/Arrival/UW/3907328</pickID>
          <phase>P</phase>
          <azimuth>207.1</azimuth>
          <distance>1.335</distance>
          <timeResidual>-0.04</timeResidual>
          <creationInfo>
            <agencyID>UW</agencyID>
            <creationTime>2012-02-27T16:51:35.000000Z</creationTime>
          </creationInfo>
        </arrival>
        <arrival publicID="quakeml:uw.anss.org/AssocArO/UW/3907333">
          <pickID>quakeml:uw.anss.org/Arrival/UW/3907333</pickID>
          <phase>S</phase>
          <azimuth>207.1</azimuth>
          <distance>1.335</distance>
          <timeResidual>0.32</timeResidual>
          <creationInfo>
            <agencyID>UW</agencyID>
            <creationTime>2012-02-27T16:51:35.000000Z</creationTime>
          </creationInfo>
        </arrival>
        <arrival publicID="quakeml:uw.anss.org/AssocArO/UW/3907338">
          <pickID>quakeml:uw.anss.org/Arrival/UW/3907338</pickID>
          <phase>P</phase>
          <azimuth>121.9</azimuth>
          <distance>1.43</distance>
          <timeResidual>1.17</timeResidual>
          <creationInfo>
            <agencyID>UW</agencyID>
            <creationTime>2012-02-27T16:51:35.000000Z</creationTime>
          </creationInfo>
        </arrival>
        <arrival publicID="quakeml:uw.anss.org/AssocArO/UW/3907343">
          <pickID>quakeml:uw.anss.org/Arrival/UW/3907343</pickID>
          <phase>P</phase>
          <azimuth>327.5</azimuth>
          <timeResidual>0.12</timeResidual>
          <creationInfo>
            <agencyID>UW</agencyID>
            <creationTime>2012-02-27T16:51:35.000000Z</creationTime>
          </creationInfo>
        </arrival>
        <arrival publicID="quakeml:uw.anss.org/AssocArO/UW/3907348">
          <pickID>quakeml:uw.anss.org/Arrival/UW/3907348</pickID>
          <phase>S</phase>
          <azimuth>327.5</azimuth>
          <timeResidual>0.13</timeResidual>
          <creationInfo>
            <agencyID>UW</agencyID>
            <creationTime>2012-02-27T16:51:35.000000Z</creationTime>
          </creationInfo>
        </arrival>
        <arrival publicID="quakeml:uw.anss.org/AssocArO/UW/3907353">
          <pickID>quakeml:uw.anss.org/Arrival/UW/3907353</pickID>
          <phase>P</phase>
          <azimuth>173.9</azimuth>
          <distance>3.121</distance>
          <timeResidual>1.58</timeResidual>
          <creationInfo>
            <agencyID>UW</agencyID>
            <creationTime>2012-02-27T16:51:35.000000Z</creationTime>
          </creationInfo>
        </arrival>
        <arrival publicID="quakeml:uw.anss.org/AssocArO/UW/3907358">
          <pickID>quakeml:uw.anss.org/Arrival/UW/3907358</pickID>
          <phase>P</phase>
          <azimuth>134.8</azimuth>
          <distance>1.734</distance>
          <timeResidual>1.13</timeResidual>
          <creationInfo>
            <agencyID>UW</agencyID>
            <creationTime>2012-02-27T16:51:35.000000Z</creationTime>
          </creationInfo>
        </arrival>
        <arrival publicID="quakeml:uw.anss.org/AssocArO/UW/3907363">
          <pickID>quakeml:uw.anss.org/Arrival/UW/3907363</pickID>
          <phase>P</phase>
          <azimuth>156.5</azimuth>
          <distance>2.289</distance>
          <timeResidual>0.28</timeResidual>
          <creationInfo>
            <agencyID>UW</agencyID>
            <creationTime>2012-02-27T16:51:35.000000Z</creationTime>
          </creationInfo>
        </arrival>
        <arrival publicID="quakeml:uw.anss.org/AssocArO/UW/3907368">
          <pickID>quakeml:uw.anss.org/Arrival/UW/3907368</pickID>
          <phase>P</phase>
          <azimuth>174.0</azimuth>
          <timeResidual>0.32</timeResidual>
          <creationInfo>
            <agencyID>UW</agencyID>
            <creationTime>2012-02-27T16:51:35.000000Z</creationTime>
          </creationInfo>
        </arrival>
        <arrival publicID="quakeml:uw.anss.org/AssocArO/UW/3907373">
          <pickID>quakeml:uw.anss.org/Arrival/UW/3907373</pickID>
          <phase>P</phase>
          <azimuth>180.0</azimuth>
          <distance>2.693</distance>
          <timeResidual>1.29</timeResidual>
          <creationInfo>
            <agencyID>UW</agencyID>
            <creationTime>2012-02-27T16:51:35.000000Z</creationTime>
          </creationInfo>
        </arrival>
        <arrival publicID="quakeml:uw.anss.org/AssocArO/UW/3907378">
          <pickID>quakeml:uw.anss.org/Arrival/UW/3907378</pickID>
          <phase>P</phase>
          <azimuth>140.0</azimuth>
          <distance>2.886</distance>
          <timeResidual>4.76</timeResidual>
          <creationInfo>
            <agencyID>UW</agencyID>
            <creationTime>2012-02-27T16:51:35.000000Z</creationTime>
          </creationInfo>
        </arrival>
        <arrival publicID="quakeml:uw.anss.org/AssocArO/UW/3907383">
          <pickID>quakeml:uw.anss.org/Arrival/UW/3907383</pickID>
          <phase>P</phase>
          <azimuth>185.8</azimuth>
          <distance>2.417</distance>
          <timeResidual>0.24</timeResidual>
          <creationInfo>
            <agencyID>UW</agencyID>
            <creationTime>2012-02-27T16:51:35.000000Z</creationTime>
          </creationInfo>
        </arrival>
        <arrival publicID="quakeml:uw.anss.org/AssocArO/UW/3907388">
          <pickID>quakeml:uw.anss.org/Arrival/UW/3907388</pickID>
          <phase>P</phase>
          <azimuth>171.7</azimuth>
          <distance>1.989</distance>
          <timeResidual>0.55</timeResidual>
          <creationInfo>
            <agencyID>UW</agencyID>
            <creationTime>2012-02-27T16:51:35.000000Z</creationTime>
          </creationInfo>
        </arrival>
        <arrival publicID="quakeml:uw.anss.org/AssocArO/UW/3907393">
          <pickID>quakeml:uw.anss.org/Arrival/UW/3907393</pickID>
          <phase>P</phase>
          <azimuth>170.7</azimuth>
          <distance>2.311</distance>
          <timeResidual>0.72</timeResidual>
          <creationInfo>
            <agencyID>UW</agencyID>
            <creationTime>2012-02-27T16:51:35.000000Z</creationTime>
          </creationInfo>
        </arrival>
        <arrival publicID="quakeml:uw.anss.org/AssocArO/UW/3907398">
          <pickID>quakeml:uw.anss.org/Arrival/UW/3907398</pickID>
          <phase>P</phase>
          <azimuth>152.7</azimuth>
          <distance>1.907</distance>
          <timeResidual>1.57</timeResidual>
          <creationInfo>
            <agencyID>UW</agencyID>
            <creationTime>2012-02-27T16:51:35.000000Z</creationTime>
          </creationInfo>
        </arrival>
        <arrival publicID="quakeml:uw.anss.org/AssocArO/UW/3907403">
          <pickID>quakeml:uw.anss.org/Arrival/UW/3907403</pickID>
          <phase>P</phase>
          <azimuth>130.0</azimuth>
          <distance>2.266</distance>
          <timeResidual>2.28</timeResidual>
          <creationInfo>
            <agencyID>UW</agencyID>
            <creationTime>2012-02-27T16:51:35.000000Z</creationTime>
          </creationInfo>
        </arrival>
        <arrival publicID="quakeml:uw.anss.org/AssocArO/UW/3907408">
          <pickID>quakeml:uw.anss.org/Arrival/UW/3907408</pickID>
          <phase>P</phase>
          <azimuth>177.0</azimuth>
          <distance>0.4157</distance>
          <timeResidual>-0.5</timeResidual>
          <creationInfo>
            <agencyID>UW</agencyID>
            <creationTime>2012-02-27T16:51:35.000000Z</creationTime>
          </creationInfo>
        </arrival>
        <arrival publicID="quakeml:uw.anss.org/AssocArO/UW/3907413">
          <pickID>quakeml:uw.anss.org/Arrival/UW/3907413</pickID>
          <phase>P</phase>
          <azimuth>180.7</azimuth>
          <distance>2.377</distance>
          <timeResidual>0.43</timeResidual>
          <creationInfo>
            <agencyID>UW</agencyID>
            <creationTime>2012-02-27T16:51:35.000000Z</creationTime>
          </creationInfo>
        </arrival>
        <arrival publicID="quakeml:uw.anss.org/AssocArO/UW/3907418">
          <pickID>quakeml:uw.anss.org/Arrival/UW/3907418</pickID>
          <phase>P</phase>
          <azimuth>171.5</azimuth>
          <timeResidual>0.21</timeResidual>
          <creationInfo>
            <agencyID>UW</agencyID>
            <creationTime>2012-02-27T16:51:35.000000Z</creationTime>
          </creationInfo>
        </arrival>
        <arrival publicID="quakeml:uw.anss.org/AssocArO/UW/3907423">
          <pickID>quakeml:uw.anss.org/Arrival/UW/3907423</pickID>
          <phase>S</phase>
          <azimuth>171.5</azimuth>
          <timeResidual>0.48</timeResidual>
          <creationInfo>
            <agencyID>UW</agencyID>
            <creationTime>2012-02-27T16:51:35.000000Z</creationTime>
          </creationInfo>
        </arrival>
        <arrival publicID="quakeml:uw.anss.org/AssocArO/UW/3907428">
          <pickID>quakeml:uw.anss.org/Arrival/UW/3907428</pickID>
          <phase>P</phase>
          <timeResidual>-0.88</timeResidual>
          <creationInfo>
            <agencyID>UW</agencyID>
            <creationTime>2012-02-27T16:51:35.000000Z</creationTime>
          </creationInfo>
        </arrival>
        <arrival publicID="quakeml:uw.anss.org/AssocArO/UW/3907433">
          <pickID>quakeml:uw.anss.org/Arrival/UW/3907433</pickID>
          <phase>P</phase>
          <azimuth>176.3</azimuth>
          <distance>1.899</distance>
          <timeResidual>0.17</timeResidual>
          <creationInfo>
            <agencyID>UW</agencyID>
            <creationTime>2012-02-27T16:51:35.000000Z</creationTime>
          </creationInfo>
        </arrival>
        <arrival publicID="quakeml:uw.anss.org/AssocArO/UW/3907438">
          <pickID>quakeml:uw.anss.org/Arrival/UW/3907438</pickID>
          <phase>S</phase>
          <azimuth>176.3</azimuth>
          <distance>1.899</distance>
          <timeResidual>0.3</timeResidual>
          <creationInfo>
            <agencyID>UW</agencyID>
            <creationTime>2012-02-27T16:51:35.000000Z</creationTime>
          </creationInfo>
        </arrival>
        <arrival publicID="quakeml:uw.anss.org/AssocArO/UW/3907443">
          <pickID>quakeml:uw.anss.org/Arrival/UW/3907443</pickID>
          <phase>P</phase>
          <azimuth>173.6</azimuth>
          <distance>2.102</distance>
          <timeResidual>0.03</timeResidual>
          <creationInfo>
            <agencyID>UW</agencyID>
            <creationTime>2012-02-27T16:51:35.000000Z</creationTime>
          </creationInfo>
        </arrival>
        <arrival publicID="quakeml:uw.anss.org/AssocArO/UW/3907448">
          <pickID>quakeml:uw.anss.org/Arrival/UW/3907448</pickID>
          <phase>S</phase>
          <azimuth>173.6</azimuth>
          <distance>2.102</distance>
          <timeResidual>-0.59</timeResidual>
          <creationInfo>
            <agencyID>UW</agencyID>
            <creationTime>2012-02-27T16:51:35.000000Z</creationTime>
          </creationInfo>
        </arrival>
        <arrival publicID="quakeml:uw.anss.org/AssocArO/UW/3907453">
          <pickID>quakeml:uw.anss.org/Arrival/UW/3907453</pickID>
          <phase>P</phase>
          <timeResidual>0.17</timeResidual>
          <creationInfo>
            <agencyID>UW</agencyID>
            <creationTime>2012-02-27T16:51:35.000000Z</creationTime>
          </creationInfo>
        </arrival>
        <arrival publicID="quakeml:uw.anss.org/AssocArO/UW/3907458">
          <pickID>quakeml:uw.anss.org/Arrival/UW/3907458</pickID>
          <phase>P</phase>
          <azimuth>132.5</azimuth>
          <distance>0.5759</distance>
          <timeResidual>0.02</timeResidual>
          <creationInfo>
            <agencyID>UW</agencyID>
            <creationTime>2012-02-27T16:51:35.000000Z</creationTime>
          </creationInfo>
        </arrival>
        <arrival publicID="quakeml:uw.anss.org/AssocArO/UW/3907463">
          <pickID>quakeml:uw.anss.org/Arrival/UW/3907463</pickID>
          <phase>P</phase>
          <azimuth>168.8</azimuth>
          <distance>2.181</distance>
          <timeResidual>0.24</timeResidual>
          <creationInfo>
            <agencyID>UW</agencyID>
            <creationTime>2012-02-27T16:51:35.000000Z</creationTime>
          </creationInfo>
        </arrival>
        <arrival publicID="quakeml:uw.anss.org/AssocArO/UW/3907468">
          <pickID>quakeml:uw.anss.org/Arrival/UW/3907468</pickID>
          <phase>S</phase>
          <azimuth>168.8</azimuth>
          <distance>2.181</distance>
          <timeResidual>-0.44</timeResidual>
          <creationInfo>
            <agencyID>UW</agencyID>
            <creationTime>2012-02-27T16:51:35.000000Z</creationTime>
          </creationInfo>
        </arrival>
        <arrival publicID="quakeml:uw.anss.org/AssocArO/UW/3907473">
          <pickID>quakeml:uw.anss.org/Arrival/UW/3907473</pickID>
          <phase>P</phase>
          <azimuth>222.8</azimuth>
          <timeResidual>0.64</timeResidual>
          <creationInfo>
            <agencyID>UW</agencyID>
            <creationTime>2012-02-27T16:51:35.000000Z</creationTime>
          </creationInfo>
        </arrival>
        <arrival publicID="quakeml:uw.anss.org/AssocArO/UW/3907478">
          <pickID>quakeml:uw.anss.org/Arrival/UW/3907478</pickID>
          <phase>S</phase>
          <azimuth>222.8</azimuth>
          <timeResidual>2.61</timeResidual>
          <creationInfo>
            <agencyID>UW</agencyID>
            <creationTime>2012-02-27T16:51:35.000000Z</creationTime>
          </creationInfo>
        </arrival>
        <arrival publicID="quakeml:uw.anss.org/AssocArO/UW/3907483">
          <pickID>quakeml:uw.anss.org/Arrival/UW/3907483</pickID>
          <phase>P</phase>
          <azimuth>307.6</azimuth>
          <timeResidual>-0.16</timeResidual>
          <creationInfo>
            <agencyID>UW</agencyID>
            <creationTime>2012-02-27T16:51:35.000000Z</creationTime>
          </creationInfo>
        </arrival>
        <arrival publicID="quakeml:uw.anss.org/AssocArO/UW/3907488">
          <pickID>quakeml:uw.anss.org/Arrival/UW/3907488</pickID>
          <phase>P</phase>
          <azimuth>231.6</azimuth>
          <distance>1.751</distance>
          <timeResidual>0.79</timeResidual>
          <creationInfo>
            <agencyID>UW</agencyID>
            <creationTime>2012-02-27T16:51:35.000000Z</creationTime>
          </creationInfo>
        </arrival>
        <arrival publicID="quakeml:uw.anss.org/AssocArO/UW/3907493">
          <pickID>quakeml:uw.anss.org/Arrival/UW/3907493</pickID>
          <phase>P</phase>
          <azimuth>182.8</azimuth>
          <distance>1.287</distance>
          <timeResidual>0.6</timeResidual>
          <creationInfo>
            <agencyID>UW</agencyID>
            <creationTime>2012-02-27T16:51:35.000000Z</creationTime>
          </creationInfo>
        </arrival>
        <arrival publicID="quakeml:uw.anss.org/AssocArO/UW/3907498">
          <pickID>quakeml:uw.anss.org/Arrival/UW/3907498</pickID>
          <phase>P</phase>
          <azimuth>180.4</azimuth>
          <distance>2.666</distance>
          <timeResidual>1.49</timeResidual>
          <creationInfo>
            <agencyID>UW</agencyID>
            <creationTime>2012-02-27T16:51:35.000000Z</creationTime>
          </creationInfo>
        </arrival>
        <arrival publicID="quakeml:uw.anss.org/AssocArO/UW/3907503">
          <pickID>quakeml:uw.anss.org/Arrival/UW/3907503</pickID>
          <phase>P</phase>
          <azimuth>196.5</azimuth>
          <distance>1.06</distance>
          <timeResidual>0.4</timeResidual>
          <creationInfo>
            <agencyID>UW</agencyID>
            <creationTime>2012-02-27T16:51:35.000000Z</creationTime>
          </creationInfo>
        </arrival>
        <arrival publicID="quakeml:uw.anss.org/AssocArO/UW/3907508">
          <pickID>quakeml:uw.anss.org/Arrival/UW/3907508</pickID>
          <phase>P</phase>
          <azimuth>179.8</azimuth>
          <distance>2.596</distance>
          <timeResidual>0.88</timeResidual>
          <creationInfo>
            <agencyID>UW</agencyID>
            <creationTime>2012-02-27T16:51:35.000000Z</creationTime>
          </creationInfo>
        </arrival>
        <arrival publicID="quakeml:uw.anss.org/AssocArO/UW/3907513">
          <pickID>quakeml:uw.anss.org/Arrival/UW/3907513</pickID>
          <phase>P</phase>
          <azimuth>139.2</azimuth>
          <distance>2.717</distance>
          <timeResidual>1.45</timeResidual>
          <creationInfo>
            <agencyID>UW</agencyID>
            <creationTime>2012-02-27T16:51:35.000000Z</creationTime>
