<?xml version='1.0' encoding='utf-8'?>
<q:quakeml xmlns="http://quakeml.org/xmlns/bed/1.2" xmlns:q="http://quakeml.org/xmlns/quakeml/1.2" xmlns:ns0="http://anss.org/xmlns/catalog/0.1">
  <eventParameters publicID="smi:local/14714187-cc83-4814-9448-715690e10ea9">
    <event publicID="quakeml:uw.anss.org/Event/UW/10262833" ns0:datasource="uw" ns0:dataid="uw10262833" ns0:eventsource="uw" ns0:eventid="10262833">
      <preferredOriginID>quakeml:uw.anss.org/Origin/UW/539778</preferredOriginID>
      <preferredMagnitudeID>quakeml:uw.anss.org/Netmag/UW/451988</preferredMagnitudeID>
      <type>earthquake</type>
      <creationInfo>
        <agencyID>UW</agencyID>
        <creationTime>2012-02-27T16:52:45.000000Z</creationTime>
        <version>3</version>
      </creationInfo>
      <origin publicID="quakeml:uw.anss.org/Origin/UW/539778" ns0:datasource="uw" ns0:dataid="uw10262833" ns0:eventsource="uw" ns0:eventid="10262833">
        <time>
          <value>1990-04-25T17:05:27.700000Z</value>
          <uncertainty>0.18</uncertainty>
        </time>
        <latitude>
          <value>48.8201667</value>
          <uncertainty>0.96</uncertainty>
        </latitude>
        <longitude>
          <value>-122.1771667</value>
          <uncertainty>0.76</uncertainty>
        </longitude>
        <depth>
          <value>621.0</value>
          <uncertainty>2280.0</uncertainty>
        </depth>
        <depthType>operator assigned</depthType>
        <timeFixed>false</timeFixed>
        <epicenterFixed>true</epicenterFixed>
        <methodID>smi:uw.anss.org/origin/spong</methodID>
        <quality>
          <associatedPhaseCount>46</associatedPhaseCount>
          <usedPhaseCount>33</usedPhaseCount>
          <associatedStationCount>37</associatedStationCount>
          <usedStationCount>0</usedStationCount>
          <standardError>0.43</standardError>
          <azimuthalGap>87.0</azimuthalGap>
        </quality>
        <type>hypocenter</type>
        <evaluationMode>manual</evaluationMode>
        <evaluationStatus>final</evaluationStatus>
        <creationInfo>
          <agencyID>UW</agencyID>
          <creationTime>2012-02-27T16:52:45.000000Z</creationTime>
        </creationInfo>
        <originUncertainty>
          <preferredDescription>horizontal uncertainty</preferredDescription>
          <horizontalUncertainty>1224.0</horizontalUncertainty>
        </originUncertainty>
        <arrival publicID="quakeml:uw.anss.org/AssocArO/UW/3917028">
          <pickID>quakeml:uw.anss.org/Arrival/UW/3917028</pickID>
          <phase>P</phase>
          <azimuth>289.3</azimuth>
          <timeResidual>-0.48</timeResidual>
          <creationInfo>
            <agencyID>UW</agencyID>
            <creationTime>2012-02-27T16:52:45.000000Z</creationTime>
          </creationInfo>
        </arrival>
        <arrival publicID="quakeml:uw.anss.org/AssocArO/UW/3917048">
          <pickID>quakeml:uw.anss.org/Arrival/UW/3917048</pickID>
          <phase>S</phase>
          <azimuth>289.3</azimuth>
          <timeResidual>-1.29</timeResidual>
          <creationInfo>
            <agencyID>UW</agencyID>
            <creationTime>2012-02-27T16:52:45.000000Z</creationTime>
          </creationInfo>
        </arrival>
        <arrival publicID="quakeml:uw.anss.org/AssocArO/UW/3917063">
          <pickID>quakeml:uw.anss.org/Arrival/UW/3917063</pickID>
          <phase>P</phase>
          <azimuth>206.9</azimuth>
          <distance>1.312</distance>
          <timeResidual>0.03</timeResidual>
          <creationInfo>
            <agencyID>UW</agencyID>
            <creationTime>2012-02-27T16:52:45.000000Z</creationTime>
          </creationInfo>
        </arrival>
        <arrival publicID="quakeml:uw.anss.org/AssocArO/UW/3917083">
          <pickID>quakeml:uw.anss.org/Arrival/UW/3917083</pickID>
          <phase>P</phase>
          <azimuth>120.9</azimuth>
          <distance>1.434</distance>
          <timeResidual>0.78</timeResidual>
          <creationInfo>
            <agencyID>UW</agencyID>
            <creationTime>2012-02-27T16:52:45.000000Z</creationTime>
          </creationInfo>
        </arrival>
        <arrival publicID="quakeml:uw.anss.org/AssocArO/UW/3917093">
          <pickID>quakeml:uw.anss.org/Arrival/UW/3917093</pickID>
          <phase>P</phase>
          <azimuth>330.0</azimuth>
          <timeResidual>-0.2</timeResidual>
          <creationInfo>
            <agencyID>UW</agencyID>
            <creationTime>2012-02-27T16:52:45.000000Z</creationTime>
          </creationInfo>
        </arrival>
        <arrival publicID="quakeml:uw.anss.org/AssocArO/UW/3917098">
          <pickID>quakeml:uw.anss.org/Arrival/UW/3917098</pickID>
          <phase>S</phase>
          <azimuth>330.0</azimuth>
          <timeResidual>-0.12</timeResidual>
          <creationInfo>
            <agencyID>UW</agencyID>
            <creationTime>2012-02-27T16:52:45.000000Z</creationTime>
          </creationInfo>
        </arrival>
        <arrival publicID="quakeml:uw.anss.org/AssocArO/UW/3917113">
          <pickID>quakeml:uw.anss.org/Arrival/UW/3917113</pickID>
          <phase>P</phase>
          <azimuth>134.0</azimuth>
          <distance>1.733</distance>
          <timeResidual>0.07</timeResidual>
          <creationInfo>
            <agencyID>UW</agencyID>
            <creationTime>2012-02-27T16:52:45.000000Z</creationTime>
          </creationInfo>
        </arrival>
        <arrival publicID="quakeml:uw.anss.org/AssocArO/UW/3917128">
          <pickID>quakeml:uw.anss.org/Arrival/UW/3917128</pickID>
          <phase>P</phase>
          <azimuth>173.5</azimuth>
          <timeResidual>0.32</timeResidual>
          <creationInfo>
            <agencyID>UW</agencyID>
            <creationTime>2012-02-27T16:52:45.000000Z</creationTime>
          </creationInfo>
        </arrival>
        <arrival publicID="quakeml:uw.anss.org/AssocArO/UW/3917143">
          <pickID>quakeml:uw.anss.org/Arrival/UW/3917143</pickID>
          <phase>P</phase>
          <azimuth>185.4</azimuth>
          <distance>2.397</distance>
          <timeResidual>0.28</timeResidual>
          <creationInfo>
            <agencyID>UW</agencyID>
            <creationTime>2012-02-27T16:52:45.000000Z</creationTime>
          </creationInfo>
        </arrival>
        <arrival publicID="quakeml:uw.anss.org/AssocArO/UW/3917148">
          <pickID>quakeml:uw.anss.org/Arrival/UW/3917148</pickID>
          <phase>P</phase>
          <timeResidual>0.13</timeResidual>
          <creationInfo>
            <agencyID>UW</agencyID>
            <creationTime>2012-02-27T16:52:45.000000Z</creationTime>
          </creationInfo>
        </arrival>
        <arrival publicID="quakeml:uw.anss.org/AssocArO/UW/3917158">
          <pickID>quakeml:uw.anss.org/Arrival/UW/3917158</pickID>
          <phase>S</phase>
          <timeResidual>1.0</timeResidual>
          <creationInfo>
            <agencyID>UW</agencyID>
            <creationTime>2012-02-27T16:52:45.000000Z</creationTime>
          </creationInfo>
        </arrival>
        <arrival publicID="quakeml:uw.anss.org/AssocArO/UW/3917168">
          <pickID>quakeml:uw.anss.org/Arrival/UW/3917168</pickID>
          <phase>P</phase>
          <azimuth>174.6</azimuth>
          <distance>0.3988</distance>
          <timeResidual>-0.61</timeResidual>
          <creationInfo>
            <agencyID>UW</agencyID>
            <creationTime>2012-02-27T16:52:45.000000Z</creationTime>
          </creationInfo>
        </arrival>
        <arrival publicID="quakeml:uw.anss.org/AssocArO/UW/3917188">
          <pickID>quakeml:uw.anss.org/Arrival/UW/3917188</pickID>
          <phase>P</phase>
          <azimuth>170.9</azimuth>
          <timeResidual>0.45</timeResidual>
          <creationInfo>
            <agencyID>UW</agencyID>
            <creationTime>2012-02-27T16:52:45.000000Z</creationTime>
          </creationInfo>
        </arrival>
        <arrival publicID="quakeml:uw.anss.org/AssocArO/UW/3917198">
          <pickID>quakeml:uw.anss.org/Arrival/UW/3917198</pickID>
          <phase>P</phase>
          <azimuth>175.8</azimuth>
          <distance>1.882</distance>
          <timeResidual>0.09</timeResidual>
          <creationInfo>
            <agencyID>UW</agencyID>
            <creationTime>2012-02-27T16:52:45.000000Z</creationTime>
          </creationInfo>
        </arrival>
        <arrival publicID="quakeml:uw.anss.org/AssocArO/UW/3917208">
          <pickID>quakeml:uw.anss.org/Arrival/UW/3917208</pickID>
          <phase>P</phase>
          <azimuth>173.1</azimuth>
          <distance>2.086</distance>
          <timeResidual>0.17</timeResidual>
          <creationInfo>
            <agencyID>UW</agencyID>
            <creationTime>2012-02-27T16:52:45.000000Z</creationTime>
          </creationInfo>
        </arrival>
        <arrival publicID="quakeml:uw.anss.org/AssocArO/UW/3917213">
          <pickID>quakeml:uw.anss.org/Arrival/UW/3917213</pickID>
          <phase>P</phase>
          <timeResidual>0.23</timeResidual>
          <creationInfo>
            <agencyID>UW</agencyID>
            <creationTime>2012-02-27T16:52:45.000000Z</creationTime>
          </creationInfo>
        </arrival>
        <arrival publicID="quakeml:uw.anss.org/AssocArO/UW/3917218">
          <pickID>quakeml:uw.anss.org/Arrival/UW/3917218</pickID>
          <phase>S</phase>
          <timeResidual>-0.16</timeResidual>
          <creationInfo>
            <agencyID>UW</agencyID>
            <creationTime>2012-02-27T16:52:45.000000Z</creationTime>
          </creationInfo>
        </arrival>
        <arrival publicID="quakeml:uw.anss.org/AssocArO/UW/3917223">
          <pickID>quakeml:uw.anss.org/Arrival/UW/3917223</pickID>
          <phase>P</phase>
          <azimuth>130.1</azimuth>
          <distance>0.5759</distance>
          <timeResidual>-0.32</timeResidual>
          <creationInfo>
            <agencyID>UW</agencyID>
            <creationTime>2012-02-27T16:52:45.000000Z</creationTime>
          </creationInfo>
        </arrival>
        <arrival publicID="quakeml:uw.anss.org/AssocArO/UW/3917233">
          <pickID>quakeml:uw.anss.org/Arrival/UW/3917233</pickID>
          <phase>S</phase>
          <azimuth>130.1</azimuth>
          <distance>0.5759</distance>
          <timeResidual>0.18</timeResidual>
          <creationInfo>
            <agencyID>UW</agencyID>
            <creationTime>2012-02-27T16:52:45.000000Z</creationTime>
          </creationInfo>
        </arrival>
        <arrival publicID="quakeml:uw.anss.org/AssocArO/UW/3917248">
          <pickID>quakeml:uw.anss.org/Arrival/UW/3917248</pickID>
          <phase>P</phase>
          <azimuth>309.0</azimuth>
          <timeResidual>-0.37</timeResidual>
          <creationInfo>
            <agencyID>UW</agencyID>
            <creationTime>2012-02-27T16:52:45.000000Z</creationTime>
          </creationInfo>
        </arrival>
        <arrival publicID="quakeml:uw.anss.org/AssocArO/UW/3917258">
          <pickID>quakeml:uw.anss.org/Arrival/UW/3917258</pickID>
          <phase>P</phase>
          <azimuth>182.1</azimuth>
          <distance>1.268</distance>
          <timeResidual>0.88</timeResidual>
          <creationInfo>
            <agencyID>UW</agencyID>
            <creationTime>2012-02-27T16:52:45.000000Z</creationTime>
          </creationInfo>
        </arrival>
        <arrival publicID="quakeml:uw.anss.org/AssocArO/UW/3917268">
          <pickID>quakeml:uw.anss.org/Arrival/UW/3917268</pickID>
          <phase>P</phase>
          <azimuth>205.5</azimuth>
          <distance>0.5507</distance>
          <timeResidual>0.88</timeResidual>
          <creationInfo>
            <agencyID>UW</agencyID>
            <creationTime>2012-02-27T16:52:45.000000Z</creationTime>
          </creationInfo>
        </arrival>
        <arrival publicID="quakeml:uw.anss.org/AssocArO/UW/3917273">
          <pickID>quakeml:uw.anss.org/Arrival/UW/3917273</pickID>
          <phase>P</phase>
          <azimuth>225.9</azimuth>
          <distance>1.432</distance>
          <timeResidual>0.19</timeResidual>
          <creationInfo>
            <agencyID>UW</agencyID>
            <creationTime>2012-02-27T16:52:45.000000Z</creationTime>
          </creationInfo>
        </arrival>
        <arrival publicID="quakeml:uw.anss.org/AssocArO/UW/3917283">
          <pickID>quakeml:uw.anss.org/Arrival/UW/3917283</pickID>
          <phase>P</phase>
          <azimuth>321.3</azimuth>
          <timeResidual>-0.3</timeResidual>
          <creationInfo>
            <agencyID>UW</agencyID>
            <creationTime>2012-02-27T16:52:45.000000Z</creationTime>
          </creationInfo>
        </arrival>
        <arrival publicID="quakeml:uw.anss.org/AssocArO/UW/3917288">
          <pickID>quakeml:uw.anss.org/Arrival/UW/3917288</pickID>
          <phase>S</phase>
          <azimuth>321.3</azimuth>
          <timeResidual>-0.54</timeResidual>
          <creationInfo>
            <agencyID>UW</agencyID>
            <creationTime>2012-02-27T16:52:45.000000Z</creationTime>
          </creationInfo>
        </arrival>
        <arrival publicID="quakeml:uw.anss.org/AssocArO/UW/3917298">
          <pickID>quakeml:uw.anss.org/Arrival/UW/3917298</pickID>
          <phase>P</phase>
          <azimuth>165.1</azimuth>
          <timeResidual>-0.04</timeResidual>
          <creationInfo>
            <agencyID>UW</agencyID>
            <creationTime>2012-02-27T16:52:45.000000Z</creationTime>
          </creationInfo>
        </arrival>
        <arrival publicID="quakeml:uw.anss.org/AssocArO/UW/3917308">
          <pickID>quakeml:uw.anss.org/Arrival/UW/3917308</pickID>
          <phase>P</phase>
          <azimuth>169.6</azimuth>
          <timeResidual>0.21</timeResidual>
          <creationInfo>
            <agencyID>UW</agencyID>
            <creationTime>2012-02-27T16:52:45.000000Z</creationTime>
          </creationInfo>
        </arrival>
        <arrival publicID="quakeml:uw.anss.org/AssocArO/UW/3917313">
          <pickID>quakeml:uw.anss.org/Arrival/UW/3917313</pickID>
          <phase>S</phase>
          <azimuth>169.6</azimuth>
          <timeResidual>-0.41</timeResidual>
          <creationInfo>
            <agencyID>UW</agencyID>
            <creationTime>2012-02-27T16:52:45.000000Z</creationTime>
          </creationInfo>
        </arrival>
        <arrival publicID="quakeml:uw.anss.org/AssocArO/UW/3917318">
          <pickID>quakeml:uw.anss.org/Arrival/UW/3917318</pickID>
          <phase>P</phase>
          <azimuth>116.7</azimuth>
          <distance>1.807</distance>
          <timeResidual>2.44</timeResidual>
          <creationInfo>
            <agencyID>UW</agencyID>
            <creationTime>2012-02-27T16:52:45.000000Z</creationTime>
          </creationInfo>
        </arrival>
        <arrival publicID="quakeml:uw.anss.org/AssocArO/UW/3917323">
          <pickID>quakeml:uw.anss.org/Arrival/UW/3917323</pickID>
          <phase>P</phase>
          <timeResidual>0.06</timeResidual>
          <creationInfo>
            <agencyID>UW</agencyID>
            <creationTime>2012-02-27T16:52:45.000000Z</creationTime>
          </creationInfo>
        </arrival>
        <arrival publicID="quakeml:uw.anss.org/AssocArO/UW/3917328">
          <pickID>quakeml:uw.anss.org/Arrival/UW/3917328</pickID>
          <phase>S</phase>
          <timeResidual>-0.32</timeResidual>
          <creationInfo>
            <agencyID>UW</agencyID>
            <creationTime>2012-02-27T16:52:45.000000Z</creationTime>
          </creationInfo>
        </arrival>
        <arrival publicID="quakeml:uw.anss.org/AssocArO/UW/3917338">
          <pickID>quakeml:uw.anss.org/Arrival/UW/3917338</pickID>
          <phase>P</phase>
          <azimuth>236.5</azimuth>
          <timeResidual>-0.03</timeResidual>
          <creationInfo>
            <agencyID>UW</agencyID>
            <creationTime>2012-02-27T16:52:45.000000Z</creationTime>
          </creationInfo>
        </arrival>
        <arrival publicID="quakeml:uw.anss.org/AssocArO/UW/3917348">
          <pickID>quakeml:uw.anss.org/Arrival/UW/3917348</pickID>
          <phase>S</phase>
          <azimuth>236.5</azimuth>
          <timeResidual>0.36</timeResidual>
          <creationInfo>
            <agencyID>UW</agencyID>
            <creationTime>2012-02-27T16:52:45.000000Z</creationTime>
          </creationInfo>
        </arrival>
        <arrival publicID="quakeml:uw.anss.org/AssocArO/UW/3917353">
          <pickID>quakeml:uw.anss.org/Arrival/UW/3917353</pickID>
          <phase>P</phase>
          <timeResidual>0.34</timeResidual>
          <creationInfo>
            <agencyID>UW</agencyID>
            <creationTime>2012-02-27T16:52:46.000000Z</creationTime>
          </creationInfo>
        </arrival>
        <arrival publicID="quakeml:uw.anss.org/AssocArO/UW/3917358">
          <pickID>quakeml:uw.anss.org/Arrival/UW/3917358</pickID>
          <phase>P</phase>
          <azimuth>198.0</azimuth>
          <distance>1.337</distance>
          <timeResidual>0.02</timeResidual>
          <creationInfo>
            <agencyID>UW</agencyID>
            <creationTime>2012-02-27T16:52:46.000000Z</creationTime>
          </creationInfo>
        </arrival>
        <arrival publicID="quakeml:uw.anss.org/AssocArO/UW/3917363">
          <pickID>quakeml:uw.anss.org/Arrival/UW/3917363</pickID>
          <phase>P</phase>
          <azimuth>169.6</azimuth>
          <distance>1.384</distance>
          <timeResidual>0.41</timeResidual>
          <creationInfo>
            <agencyID>UW</agencyID>
            <creationTime>2012-02-27T16:52:46.000000Z</creationTime>
          </creationInfo>
        </arrival>
        <arrival publicID="quakeml:uw.anss.org/AssocArO/UW/3917368">
          <pickID>quakeml:uw.anss.org/Arrival/UW/3917368</pickID>
          <phase>P</phase>
          <azimuth>101.2</azimuth>
          <distance>0.1862</distance>
          <timeResidual>-0.19</timeResidual>
          <creationInfo>
            <agencyID>UW</agencyID>
            <creationTime>2012-02-27T16:52:46.000000Z</creationTime>
          </creationInfo>
        </arrival>
        <arrival publicID="quakeml:uw.anss.org/AssocArO/UW/3917373">
          <pickID>quakeml:uw.anss.org/Arrival/UW/3917373</pickID>
          <phase>P</phase>
          <timeResidual>0.21</timeResidual>
          <creationInfo>
            <agencyID>UW</agencyID>
            <creationTime>2012-02-27T16:52:46.000000Z</creationTime>
          </creationInfo>
        </arrival>
        <arrival publicID="quakeml:uw.anss.org/AssocArO/UW/3917378">
          <pickID>quakeml:uw.anss.org/Arrival/UW/3917378</pickID>
          <phase>P</phase>
          <azimuth>339.2</azimuth>
          <distance>1.404</distance>
          <timeResidual>0.8</timeResidual>
          <creationInfo>
            <agencyID>UW</agencyID>
            <creationTime>2012-02-27T16:52:46.000000Z</creationTime>
          </creationInfo>
        </arrival>
        <arrival publicID="quakeml:uw.anss.org/AssocArO/UW/3917383">
          <pickID>quakeml:uw.anss.org/Arrival/UW/3917383</pickID>
          <phase>P</phase>
          <azimuth>164.9</azimuth>
          <distance>1.053</distance>
          <timeResidual>0.22</timeResidual>
          <creationInfo>
            <agencyID>UW</agencyID>
            <creationTime>2012-02-27T16:52:46.000000Z</creationTime>
          </creationInfo>
        </arrival>
        <arrival publicID="quakeml:uw.anss.org/AssocArO/UW/3917388">
          <pickID>quakeml:uw.anss.org/Arrival/UW/3917388</pickID>
          <phase>P</phase>
          <azimuth>124.8</azimuth>
          <distance>1.75</distance>
          <timeResidual>1.32</timeResidual>
          <creationInfo>
            <agencyID>UW</agencyID>
            <creationTime>2012-02-27T16:52:46.000000Z</creationTime>
          </creationInfo>
        </arrival>
        <arrival publicID="quakeml:uw.anss.org/AssocArO/UW/3917393">
