<?xml version='1.0' encoding='utf-8'?>
<q:quakeml xmlns="http://quakeml.org/xmlns/bed/1.2" xmlns:q="http://quakeml.org/xmlns/quakeml/1.2" xmlns:ns0="http://anss.org/xmlns/catalog/0.1">
  <eventParameters publicID="smi:local/3ae16c2f-0adf-4fe2-bf03-84c0ce06cefe">
    <event publicID="quakeml:uw.anss.org/Event/UW/10259413" ns0:datasource="uw" ns0:dataid="uw10259413" ns0:eventsource="uw" ns0:eventid="10259413">
      <preferredOriginID>quakeml:uw.anss.org/Origin/UW/536358</preferredOriginID>
      <preferredMagnitudeID>quakeml:uw.anss.org/Netmag/UW/448838</preferredMagnitudeID>
      <type>earthquake</type>
      <creationInfo>
        <agencyID>UW</agencyID>
        <creationTime>2012-02-27T16:45:41.000000Z</creationTime>
        <version>3</version>
      </creationInfo>
      <origin publicID="quakeml:uw.anss.org/Origin/UW/536358" ns0:datasource="uw" ns0:dataid="uw10259413" ns0:eventsource="uw" ns0:eventid="10259413">
        <time>
          <value>1990-04-17T07:03:01.530000Z</value>
          <uncertainty>0.15</uncertainty>
        </time>
        <latitude>
          <value>48.8408333</value>
          <uncertainty>5.56</uncertainty>
        </latitude>
        <longitude>
          <value>-122.1935</value>
          <uncertainty>1.85</uncertainty>
        </longitude>
        <depth>
          <value>2691.0</value>
          <uncertainty>37010.0</uncertainty>
        </depth>
        <depthType>operator assigned</depthType>
        <timeFixed>false</timeFixed>
        <epicenterFixed>true</epicenterFixed>
        <methodID>smi:uw.anss.org/origin/spong</methodID>
        <quality>
          <associatedPhaseCount>36</associatedPhaseCount>
          <usedPhaseCount>25</usedPhaseCount>
          <associatedStationCount>28</associatedStationCount>
          <usedStationCount>0</usedStationCount>
          <standardError>0.48</standardError>
          <azimuthalGap>88.0</azimuthalGap>
        </quality>
        <type>hypocenter</type>
        <evaluationMode>manual</evaluationMode>
        <evaluationStatus>final</evaluationStatus>
        <creationInfo>
          <agencyID>UW</agencyID>
          <creationTime>2012-02-27T16:45:41.000000Z</creationTime>
        </creationInfo>
        <originUncertainty>
          <preferredDescription>horizontal uncertainty</preferredDescription>
          <horizontalUncertainty>5860.0</horizontalUncertainty>
        </originUncertainty>
        <arrival publicID="quakeml:uw.anss.org/AssocArO/UW/3853883">
          <pickID>quakeml:uw.anss.org/Arrival/UW/3853883</pickID>
          <phase>P</phase>
          <azimuth>288.5</azimuth>
          <timeResidual>-0.48</timeResidual>
          <creationInfo>
            <agencyID>UW</agencyID>
            <creationTime>2012-02-27T16:45:41.000000Z</creationTime>
          </creationInfo>
        </arrival>
        <arrival publicID="quakeml:uw.anss.org/AssocArO/UW/3853888">
          <pickID>quakeml:uw.anss.org/Arrival/UW/3853888</pickID>
          <phase>S</phase>
          <azimuth>288.5</azimuth>
          <timeResidual>-1.38</timeResidual>
          <creationInfo>
            <agencyID>UW</agencyID>
            <creationTime>2012-02-27T16:45:41.000000Z</creationTime>
          </creationInfo>
        </arrival>
        <arrival publicID="quakeml:uw.anss.org/AssocArO/UW/3853893">
          <pickID>quakeml:uw.anss.org/Arrival/UW/3853893</pickID>
          <phase>P</phase>
          <azimuth>206.0</azimuth>
          <distance>1.325</distance>
          <timeResidual>0.39</timeResidual>
          <creationInfo>
            <agencyID>UW</agencyID>
            <creationTime>2012-02-27T16:45:41.000000Z</creationTime>
          </creationInfo>
        </arrival>
        <arrival publicID="quakeml:uw.anss.org/AssocArO/UW/3853898">
          <pickID>quakeml:uw.anss.org/Arrival/UW/3853898</pickID>
          <phase>P</phase>
          <azimuth>329.9</azimuth>
          <timeResidual>-0.29</timeResidual>
          <creationInfo>
            <agencyID>UW</agencyID>
            <creationTime>2012-02-27T16:45:41.000000Z</creationTime>
          </creationInfo>
        </arrival>
        <arrival publicID="quakeml:uw.anss.org/AssocArO/UW/3853903">
          <pickID>quakeml:uw.anss.org/Arrival/UW/3853903</pickID>
          <phase>S</phase>
          <azimuth>329.9</azimuth>
          <timeResidual>-0.11</timeResidual>
          <creationInfo>
            <agencyID>UW</agencyID>
            <creationTime>2012-02-27T16:45:41.000000Z</creationTime>
          </creationInfo>
        </arrival>
        <arrival publicID="quakeml:uw.anss.org/AssocArO/UW/3853973">
          <pickID>quakeml:uw.anss.org/Arrival/UW/3853973</pickID>
          <phase>P</phase>
          <timeResidual>0.03</timeResidual>
          <creationInfo>
            <agencyID>UW</agencyID>
            <creationTime>2012-02-27T16:45:41.000000Z</creationTime>
          </creationInfo>
        </arrival>
        <arrival publicID="quakeml:uw.anss.org/AssocArO/UW/3853988">
          <pickID>quakeml:uw.anss.org/Arrival/UW/3853988</pickID>
          <phase>P</phase>
          <azimuth>173.4</azimuth>
          <distance>0.4205</distance>
          <timeResidual>-0.57</timeResidual>
          <creationInfo>
            <agencyID>UW</agencyID>
            <creationTime>2012-02-27T16:45:41.000000Z</creationTime>
          </creationInfo>
        </arrival>
        <arrival publicID="quakeml:uw.anss.org/AssocArO/UW/3853998">
          <pickID>quakeml:uw.anss.org/Arrival/UW/3853998</pickID>
          <phase>S</phase>
          <azimuth>173.4</azimuth>
          <distance>0.4205</distance>
          <timeResidual>2.14</timeResidual>
          <creationInfo>
            <agencyID>UW</agencyID>
            <creationTime>2012-02-27T16:45:41.000000Z</creationTime>
          </creationInfo>
        </arrival>
        <arrival publicID="quakeml:uw.anss.org/AssocArO/UW/3854008">
          <pickID>quakeml:uw.anss.org/Arrival/UW/3854008</pickID>
          <phase>P</phase>
          <azimuth>170.6</azimuth>
          <timeResidual>0.46</timeResidual>
          <creationInfo>
            <agencyID>UW</agencyID>
            <creationTime>2012-02-27T16:45:41.000000Z</creationTime>
          </creationInfo>
        </arrival>
        <arrival publicID="quakeml:uw.anss.org/AssocArO/UW/3854013">
          <pickID>quakeml:uw.anss.org/Arrival/UW/3854013</pickID>
          <phase>P</phase>
          <azimuth>175.5</azimuth>
          <distance>1.904</distance>
          <timeResidual>0.06</timeResidual>
          <creationInfo>
            <agencyID>UW</agencyID>
            <creationTime>2012-02-27T16:45:41.000000Z</creationTime>
          </creationInfo>
        </arrival>
        <arrival publicID="quakeml:uw.anss.org/AssocArO/UW/3854018">
          <pickID>quakeml:uw.anss.org/Arrival/UW/3854018</pickID>
          <phase>P</phase>
          <timeResidual>0.24</timeResidual>
          <creationInfo>
            <agencyID>UW</agencyID>
            <creationTime>2012-02-27T16:45:41.000000Z</creationTime>
          </creationInfo>
        </arrival>
        <arrival publicID="quakeml:uw.anss.org/AssocArO/UW/3854023">
          <pickID>quakeml:uw.anss.org/Arrival/UW/3854023</pickID>
          <phase>P</phase>
          <azimuth>131.0</azimuth>
          <distance>0.5975</distance>
          <timeResidual>0.0</timeResidual>
          <creationInfo>
            <agencyID>UW</agencyID>
            <creationTime>2012-02-27T16:45:41.000000Z</creationTime>
          </creationInfo>
        </arrival>
        <arrival publicID="quakeml:uw.anss.org/AssocArO/UW/3854028">
          <pickID>quakeml:uw.anss.org/Arrival/UW/3854028</pickID>
          <phase>S</phase>
          <azimuth>131.0</azimuth>
          <distance>0.5975</distance>
          <timeResidual>0.42</timeResidual>
          <creationInfo>
            <agencyID>UW</agencyID>
            <creationTime>2012-02-27T16:45:41.000000Z</creationTime>
          </creationInfo>
        </arrival>
        <arrival publicID="quakeml:uw.anss.org/AssocArO/UW/3854073">
          <pickID>quakeml:uw.anss.org/Arrival/UW/3854073</pickID>
          <phase>P</phase>
          <azimuth>308.4</azimuth>
          <timeResidual>-0.44</timeResidual>
          <creationInfo>
            <agencyID>UW</agencyID>
            <creationTime>2012-02-27T16:45:41.000000Z</creationTime>
          </creationInfo>
        </arrival>
        <arrival publicID="quakeml:uw.anss.org/AssocArO/UW/3854083">
          <pickID>quakeml:uw.anss.org/Arrival/UW/3854083</pickID>
          <phase>P</phase>
          <azimuth>203.6</azimuth>
          <distance>0.565</distance>
          <timeResidual>0.99</timeResidual>
          <creationInfo>
            <agencyID>UW</agencyID>
            <creationTime>2012-02-27T16:45:41.000000Z</creationTime>
          </creationInfo>
        </arrival>
        <arrival publicID="quakeml:uw.anss.org/AssocArO/UW/3854088">
          <pickID>quakeml:uw.anss.org/Arrival/UW/3854088</pickID>
          <phase>P</phase>
          <azimuth>225.0</azimuth>
          <distance>1.438</distance>
          <timeResidual>0.27</timeResidual>
          <creationInfo>
            <agencyID>UW</agencyID>
            <creationTime>2012-02-27T16:45:41.000000Z</creationTime>
          </creationInfo>
        </arrival>
        <arrival publicID="quakeml:uw.anss.org/AssocArO/UW/3854093">
          <pickID>quakeml:uw.anss.org/Arrival/UW/3854093</pickID>
          <phase>P</phase>
          <azimuth>164.6</azimuth>
          <timeResidual>0.11</timeResidual>
          <creationInfo>
            <agencyID>UW</agencyID>
            <creationTime>2012-02-27T16:45:41.000000Z</creationTime>
          </creationInfo>
        </arrival>
        <arrival publicID="quakeml:uw.anss.org/AssocArO/UW/3854098">
          <pickID>quakeml:uw.anss.org/Arrival/UW/3854098</pickID>
          <phase>S</phase>
          <azimuth>164.6</azimuth>
          <timeResidual>1.33</timeResidual>
          <creationInfo>
            <agencyID>UW</agencyID>
            <creationTime>2012-02-27T16:45:41.000000Z</creationTime>
          </creationInfo>
        </arrival>
        <arrival publicID="quakeml:uw.anss.org/AssocArO/UW/3854103">
          <pickID>quakeml:uw.anss.org/Arrival/UW/3854103</pickID>
          <phase>P</phase>
          <azimuth>149.9</azimuth>
          <distance>2.221</distance>
          <timeResidual>1.53</timeResidual>
          <creationInfo>
            <agencyID>UW</agencyID>
            <creationTime>2012-02-27T16:45:41.000000Z</creationTime>
          </creationInfo>
        </arrival>
        <arrival publicID="quakeml:uw.anss.org/AssocArO/UW/3854108">
          <pickID>quakeml:uw.anss.org/Arrival/UW/3854108</pickID>
          <phase>P</phase>
          <azimuth>169.4</azimuth>
          <timeResidual>0.47</timeResidual>
          <creationInfo>
            <agencyID>UW</agencyID>
            <creationTime>2012-02-27T16:45:41.000000Z</creationTime>
          </creationInfo>
        </arrival>
        <arrival publicID="quakeml:uw.anss.org/AssocArO/UW/3854113">
          <pickID>quakeml:uw.anss.org/Arrival/UW/3854113</pickID>
          <phase>P</phase>
          <azimuth>117.1</azimuth>
          <distance>1.826</distance>
          <timeResidual>2.32</timeResidual>
          <creationInfo>
            <agencyID>UW</agencyID>
            <creationTime>2012-02-27T16:45:41.000000Z</creationTime>
          </creationInfo>
        </arrival>
        <arrival publicID="quakeml:uw.anss.org/AssocArO/UW/3854118">
          <pickID>quakeml:uw.anss.org/Arrival/UW/3854118</pickID>
          <phase>P</phase>
          <timeResidual>-0.01</timeResidual>
          <creationInfo>
            <agencyID>UW</agencyID>
            <creationTime>2012-02-27T16:45:41.000000Z</creationTime>
          </creationInfo>
        </arrival>
        <arrival publicID="quakeml:uw.anss.org/AssocArO/UW/3854123">
          <pickID>quakeml:uw.anss.org/Arrival/UW/3854123</pickID>
          <phase>S</phase>
          <timeResidual>-0.29</timeResidual>
          <creationInfo>
            <agencyID>UW</agencyID>
            <creationTime>2012-02-27T16:45:41.000000Z</creationTime>
          </creationInfo>
        </arrival>
        <arrival publicID="quakeml:uw.anss.org/AssocArO/UW/3854128">
          <pickID>quakeml:uw.anss.org/Arrival/UW/3854128</pickID>
          <phase>P</phase>
          <azimuth>235.4</azimuth>
          <timeResidual>-0.04</timeResidual>
          <creationInfo>
            <agencyID>UW</agencyID>
            <creationTime>2012-02-27T16:45:41.000000Z</creationTime>
          </creationInfo>
        </arrival>
        <arrival publicID="quakeml:uw.anss.org/AssocArO/UW/3854133">
          <pickID>quakeml:uw.anss.org/Arrival/UW/3854133</pickID>
          <phase>P</phase>
          <timeResidual>0.23</timeResidual>
          <creationInfo>
            <agencyID>UW</agencyID>
            <creationTime>2012-02-27T16:45:41.000000Z</creationTime>
          </creationInfo>
        </arrival>
        <arrival publicID="quakeml:uw.anss.org/AssocArO/UW/3854138">
          <pickID>quakeml:uw.anss.org/Arrival/UW/3854138</pickID>
          <phase>S</phase>
          <timeResidual>0.14</timeResidual>
          <creationInfo>
            <agencyID>UW</agencyID>
            <creationTime>2012-02-27T16:45:41.000000Z</creationTime>
          </creationInfo>
        </arrival>
        <arrival publicID="quakeml:uw.anss.org/AssocArO/UW/3854143">
          <pickID>quakeml:uw.anss.org/Arrival/UW/3854143</pickID>
          <phase>P</phase>
          <azimuth>197.2</azimuth>
          <distance>1.354</distance>
          <timeResidual>0.55</timeResidual>
          <creationInfo>
            <agencyID>UW</agencyID>
            <creationTime>2012-02-27T16:45:41.000000Z</creationTime>
          </creationInfo>
        </arrival>
        <arrival publicID="quakeml:uw.anss.org/AssocArO/UW/3854148">
          <pickID>quakeml:uw.anss.org/Arrival/UW/3854148</pickID>
          <phase>P</phase>
          <azimuth>169.3</azimuth>
          <distance>1.406</distance>
          <timeResidual>-0.95</timeResidual>
          <creationInfo>
            <agencyID>UW</agencyID>
            <creationTime>2012-02-27T16:45:41.000000Z</creationTime>
          </creationInfo>
        </arrival>
        <arrival publicID="quakeml:uw.anss.org/AssocArO/UW/3854153">
          <pickID>quakeml:uw.anss.org/Arrival/UW/3854153</pickID>
          <phase>P</phase>
          <timeResidual>-0.78</timeResidual>
          <creationInfo>
            <agencyID>UW</agencyID>
            <creationTime>2012-02-27T16:45:41.000000Z</creationTime>
          </creationInfo>
        </arrival>
        <arrival publicID="quakeml:uw.anss.org/AssocArO/UW/3854158">
          <pickID>quakeml:uw.anss.org/Arrival/UW/3854158</pickID>
          <phase>P</phase>
          <azimuth>106.4</azimuth>
          <distance>0.2017</distance>
          <timeResidual>-0.1</timeResidual>
          <creationInfo>
            <agencyID>UW</agencyID>
            <creationTime>2012-02-27T16:45:41.000000Z</creationTime>
          </creationInfo>
        </arrival>
        <arrival publicID="quakeml:uw.anss.org/AssocArO/UW/3854163">
          <pickID>quakeml:uw.anss.org/Arrival/UW/3854163</pickID>
          <phase>P</phase>
          <timeResidual>0.42</timeResidual>
          <creationInfo>
            <agencyID>UW</agencyID>
            <creationTime>2012-02-27T16:45:41.000000Z</creationTime>
          </creationInfo>
        </arrival>
        <arrival publicID="quakeml:uw.anss.org/AssocArO/UW/3854168">
          <pickID>quakeml:uw.anss.org/Arrival/UW/3854168</pickID>
          <phase>P</phase>
          <azimuth>164.6</azimuth>
          <distance>1.076</distance>
          <timeResidual>1.0</timeResidual>
          <creationInfo>
            <agencyID>UW</agencyID>
            <creationTime>2012-02-27T16:45:41.000000Z</creationTime>
          </creationInfo>
        </arrival>
        <arrival publicID="quakeml:uw.anss.org/AssocArO/UW/3854173">
          <pickID>quakeml:uw.anss.org/Arrival/UW/3854173</pickID>
          <phase>S</phase>
          <azimuth>164.6</azimuth>
          <distance>1.076</distance>
          <timeResidual>0.79</timeResidual>
          <creationInfo>
            <agencyID>UW</agencyID>
            <creationTime>2012-02-27T16:45:41.000000Z</creationTime>
          </creationInfo>
        </arrival>
        <arrival publicID="quakeml:uw.anss.org/AssocArO/UW/3854178">
          <pickID>quakeml:uw.anss.org/Arrival/UW/3854178</pickID>
          <phase>P</phase>
          <azimuth>212.1</azimuth>
          <distance>0.983</distance>
          <timeResidual>-0.79</timeResidual>
          <creationInfo>
            <agencyID>UW</agencyID>
            <creationTime>2012-02-27T16:45:41.000000Z</creationTime>
          </creationInfo>
        </arrival>
        <arrival publicID="quakeml:uw.anss.org/AssocArO/UW/3854183">
          <pickID>quakeml:uw.anss.org/Arrival/UW/3854183</pickID>
          <phase>P</phase>
          <azimuth>146.9</azimuth>
          <distance>1.985</distance>
          <timeResidual>0.81</timeResidual>
          <creationInfo>
            <agencyID>UW</agencyID>
            <creationTime>2012-02-27T16:45:41.000000Z</creationTime>
          </creationInfo>
        </arrival>
        <arrival publicID="quakeml:uw.anss.org/AssocArO/UW/3854188">
          <pickID>quakeml:uw.anss.org/Arrival/UW/3854188</pickID>
          <phase>P</phase>
          <azimuth>249.2</azimuth>
          <distance>0.4529</distance>
          <timeResidual>-0.12</timeResidual>
          <creationInfo>
            <agencyID>UW</agencyID>
            <creationTime>2012-02-27T16:45:41.000000Z</creationTime>
          </creationInfo>
        </arrival>
      </origin>
      <magnitude publicID="quakeml:uw.anss.org/Netmag/UW/448838">
        <mag>
          <value>2.2</value>
          <uncertainty>0.09</uncertainty>
        </mag>
        <type>Md</type>
        <originID>quakeml:uw.anss.org/Origin/UW/536358</originID>
        <methodID>smi:uw.anss.org/magnitude/Crosson</methodID>
        <stationCount>4</stationCount>
        <evaluationMode>manual</evaluationMode>
        <evaluationStatus>final</evaluationStatus>
        <stationMagnitudeContribution>
          <stationMagnitudeID>quakeml:uw.anss.org/AssocCoM/UW/1102408</stationMagnitudeID>
          <weight>1.0</weight>
          <residual>-0.05</residual>
        </stationMagnitudeContribution>
        <stationMagnitudeContribution>
          <stationMagnitudeID>quakeml:uw.anss.org/AssocCoM/UW/1102413</stationMagnitudeID>
          <weight>1.0</weight>
          <residual>-0.31</residual>
        </stationMagnitudeContribution>
        <stationMagnitudeContribution>
          <stationMagnitudeID>quakeml:uw.anss.org/AssocCoM/UW/1102403</stationMagnitudeID>
          <weight>1.0</weight>
          <residual>0.16</residual>
        </stationMagnitudeContribution>
        <stationMagnitudeContribution>
          <stationMagnitudeID>quakeml:uw.anss.org/AssocCoM/UW/1102398</stationMagnitudeID>
          <weight>1.0</weight>
          <residual>0.0</residual>
        </stationMagnitudeContribution>
        <creationInfo>
          <agencyID>UW</agencyID>
          <creationTime>2012-02-27T16:45:41.000000Z</creationTime>
        </creationInfo>
      </magnitude>
      <stationMagnitude publicID="quakeml:uw.anss.org/AssocCoM/UW/1102398">
        <originID>quakeml:uw.anss.org/Origin/UW/536358</originID>
        <mag>
          <value>2.2</value>
        </mag>
        <type>MD</type>
        <amplitudeID>quakeml:uw.anss.org/Coda/UW/1102398</amplitudeID>
        <waveformID networkCode="UW" stationCode="CMW" locationCode="" channelCode="EHZ"></waveformID>
      </stationMagnitude>
      <stationMagnitude publicID="quakeml:uw.anss.org/AssocCoM/UW/1102403">
        <originID>quakeml:uw.anss.org/Origin/UW/536358</originID>
        <mag>
          <value>2.36</value>
