<?xml version='1.0' encoding='utf-8'?>
<q:quakeml xmlns="http://quakeml.org/xmlns/bed/1.2" xmlns:q="http://quakeml.org/xmlns/quakeml/1.2" xmlns:ns0="http://anss.org/xmlns/catalog/0.1">
  <eventParameters publicID="smi:local/df13e2a4-8c12-48e2-810f-c06e4c50e5f6">
    <event publicID="quakeml:uw.anss.org/Event/UW/10253633" ns0:datasource="uw" ns0:dataid="uw10253633" ns0:eventsource="uw" ns0:eventid="10253633">
      <preferredOriginID>quakeml:uw.anss.org/Origin/UW/530578</preferredOriginID>
      <preferredMagnitudeID>quakeml:uw.anss.org/Netmag/UW/443478</preferredMagnitudeID>
      <type>earthquake</type>
      <creationInfo>
        <agencyID>UW</agencyID>
        <creationTime>2012-02-27T16:33:29.000000Z</creationTime>
        <version>3</version>
      </creationInfo>
      <origin publicID="quakeml:uw.anss.org/Origin/UW/530578" ns0:datasource="uw" ns0:dataid="uw10253633" ns0:eventsource="uw" ns0:eventid="10253633">
        <time>
          <value>1990-04-03T03:32:57.500000Z</value>
          <uncertainty>0.15</uncertainty>
        </time>
        <latitude>
          <value>48.852</value>
          <uncertainty>1.9</uncertainty>
        </latitude>
        <longitude>
          <value>-122.1746667</value>
          <uncertainty>0.74</uncertainty>
        </longitude>
        <depth>
          <value>3201.0</value>
          <uncertainty>17940.0</uncertainty>
        </depth>
        <depthType>operator assigned</depthType>
        <timeFixed>false</timeFixed>
        <epicenterFixed>true</epicenterFixed>
        <methodID>smi:uw.anss.org/origin/spong</methodID>
        <quality>
          <associatedPhaseCount>43</associatedPhaseCount>
          <usedPhaseCount>24</usedPhaseCount>
          <associatedStationCount>34</associatedStationCount>
          <usedStationCount>0</usedStationCount>
          <standardError>0.3</standardError>
          <azimuthalGap>95.0</azimuthalGap>
        </quality>
        <type>hypocenter</type>
        <evaluationMode>manual</evaluationMode>
        <evaluationStatus>final</evaluationStatus>
        <creationInfo>
          <agencyID>UW</agencyID>
          <creationTime>2012-02-27T16:33:29.000000Z</creationTime>
        </creationInfo>
        <originUncertainty>
          <preferredDescription>horizontal uncertainty</preferredDescription>
          <horizontalUncertainty>2039.0</horizontalUncertainty>
        </originUncertainty>
        <arrival publicID="quakeml:uw.anss.org/AssocArO/UW/3745018">
          <pickID>quakeml:uw.anss.org/Arrival/UW/3745018</pickID>
          <phase>P</phase>
          <azimuth>287.9</azimuth>
          <timeResidual>-0.54</timeResidual>
          <creationInfo>
            <agencyID>UW</agencyID>
            <creationTime>2012-02-27T16:33:29.000000Z</creationTime>
          </creationInfo>
        </arrival>
        <arrival publicID="quakeml:uw.anss.org/AssocArO/UW/3745023">
          <pickID>quakeml:uw.anss.org/Arrival/UW/3745023</pickID>
          <phase>S</phase>
          <azimuth>287.9</azimuth>
          <timeResidual>-1.25</timeResidual>
          <creationInfo>
            <agencyID>UW</agencyID>
            <creationTime>2012-02-27T16:33:29.000000Z</creationTime>
          </creationInfo>
        </arrival>
        <arrival publicID="quakeml:uw.anss.org/AssocArO/UW/3745028">
          <pickID>quakeml:uw.anss.org/Arrival/UW/3745028</pickID>
          <phase>P</phase>
          <azimuth>206.3</azimuth>
          <distance>1.341</distance>
          <timeResidual>-0.33</timeResidual>
          <creationInfo>
            <agencyID>UW</agencyID>
            <creationTime>2012-02-27T16:33:29.000000Z</creationTime>
          </creationInfo>
        </arrival>
        <arrival publicID="quakeml:uw.anss.org/AssocArO/UW/3745033">
          <pickID>quakeml:uw.anss.org/Arrival/UW/3745033</pickID>
          <phase>P</phase>
          <azimuth>328.0</azimuth>
          <timeResidual>-0.03</timeResidual>
          <creationInfo>
            <agencyID>UW</agencyID>
            <creationTime>2012-02-27T16:33:29.000000Z</creationTime>
          </creationInfo>
        </arrival>
        <arrival publicID="quakeml:uw.anss.org/AssocArO/UW/3745038">
          <pickID>quakeml:uw.anss.org/Arrival/UW/3745038</pickID>
          <phase>P</phase>
          <azimuth>173.6</azimuth>
          <timeResidual>0.02</timeResidual>
          <creationInfo>
            <agencyID>UW</agencyID>
            <creationTime>2012-02-27T16:33:29.000000Z</creationTime>
          </creationInfo>
        </arrival>
        <arrival publicID="quakeml:uw.anss.org/AssocArO/UW/3745043">
          <pickID>quakeml:uw.anss.org/Arrival/UW/3745043</pickID>
          <phase>P</phase>
          <timeResidual>0.57</timeResidual>
          <creationInfo>
            <agencyID>UW</agencyID>
            <creationTime>2012-02-27T16:33:29.000000Z</creationTime>
          </creationInfo>
        </arrival>
        <arrival publicID="quakeml:uw.anss.org/AssocArO/UW/3745048">
          <pickID>quakeml:uw.anss.org/Arrival/UW/3745048</pickID>
          <phase>S</phase>
          <timeResidual>1.73</timeResidual>
          <creationInfo>
            <agencyID>UW</agencyID>
            <creationTime>2012-02-27T16:33:29.000000Z</creationTime>
          </creationInfo>
        </arrival>
        <arrival publicID="quakeml:uw.anss.org/AssocArO/UW/3745053">
          <pickID>quakeml:uw.anss.org/Arrival/UW/3745053</pickID>
          <phase>P</phase>
          <azimuth>175.2</azimuth>
          <distance>0.4304</distance>
          <timeResidual>-0.84</timeResidual>
          <creationInfo>
            <agencyID>UW</agencyID>
            <creationTime>2012-02-27T16:33:29.000000Z</creationTime>
          </creationInfo>
        </arrival>
        <arrival publicID="quakeml:uw.anss.org/AssocArO/UW/3745058">
          <pickID>quakeml:uw.anss.org/Arrival/UW/3745058</pickID>
          <phase>S</phase>
          <azimuth>175.2</azimuth>
          <distance>0.4304</distance>
          <timeResidual>0.5</timeResidual>
          <creationInfo>
            <agencyID>UW</agencyID>
            <creationTime>2012-02-27T16:33:29.000000Z</creationTime>
          </creationInfo>
        </arrival>
        <arrival publicID="quakeml:uw.anss.org/AssocArO/UW/3745063">
          <pickID>quakeml:uw.anss.org/Arrival/UW/3745063</pickID>
          <phase>P</phase>
          <azimuth>171.1</azimuth>
          <timeResidual>0.14</timeResidual>
          <creationInfo>
            <agencyID>UW</agencyID>
            <creationTime>2012-02-27T16:33:29.000000Z</creationTime>
          </creationInfo>
        </arrival>
        <arrival publicID="quakeml:uw.anss.org/AssocArO/UW/3745068">
          <pickID>quakeml:uw.anss.org/Arrival/UW/3745068</pickID>
          <phase>P</phase>
          <azimuth>199.3</azimuth>
          <distance>1.988</distance>
          <timeResidual>-0.59</timeResidual>
          <creationInfo>
            <agencyID>UW</agencyID>
            <creationTime>2012-02-27T16:33:29.000000Z</creationTime>
          </creationInfo>
        </arrival>
        <arrival publicID="quakeml:uw.anss.org/AssocArO/UW/3745073">
          <pickID>quakeml:uw.anss.org/Arrival/UW/3745073</pickID>
          <phase>P</phase>
          <azimuth>175.9</azimuth>
          <distance>1.914</distance>
          <timeResidual>-0.12</timeResidual>
          <creationInfo>
            <agencyID>UW</agencyID>
            <creationTime>2012-02-27T16:33:29.000000Z</creationTime>
          </creationInfo>
        </arrival>
        <arrival publicID="quakeml:uw.anss.org/AssocArO/UW/3745078">
          <pickID>quakeml:uw.anss.org/Arrival/UW/3745078</pickID>
          <phase>P</phase>
          <azimuth>173.2</azimuth>
          <distance>2.117</distance>
          <timeResidual>-0.12</timeResidual>
          <creationInfo>
            <agencyID>UW</agencyID>
            <creationTime>2012-02-27T16:33:29.000000Z</creationTime>
          </creationInfo>
        </arrival>
        <arrival publicID="quakeml:uw.anss.org/AssocArO/UW/3745083">
          <pickID>quakeml:uw.anss.org/Arrival/UW/3745083</pickID>
          <phase>P</phase>
          <timeResidual>0.01</timeResidual>
          <creationInfo>
            <agencyID>UW</agencyID>
            <creationTime>2012-02-27T16:33:29.000000Z</creationTime>
          </creationInfo>
        </arrival>
        <arrival publicID="quakeml:uw.anss.org/AssocArO/UW/3745088">
          <pickID>quakeml:uw.anss.org/Arrival/UW/3745088</pickID>
          <phase>P</phase>
          <azimuth>132.6</azimuth>
          <distance>0.5957</distance>
          <timeResidual>-0.35</timeResidual>
          <creationInfo>
            <agencyID>UW</agencyID>
            <creationTime>2012-02-27T16:33:29.000000Z</creationTime>
          </creationInfo>
        </arrival>
        <arrival publicID="quakeml:uw.anss.org/AssocArO/UW/3745093">
          <pickID>quakeml:uw.anss.org/Arrival/UW/3745093</pickID>
          <phase>S</phase>
          <azimuth>132.6</azimuth>
          <distance>0.5957</distance>
          <timeResidual>-0.16</timeResidual>
          <creationInfo>
            <agencyID>UW</agencyID>
            <creationTime>2012-02-27T16:33:29.000000Z</creationTime>
          </creationInfo>
        </arrival>
        <arrival publicID="quakeml:uw.anss.org/AssocArO/UW/3745098">
          <pickID>quakeml:uw.anss.org/Arrival/UW/3745098</pickID>
          <phase>P</phase>
          <azimuth>307.4</azimuth>
          <timeResidual>-0.4</timeResidual>
          <creationInfo>
            <agencyID>UW</agencyID>
            <creationTime>2012-02-27T16:33:29.000000Z</creationTime>
          </creationInfo>
        </arrival>
        <arrival publicID="quakeml:uw.anss.org/AssocArO/UW/3745103">
          <pickID>quakeml:uw.anss.org/Arrival/UW/3745103</pickID>
          <phase>P</phase>
          <azimuth>150.4</azimuth>
          <distance>2.224</distance>
          <timeResidual>0.42</timeResidual>
          <creationInfo>
            <agencyID>UW</agencyID>
            <creationTime>2012-02-27T16:33:29.000000Z</creationTime>
          </creationInfo>
        </arrival>
        <arrival publicID="quakeml:uw.anss.org/AssocArO/UW/3745128">
          <pickID>quakeml:uw.anss.org/Arrival/UW/3745128</pickID>
          <phase>P</phase>
          <azimuth>204.3</azimuth>
          <distance>0.5803</distance>
          <timeResidual>0.41</timeResidual>
          <creationInfo>
            <agencyID>UW</agencyID>
            <creationTime>2012-02-27T16:33:29.000000Z</creationTime>
          </creationInfo>
        </arrival>
        <arrival publicID="quakeml:uw.anss.org/AssocArO/UW/3745138">
          <pickID>quakeml:uw.anss.org/Arrival/UW/3745138</pickID>
          <phase>P</phase>
          <azimuth>225.1</azimuth>
          <distance>1.455</distance>
          <timeResidual>-0.07</timeResidual>
          <creationInfo>
            <agencyID>UW</agencyID>
            <creationTime>2012-02-27T16:33:29.000000Z</creationTime>
          </creationInfo>
        </arrival>
        <arrival publicID="quakeml:uw.anss.org/AssocArO/UW/3745148">
          <pickID>quakeml:uw.anss.org/Arrival/UW/3745148</pickID>
          <phase>P</phase>
          <azimuth>320.1</azimuth>
          <timeResidual>-0.1</timeResidual>
          <creationInfo>
            <agencyID>UW</agencyID>
            <creationTime>2012-02-27T16:33:29.000000Z</creationTime>
          </creationInfo>
        </arrival>
        <arrival publicID="quakeml:uw.anss.org/AssocArO/UW/3745153">
          <pickID>quakeml:uw.anss.org/Arrival/UW/3745153</pickID>
          <phase>S</phase>
          <azimuth>320.1</azimuth>
          <timeResidual>-0.39</timeResidual>
          <creationInfo>
            <agencyID>UW</agencyID>
            <creationTime>2012-02-27T16:33:29.000000Z</creationTime>
          </creationInfo>
        </arrival>
        <arrival publicID="quakeml:uw.anss.org/AssocArO/UW/3745158">
          <pickID>quakeml:uw.anss.org/Arrival/UW/3745158</pickID>
          <phase>P</phase>
          <azimuth>182.6</azimuth>
          <distance>2.55</distance>
          <timeResidual>0.49</timeResidual>
          <creationInfo>
            <agencyID>UW</agencyID>
            <creationTime>2012-02-27T16:33:29.000000Z</creationTime>
          </creationInfo>
        </arrival>
        <arrival publicID="quakeml:uw.anss.org/AssocArO/UW/3745163">
          <pickID>quakeml:uw.anss.org/Arrival/UW/3745163</pickID>
          <phase>P</phase>
          <azimuth>165.9</azimuth>
          <timeResidual>0.03</timeResidual>
          <creationInfo>
            <agencyID>UW</agencyID>
            <creationTime>2012-02-27T16:33:29.000000Z</creationTime>
          </creationInfo>
        </arrival>
        <arrival publicID="quakeml:uw.anss.org/AssocArO/UW/3745168">
          <pickID>quakeml:uw.anss.org/Arrival/UW/3745168</pickID>
          <phase>S</phase>
          <azimuth>165.9</azimuth>
          <timeResidual>1.06</timeResidual>
          <creationInfo>
            <agencyID>UW</agencyID>
            <creationTime>2012-02-27T16:33:29.000000Z</creationTime>
          </creationInfo>
        </arrival>
        <arrival publicID="quakeml:uw.anss.org/AssocArO/UW/3745173">
          <pickID>quakeml:uw.anss.org/Arrival/UW/3745173</pickID>
          <phase>P</phase>
          <azimuth>217.2</azimuth>
          <distance>1.902</distance>
          <timeResidual>1.27</timeResidual>
          <creationInfo>
            <agencyID>UW</agencyID>
            <creationTime>2012-02-27T16:33:29.000000Z</creationTime>
          </creationInfo>
        </arrival>
        <arrival publicID="quakeml:uw.anss.org/AssocArO/UW/3745178">
          <pickID>quakeml:uw.anss.org/Arrival/UW/3745178</pickID>
          <phase>P</phase>
          <azimuth>169.8</azimuth>
          <timeResidual>0.01</timeResidual>
          <creationInfo>
            <agencyID>UW</agencyID>
            <creationTime>2012-02-27T16:33:29.000000Z</creationTime>
          </creationInfo>
        </arrival>
        <arrival publicID="quakeml:uw.anss.org/AssocArO/UW/3745183">
          <pickID>quakeml:uw.anss.org/Arrival/UW/3745183</pickID>
          <phase>S</phase>
          <azimuth>169.8</azimuth>
          <timeResidual>-0.13</timeResidual>
          <creationInfo>
            <agencyID>UW</agencyID>
            <creationTime>2012-02-27T16:33:29.000000Z</creationTime>
          </creationInfo>
        </arrival>
        <arrival publicID="quakeml:uw.anss.org/AssocArO/UW/3745188">
          <pickID>quakeml:uw.anss.org/Arrival/UW/3745188</pickID>
          <phase>P</phase>
          <timeResidual>0.01</timeResidual>
          <creationInfo>
            <agencyID>UW</agencyID>
            <creationTime>2012-02-27T16:33:29.000000Z</creationTime>
          </creationInfo>
        </arrival>
        <arrival publicID="quakeml:uw.anss.org/AssocArO/UW/3745193">
          <pickID>quakeml:uw.anss.org/Arrival/UW/3745193</pickID>
          <phase>P</phase>
          <azimuth>235.3</azimuth>
          <timeResidual>-0.27</timeResidual>
          <creationInfo>
            <agencyID>UW</agencyID>
            <creationTime>2012-02-27T16:33:29.000000Z</creationTime>
          </creationInfo>
        </arrival>
        <arrival publicID="quakeml:uw.anss.org/AssocArO/UW/3745198">
          <pickID>quakeml:uw.anss.org/Arrival/UW/3745198</pickID>
          <phase>P</phase>
          <timeResidual>-0.06</timeResidual>
          <creationInfo>
            <agencyID>UW</agencyID>
            <creationTime>2012-02-27T16:33:29.000000Z</creationTime>
          </creationInfo>
        </arrival>
        <arrival publicID="quakeml:uw.anss.org/AssocArO/UW/3745203">
          <pickID>quakeml:uw.anss.org/Arrival/UW/3745203</pickID>
          <phase>P</phase>
          <azimuth>197.6</azimuth>
          <distance>1.368</distance>
          <timeResidual>-0.29</timeResidual>
          <creationInfo>
            <agencyID>UW</agencyID>
            <creationTime>2012-02-27T16:33:29.000000Z</creationTime>
          </creationInfo>
        </arrival>
        <arrival publicID="quakeml:uw.anss.org/AssocArO/UW/3745208">
          <pickID>quakeml:uw.anss.org/Arrival/UW/3745208</pickID>
          <phase>P</phase>
          <azimuth>169.9</azimuth>
          <distance>1.415</distance>
          <timeResidual>0.15</timeResidual>
          <creationInfo>
            <agencyID>UW</agencyID>
            <creationTime>2012-02-27T16:33:29.000000Z</creationTime>
          </creationInfo>
        </arrival>
        <arrival publicID="quakeml:uw.anss.org/AssocArO/UW/3745213">
          <pickID>quakeml:uw.anss.org/Arrival/UW/3745213</pickID>
          <phase>P</phase>
          <azimuth>110.6</azimuth>
          <distance>0.1934</distance>
          <timeResidual>-0.11</timeResidual>
          <creationInfo>
            <agencyID>UW</agencyID>
            <creationTime>2012-02-27T16:33:29.000000Z</creationTime>
          </creationInfo>
        </arrival>
        <arrival publicID="quakeml:uw.anss.org/AssocArO/UW/3745218">
          <pickID>quakeml:uw.anss.org/Arrival/UW/3745218</pickID>
          <phase>P</phase>
          <timeResidual>0.02</timeResidual>
          <creationInfo>
            <agencyID>UW</agencyID>
            <creationTime>2012-02-27T16:33:29.000000Z</creationTime>
          </creationInfo>
        </arrival>
        <arrival publicID="quakeml:uw.anss.org/AssocArO/UW/3745223">
          <pickID>quakeml:uw.anss.org/Arrival/UW/3745223</pickID>
          <phase>P</phase>
          <azimuth>338.6</azimuth>
          <distance>1.375</distance>
          <timeResidual>0.31</timeResidual>
          <creationInfo>
            <agencyID>UW</agencyID>
            <creationTime>2012-02-27T16:33:29.000000Z</creationTime>
          </creationInfo>
        </arrival>
        <arrival publicID="quakeml:uw.anss.org/AssocArO/UW/3745228">
          <pickID>quakeml:uw.anss.org/Arrival/UW/3745228</pickID>
          <phase>S</phase>
          <azimuth>338.6</azimuth>
          <distance>1.375</distance>
          <timeResidual>0.11</timeResidual>
          <creationInfo>
            <agencyID>UW</agencyID>
            <creationTime>2012-02-27T16:33:29.000000Z</creationTime>
          </creationInfo>
        </arrival>
        <arrival publicID="quakeml:uw.anss.org/AssocArO/UW/3745233">
          <pickID>quakeml:uw.anss.org/Arrival/UW/3745233</pickID>
          <phase>P</phase>
          <azimuth>165.4</azimuth>
          <distance>1.083</distance>
          <timeResidual>0.42</timeResidual>
          <creationInfo>
            <agencyID>UW</agencyID>
            <creationTime>2012-02-27T16:33:29.000000Z</creationTime>
          </creationInfo>
        </arrival>
        <arrival publicID="quakeml:uw.anss.org/AssocArO/UW/3745238">
          <pickID>quakeml:uw.anss.org/Arrival/UW/3745238</pickID>
          <phase>S</phase>
          <azimuth>165.4</azimuth>
          <distance>1.083</distance>
          <timeResidual>0.22</timeResidual>
          <creationInfo>
            <agencyID>UW</agencyID>
            <creationTime>2012-02-27T16:33:29.000000Z</creationTime>
          </creationInfo>
        </arrival>
        <arrival publicID="quakeml:uw.anss.org/AssocArO/UW/3745243">
          <pickID>quakeml:uw.anss.org/Arrival/UW/3745243</pickID>
          <phase>P</phase>
          <azimuth>230.9</azimuth>
          <distance>1.749</distance>
          <timeResidual>1.04</timeResidual>
          <creationInfo>
            <agencyID>UW</agencyID>
            <creationTime>2012-02-27T16:33:29.000000Z</creationTime>
          </creationInfo>
        </arrival>
        <arrival publicID="quakeml:uw.anss.org/AssocArO/UW/3745248">
          <pickID>quakeml:uw.anss.org/Arrival/UW/3745248</pickID>
          <phase>P</phase>
          <azimuth>212.4</azimuth>
          <distance>0.9991</distance>
          <timeResidual>0.45</timeResidual>
          <creationInfo>
            <agencyID>UW</agencyID>
