<?xml version='1.0' encoding='utf-8'?>
<q:quakeml xmlns="http://quakeml.org/xmlns/bed/1.2" xmlns:q="http://quakeml.org/xmlns/quakeml/1.2" xmlns:ns0="http://anss.org/xmlns/catalog/0.1">
  <eventParameters publicID="smi:local/1ac94eb3-d861-4389-a128-09ef231e812f">
    <event publicID="quakeml:uw.anss.org/Event/UW/10258078" ns0:datasource="uw" ns0:dataid="uw10258078" ns0:eventsource="uw" ns0:eventid="10258078">
      <preferredOriginID>quakeml:uw.anss.org/Origin/UW/535023</preferredOriginID>
      <preferredMagnitudeID>quakeml:uw.anss.org/Netmag/UW/447618</preferredMagnitudeID>
      <type>earthquake</type>
      <creationInfo>
        <agencyID>UW</agencyID>
        <creationTime>2012-02-27T16:42:21.000000Z</creationTime>
        <version>3</version>
      </creationInfo>
      <origin publicID="quakeml:uw.anss.org/Origin/UW/535023" ns0:datasource="uw" ns0:dataid="uw10258078" ns0:eventsource="uw" ns0:eventid="10258078">
        <time>
          <value>1990-04-14T07:15:11.650000Z</value>
          <uncertainty>0.62</uncertainty>
        </time>
        <latitude>
          <value>48.8226667</value>
          <uncertainty>0.87</uncertainty>
        </latitude>
        <longitude>
          <value>-122.2008333</value>
          <uncertainty>1.02</uncertainty>
        </longitude>
        <depth>
          <value>2762.0</value>
          <uncertainty>5510.0</uncertainty>
        </depth>
        <depthType>operator assigned</depthType>
        <timeFixed>false</timeFixed>
        <epicenterFixed>true</epicenterFixed>
        <methodID>smi:uw.anss.org/origin/spong</methodID>
        <quality>
          <associatedPhaseCount>39</associatedPhaseCount>
          <usedPhaseCount>25</usedPhaseCount>
          <associatedStationCount>34</associatedStationCount>
          <usedStationCount>0</usedStationCount>
          <standardError>0.47</standardError>
          <azimuthalGap>83.0</azimuthalGap>
        </quality>
        <type>hypocenter</type>
        <evaluationMode>manual</evaluationMode>
        <evaluationStatus>final</evaluationStatus>
        <creationInfo>
          <agencyID>UW</agencyID>
          <creationTime>2012-02-27T16:42:21.000000Z</creationTime>
        </creationInfo>
        <originUncertainty>
          <preferredDescription>horizontal uncertainty</preferredDescription>
          <horizontalUncertainty>1341.0</horizontalUncertainty>
        </originUncertainty>
        <arrival publicID="quakeml:uw.anss.org/AssocArO/UW/3828193">
          <pickID>quakeml:uw.anss.org/Arrival/UW/3828193</pickID>
          <phase>P</phase>
          <azimuth>289.4</azimuth>
          <timeResidual>-0.49</timeResidual>
          <creationInfo>
            <agencyID>UW</agencyID>
            <creationTime>2012-02-27T16:42:21.000000Z</creationTime>
          </creationInfo>
        </arrival>
        <arrival publicID="quakeml:uw.anss.org/AssocArO/UW/3828203">
          <pickID>quakeml:uw.anss.org/Arrival/UW/3828203</pickID>
          <phase>S</phase>
          <azimuth>289.4</azimuth>
          <timeResidual>-1.24</timeResidual>
          <creationInfo>
            <agencyID>UW</agencyID>
            <creationTime>2012-02-27T16:42:21.000000Z</creationTime>
          </creationInfo>
        </arrival>
        <arrival publicID="quakeml:uw.anss.org/AssocArO/UW/3828223">
          <pickID>quakeml:uw.anss.org/Arrival/UW/3828223</pickID>
          <phase>P</phase>
          <azimuth>206.2</azimuth>
          <distance>1.307</distance>
          <timeResidual>0.09</timeResidual>
          <creationInfo>
            <agencyID>UW</agencyID>
            <creationTime>2012-02-27T16:42:21.000000Z</creationTime>
          </creationInfo>
        </arrival>
        <arrival publicID="quakeml:uw.anss.org/AssocArO/UW/3828228">
          <pickID>quakeml:uw.anss.org/Arrival/UW/3828228</pickID>
          <phase>P</phase>
          <azimuth>120.7</azimuth>
          <distance>1.449</distance>
          <timeResidual>0.82</timeResidual>
          <creationInfo>
            <agencyID>UW</agencyID>
            <creationTime>2012-02-27T16:42:21.000000Z</creationTime>
          </creationInfo>
        </arrival>
        <arrival publicID="quakeml:uw.anss.org/AssocArO/UW/3828233">
          <pickID>quakeml:uw.anss.org/Arrival/UW/3828233</pickID>
          <phase>P</phase>
          <azimuth>331.4</azimuth>
          <timeResidual>-0.35</timeResidual>
          <creationInfo>
            <agencyID>UW</agencyID>
            <creationTime>2012-02-27T16:42:21.000000Z</creationTime>
          </creationInfo>
        </arrival>
        <arrival publicID="quakeml:uw.anss.org/AssocArO/UW/3828238">
          <pickID>quakeml:uw.anss.org/Arrival/UW/3828238</pickID>
          <phase>P</phase>
          <azimuth>133.7</azimuth>
          <distance>1.746</distance>
          <timeResidual>1.18</timeResidual>
          <creationInfo>
            <agencyID>UW</agencyID>
            <creationTime>2012-02-27T16:42:21.000000Z</creationTime>
          </creationInfo>
        </arrival>
        <arrival publicID="quakeml:uw.anss.org/AssocArO/UW/3828243">
          <pickID>quakeml:uw.anss.org/Arrival/UW/3828243</pickID>
          <phase>P</phase>
          <azimuth>155.6</azimuth>
          <distance>2.288</distance>
          <timeResidual>1.55</timeResidual>
          <creationInfo>
            <agencyID>UW</agencyID>
            <creationTime>2012-02-27T16:42:21.000000Z</creationTime>
          </creationInfo>
        </arrival>
        <arrival publicID="quakeml:uw.anss.org/AssocArO/UW/3828248">
          <pickID>quakeml:uw.anss.org/Arrival/UW/3828248</pickID>
          <phase>P</phase>
          <timeResidual>-0.13</timeResidual>
          <creationInfo>
            <agencyID>UW</agencyID>
            <creationTime>2012-02-27T16:42:21.000000Z</creationTime>
          </creationInfo>
        </arrival>
        <arrival publicID="quakeml:uw.anss.org/AssocArO/UW/3828253">
          <pickID>quakeml:uw.anss.org/Arrival/UW/3828253</pickID>
          <phase>S</phase>
          <timeResidual>0.76</timeResidual>
          <creationInfo>
            <agencyID>UW</agencyID>
            <creationTime>2012-02-27T16:42:21.000000Z</creationTime>
          </creationInfo>
        </arrival>
        <arrival publicID="quakeml:uw.anss.org/AssocArO/UW/3828258">
          <pickID>quakeml:uw.anss.org/Arrival/UW/3828258</pickID>
          <phase>P</phase>
          <azimuth>172.4</azimuth>
          <distance>0.403</distance>
          <timeResidual>-0.46</timeResidual>
          <creationInfo>
            <agencyID>UW</agencyID>
            <creationTime>2012-02-27T16:42:21.000000Z</creationTime>
          </creationInfo>
        </arrival>
        <arrival publicID="quakeml:uw.anss.org/AssocArO/UW/3828263">
          <pickID>quakeml:uw.anss.org/Arrival/UW/3828263</pickID>
          <phase>P</phase>
          <azimuth>170.4</azimuth>
          <timeResidual>0.8</timeResidual>
          <creationInfo>
            <agencyID>UW</agencyID>
            <creationTime>2012-02-27T16:42:21.000000Z</creationTime>
          </creationInfo>
        </arrival>
        <arrival publicID="quakeml:uw.anss.org/AssocArO/UW/3828268">
          <pickID>quakeml:uw.anss.org/Arrival/UW/3828268</pickID>
          <phase>P</phase>
          <azimuth>199.1</azimuth>
          <distance>1.955</distance>
          <timeResidual>-0.01</timeResidual>
          <creationInfo>
            <agencyID>UW</agencyID>
            <creationTime>2012-02-27T16:42:21.000000Z</creationTime>
          </creationInfo>
        </arrival>
        <arrival publicID="quakeml:uw.anss.org/AssocArO/UW/3828273">
          <pickID>quakeml:uw.anss.org/Arrival/UW/3828273</pickID>
          <phase>P</phase>
          <azimuth>175.3</azimuth>
          <distance>1.886</distance>
          <timeResidual>0.69</timeResidual>
          <creationInfo>
            <agencyID>UW</agencyID>
            <creationTime>2012-02-27T16:42:21.000000Z</creationTime>
          </creationInfo>
        </arrival>
        <arrival publicID="quakeml:uw.anss.org/AssocArO/UW/3828278">
          <pickID>quakeml:uw.anss.org/Arrival/UW/3828278</pickID>
          <phase>P</phase>
          <timeResidual>0.26</timeResidual>
          <creationInfo>
            <agencyID>UW</agencyID>
            <creationTime>2012-02-27T16:42:21.000000Z</creationTime>
          </creationInfo>
        </arrival>
        <arrival publicID="quakeml:uw.anss.org/AssocArO/UW/3828283">
          <pickID>quakeml:uw.anss.org/Arrival/UW/3828283</pickID>
          <phase>P</phase>
          <azimuth>129.3</azimuth>
          <distance>0.5895</distance>
          <timeResidual>-0.16</timeResidual>
          <creationInfo>
            <agencyID>UW</agencyID>
            <creationTime>2012-02-27T16:42:21.000000Z</creationTime>
          </creationInfo>
        </arrival>
        <arrival publicID="quakeml:uw.anss.org/AssocArO/UW/3828288">
          <pickID>quakeml:uw.anss.org/Arrival/UW/3828288</pickID>
          <phase>S</phase>
          <azimuth>129.3</azimuth>
          <distance>0.5895</distance>
          <timeResidual>0.28</timeResidual>
          <creationInfo>
            <agencyID>UW</agencyID>
            <creationTime>2012-02-27T16:42:21.000000Z</creationTime>
          </creationInfo>
        </arrival>
        <arrival publicID="quakeml:uw.anss.org/AssocArO/UW/3828293">
          <pickID>quakeml:uw.anss.org/Arrival/UW/3828293</pickID>
          <phase>P</phase>
          <azimuth>309.5</azimuth>
          <timeResidual>-0.33</timeResidual>
          <creationInfo>
            <agencyID>UW</agencyID>
            <creationTime>2012-02-27T16:42:21.000000Z</creationTime>
          </creationInfo>
        </arrival>
        <arrival publicID="quakeml:uw.anss.org/AssocArO/UW/3828298">
          <pickID>quakeml:uw.anss.org/Arrival/UW/3828298</pickID>
          <phase>P</phase>
          <azimuth>101.0</azimuth>
          <distance>0.2021</distance>
          <timeResidual>-0.27</timeResidual>
          <creationInfo>
            <agencyID>UW</agencyID>
            <creationTime>2012-02-27T16:42:21.000000Z</creationTime>
          </creationInfo>
        </arrival>
        <arrival publicID="quakeml:uw.anss.org/AssocArO/UW/3828303">
          <pickID>quakeml:uw.anss.org/Arrival/UW/3828303</pickID>
          <phase>P</phase>
          <azimuth>225.4</azimuth>
          <distance>1.422</distance>
          <timeResidual>0.44</timeResidual>
          <creationInfo>
            <agencyID>UW</agencyID>
            <creationTime>2012-02-27T16:42:21.000000Z</creationTime>
          </creationInfo>
        </arrival>
        <arrival publicID="quakeml:uw.anss.org/AssocArO/UW/3828308">
          <pickID>quakeml:uw.anss.org/Arrival/UW/3828308</pickID>
          <phase>P</phase>
          <azimuth>321.8</azimuth>
          <timeResidual>-0.43</timeResidual>
          <creationInfo>
            <agencyID>UW</agencyID>
            <creationTime>2012-02-27T16:42:21.000000Z</creationTime>
          </creationInfo>
        </arrival>
        <arrival publicID="quakeml:uw.anss.org/AssocArO/UW/3828313">
          <pickID>quakeml:uw.anss.org/Arrival/UW/3828313</pickID>
          <phase>S</phase>
          <azimuth>321.8</azimuth>
          <timeResidual>-1.13</timeResidual>
          <creationInfo>
            <agencyID>UW</agencyID>
            <creationTime>2012-02-27T16:42:21.000000Z</creationTime>
          </creationInfo>
        </arrival>
        <arrival publicID="quakeml:uw.anss.org/AssocArO/UW/3828318">
          <pickID>quakeml:uw.anss.org/Arrival/UW/3828318</pickID>
          <phase>P</phase>
          <azimuth>163.8</azimuth>
          <timeResidual>0.18</timeResidual>
          <creationInfo>
            <agencyID>UW</agencyID>
            <creationTime>2012-02-27T16:42:21.000000Z</creationTime>
          </creationInfo>
        </arrival>
        <arrival publicID="quakeml:uw.anss.org/AssocArO/UW/3828323">
          <pickID>quakeml:uw.anss.org/Arrival/UW/3828323</pickID>
          <phase>P</phase>
          <azimuth>169.1</azimuth>
          <timeResidual>0.59</timeResidual>
          <creationInfo>
            <agencyID>UW</agencyID>
            <creationTime>2012-02-27T16:42:21.000000Z</creationTime>
          </creationInfo>
        </arrival>
        <arrival publicID="quakeml:uw.anss.org/AssocArO/UW/3828328">
          <pickID>quakeml:uw.anss.org/Arrival/UW/3828328</pickID>
          <phase>P</phase>
          <azimuth>116.5</azimuth>
          <distance>1.822</distance>
          <timeResidual>1.71</timeResidual>
          <creationInfo>
            <agencyID>UW</agencyID>
            <creationTime>2012-02-27T16:42:21.000000Z</creationTime>
          </creationInfo>
        </arrival>
        <arrival publicID="quakeml:uw.anss.org/AssocArO/UW/3828333">
          <pickID>quakeml:uw.anss.org/Arrival/UW/3828333</pickID>
          <phase>P</phase>
          <timeResidual>0.06</timeResidual>
          <creationInfo>
            <agencyID>UW</agencyID>
            <creationTime>2012-02-27T16:42:21.000000Z</creationTime>
          </creationInfo>
        </arrival>
        <arrival publicID="quakeml:uw.anss.org/AssocArO/UW/3828338">
          <pickID>quakeml:uw.anss.org/Arrival/UW/3828338</pickID>
          <phase>P</phase>
          <azimuth>236.0</azimuth>
          <timeResidual>0.07</timeResidual>
          <creationInfo>
            <agencyID>UW</agencyID>
            <creationTime>2012-02-27T16:42:21.000000Z</creationTime>
          </creationInfo>
        </arrival>
        <arrival publicID="quakeml:uw.anss.org/AssocArO/UW/3828343">
          <pickID>quakeml:uw.anss.org/Arrival/UW/3828343</pickID>
          <phase>P</phase>
          <timeResidual>0.31</timeResidual>
          <creationInfo>
            <agencyID>UW</agencyID>
            <creationTime>2012-02-27T16:42:21.000000Z</creationTime>
          </creationInfo>
        </arrival>
        <arrival publicID="quakeml:uw.anss.org/AssocArO/UW/3828348">
          <pickID>quakeml:uw.anss.org/Arrival/UW/3828348</pickID>
          <phase>P</phase>
          <azimuth>126.1</azimuth>
          <distance>1.875</distance>
          <timeResidual>1.3</timeResidual>
          <creationInfo>
            <agencyID>UW</agencyID>
            <creationTime>2012-02-27T16:42:21.000000Z</creationTime>
          </creationInfo>
        </arrival>
        <arrival publicID="quakeml:uw.anss.org/AssocArO/UW/3828353">
          <pickID>quakeml:uw.anss.org/Arrival/UW/3828353</pickID>
          <phase>P</phase>
          <azimuth>197.3</azimuth>
          <distance>1.335</distance>
          <timeResidual>0.24</timeResidual>
          <creationInfo>
            <agencyID>UW</agencyID>
            <creationTime>2012-02-27T16:42:21.000000Z</creationTime>
          </creationInfo>
        </arrival>
        <arrival publicID="quakeml:uw.anss.org/AssocArO/UW/3828358">
          <pickID>quakeml:uw.anss.org/Arrival/UW/3828358</pickID>
          <phase>P</phase>
          <azimuth>168.9</azimuth>
          <distance>1.389</distance>
          <timeResidual>0.67</timeResidual>
          <creationInfo>
            <agencyID>UW</agencyID>
            <creationTime>2012-02-27T16:42:21.000000Z</creationTime>
          </creationInfo>
        </arrival>
        <arrival publicID="quakeml:uw.anss.org/AssocArO/UW/3828363">
          <pickID>quakeml:uw.anss.org/Arrival/UW/3828363</pickID>
          <phase>P</phase>
          <timeResidual>0.29</timeResidual>
          <creationInfo>
            <agencyID>UW</agencyID>
            <creationTime>2012-02-27T16:42:21.000000Z</creationTime>
          </creationInfo>
        </arrival>
        <arrival publicID="quakeml:uw.anss.org/AssocArO/UW/3828368">
          <pickID>quakeml:uw.anss.org/Arrival/UW/3828368</pickID>
          <phase>P</phase>
          <azimuth>181.7</azimuth>
          <distance>2.157</distance>
          <timeResidual>0.83</timeResidual>
          <creationInfo>
            <agencyID>UW</agencyID>
            <creationTime>2012-02-27T16:42:21.000000Z</creationTime>
          </creationInfo>
        </arrival>
        <arrival publicID="quakeml:uw.anss.org/AssocArO/UW/3828373">
          <pickID>quakeml:uw.anss.org/Arrival/UW/3828373</pickID>
          <phase>P</phase>
          <azimuth>164.1</azimuth>
          <distance>1.06</distance>
          <timeResidual>0.91</timeResidual>
          <creationInfo>
            <agencyID>UW</agencyID>
            <creationTime>2012-02-27T16:42:21.000000Z</creationTime>
          </creationInfo>
        </arrival>
        <arrival publicID="quakeml:uw.anss.org/AssocArO/UW/3828378">
          <pickID>quakeml:uw.anss.org/Arrival/UW/3828378</pickID>
          <phase>S</phase>
          <azimuth>164.1</azimuth>
          <distance>1.06</distance>
          <timeResidual>1.17</timeResidual>
          <creationInfo>
            <agencyID>UW</agencyID>
            <creationTime>2012-02-27T16:42:21.000000Z</creationTime>
          </creationInfo>
        </arrival>
        <arrival publicID="quakeml:uw.anss.org/AssocArO/UW/3828383">
          <pickID>quakeml:uw.anss.org/Arrival/UW/3828383</pickID>
          <phase>P</phase>
          <azimuth>124.5</azimuth>
          <distance>1.764</distance>
          <timeResidual>1.07</timeResidual>
          <creationInfo>
            <agencyID>UW</agencyID>
            <creationTime>2012-02-27T16:42:21.000000Z</creationTime>
          </creationInfo>
        </arrival>
        <arrival publicID="quakeml:uw.anss.org/AssocArO/UW/3828388">
          <pickID>quakeml:uw.anss.org/Arrival/UW/3828388</pickID>
          <phase>P</phase>
          <azimuth>231.3</azimuth>
          <distance>1.717</distance>
          <timeResidual>1.16</timeResidual>
          <creationInfo>
            <agencyID>UW</agencyID>
            <creationTime>2012-02-27T16:42:21.000000Z</creationTime>
          </creationInfo>
        </arrival>
        <arrival publicID="quakeml:uw.anss.org/AssocArO/UW/3828393">
          <pickID>quakeml:uw.anss.org/Arrival/UW/3828393</pickID>
          <phase>P</phase>
          <azimuth>212.4</azimuth>
          <distance>0.9651</distance>
          <timeResidual>0.97</timeResidual>
          <creationInfo>
            <agencyID>UW</agencyID>
            <creationTime>2012-02-27T16:42:21.000000Z</creationTime>
          </creationInfo>
        </arrival>
        <arrival publicID="quakeml:uw.anss.org/AssocArO/UW/3828398">
          <pickID>quakeml:uw.anss.org/Arrival/UW/3828398</pickID>
          <phase>P</phase>
          <azimuth>146.4</azimuth>
          <distance>1.973</distance>
          <timeResidual>1.17</timeResidual>
          <creationInfo>
            <agencyID>UW</agencyID>
            <creationTime>2012-02-27T16:42:21.000000Z</creationTime>
          </creationInfo>
        </arrival>
        <arrival publicID="quakeml:uw.anss.org/AssocArO/UW/3828403">
          <pickID>quakeml:uw.anss.org/Arrival/UW/3828403</pickID>
          <phase>P</phase>
          <azimuth>251.2</azimuth>
          <distance>0.4422</distance>
          <timeResidual>0.14</timeResidual>
          <creationInfo>
            <agencyID>UW</agencyID>
            <creationTime>2012-02-27T16:42:21.000000Z</creationTime>
          </creationInfo>
        </arrival>
      </origin>
      <magnitude publicID="quakeml:uw.anss.org/Netmag/UW/447618">
        <mag>
          <value>2.1</value>
          <uncertainty>0.09</uncertainty>
        </mag>
        <type>Md</type>
        <originID>quakeml:uw.anss.org/Origin/UW/535023</originID>
        <methodID>smi:uw.anss.org/magnitude/Crosson</methodID>
        <stationCount>3</stationCount>
        <evaluationMode>manual</evaluationMode>
        <evaluationStatus>final</evaluationStatus>
        <stationMagnitudeContribution>
          <stationMagnitudeID>quakeml:uw.anss.org/AssocCoM/UW/1097983</stationMagnitudeID>
          <weight>1.0</weight>
          <residual>-0.07</residual>
