<?xml version='1.0' encoding='utf-8'?>
<q:quakeml xmlns="http://quakeml.org/xmlns/bed/1.2" xmlns:q="http://quakeml.org/xmlns/quakeml/1.2" xmlns:ns0="http://anss.org/xmlns/catalog/0.1">
  <eventParameters publicID="smi:local/8d8a39fd-83a0-4224-8fe3-b5788d1fa4ef">
    <event publicID="quakeml:uw.anss.org/Event/UW/10257998" ns0:datasource="uw" ns0:dataid="uw10257998" ns0:eventsource="uw" ns0:eventid="10257998">
      <preferredOriginID>quakeml:uw.anss.org/Origin/UW/534943</preferredOriginID>
      <preferredMagnitudeID>quakeml:uw.anss.org/Netmag/UW/447543</preferredMagnitudeID>
      <type>earthquake</type>
      <creationInfo>
        <agencyID>UW</agencyID>
        <creationTime>2012-02-27T16:42:11.000000Z</creationTime>
        <version>3</version>
      </creationInfo>
      <origin publicID="quakeml:uw.anss.org/Origin/UW/534943" ns0:datasource="uw" ns0:dataid="uw10257998" ns0:eventsource="uw" ns0:eventid="10257998">
        <time>
          <value>1990-04-14T06:19:13.070000Z</value>
          <uncertainty>1.94</uncertainty>
        </time>
        <latitude>
          <value>48.8323333</value>
          <uncertainty>0.72</uncertainty>
        </latitude>
        <longitude>
          <value>-122.1955</value>
          <uncertainty>2.45</uncertainty>
        </longitude>
        <depth>
          <value>521.0</value>
          <uncertainty>16630.0</uncertainty>
        </depth>
        <depthType>operator assigned</depthType>
        <timeFixed>false</timeFixed>
        <epicenterFixed>true</epicenterFixed>
        <methodID>smi:uw.anss.org/origin/spong</methodID>
        <quality>
          <associatedPhaseCount>70</associatedPhaseCount>
          <usedPhaseCount>31</usedPhaseCount>
          <associatedStationCount>61</associatedStationCount>
          <usedStationCount>0</usedStationCount>
          <standardError>0.43</standardError>
          <azimuthalGap>86.0</azimuthalGap>
        </quality>
        <type>hypocenter</type>
        <evaluationMode>manual</evaluationMode>
        <evaluationStatus>final</evaluationStatus>
        <creationInfo>
          <agencyID>UW</agencyID>
          <creationTime>2012-02-27T16:42:11.000000Z</creationTime>
        </creationInfo>
        <originUncertainty>
          <preferredDescription>horizontal uncertainty</preferredDescription>
          <horizontalUncertainty>2554.0</horizontalUncertainty>
        </originUncertainty>
        <arrival publicID="quakeml:uw.anss.org/AssocArO/UW/3826638">
          <pickID>quakeml:uw.anss.org/Arrival/UW/3826638</pickID>
          <phase>P</phase>
          <azimuth>288.9</azimuth>
          <timeResidual>-0.5</timeResidual>
          <creationInfo>
            <agencyID>UW</agencyID>
            <creationTime>2012-02-27T16:42:11.000000Z</creationTime>
          </creationInfo>
        </arrival>
        <arrival publicID="quakeml:uw.anss.org/AssocArO/UW/3826643">
          <pickID>quakeml:uw.anss.org/Arrival/UW/3826643</pickID>
          <phase>S</phase>
          <azimuth>288.9</azimuth>
          <timeResidual>-1.28</timeResidual>
          <creationInfo>
            <agencyID>UW</agencyID>
            <creationTime>2012-02-27T16:42:11.000000Z</creationTime>
          </creationInfo>
        </arrival>
        <arrival publicID="quakeml:uw.anss.org/AssocArO/UW/3826648">
          <pickID>quakeml:uw.anss.org/Arrival/UW/3826648</pickID>
          <phase>P</phase>
          <azimuth>206.1</azimuth>
          <distance>1.317</distance>
          <timeResidual>-0.07</timeResidual>
          <creationInfo>
            <agencyID>UW</agencyID>
            <creationTime>2012-02-27T16:42:11.000000Z</creationTime>
          </creationInfo>
        </arrival>
        <arrival publicID="quakeml:uw.anss.org/AssocArO/UW/3826653">
          <pickID>quakeml:uw.anss.org/Arrival/UW/3826653</pickID>
          <phase>P</phase>
          <azimuth>121.1</azimuth>
          <distance>1.451</distance>
          <timeResidual>1.01</timeResidual>
          <creationInfo>
            <agencyID>UW</agencyID>
            <creationTime>2012-02-27T16:42:11.000000Z</creationTime>
          </creationInfo>
        </arrival>
        <arrival publicID="quakeml:uw.anss.org/AssocArO/UW/3826658">
          <pickID>quakeml:uw.anss.org/Arrival/UW/3826658</pickID>
          <phase>P</phase>
          <azimuth>330.5</azimuth>
          <timeResidual>-0.19</timeResidual>
          <creationInfo>
            <agencyID>UW</agencyID>
            <creationTime>2012-02-27T16:42:11.000000Z</creationTime>
          </creationInfo>
        </arrival>
        <arrival publicID="quakeml:uw.anss.org/AssocArO/UW/3826663">
          <pickID>quakeml:uw.anss.org/Arrival/UW/3826663</pickID>
          <phase>S</phase>
          <azimuth>330.5</azimuth>
          <timeResidual>-0.21</timeResidual>
          <creationInfo>
            <agencyID>UW</agencyID>
            <creationTime>2012-02-27T16:42:11.000000Z</creationTime>
          </creationInfo>
        </arrival>
        <arrival publicID="quakeml:uw.anss.org/AssocArO/UW/3826668">
          <pickID>quakeml:uw.anss.org/Arrival/UW/3826668</pickID>
          <phase>P</phase>
          <azimuth>134.0</azimuth>
          <distance>1.75</distance>
          <timeResidual>1.02</timeResidual>
          <creationInfo>
            <agencyID>UW</agencyID>
            <creationTime>2012-02-27T16:42:11.000000Z</creationTime>
          </creationInfo>
        </arrival>
        <arrival publicID="quakeml:uw.anss.org/AssocArO/UW/3826673">
          <pickID>quakeml:uw.anss.org/Arrival/UW/3826673</pickID>
          <phase>P</phase>
          <azimuth>155.8</azimuth>
          <distance>2.295</distance>
          <timeResidual>0.12</timeResidual>
          <creationInfo>
            <agencyID>UW</agencyID>
            <creationTime>2012-02-27T16:42:11.000000Z</creationTime>
          </creationInfo>
        </arrival>
        <arrival publicID="quakeml:uw.anss.org/AssocArO/UW/3826678">
          <pickID>quakeml:uw.anss.org/Arrival/UW/3826678</pickID>
          <phase>P</phase>
          <azimuth>207.3</azimuth>
          <distance>1.699</distance>
          <timeResidual>0.94</timeResidual>
          <creationInfo>
            <agencyID>UW</agencyID>
            <creationTime>2012-02-27T16:42:11.000000Z</creationTime>
          </creationInfo>
        </arrival>
        <arrival publicID="quakeml:uw.anss.org/AssocArO/UW/3826683">
          <pickID>quakeml:uw.anss.org/Arrival/UW/3826683</pickID>
          <phase>P</phase>
          <azimuth>185.1</azimuth>
          <distance>2.408</distance>
          <timeResidual>0.81</timeResidual>
          <creationInfo>
            <agencyID>UW</agencyID>
            <creationTime>2012-02-27T16:42:11.000000Z</creationTime>
          </creationInfo>
        </arrival>
        <arrival publicID="quakeml:uw.anss.org/AssocArO/UW/3826688">
          <pickID>quakeml:uw.anss.org/Arrival/UW/3826688</pickID>
          <phase>P</phase>
          <azimuth>170.8</azimuth>
          <distance>1.987</distance>
          <timeResidual>0.73</timeResidual>
          <creationInfo>
            <agencyID>UW</agencyID>
            <creationTime>2012-02-27T16:42:11.000000Z</creationTime>
          </creationInfo>
        </arrival>
        <arrival publicID="quakeml:uw.anss.org/AssocArO/UW/3826693">
          <pickID>quakeml:uw.anss.org/Arrival/UW/3826693</pickID>
          <phase>P</phase>
          <timeResidual>0.3</timeResidual>
          <creationInfo>
            <agencyID>UW</agencyID>
            <creationTime>2012-02-27T16:42:11.000000Z</creationTime>
          </creationInfo>
        </arrival>
        <arrival publicID="quakeml:uw.anss.org/AssocArO/UW/3826698">
          <pickID>quakeml:uw.anss.org/Arrival/UW/3826698</pickID>
          <phase>S</phase>
          <timeResidual>0.95</timeResidual>
          <creationInfo>
            <agencyID>UW</agencyID>
            <creationTime>2012-02-27T16:42:11.000000Z</creationTime>
          </creationInfo>
        </arrival>
        <arrival publicID="quakeml:uw.anss.org/AssocArO/UW/3826703">
          <pickID>quakeml:uw.anss.org/Arrival/UW/3826703</pickID>
          <phase>P</phase>
          <azimuth>151.9</azimuth>
          <distance>1.915</distance>
          <timeResidual>1.97</timeResidual>
          <creationInfo>
            <agencyID>UW</agencyID>
            <creationTime>2012-02-27T16:42:11.000000Z</creationTime>
          </creationInfo>
        </arrival>
        <arrival publicID="quakeml:uw.anss.org/AssocArO/UW/3826708">
          <pickID>quakeml:uw.anss.org/Arrival/UW/3826708</pickID>
          <phase>P</phase>
          <azimuth>173.0</azimuth>
          <distance>0.4122</distance>
          <timeResidual>-0.48</timeResidual>
          <creationInfo>
            <agencyID>UW</agencyID>
            <creationTime>2012-02-27T16:42:11.000000Z</creationTime>
          </creationInfo>
        </arrival>
        <arrival publicID="quakeml:uw.anss.org/AssocArO/UW/3826713">
          <pickID>quakeml:uw.anss.org/Arrival/UW/3826713</pickID>
          <phase>P</phase>
          <azimuth>170.5</azimuth>
          <timeResidual>0.25</timeResidual>
          <creationInfo>
            <agencyID>UW</agencyID>
            <creationTime>2012-02-27T16:42:11.000000Z</creationTime>
          </creationInfo>
        </arrival>
        <arrival publicID="quakeml:uw.anss.org/AssocArO/UW/3826718">
          <pickID>quakeml:uw.anss.org/Arrival/UW/3826718</pickID>
          <phase>P</phase>
          <azimuth>199.1</azimuth>
          <distance>1.965</distance>
          <timeResidual>-0.16</timeResidual>
          <creationInfo>
            <agencyID>UW</agencyID>
            <creationTime>2012-02-27T16:42:11.000000Z</creationTime>
          </creationInfo>
        </arrival>
        <arrival publicID="quakeml:uw.anss.org/AssocArO/UW/3826723">
          <pickID>quakeml:uw.anss.org/Arrival/UW/3826723</pickID>
          <phase>P</phase>
          <azimuth>175.4</azimuth>
          <distance>1.895</distance>
          <timeResidual>0.34</timeResidual>
          <creationInfo>
            <agencyID>UW</agencyID>
            <creationTime>2012-02-27T16:42:11.000000Z</creationTime>
          </creationInfo>
        </arrival>
        <arrival publicID="quakeml:uw.anss.org/AssocArO/UW/3826728">
          <pickID>quakeml:uw.anss.org/Arrival/UW/3826728</pickID>
          <phase>S</phase>
          <azimuth>175.4</azimuth>
          <distance>1.895</distance>
          <timeResidual>-0.08</timeResidual>
          <creationInfo>
            <agencyID>UW</agencyID>
            <creationTime>2012-02-27T16:42:11.000000Z</creationTime>
          </creationInfo>
        </arrival>
        <arrival publicID="quakeml:uw.anss.org/AssocArO/UW/3826733">
          <pickID>quakeml:uw.anss.org/Arrival/UW/3826733</pickID>
          <phase>P</phase>
          <azimuth>172.8</azimuth>
          <distance>2.099</distance>
          <timeResidual>0.15</timeResidual>
          <creationInfo>
            <agencyID>UW</agencyID>
            <creationTime>2012-02-27T16:42:11.000000Z</creationTime>
          </creationInfo>
        </arrival>
        <arrival publicID="quakeml:uw.anss.org/AssocArO/UW/3826738">
          <pickID>quakeml:uw.anss.org/Arrival/UW/3826738</pickID>
          <phase>P</phase>
          <timeResidual>0.12</timeResidual>
          <creationInfo>
            <agencyID>UW</agencyID>
            <creationTime>2012-02-27T16:42:11.000000Z</creationTime>
          </creationInfo>
        </arrival>
        <arrival publicID="quakeml:uw.anss.org/AssocArO/UW/3826743">
          <pickID>quakeml:uw.anss.org/Arrival/UW/3826743</pickID>
          <phase>P</phase>
          <azimuth>130.2</azimuth>
          <distance>0.593</distance>
          <timeResidual>-0.23</timeResidual>
          <creationInfo>
            <agencyID>UW</agencyID>
            <creationTime>2012-02-27T16:42:11.000000Z</creationTime>
          </creationInfo>
        </arrival>
        <arrival publicID="quakeml:uw.anss.org/AssocArO/UW/3826748">
          <pickID>quakeml:uw.anss.org/Arrival/UW/3826748</pickID>
          <phase>P</phase>
          <azimuth>170.0</azimuth>
          <distance>2.31</distance>
          <timeResidual>0.92</timeResidual>
          <creationInfo>
            <agencyID>UW</agencyID>
            <creationTime>2012-02-27T16:42:11.000000Z</creationTime>
          </creationInfo>
        </arrival>
        <arrival publicID="quakeml:uw.anss.org/AssocArO/UW/3826753">
          <pickID>quakeml:uw.anss.org/Arrival/UW/3826753</pickID>
          <phase>P</phase>
          <azimuth>168.0</azimuth>
          <distance>2.181</distance>
          <timeResidual>1.41</timeResidual>
          <creationInfo>
            <agencyID>UW</agencyID>
            <creationTime>2012-02-27T16:42:11.000000Z</creationTime>
          </creationInfo>
        </arrival>
        <arrival publicID="quakeml:uw.anss.org/AssocArO/UW/3826758">
          <pickID>quakeml:uw.anss.org/Arrival/UW/3826758</pickID>
          <phase>P</phase>
          <azimuth>308.9</azimuth>
          <timeResidual>-0.46</timeResidual>
          <creationInfo>
            <agencyID>UW</agencyID>
            <creationTime>2012-02-27T16:42:11.000000Z</creationTime>
          </creationInfo>
        </arrival>
        <arrival publicID="quakeml:uw.anss.org/AssocArO/UW/3826763">
          <pickID>quakeml:uw.anss.org/Arrival/UW/3826763</pickID>
          <phase>P</phase>
          <azimuth>181.6</azimuth>
          <distance>1.28</distance>
          <timeResidual>0.43</timeResidual>
          <creationInfo>
            <agencyID>UW</agencyID>
            <creationTime>2012-02-27T16:42:11.000000Z</creationTime>
          </creationInfo>
        </arrival>
        <arrival publicID="quakeml:uw.anss.org/AssocArO/UW/3826768">
          <pickID>quakeml:uw.anss.org/Arrival/UW/3826768</pickID>
          <phase>P</phase>
          <azimuth>195.1</azimuth>
          <distance>1.047</distance>
          <timeResidual>0.57</timeResidual>
          <creationInfo>
            <agencyID>UW</agencyID>
            <creationTime>2012-02-27T16:42:11.000000Z</creationTime>
          </creationInfo>
        </arrival>
        <arrival publicID="quakeml:uw.anss.org/AssocArO/UW/3826773">
          <pickID>quakeml:uw.anss.org/Arrival/UW/3826773</pickID>
          <phase>P</phase>
          <azimuth>179.1</azimuth>
          <distance>2.59</distance>
          <timeResidual>1.32</timeResidual>
          <creationInfo>
            <agencyID>UW</agencyID>
            <creationTime>2012-02-27T16:42:11.000000Z</creationTime>
          </creationInfo>
        </arrival>
        <arrival publicID="quakeml:uw.anss.org/AssocArO/UW/3826778">
          <pickID>quakeml:uw.anss.org/Arrival/UW/3826778</pickID>
          <phase>P</phase>
          <azimuth>149.8</azimuth>
          <distance>2.214</distance>
          <timeResidual>0.07</timeResidual>
          <creationInfo>
            <agencyID>UW</agencyID>
            <creationTime>2012-02-27T16:42:11.000000Z</creationTime>
          </creationInfo>
        </arrival>
        <arrival publicID="quakeml:uw.anss.org/AssocArO/UW/3826783">
          <pickID>quakeml:uw.anss.org/Arrival/UW/3826783</pickID>
          <phase>P</phase>
          <azimuth>169.3</azimuth>
          <timeResidual>0.26</timeResidual>
          <creationInfo>
            <agencyID>UW</agencyID>
            <creationTime>2012-02-27T16:42:11.000000Z</creationTime>
          </creationInfo>
        </arrival>
        <arrival publicID="quakeml:uw.anss.org/AssocArO/UW/3826788">
          <pickID>quakeml:uw.anss.org/Arrival/UW/3826788</pickID>
          <phase>S</phase>
          <azimuth>169.3</azimuth>
          <timeResidual>0.1</timeResidual>
          <creationInfo>
            <agencyID>UW</agencyID>
            <creationTime>2012-02-27T16:42:11.000000Z</creationTime>
          </creationInfo>
        </arrival>
        <arrival publicID="quakeml:uw.anss.org/AssocArO/UW/3826793">
          <pickID>quakeml:uw.anss.org/Arrival/UW/3826793</pickID>
          <phase>P</phase>
          <azimuth>209.0</azimuth>
          <distance>2.226</distance>
          <timeResidual>-0.3</timeResidual>
          <creationInfo>
            <agencyID>UW</agencyID>
            <creationTime>2012-02-27T16:42:11.000000Z</creationTime>
          </creationInfo>
        </arrival>
        <arrival publicID="quakeml:uw.anss.org/AssocArO/UW/3826798">
          <pickID>quakeml:uw.anss.org/Arrival/UW/3826798</pickID>
          <phase>P</phase>
          <azimuth>203.8</azimuth>
          <distance>0.5567</distance>
          <timeResidual>0.71</timeResidual>
          <creationInfo>
            <agencyID>UW</agencyID>
            <creationTime>2012-02-27T16:42:11.000000Z</creationTime>
          </creationInfo>
        </arrival>
        <arrival publicID="quakeml:uw.anss.org/AssocArO/UW/3826803">
          <pickID>quakeml:uw.anss.org/Arrival/UW/3826803</pickID>
          <phase>P</phase>
          <azimuth>120.3</azimuth>
          <distance>2.183</distance>
          <timeResidual>2.52</timeResidual>
          <creationInfo>
            <agencyID>UW</agencyID>
            <creationTime>2012-02-27T16:42:11.000000Z</creationTime>
          </creationInfo>
        </arrival>
        <arrival publicID="quakeml:uw.anss.org/AssocArO/UW/3826808">
          <pickID>quakeml:uw.anss.org/Arrival/UW/3826808</pickID>
          <phase>P</phase>
          <azimuth>225.2</azimuth>
          <distance>1.431</distance>
          <timeResidual>0.11</timeResidual>
          <creationInfo>
            <agencyID>UW</agencyID>
            <creationTime>2012-02-27T16:42:11.000000Z</creationTime>
          </creationInfo>
        </arrival>
        <arrival publicID="quakeml:uw.anss.org/AssocArO/UW/3826813">
          <pickID>quakeml:uw.anss.org/Arrival/UW/3826813</pickID>
          <phase>P</phase>
          <azimuth>321.4</azimuth>
          <timeResidual>0.19</timeResidual>
          <creationInfo>
            <agencyID>UW</agencyID>
            <creationTime>2012-02-27T16:42:11.000000Z</creationTime>
          </creationInfo>
        </arrival>
        <arrival publicID="quakeml:uw.anss.org/AssocArO/UW/3826818">
          <pickID>quakeml:uw.anss.org/Arrival/UW/3826818</pickID>
          <phase>P</phase>
          <azimuth>182.3</azimuth>
          <distance>2.53</distance>
          <timeResidual>0.87</timeResidual>
          <creationInfo>
            <agencyID>UW</agencyID>
            <creationTime>2012-02-27T16:42:11.000000Z</creationTime>
          </creationInfo>
        </arrival>
        <arrival publicID="quakeml:uw.anss.org/AssocArO/UW/3826823">
          <pickID>quakeml:uw.anss.org/Arrival/UW/3826823</pickID>
          <phase>P</phase>
          <azimuth>164.3</azimuth>
          <timeResidual>0.05</timeResidual>
          <creationInfo>
            <agencyID>UW</agencyID>
            <creationTime>2012-02-27T16:42:11.000000Z</creationTime>
          </creationInfo>
        </arrival>
        <arrival publicID="quakeml:uw.anss.org/AssocArO/UW/3826828">
          <pickID>quakeml:uw.anss.org/Arrival/UW/3826828</pickID>
          <phase>S</phase>
          <azimuth>164.3</azimuth>
          <timeResidual>1.87</timeResidual>
          <creationInfo>
            <agencyID>UW</agencyID>
            <creationTime>2012-02-27T16:42:11.000000Z</creationTime>
          </creationInfo>
        </arrival>
        <arrival publicID="quakeml:uw.anss.org/AssocArO/UW/3826833">
          <pickID>quakeml:uw.anss.org/Arrival/UW/3826833</pickID>
          <phase>P</phase>
          <azimuth>217.2</azimuth>
          <distance>1.878</distance>
          <timeResidual>0.47</timeResidual>
          <creationInfo>
            <agencyID>UW</agencyID>
            <creationTime>2012-02-27T16:42:11.000000Z</creationTime>
          </creationInfo>
        </arrival>
        <arrival publicID="quakeml:uw.anss.org/AssocArO/UW/3826838">
