<?xml version='1.0' encoding='utf-8'?>
<q:quakeml xmlns="http://quakeml.org/xmlns/bed/1.2" xmlns:q="http://quakeml.org/xmlns/quakeml/1.2" xmlns:ns0="http://anss.org/xmlns/catalog/0.1">
  <eventParameters publicID="smi:local/2916944d-3c61-4279-b747-ee88617346f0">
    <event publicID="quakeml:uw.anss.org/Event/UW/10259113" ns0:datasource="uw" ns0:dataid="uw10259113" ns0:eventsource="uw" ns0:eventid="10259113">
      <preferredOriginID>quakeml:uw.anss.org/Origin/UW/536058</preferredOriginID>
      <preferredMagnitudeID>quakeml:uw.anss.org/Netmag/UW/448548</preferredMagnitudeID>
      <type>earthquake</type>
      <creationInfo>
        <agencyID>UW</agencyID>
        <creationTime>2012-02-27T16:44:43.000000Z</creationTime>
        <version>3</version>
      </creationInfo>
      <origin publicID="quakeml:uw.anss.org/Origin/UW/536058" ns0:datasource="uw" ns0:dataid="uw10259113" ns0:eventsource="uw" ns0:eventid="10259113">
        <time>
          <value>1990-04-16T01:12:59.790000Z</value>
          <uncertainty>0.06</uncertainty>
        </time>
        <latitude>
          <value>48.8326667</value>
          <uncertainty>0.58</uncertainty>
        </latitude>
        <longitude>
          <value>-122.173</value>
          <uncertainty>0.45</uncertainty>
        </longitude>
        <depth>
          <value>3281.0</value>
          <uncertainty>3070.0</uncertainty>
        </depth>
        <depthType>operator assigned</depthType>
        <timeFixed>false</timeFixed>
        <epicenterFixed>true</epicenterFixed>
        <methodID>smi:uw.anss.org/origin/spong</methodID>
        <quality>
          <associatedPhaseCount>59</associatedPhaseCount>
          <usedPhaseCount>21</usedPhaseCount>
          <associatedStationCount>44</associatedStationCount>
          <usedStationCount>0</usedStationCount>
          <standardError>0.21</standardError>
          <azimuthalGap>91.0</azimuthalGap>
        </quality>
        <type>hypocenter</type>
        <evaluationMode>manual</evaluationMode>
        <evaluationStatus>final</evaluationStatus>
        <creationInfo>
          <agencyID>UW</agencyID>
          <creationTime>2012-02-27T16:44:43.000000Z</creationTime>
        </creationInfo>
        <originUncertainty>
          <preferredDescription>horizontal uncertainty</preferredDescription>
          <horizontalUncertainty>734.0</horizontalUncertainty>
        </originUncertainty>
        <arrival publicID="quakeml:uw.anss.org/AssocArO/UW/3846883">
          <pickID>quakeml:uw.anss.org/Arrival/UW/3846883</pickID>
          <phase>P</phase>
          <azimuth>288.7</azimuth>
          <timeResidual>-0.4</timeResidual>
          <creationInfo>
            <agencyID>UW</agencyID>
            <creationTime>2012-02-27T16:44:43.000000Z</creationTime>
          </creationInfo>
        </arrival>
        <arrival publicID="quakeml:uw.anss.org/AssocArO/UW/3846888">
          <pickID>quakeml:uw.anss.org/Arrival/UW/3846888</pickID>
          <phase>S</phase>
          <azimuth>288.7</azimuth>
          <timeResidual>-1.17</timeResidual>
          <creationInfo>
            <agencyID>UW</agencyID>
            <creationTime>2012-02-27T16:44:43.000000Z</creationTime>
          </creationInfo>
        </arrival>
        <arrival publicID="quakeml:uw.anss.org/AssocArO/UW/3846893">
          <pickID>quakeml:uw.anss.org/Arrival/UW/3846893</pickID>
          <phase>P</phase>
          <azimuth>206.7</azimuth>
          <distance>1.324</distance>
          <timeResidual>0.22</timeResidual>
          <creationInfo>
            <agencyID>UW</agencyID>
            <creationTime>2012-02-27T16:44:43.000000Z</creationTime>
          </creationInfo>
        </arrival>
        <arrival publicID="quakeml:uw.anss.org/AssocArO/UW/3846898">
          <pickID>quakeml:uw.anss.org/Arrival/UW/3846898</pickID>
          <phase>S</phase>
          <azimuth>206.7</azimuth>
          <distance>1.324</distance>
          <timeResidual>0.93</timeResidual>
          <creationInfo>
            <agencyID>UW</agencyID>
            <creationTime>2012-02-27T16:44:43.000000Z</creationTime>
          </creationInfo>
        </arrival>
        <arrival publicID="quakeml:uw.anss.org/AssocArO/UW/3846903">
          <pickID>quakeml:uw.anss.org/Arrival/UW/3846903</pickID>
          <phase>P</phase>
          <azimuth>121.4</azimuth>
          <distance>1.439</distance>
          <timeResidual>1.27</timeResidual>
          <creationInfo>
            <agencyID>UW</agencyID>
            <creationTime>2012-02-27T16:44:43.000000Z</creationTime>
          </creationInfo>
        </arrival>
        <arrival publicID="quakeml:uw.anss.org/AssocArO/UW/3846908">
          <pickID>quakeml:uw.anss.org/Arrival/UW/3846908</pickID>
          <phase>S</phase>
          <azimuth>121.4</azimuth>
          <distance>1.439</distance>
          <timeResidual>1.8</timeResidual>
          <creationInfo>
            <agencyID>UW</agencyID>
            <creationTime>2012-02-27T16:44:43.000000Z</creationTime>
          </creationInfo>
        </arrival>
        <arrival publicID="quakeml:uw.anss.org/AssocArO/UW/3846913">
          <pickID>quakeml:uw.anss.org/Arrival/UW/3846913</pickID>
          <phase>P</phase>
          <azimuth>329.1</azimuth>
          <timeResidual>-0.14</timeResidual>
          <creationInfo>
            <agencyID>UW</agencyID>
            <creationTime>2012-02-27T16:44:43.000000Z</creationTime>
          </creationInfo>
        </arrival>
        <arrival publicID="quakeml:uw.anss.org/AssocArO/UW/3846918">
          <pickID>quakeml:uw.anss.org/Arrival/UW/3846918</pickID>
          <phase>S</phase>
          <azimuth>329.1</azimuth>
          <timeResidual>-0.14</timeResidual>
          <creationInfo>
            <agencyID>UW</agencyID>
            <creationTime>2012-02-27T16:44:43.000000Z</creationTime>
          </creationInfo>
        </arrival>
        <arrival publicID="quakeml:uw.anss.org/AssocArO/UW/3846923">
          <pickID>quakeml:uw.anss.org/Arrival/UW/3846923</pickID>
          <phase>P</phase>
          <azimuth>134.4</azimuth>
          <distance>1.739</distance>
          <timeResidual>1.28</timeResidual>
          <creationInfo>
            <agencyID>UW</agencyID>
            <creationTime>2012-02-27T16:44:43.000000Z</creationTime>
          </creationInfo>
        </arrival>
        <arrival publicID="quakeml:uw.anss.org/AssocArO/UW/3846928">
          <pickID>quakeml:uw.anss.org/Arrival/UW/3846928</pickID>
          <phase>P</phase>
          <azimuth>137.9</azimuth>
          <distance>2.81</distance>
          <timeResidual>5.21</timeResidual>
          <creationInfo>
            <agencyID>UW</agencyID>
            <creationTime>2012-02-27T16:44:43.000000Z</creationTime>
          </creationInfo>
        </arrival>
        <arrival publicID="quakeml:uw.anss.org/AssocArO/UW/3846933">
          <pickID>quakeml:uw.anss.org/Arrival/UW/3846933</pickID>
          <phase>P</phase>
          <timeResidual>0.2</timeResidual>
          <creationInfo>
            <agencyID>UW</agencyID>
            <creationTime>2012-02-27T16:44:43.000000Z</creationTime>
          </creationInfo>
        </arrival>
        <arrival publicID="quakeml:uw.anss.org/AssocArO/UW/3846938">
          <pickID>quakeml:uw.anss.org/Arrival/UW/3846938</pickID>
          <phase>S</phase>
          <timeResidual>1.17</timeResidual>
          <creationInfo>
            <agencyID>UW</agencyID>
            <creationTime>2012-02-27T16:44:43.000000Z</creationTime>
          </creationInfo>
        </arrival>
        <arrival publicID="quakeml:uw.anss.org/AssocArO/UW/3846943">
          <pickID>quakeml:uw.anss.org/Arrival/UW/3846943</pickID>
          <phase>P</phase>
          <azimuth>175.1</azimuth>
          <distance>0.411</distance>
          <timeResidual>-0.3</timeResidual>
          <creationInfo>
            <agencyID>UW</agencyID>
            <creationTime>2012-02-27T16:44:43.000000Z</creationTime>
          </creationInfo>
        </arrival>
        <arrival publicID="quakeml:uw.anss.org/AssocArO/UW/3846948">
          <pickID>quakeml:uw.anss.org/Arrival/UW/3846948</pickID>
          <phase>S</phase>
          <azimuth>175.1</azimuth>
          <distance>0.411</distance>
          <timeResidual>1.08</timeResidual>
          <creationInfo>
            <agencyID>UW</agencyID>
            <creationTime>2012-02-27T16:44:43.000000Z</creationTime>
          </creationInfo>
        </arrival>
        <arrival publicID="quakeml:uw.anss.org/AssocArO/UW/3846953">
          <pickID>quakeml:uw.anss.org/Arrival/UW/3846953</pickID>
          <phase>P</phase>
          <azimuth>171.1</azimuth>
          <timeResidual>0.31</timeResidual>
          <creationInfo>
            <agencyID>UW</agencyID>
            <creationTime>2012-02-27T16:44:43.000000Z</creationTime>
          </creationInfo>
        </arrival>
        <arrival publicID="quakeml:uw.anss.org/AssocArO/UW/3846958">
          <pickID>quakeml:uw.anss.org/Arrival/UW/3846958</pickID>
          <phase>S</phase>
          <azimuth>171.1</azimuth>
          <timeResidual>0.73</timeResidual>
          <creationInfo>
            <agencyID>UW</agencyID>
            <creationTime>2012-02-27T16:44:43.000000Z</creationTime>
          </creationInfo>
        </arrival>
        <arrival publicID="quakeml:uw.anss.org/AssocArO/UW/3846963">
          <pickID>quakeml:uw.anss.org/Arrival/UW/3846963</pickID>
          <phase>P</phase>
          <azimuth>175.9</azimuth>
          <distance>1.895</distance>
          <timeResidual>0.55</timeResidual>
          <creationInfo>
            <agencyID>UW</agencyID>
            <creationTime>2012-02-27T16:44:43.000000Z</creationTime>
          </creationInfo>
        </arrival>
        <arrival publicID="quakeml:uw.anss.org/AssocArO/UW/3846968">
          <pickID>quakeml:uw.anss.org/Arrival/UW/3846968</pickID>
          <phase>P</phase>
          <azimuth>173.2</azimuth>
          <distance>2.098</distance>
          <timeResidual>0.53</timeResidual>
          <creationInfo>
            <agencyID>UW</agencyID>
            <creationTime>2012-02-27T16:44:43.000000Z</creationTime>
          </creationInfo>
        </arrival>
        <arrival publicID="quakeml:uw.anss.org/AssocArO/UW/3846973">
          <pickID>quakeml:uw.anss.org/Arrival/UW/3846973</pickID>
          <phase>P</phase>
          <timeResidual>0.13</timeResidual>
          <creationInfo>
            <agencyID>UW</agencyID>
            <creationTime>2012-02-27T16:44:43.000000Z</creationTime>
          </creationInfo>
        </arrival>
        <arrival publicID="quakeml:uw.anss.org/AssocArO/UW/3846978">
          <pickID>quakeml:uw.anss.org/Arrival/UW/3846978</pickID>
          <phase>P</phase>
          <azimuth>131.2</azimuth>
          <distance>0.5819</distance>
          <timeResidual>-0.06</timeResidual>
          <creationInfo>
            <agencyID>UW</agencyID>
            <creationTime>2012-02-27T16:44:43.000000Z</creationTime>
          </creationInfo>
        </arrival>
        <arrival publicID="quakeml:uw.anss.org/AssocArO/UW/3846983">
          <pickID>quakeml:uw.anss.org/Arrival/UW/3846983</pickID>
          <phase>S</phase>
          <azimuth>131.2</azimuth>
          <distance>0.5819</distance>
          <timeResidual>0.47</timeResidual>
          <creationInfo>
            <agencyID>UW</agencyID>
            <creationTime>2012-02-27T16:44:43.000000Z</creationTime>
          </creationInfo>
        </arrival>
        <arrival publicID="quakeml:uw.anss.org/AssocArO/UW/3846988">
          <pickID>quakeml:uw.anss.org/Arrival/UW/3846988</pickID>
          <phase>P</phase>
          <azimuth>308.3</azimuth>
          <timeResidual>-0.37</timeResidual>
          <creationInfo>
            <agencyID>UW</agencyID>
            <creationTime>2012-02-27T16:44:43.000000Z</creationTime>
          </creationInfo>
        </arrival>
        <arrival publicID="quakeml:uw.anss.org/AssocArO/UW/3846993">
          <pickID>quakeml:uw.anss.org/Arrival/UW/3846993</pickID>
          <phase>P</phase>
          <azimuth>195.9</azimuth>
          <distance>1.051</distance>
          <timeResidual>1.37</timeResidual>
          <creationInfo>
            <agencyID>UW</agencyID>
            <creationTime>2012-02-27T16:44:43.000000Z</creationTime>
          </creationInfo>
        </arrival>
        <arrival publicID="quakeml:uw.anss.org/AssocArO/UW/3846998">
          <pickID>quakeml:uw.anss.org/Arrival/UW/3846998</pickID>
          <phase>P</phase>
          <azimuth>205.2</azimuth>
          <distance>0.5632</distance>
          <timeResidual>1.04</timeResidual>
          <creationInfo>
            <agencyID>UW</agencyID>
            <creationTime>2012-02-27T16:44:43.000000Z</creationTime>
          </creationInfo>
        </arrival>
        <arrival publicID="quakeml:uw.anss.org/AssocArO/UW/3847003">
          <pickID>quakeml:uw.anss.org/Arrival/UW/3847003</pickID>
          <phase>P</phase>
          <azimuth>120.5</azimuth>
          <distance>2.17</distance>
          <timeResidual>3.0</timeResidual>
          <creationInfo>
            <agencyID>UW</agencyID>
            <creationTime>2012-02-27T16:44:43.000000Z</creationTime>
          </creationInfo>
        </arrival>
        <arrival publicID="quakeml:uw.anss.org/AssocArO/UW/3847008">
          <pickID>quakeml:uw.anss.org/Arrival/UW/3847008</pickID>
          <phase>P</phase>
          <azimuth>225.6</azimuth>
          <distance>1.442</distance>
          <timeResidual>0.32</timeResidual>
          <creationInfo>
            <agencyID>UW</agencyID>
            <creationTime>2012-02-27T16:44:43.000000Z</creationTime>
          </creationInfo>
        </arrival>
        <arrival publicID="quakeml:uw.anss.org/AssocArO/UW/3847013">
          <pickID>quakeml:uw.anss.org/Arrival/UW/3847013</pickID>
          <phase>P</phase>
          <azimuth>320.7</azimuth>
          <timeResidual>-0.22</timeResidual>
          <creationInfo>
            <agencyID>UW</agencyID>
            <creationTime>2012-02-27T16:44:43.000000Z</creationTime>
          </creationInfo>
        </arrival>
        <arrival publicID="quakeml:uw.anss.org/AssocArO/UW/3847018">
          <pickID>quakeml:uw.anss.org/Arrival/UW/3847018</pickID>
          <phase>S</phase>
          <azimuth>320.7</azimuth>
          <timeResidual>-0.94</timeResidual>
          <creationInfo>
            <agencyID>UW</agencyID>
            <creationTime>2012-02-27T16:44:43.000000Z</creationTime>
          </creationInfo>
        </arrival>
        <arrival publicID="quakeml:uw.anss.org/AssocArO/UW/3847023">
          <pickID>quakeml:uw.anss.org/Arrival/UW/3847023</pickID>
          <phase>P</phase>
          <azimuth>182.6</azimuth>
          <distance>2.531</distance>
          <timeResidual>1.15</timeResidual>
          <creationInfo>
            <agencyID>UW</agencyID>
            <creationTime>2012-02-27T16:44:43.000000Z</creationTime>
          </creationInfo>
        </arrival>
        <arrival publicID="quakeml:uw.anss.org/AssocArO/UW/3847028">
          <pickID>quakeml:uw.anss.org/Arrival/UW/3847028</pickID>
          <phase>P</phase>
          <azimuth>165.6</azimuth>
          <timeResidual>0.28</timeResidual>
          <creationInfo>
            <agencyID>UW</agencyID>
            <creationTime>2012-02-27T16:44:43.000000Z</creationTime>
          </creationInfo>
        </arrival>
        <arrival publicID="quakeml:uw.anss.org/AssocArO/UW/3847033">
          <pickID>quakeml:uw.anss.org/Arrival/UW/3847033</pickID>
          <phase>S</phase>
          <azimuth>165.6</azimuth>
          <timeResidual>1.75</timeResidual>
          <creationInfo>
            <agencyID>UW</agencyID>
            <creationTime>2012-02-27T16:44:43.000000Z</creationTime>
          </creationInfo>
        </arrival>
        <arrival publicID="quakeml:uw.anss.org/AssocArO/UW/3847038">
          <pickID>quakeml:uw.anss.org/Arrival/UW/3847038</pickID>
          <phase>P</phase>
          <azimuth>150.2</azimuth>
          <distance>2.207</distance>
          <timeResidual>1.1</timeResidual>
          <creationInfo>
            <agencyID>UW</agencyID>
            <creationTime>2012-02-27T16:44:43.000000Z</creationTime>
          </creationInfo>
        </arrival>
        <arrival publicID="quakeml:uw.anss.org/AssocArO/UW/3847043">
          <pickID>quakeml:uw.anss.org/Arrival/UW/3847043</pickID>
          <phase>P</phase>
          <azimuth>150.1</azimuth>
          <timeResidual>1.12</timeResidual>
          <creationInfo>
            <agencyID>UW</agencyID>
            <creationTime>2012-02-27T16:44:43.000000Z</creationTime>
          </creationInfo>
        </arrival>
        <arrival publicID="quakeml:uw.anss.org/AssocArO/UW/3847048">
          <pickID>quakeml:uw.anss.org/Arrival/UW/3847048</pickID>
          <phase>P</phase>
          <azimuth>169.7</azimuth>
          <timeResidual>0.58</timeResidual>
          <creationInfo>
            <agencyID>UW</agencyID>
            <creationTime>2012-02-27T16:44:43.000000Z</creationTime>
          </creationInfo>
        </arrival>
        <arrival publicID="quakeml:uw.anss.org/AssocArO/UW/3847053">
          <pickID>quakeml:uw.anss.org/Arrival/UW/3847053</pickID>
          <phase>S</phase>
          <azimuth>169.7</azimuth>
          <timeResidual>0.28</timeResidual>
          <creationInfo>
            <agencyID>UW</agencyID>
            <creationTime>2012-02-27T16:44:43.000000Z</creationTime>
          </creationInfo>
        </arrival>
        <arrival publicID="quakeml:uw.anss.org/AssocArO/UW/3847058">
          <pickID>quakeml:uw.anss.org/Arrival/UW/3847058</pickID>
          <phase>P</phase>
          <azimuth>117.1</azimuth>
          <distance>1.81</distance>
          <timeResidual>2.07</timeResidual>
          <creationInfo>
            <agencyID>UW</agencyID>
            <creationTime>2012-02-27T16:44:43.000000Z</creationTime>
          </creationInfo>
        </arrival>
        <arrival publicID="quakeml:uw.anss.org/AssocArO/UW/3847063">
          <pickID>quakeml:uw.anss.org/Arrival/UW/3847063</pickID>
          <phase>P</phase>
          <timeResidual>0.11</timeResidual>
          <creationInfo>
            <agencyID>UW</agencyID>
            <creationTime>2012-02-27T16:44:43.000000Z</creationTime>
          </creationInfo>
        </arrival>
        <arrival publicID="quakeml:uw.anss.org/AssocArO/UW/3847068">
          <pickID>quakeml:uw.anss.org/Arrival/UW/3847068</pickID>
          <phase>S</phase>
          <timeResidual>-0.04</timeResidual>
          <creationInfo>
            <agencyID>UW</agencyID>
            <creationTime>2012-02-27T16:44:43.000000Z</creationTime>
          </creationInfo>
        </arrival>
        <arrival publicID="quakeml:uw.anss.org/AssocArO/UW/3847073">
          <pickID>quakeml:uw.anss.org/Arrival/UW/3847073</pickID>
          <phase>P</phase>
          <azimuth>236.1</azimuth>
          <timeResidual>-0.16</timeResidual>
          <creationInfo>
            <agencyID>UW</agencyID>
            <creationTime>2012-02-27T16:44:43.000000Z</creationTime>
          </creationInfo>
        </arrival>
        <arrival publicID="quakeml:uw.anss.org/AssocArO/UW/3847078">
          <pickID>quakeml:uw.anss.org/Arrival/UW/3847078</pickID>
          <phase>P</phase>
          <timeResidual>0.16</timeResidual>
          <creationInfo>
            <agencyID>UW</agencyID>
            <creationTime>2012-02-27T16:44:43.000000Z</creationTime>
          </creationInfo>
        </arrival>
        <arrival publicID="quakeml:uw.anss.org/AssocArO/UW/3847083">
          <pickID>quakeml:uw.anss.org/Arrival/UW/3847083</pickID>
          <phase>P</phase>
          <azimuth>197.9</azimuth>
          <distance>1.35</distance>
          <timeResidual>0.23</timeResidual>
          <creationInfo>
            <agencyID>UW</agencyID>
            <creationTime>2012-02-27T16:44:43.000000Z</creationTime>
          </creationInfo>
        </arrival>
