<?xml version='1.0' encoding='utf-8'?>
<q:quakeml xmlns="http://quakeml.org/xmlns/bed/1.2" xmlns:q="http://quakeml.org/xmlns/quakeml/1.2" xmlns:ns0="http://anss.org/xmlns/catalog/0.1">
  <eventParameters publicID="smi:local/4c2a4c3f-71fc-4eb8-934f-907568ef9c31">
    <event publicID="quakeml:uw.anss.org/Event/UW/10254838" ns0:datasource="uw" ns0:dataid="uw10254838" ns0:eventsource="uw" ns0:eventid="10254838">
      <preferredOriginID>quakeml:uw.anss.org/Origin/UW/531783</preferredOriginID>
      <preferredMagnitudeID>quakeml:uw.anss.org/Netmag/UW/444593</preferredMagnitudeID>
      <type>earthquake</type>
      <creationInfo>
        <agencyID>UW</agencyID>
        <creationTime>2012-02-27T16:35:53.000000Z</creationTime>
        <version>3</version>
      </creationInfo>
      <origin publicID="quakeml:uw.anss.org/Origin/UW/531783" ns0:datasource="uw" ns0:dataid="uw10254838" ns0:eventsource="uw" ns0:eventid="10254838">
        <time>
          <value>1990-04-05T15:55:43.330000Z</value>
          <uncertainty>4.74</uncertainty>
        </time>
        <latitude>
          <value>48.8436667</value>
          <uncertainty>1.31</uncertainty>
        </latitude>
        <longitude>
          <value>-122.1736667</value>
          <uncertainty>3.41</uncertainty>
        </longitude>
        <depth>
          <value>4181.0</value>
          <uncertainty>43240.0</uncertainty>
        </depth>
        <depthType>operator assigned</depthType>
        <timeFixed>false</timeFixed>
        <epicenterFixed>true</epicenterFixed>
        <methodID>smi:uw.anss.org/origin/spong</methodID>
        <quality>
          <associatedPhaseCount>77</associatedPhaseCount>
          <usedPhaseCount>28</usedPhaseCount>
          <associatedStationCount>62</associatedStationCount>
          <usedStationCount>0</usedStationCount>
          <standardError>0.42</standardError>
          <azimuthalGap>93.0</azimuthalGap>
        </quality>
        <type>hypocenter</type>
        <evaluationMode>manual</evaluationMode>
        <evaluationStatus>final</evaluationStatus>
        <creationInfo>
          <agencyID>UW</agencyID>
          <creationTime>2012-02-27T16:35:53.000000Z</creationTime>
        </creationInfo>
        <originUncertainty>
          <preferredDescription>horizontal uncertainty</preferredDescription>
          <horizontalUncertainty>3653.0</horizontalUncertainty>
        </originUncertainty>
        <arrival publicID="quakeml:uw.anss.org/AssocArO/UW/3767733">
          <pickID>quakeml:uw.anss.org/Arrival/UW/3767733</pickID>
          <phase>P</phase>
          <azimuth>288.2</azimuth>
          <timeResidual>-0.51</timeResidual>
          <creationInfo>
            <agencyID>UW</agencyID>
            <creationTime>2012-02-27T16:35:53.000000Z</creationTime>
          </creationInfo>
        </arrival>
        <arrival publicID="quakeml:uw.anss.org/AssocArO/UW/3767738">
          <pickID>quakeml:uw.anss.org/Arrival/UW/3767738</pickID>
          <phase>S</phase>
          <azimuth>288.2</azimuth>
          <timeResidual>-1.34</timeResidual>
          <creationInfo>
            <agencyID>UW</agencyID>
            <creationTime>2012-02-27T16:35:53.000000Z</creationTime>
          </creationInfo>
        </arrival>
        <arrival publicID="quakeml:uw.anss.org/AssocArO/UW/3767743">
          <pickID>quakeml:uw.anss.org/Arrival/UW/3767743</pickID>
          <phase>P</phase>
          <azimuth>206.5</azimuth>
          <distance>1.334</distance>
          <timeResidual>-0.34</timeResidual>
          <creationInfo>
            <agencyID>UW</agencyID>
            <creationTime>2012-02-27T16:35:53.000000Z</creationTime>
          </creationInfo>
        </arrival>
        <arrival publicID="quakeml:uw.anss.org/AssocArO/UW/3767748">
          <pickID>quakeml:uw.anss.org/Arrival/UW/3767748</pickID>
          <phase>S</phase>
          <azimuth>206.5</azimuth>
          <distance>1.334</distance>
          <timeResidual>0.22</timeResidual>
          <creationInfo>
            <agencyID>UW</agencyID>
            <creationTime>2012-02-27T16:35:53.000000Z</creationTime>
          </creationInfo>
        </arrival>
        <arrival publicID="quakeml:uw.anss.org/AssocArO/UW/3767753">
          <pickID>quakeml:uw.anss.org/Arrival/UW/3767753</pickID>
          <phase>P</phase>
          <azimuth>121.8</azimuth>
          <distance>1.445</distance>
          <timeResidual>0.97</timeResidual>
          <creationInfo>
            <agencyID>UW</agencyID>
            <creationTime>2012-02-27T16:35:53.000000Z</creationTime>
          </creationInfo>
        </arrival>
        <arrival publicID="quakeml:uw.anss.org/AssocArO/UW/3767758">
          <pickID>quakeml:uw.anss.org/Arrival/UW/3767758</pickID>
          <phase>S</phase>
          <azimuth>121.8</azimuth>
          <distance>1.445</distance>
          <timeResidual>0.55</timeResidual>
          <creationInfo>
            <agencyID>UW</agencyID>
            <creationTime>2012-02-27T16:35:53.000000Z</creationTime>
          </creationInfo>
        </arrival>
        <arrival publicID="quakeml:uw.anss.org/AssocArO/UW/3767763">
          <pickID>quakeml:uw.anss.org/Arrival/UW/3767763</pickID>
          <phase>P</phase>
          <azimuth>328.5</azimuth>
          <timeResidual>-0.36</timeResidual>
          <creationInfo>
            <agencyID>UW</agencyID>
            <creationTime>2012-02-27T16:35:53.000000Z</creationTime>
          </creationInfo>
        </arrival>
        <arrival publicID="quakeml:uw.anss.org/AssocArO/UW/3767768">
          <pickID>quakeml:uw.anss.org/Arrival/UW/3767768</pickID>
          <phase>S</phase>
          <azimuth>328.5</azimuth>
          <timeResidual>-0.01</timeResidual>
          <creationInfo>
            <agencyID>UW</agencyID>
            <creationTime>2012-02-27T16:35:53.000000Z</creationTime>
          </creationInfo>
        </arrival>
        <arrival publicID="quakeml:uw.anss.org/AssocArO/UW/3767773">
          <pickID>quakeml:uw.anss.org/Arrival/UW/3767773</pickID>
          <phase>P</phase>
          <azimuth>134.6</azimuth>
          <distance>1.747</distance>
          <timeResidual>1.02</timeResidual>
          <creationInfo>
            <agencyID>UW</agencyID>
            <creationTime>2012-02-27T16:35:53.000000Z</creationTime>
          </creationInfo>
        </arrival>
        <arrival publicID="quakeml:uw.anss.org/AssocArO/UW/3767778">
          <pickID>quakeml:uw.anss.org/Arrival/UW/3767778</pickID>
          <phase>P</phase>
          <azimuth>156.3</azimuth>
          <distance>2.299</distance>
          <timeResidual>-0.09</timeResidual>
          <creationInfo>
            <agencyID>UW</agencyID>
            <creationTime>2012-02-27T16:35:53.000000Z</creationTime>
          </creationInfo>
        </arrival>
        <arrival publicID="quakeml:uw.anss.org/AssocArO/UW/3767783">
          <pickID>quakeml:uw.anss.org/Arrival/UW/3767783</pickID>
          <phase>P</phase>
          <azimuth>207.6</azimuth>
          <distance>1.715</distance>
          <timeResidual>1.01</timeResidual>
          <creationInfo>
            <agencyID>UW</agencyID>
            <creationTime>2012-02-27T16:35:53.000000Z</creationTime>
          </creationInfo>
        </arrival>
        <arrival publicID="quakeml:uw.anss.org/AssocArO/UW/3767788">
          <pickID>quakeml:uw.anss.org/Arrival/UW/3767788</pickID>
          <phase>P</phase>
          <azimuth>185.5</azimuth>
          <distance>2.421</distance>
          <timeResidual>0.11</timeResidual>
          <creationInfo>
            <agencyID>UW</agencyID>
            <creationTime>2012-02-27T16:35:53.000000Z</creationTime>
          </creationInfo>
        </arrival>
        <arrival publicID="quakeml:uw.anss.org/AssocArO/UW/3767793">
          <pickID>quakeml:uw.anss.org/Arrival/UW/3767793</pickID>
          <phase>P</phase>
          <azimuth>171.3</azimuth>
          <distance>1.996</distance>
          <timeResidual>0.26</timeResidual>
          <creationInfo>
            <agencyID>UW</agencyID>
            <creationTime>2012-02-27T16:35:53.000000Z</creationTime>
          </creationInfo>
        </arrival>
        <arrival publicID="quakeml:uw.anss.org/AssocArO/UW/3767798">
          <pickID>quakeml:uw.anss.org/Arrival/UW/3767798</pickID>
          <phase>P</phase>
          <timeResidual>0.35</timeResidual>
          <creationInfo>
            <agencyID>UW</agencyID>
            <creationTime>2012-02-27T16:35:53.000000Z</creationTime>
          </creationInfo>
        </arrival>
        <arrival publicID="quakeml:uw.anss.org/AssocArO/UW/3767803">
          <pickID>quakeml:uw.anss.org/Arrival/UW/3767803</pickID>
          <phase>P</phase>
          <azimuth>152.4</azimuth>
          <distance>1.918</distance>
          <timeResidual>1.64</timeResidual>
          <creationInfo>
            <agencyID>UW</agencyID>
            <creationTime>2012-02-27T16:35:53.000000Z</creationTime>
          </creationInfo>
        </arrival>
        <arrival publicID="quakeml:uw.anss.org/AssocArO/UW/3767808">
          <pickID>quakeml:uw.anss.org/Arrival/UW/3767808</pickID>
          <phase>P</phase>
          <azimuth>175.2</azimuth>
          <distance>0.422</distance>
          <timeResidual>-0.77</timeResidual>
          <creationInfo>
            <agencyID>UW</agencyID>
            <creationTime>2012-02-27T16:35:53.000000Z</creationTime>
          </creationInfo>
        </arrival>
        <arrival publicID="quakeml:uw.anss.org/AssocArO/UW/3767813">
          <pickID>quakeml:uw.anss.org/Arrival/UW/3767813</pickID>
          <phase>S</phase>
          <azimuth>175.2</azimuth>
          <distance>0.422</distance>
          <timeResidual>0.69</timeResidual>
          <creationInfo>
            <agencyID>UW</agencyID>
            <creationTime>2012-02-27T16:35:53.000000Z</creationTime>
          </creationInfo>
        </arrival>
        <arrival publicID="quakeml:uw.anss.org/AssocArO/UW/3767818">
          <pickID>quakeml:uw.anss.org/Arrival/UW/3767818</pickID>
          <phase>P</phase>
          <azimuth>180.4</azimuth>
          <distance>2.382</distance>
          <timeResidual>0.75</timeResidual>
          <creationInfo>
            <agencyID>UW</agencyID>
            <creationTime>2012-02-27T16:35:53.000000Z</creationTime>
          </creationInfo>
        </arrival>
        <arrival publicID="quakeml:uw.anss.org/AssocArO/UW/3767823">
          <pickID>quakeml:uw.anss.org/Arrival/UW/3767823</pickID>
          <phase>P</phase>
          <azimuth>179.7</azimuth>
          <distance>2.648</distance>
          <timeResidual>1.43</timeResidual>
          <creationInfo>
            <agencyID>UW</agencyID>
            <creationTime>2012-02-27T16:35:53.000000Z</creationTime>
          </creationInfo>
        </arrival>
        <arrival publicID="quakeml:uw.anss.org/AssocArO/UW/3767828">
          <pickID>quakeml:uw.anss.org/Arrival/UW/3767828</pickID>
          <phase>P</phase>
          <azimuth>171.1</azimuth>
          <timeResidual>-0.03</timeResidual>
          <creationInfo>
            <agencyID>UW</agencyID>
            <creationTime>2012-02-27T16:35:53.000000Z</creationTime>
          </creationInfo>
        </arrival>
        <arrival publicID="quakeml:uw.anss.org/AssocArO/UW/3767833">
          <pickID>quakeml:uw.anss.org/Arrival/UW/3767833</pickID>
          <phase>P</phase>
          <timeResidual>-0.91</timeResidual>
          <creationInfo>
            <agencyID>UW</agencyID>
            <creationTime>2012-02-27T16:35:53.000000Z</creationTime>
          </creationInfo>
        </arrival>
        <arrival publicID="quakeml:uw.anss.org/AssocArO/UW/3767838">
          <pickID>quakeml:uw.anss.org/Arrival/UW/3767838</pickID>
          <phase>P</phase>
          <azimuth>175.9</azimuth>
          <distance>1.906</distance>
          <timeResidual>0.07</timeResidual>
          <creationInfo>
            <agencyID>UW</agencyID>
            <creationTime>2012-02-27T16:35:53.000000Z</creationTime>
          </creationInfo>
        </arrival>
        <arrival publicID="quakeml:uw.anss.org/AssocArO/UW/3767843">
          <pickID>quakeml:uw.anss.org/Arrival/UW/3767843</pickID>
          <phase>S</phase>
          <azimuth>175.9</azimuth>
          <distance>1.906</distance>
          <timeResidual>1.36</timeResidual>
          <creationInfo>
            <agencyID>UW</agencyID>
            <creationTime>2012-02-27T16:35:53.000000Z</creationTime>
          </creationInfo>
        </arrival>
        <arrival publicID="quakeml:uw.anss.org/AssocArO/UW/3767848">
          <pickID>quakeml:uw.anss.org/Arrival/UW/3767848</pickID>
          <phase>P</phase>
          <azimuth>173.2</azimuth>
          <distance>2.109</distance>
          <timeResidual>0.04</timeResidual>
          <creationInfo>
            <agencyID>UW</agencyID>
            <creationTime>2012-02-27T16:35:53.000000Z</creationTime>
          </creationInfo>
        </arrival>
        <arrival publicID="quakeml:uw.anss.org/AssocArO/UW/3767853">
          <pickID>quakeml:uw.anss.org/Arrival/UW/3767853</pickID>
          <phase>P</phase>
          <timeResidual>-0.24</timeResidual>
          <creationInfo>
            <agencyID>UW</agencyID>
            <creationTime>2012-02-27T16:35:53.000000Z</creationTime>
          </creationInfo>
        </arrival>
        <arrival publicID="quakeml:uw.anss.org/AssocArO/UW/3767858">
          <pickID>quakeml:uw.anss.org/Arrival/UW/3767858</pickID>
          <phase>P</phase>
          <azimuth>132.0</azimuth>
          <distance>0.5896</distance>
          <timeResidual>-0.4</timeResidual>
          <creationInfo>
            <agencyID>UW</agencyID>
            <creationTime>2012-02-27T16:35:53.000000Z</creationTime>
          </creationInfo>
        </arrival>
        <arrival publicID="quakeml:uw.anss.org/AssocArO/UW/3767863">
          <pickID>quakeml:uw.anss.org/Arrival/UW/3767863</pickID>
          <phase>S</phase>
          <azimuth>132.0</azimuth>
          <distance>0.5896</distance>
          <timeResidual>-0.01</timeResidual>
          <creationInfo>
            <agencyID>UW</agencyID>
            <creationTime>2012-02-27T16:35:53.000000Z</creationTime>
          </creationInfo>
        </arrival>
        <arrival publicID="quakeml:uw.anss.org/AssocArO/UW/3767868">
          <pickID>quakeml:uw.anss.org/Arrival/UW/3767868</pickID>
          <phase>P</phase>
          <azimuth>168.5</azimuth>
          <distance>2.189</distance>
          <timeResidual>0.49</timeResidual>
          <creationInfo>
            <agencyID>UW</agencyID>
            <creationTime>2012-02-27T16:35:53.000000Z</creationTime>
          </creationInfo>
        </arrival>
        <arrival publicID="quakeml:uw.anss.org/AssocArO/UW/3767873">
          <pickID>quakeml:uw.anss.org/Arrival/UW/3767873</pickID>
          <phase>S</phase>
          <azimuth>168.5</azimuth>
          <distance>2.189</distance>
          <timeResidual>-0.26</timeResidual>
          <creationInfo>
            <agencyID>UW</agencyID>
            <creationTime>2012-02-27T16:35:53.000000Z</creationTime>
          </creationInfo>
        </arrival>
        <arrival publicID="quakeml:uw.anss.org/AssocArO/UW/3767878">
          <pickID>quakeml:uw.anss.org/Arrival/UW/3767878</pickID>
          <phase>P</phase>
          <azimuth>307.8</azimuth>
          <timeResidual>-0.53</timeResidual>
          <creationInfo>
            <agencyID>UW</agencyID>
            <creationTime>2012-02-27T16:35:53.000000Z</creationTime>
          </creationInfo>
        </arrival>
        <arrival publicID="quakeml:uw.anss.org/AssocArO/UW/3767883">
          <pickID>quakeml:uw.anss.org/Arrival/UW/3767883</pickID>
          <phase>P</phase>
          <azimuth>195.7</azimuth>
          <distance>1.062</distance>
          <timeResidual>0.24</timeResidual>
          <creationInfo>
            <agencyID>UW</agencyID>
            <creationTime>2012-02-27T16:35:53.000000Z</creationTime>
          </creationInfo>
        </arrival>
        <arrival publicID="quakeml:uw.anss.org/AssocArO/UW/3767888">
          <pickID>quakeml:uw.anss.org/Arrival/UW/3767888</pickID>
          <phase>P</phase>
          <azimuth>179.5</azimuth>
          <distance>2.601</distance>
          <timeResidual>1.08</timeResidual>
          <creationInfo>
            <agencyID>UW</agencyID>
            <creationTime>2012-02-27T16:35:53.000000Z</creationTime>
          </creationInfo>
        </arrival>
        <arrival publicID="quakeml:uw.anss.org/AssocArO/UW/3767893">
          <pickID>quakeml:uw.anss.org/Arrival/UW/3767893</pickID>
          <phase>P</phase>
          <azimuth>209.2</azimuth>
          <distance>2.243</distance>
          <timeResidual>-0.15</timeResidual>
          <creationInfo>
            <agencyID>UW</agencyID>
            <creationTime>2012-02-27T16:35:53.000000Z</creationTime>
          </creationInfo>
        </arrival>
        <arrival publicID="quakeml:uw.anss.org/AssocArO/UW/3767898">
          <pickID>quakeml:uw.anss.org/Arrival/UW/3767898</pickID>
          <phase>P</phase>
          <azimuth>204.7</azimuth>
          <distance>0.573</distance>
          <timeResidual>0.46</timeResidual>
          <creationInfo>
            <agencyID>UW</agencyID>
            <creationTime>2012-02-27T16:35:53.000000Z</creationTime>
          </creationInfo>
        </arrival>
        <arrival publicID="quakeml:uw.anss.org/AssocArO/UW/3767903">
          <pickID>quakeml:uw.anss.org/Arrival/UW/3767903</pickID>
          <phase>P</phase>
          <azimuth>225.3</azimuth>
          <distance>1.45</distance>
          <timeResidual>0.04</timeResidual>
          <creationInfo>
            <agencyID>UW</agencyID>
            <creationTime>2012-02-27T16:35:53.000000Z</creationTime>
          </creationInfo>
        </arrival>
        <arrival publicID="quakeml:uw.anss.org/AssocArO/UW/3767908">
          <pickID>quakeml:uw.anss.org/Arrival/UW/3767908</pickID>
          <phase>P</phase>
          <azimuth>320.4</azimuth>
          <timeResidual>-0.32</timeResidual>
          <creationInfo>
            <agencyID>UW</agencyID>
            <creationTime>2012-02-27T16:35:53.000000Z</creationTime>
          </creationInfo>
        </arrival>
        <arrival publicID="quakeml:uw.anss.org/AssocArO/UW/3767913">
          <pickID>quakeml:uw.anss.org/Arrival/UW/3767913</pickID>
          <phase>P</phase>
          <azimuth>180.8</azimuth>
          <distance>2.608</distance>
          <timeResidual>1.11</timeResidual>
          <creationInfo>
            <agencyID>UW</agencyID>
            <creationTime>2012-02-27T16:35:53.000000Z</creationTime>
          </creationInfo>
        </arrival>
        <arrival publicID="quakeml:uw.anss.org/AssocArO/UW/3767918">
          <pickID>quakeml:uw.anss.org/Arrival/UW/3767918</pickID>
          <phase>P</phase>
          <azimuth>182.6</azimuth>
          <distance>2.542</distance>
          <timeResidual>0.44</timeResidual>
          <creationInfo>
            <agencyID>UW</agencyID>
            <creationTime>2012-02-27T16:35:53.000000Z</creationTime>
          </creationInfo>
        </arrival>
        <arrival publicID="quakeml:uw.anss.org/AssocArO/UW/3767923">
          <pickID>quakeml:uw.anss.org/Arrival/UW/3767923</pickID>
          <phase>P</phase>
          <azimuth>165.8</azimuth>
          <timeResidual>-0.18</timeResidual>
          <creationInfo>
            <agencyID>UW</agencyID>
            <creationTime>2012-02-27T16:35:53.000000Z</creationTime>
          </creationInfo>
        </arrival>
        <arrival publicID="quakeml:uw.anss.org/AssocArO/UW/3767928">
          <pickID>quakeml:uw.anss.org/Arrival/UW/3767928</pickID>
          <phase>S</phase>
          <azimuth>165.8</azimuth>
          <timeResidual>1.64</timeResidual>
          <creationInfo>
            <agencyID>UW</agencyID>
            <creationTime>2012-02-27T16:35:53.000000Z</creationTime>
          </creationInfo>
