<?xml version='1.0' encoding='utf-8'?>
<q:quakeml xmlns="http://quakeml.org/xmlns/bed/1.2" xmlns:q="http://quakeml.org/xmlns/quakeml/1.2" xmlns:ns0="http://anss.org/xmlns/catalog/0.1">
  <eventParameters publicID="smi:local/3a3036ce-29e7-4905-9ff9-f095cb83fbaa">
    <event publicID="quakeml:uw.anss.org/Event/UW/10258978" ns0:datasource="uw" ns0:dataid="uw10258978" ns0:eventsource="uw" ns0:eventid="10258978">
      <preferredOriginID>quakeml:uw.anss.org/Origin/UW/535923</preferredOriginID>
      <preferredMagnitudeID>quakeml:uw.anss.org/Netmag/UW/448418</preferredMagnitudeID>
      <type>earthquake</type>
      <creationInfo>
        <agencyID>UW</agencyID>
        <creationTime>2012-02-27T16:44:21.000000Z</creationTime>
        <version>3</version>
      </creationInfo>
      <origin publicID="quakeml:uw.anss.org/Origin/UW/535923" ns0:datasource="uw" ns0:dataid="uw10258978" ns0:eventsource="uw" ns0:eventid="10258978">
        <time>
          <value>1990-04-15T11:12:43.720000Z</value>
          <uncertainty>0.01</uncertainty>
        </time>
        <latitude>
          <value>48.8385</value>
          <uncertainty>0.13</uncertainty>
        </latitude>
        <longitude>
          <value>-122.1803333</value>
          <uncertainty>0.1</uncertainty>
        </longitude>
        <depth>
          <value>4021.0</value>
          <uncertainty>580.0</uncertainty>
        </depth>
        <depthType>operator assigned</depthType>
        <timeFixed>false</timeFixed>
        <epicenterFixed>false</epicenterFixed>
        <methodID>smi:uw.anss.org/origin/spong</methodID>
        <quality>
          <associatedPhaseCount>62</associatedPhaseCount>
          <usedPhaseCount>33</usedPhaseCount>
          <associatedStationCount>46</associatedStationCount>
          <usedStationCount>0</usedStationCount>
          <standardError>0.42</standardError>
          <azimuthalGap>91.0</azimuthalGap>
        </quality>
        <type>hypocenter</type>
        <evaluationMode>manual</evaluationMode>
        <evaluationStatus>final</evaluationStatus>
        <creationInfo>
          <agencyID>UW</agencyID>
          <creationTime>2012-02-27T16:44:21.000000Z</creationTime>
        </creationInfo>
        <originUncertainty>
          <preferredDescription>horizontal uncertainty</preferredDescription>
          <horizontalUncertainty>164.0</horizontalUncertainty>
        </originUncertainty>
        <arrival publicID="quakeml:uw.anss.org/AssocArO/UW/3844358">
          <pickID>quakeml:uw.anss.org/Arrival/UW/3844358</pickID>
          <phase>P</phase>
          <azimuth>288.5</azimuth>
          <timeResidual>-0.5</timeResidual>
          <creationInfo>
            <agencyID>UW</agencyID>
            <creationTime>2012-02-27T16:44:21.000000Z</creationTime>
          </creationInfo>
        </arrival>
        <arrival publicID="quakeml:uw.anss.org/AssocArO/UW/3844363">
          <pickID>quakeml:uw.anss.org/Arrival/UW/3844363</pickID>
          <phase>S</phase>
          <azimuth>288.5</azimuth>
          <timeResidual>-1.1</timeResidual>
          <creationInfo>
            <agencyID>UW</agencyID>
            <creationTime>2012-02-27T16:44:21.000000Z</creationTime>
          </creationInfo>
        </arrival>
        <arrival publicID="quakeml:uw.anss.org/AssocArO/UW/3844368">
          <pickID>quakeml:uw.anss.org/Arrival/UW/3844368</pickID>
          <phase>P</phase>
          <azimuth>206.4</azimuth>
          <distance>1.327</distance>
          <timeResidual>-0.02</timeResidual>
          <creationInfo>
            <agencyID>UW</agencyID>
            <creationTime>2012-02-27T16:44:21.000000Z</creationTime>
          </creationInfo>
        </arrival>
        <arrival publicID="quakeml:uw.anss.org/AssocArO/UW/3844373">
          <pickID>quakeml:uw.anss.org/Arrival/UW/3844373</pickID>
          <phase>S</phase>
          <azimuth>206.4</azimuth>
          <distance>1.327</distance>
          <timeResidual>0.57</timeResidual>
          <creationInfo>
            <agencyID>UW</agencyID>
            <creationTime>2012-02-27T16:44:21.000000Z</creationTime>
          </creationInfo>
        </arrival>
        <arrival publicID="quakeml:uw.anss.org/AssocArO/UW/3844378">
          <pickID>quakeml:uw.anss.org/Arrival/UW/3844378</pickID>
          <phase>P</phase>
          <azimuth>121.5</azimuth>
          <distance>1.446</distance>
          <timeResidual>0.97</timeResidual>
          <creationInfo>
            <agencyID>UW</agencyID>
            <creationTime>2012-02-27T16:44:21.000000Z</creationTime>
          </creationInfo>
        </arrival>
        <arrival publicID="quakeml:uw.anss.org/AssocArO/UW/3844383">
          <pickID>quakeml:uw.anss.org/Arrival/UW/3844383</pickID>
          <phase>P</phase>
          <azimuth>329.2</azimuth>
          <timeResidual>-0.21</timeResidual>
          <creationInfo>
            <agencyID>UW</agencyID>
            <creationTime>2012-02-27T16:44:21.000000Z</creationTime>
          </creationInfo>
        </arrival>
        <arrival publicID="quakeml:uw.anss.org/AssocArO/UW/3844388">
          <pickID>quakeml:uw.anss.org/Arrival/UW/3844388</pickID>
          <phase>S</phase>
          <azimuth>329.2</azimuth>
          <timeResidual>-0.15</timeResidual>
          <creationInfo>
            <agencyID>UW</agencyID>
            <creationTime>2012-02-27T16:44:21.000000Z</creationTime>
          </creationInfo>
        </arrival>
        <arrival publicID="quakeml:uw.anss.org/AssocArO/UW/3844393">
          <pickID>quakeml:uw.anss.org/Arrival/UW/3844393</pickID>
          <phase>P</phase>
          <azimuth>134.4</azimuth>
          <distance>1.747</distance>
          <timeResidual>1.14</timeResidual>
          <creationInfo>
            <agencyID>UW</agencyID>
            <creationTime>2012-02-27T16:44:21.000000Z</creationTime>
          </creationInfo>
        </arrival>
        <arrival publicID="quakeml:uw.anss.org/AssocArO/UW/3844398">
          <pickID>quakeml:uw.anss.org/Arrival/UW/3844398</pickID>
          <phase>P</phase>
          <azimuth>156.1</azimuth>
          <distance>2.296</distance>
          <timeResidual>0.09</timeResidual>
          <creationInfo>
            <agencyID>UW</agencyID>
            <creationTime>2012-02-27T16:44:21.000000Z</creationTime>
          </creationInfo>
        </arrival>
        <arrival publicID="quakeml:uw.anss.org/AssocArO/UW/3844403">
          <pickID>quakeml:uw.anss.org/Arrival/UW/3844403</pickID>
          <phase>P</phase>
          <azimuth>173.5</azimuth>
          <timeResidual>0.46</timeResidual>
          <creationInfo>
            <agencyID>UW</agencyID>
            <creationTime>2012-02-27T16:44:21.000000Z</creationTime>
          </creationInfo>
        </arrival>
        <arrival publicID="quakeml:uw.anss.org/AssocArO/UW/3844408">
          <pickID>quakeml:uw.anss.org/Arrival/UW/3844408</pickID>
          <phase>P</phase>
          <azimuth>185.4</azimuth>
          <distance>2.415</distance>
          <timeResidual>0.73</timeResidual>
          <creationInfo>
            <agencyID>UW</agencyID>
            <creationTime>2012-02-27T16:44:21.000000Z</creationTime>
          </creationInfo>
        </arrival>
        <arrival publicID="quakeml:uw.anss.org/AssocArO/UW/3844413">
          <pickID>quakeml:uw.anss.org/Arrival/UW/3844413</pickID>
          <phase>P</phase>
          <timeResidual>0.09</timeResidual>
          <creationInfo>
            <agencyID>UW</agencyID>
            <creationTime>2012-02-27T16:44:21.000000Z</creationTime>
          </creationInfo>
        </arrival>
        <arrival publicID="quakeml:uw.anss.org/AssocArO/UW/3844418">
          <pickID>quakeml:uw.anss.org/Arrival/UW/3844418</pickID>
          <phase>S</phase>
          <timeResidual>1.14</timeResidual>
          <creationInfo>
            <agencyID>UW</agencyID>
            <creationTime>2012-02-27T16:44:21.000000Z</creationTime>
          </creationInfo>
        </arrival>
        <arrival publicID="quakeml:uw.anss.org/AssocArO/UW/3844423">
          <pickID>quakeml:uw.anss.org/Arrival/UW/3844423</pickID>
          <phase>P</phase>
          <azimuth>152.2</azimuth>
          <distance>1.916</distance>
          <timeResidual>1.91</timeResidual>
          <creationInfo>
            <agencyID>UW</agencyID>
            <creationTime>2012-02-27T16:44:21.000000Z</creationTime>
          </creationInfo>
        </arrival>
        <arrival publicID="quakeml:uw.anss.org/AssocArO/UW/3844428">
          <pickID>quakeml:uw.anss.org/Arrival/UW/3844428</pickID>
          <phase>P</phase>
          <azimuth>174.5</azimuth>
          <distance>0.4172</distance>
          <timeResidual>-0.57</timeResidual>
          <creationInfo>
            <agencyID>UW</agencyID>
            <creationTime>2012-02-27T16:44:21.000000Z</creationTime>
          </creationInfo>
        </arrival>
        <arrival publicID="quakeml:uw.anss.org/AssocArO/UW/3844433">
          <pickID>quakeml:uw.anss.org/Arrival/UW/3844433</pickID>
          <phase>S</phase>
          <azimuth>174.5</azimuth>
          <distance>0.4172</distance>
          <timeResidual>1.98</timeResidual>
          <creationInfo>
            <agencyID>UW</agencyID>
            <creationTime>2012-02-27T16:44:21.000000Z</creationTime>
          </creationInfo>
        </arrival>
        <arrival publicID="quakeml:uw.anss.org/AssocArO/UW/3844438">
          <pickID>quakeml:uw.anss.org/Arrival/UW/3844438</pickID>
          <phase>P</phase>
          <azimuth>170.9</azimuth>
          <timeResidual>0.1</timeResidual>
          <creationInfo>
            <agencyID>UW</agencyID>
            <creationTime>2012-02-27T16:44:21.000000Z</creationTime>
          </creationInfo>
        </arrival>
        <arrival publicID="quakeml:uw.anss.org/AssocArO/UW/3844443">
          <pickID>quakeml:uw.anss.org/Arrival/UW/3844443</pickID>
          <phase>S</phase>
          <azimuth>170.9</azimuth>
          <timeResidual>0.56</timeResidual>
          <creationInfo>
            <agencyID>UW</agencyID>
            <creationTime>2012-02-27T16:44:21.000000Z</creationTime>
          </creationInfo>
        </arrival>
        <arrival publicID="quakeml:uw.anss.org/AssocArO/UW/3844448">
          <pickID>quakeml:uw.anss.org/Arrival/UW/3844448</pickID>
          <phase>P</phase>
          <azimuth>199.3</azimuth>
          <distance>1.974</distance>
          <timeResidual>1.28</timeResidual>
          <creationInfo>
            <agencyID>UW</agencyID>
            <creationTime>2012-02-27T16:44:21.000000Z</creationTime>
          </creationInfo>
        </arrival>
        <arrival publicID="quakeml:uw.anss.org/AssocArO/UW/3844453">
          <pickID>quakeml:uw.anss.org/Arrival/UW/3844453</pickID>
          <phase>P</phase>
          <azimuth>175.8</azimuth>
          <distance>1.901</distance>
          <timeResidual>0.26</timeResidual>
          <creationInfo>
            <agencyID>UW</agencyID>
            <creationTime>2012-02-27T16:44:21.000000Z</creationTime>
          </creationInfo>
        </arrival>
        <arrival publicID="quakeml:uw.anss.org/AssocArO/UW/3844458">
          <pickID>quakeml:uw.anss.org/Arrival/UW/3844458</pickID>
          <phase>S</phase>
          <azimuth>175.8</azimuth>
          <distance>1.901</distance>
          <timeResidual>0.36</timeResidual>
          <creationInfo>
            <agencyID>UW</agencyID>
            <creationTime>2012-02-27T16:44:21.000000Z</creationTime>
          </creationInfo>
        </arrival>
        <arrival publicID="quakeml:uw.anss.org/AssocArO/UW/3844463">
          <pickID>quakeml:uw.anss.org/Arrival/UW/3844463</pickID>
          <phase>P</phase>
          <azimuth>173.1</azimuth>
          <distance>2.104</distance>
          <timeResidual>0.25</timeResidual>
          <creationInfo>
            <agencyID>UW</agencyID>
            <creationTime>2012-02-27T16:44:21.000000Z</creationTime>
          </creationInfo>
        </arrival>
        <arrival publicID="quakeml:uw.anss.org/AssocArO/UW/3844468">
          <pickID>quakeml:uw.anss.org/Arrival/UW/3844468</pickID>
          <phase>P</phase>
          <timeResidual>0.18</timeResidual>
          <creationInfo>
            <agencyID>UW</agencyID>
            <creationTime>2012-02-27T16:44:21.000000Z</creationTime>
          </creationInfo>
        </arrival>
        <arrival publicID="quakeml:uw.anss.org/AssocArO/UW/3844473">
          <pickID>quakeml:uw.anss.org/Arrival/UW/3844473</pickID>
          <phase>P</phase>
          <azimuth>131.3</azimuth>
          <distance>0.5894</distance>
          <timeResidual>-0.26</timeResidual>
          <creationInfo>
            <agencyID>UW</agencyID>
            <creationTime>2012-02-27T16:44:21.000000Z</creationTime>
          </creationInfo>
        </arrival>
        <arrival publicID="quakeml:uw.anss.org/AssocArO/UW/3844478">
          <pickID>quakeml:uw.anss.org/Arrival/UW/3844478</pickID>
          <phase>S</phase>
          <azimuth>131.3</azimuth>
          <distance>0.5894</distance>
          <timeResidual>0.22</timeResidual>
          <creationInfo>
            <agencyID>UW</agencyID>
            <creationTime>2012-02-27T16:44:21.000000Z</creationTime>
          </creationInfo>
        </arrival>
        <arrival publicID="quakeml:uw.anss.org/AssocArO/UW/3844483">
          <pickID>quakeml:uw.anss.org/Arrival/UW/3844483</pickID>
          <phase>P</phase>
          <azimuth>308.2</azimuth>
          <timeResidual>-0.42</timeResidual>
          <creationInfo>
            <agencyID>UW</agencyID>
            <creationTime>2012-02-27T16:44:21.000000Z</creationTime>
          </creationInfo>
        </arrival>
        <arrival publicID="quakeml:uw.anss.org/AssocArO/UW/3844488">
          <pickID>quakeml:uw.anss.org/Arrival/UW/3844488</pickID>
          <phase>P</phase>
          <azimuth>195.5</azimuth>
          <distance>1.056</distance>
          <timeResidual>0.33</timeResidual>
          <creationInfo>
            <agencyID>UW</agencyID>
            <creationTime>2012-02-27T16:44:21.000000Z</creationTime>
          </creationInfo>
        </arrival>
        <arrival publicID="quakeml:uw.anss.org/AssocArO/UW/3844493">
          <pickID>quakeml:uw.anss.org/Arrival/UW/3844493</pickID>
          <phase>P</phase>
          <azimuth>169.6</azimuth>
          <timeResidual>0.27</timeResidual>
          <creationInfo>
            <agencyID>UW</agencyID>
            <creationTime>2012-02-27T16:44:21.000000Z</creationTime>
          </creationInfo>
        </arrival>
        <arrival publicID="quakeml:uw.anss.org/AssocArO/UW/3844498">
          <pickID>quakeml:uw.anss.org/Arrival/UW/3844498</pickID>
          <phase>S</phase>
          <azimuth>169.6</azimuth>
          <timeResidual>0.21</timeResidual>
          <creationInfo>
            <agencyID>UW</agencyID>
            <creationTime>2012-02-27T16:44:21.000000Z</creationTime>
          </creationInfo>
        </arrival>
        <arrival publicID="quakeml:uw.anss.org/AssocArO/UW/3844503">
          <pickID>quakeml:uw.anss.org/Arrival/UW/3844503</pickID>
          <phase>P</phase>
          <azimuth>204.5</azimuth>
          <distance>0.5665</distance>
          <timeResidual>0.83</timeResidual>
          <creationInfo>
            <agencyID>UW</agencyID>
            <creationTime>2012-02-27T16:44:21.000000Z</creationTime>
          </creationInfo>
        </arrival>
        <arrival publicID="quakeml:uw.anss.org/AssocArO/UW/3844508">
          <pickID>quakeml:uw.anss.org/Arrival/UW/3844508</pickID>
          <phase>P</phase>
          <azimuth>225.3</azimuth>
          <distance>1.443</distance>
          <timeResidual>0.29</timeResidual>
          <creationInfo>
            <agencyID>UW</agencyID>
            <creationTime>2012-02-27T16:44:21.000000Z</creationTime>
          </creationInfo>
        </arrival>
        <arrival publicID="quakeml:uw.anss.org/AssocArO/UW/3844513">
          <pickID>quakeml:uw.anss.org/Arrival/UW/3844513</pickID>
          <phase>P</phase>
          <azimuth>320.7</azimuth>
          <timeResidual>-0.17</timeResidual>
          <creationInfo>
            <agencyID>UW</agencyID>
            <creationTime>2012-02-27T16:44:21.000000Z</creationTime>
          </creationInfo>
        </arrival>
        <arrival publicID="quakeml:uw.anss.org/AssocArO/UW/3844518">
          <pickID>quakeml:uw.anss.org/Arrival/UW/3844518</pickID>
          <phase>S</phase>
          <azimuth>320.7</azimuth>
          <timeResidual>-0.87</timeResidual>
          <creationInfo>
            <agencyID>UW</agencyID>
            <creationTime>2012-02-27T16:44:21.000000Z</creationTime>
          </creationInfo>
        </arrival>
        <arrival publicID="quakeml:uw.anss.org/AssocArO/UW/3844523">
          <pickID>quakeml:uw.anss.org/Arrival/UW/3844523</pickID>
          <phase>P</phase>
          <azimuth>165.3</azimuth>
          <timeResidual>0.02</timeResidual>
          <creationInfo>
            <agencyID>UW</agencyID>
            <creationTime>2012-02-27T16:44:21.000000Z</creationTime>
          </creationInfo>
        </arrival>
        <arrival publicID="quakeml:uw.anss.org/AssocArO/UW/3844528">
          <pickID>quakeml:uw.anss.org/Arrival/UW/3844528</pickID>
          <phase>S</phase>
          <azimuth>165.3</azimuth>
          <timeResidual>1.86</timeResidual>
          <creationInfo>
            <agencyID>UW</agencyID>
            <creationTime>2012-02-27T16:44:21.000000Z</creationTime>
          </creationInfo>
        </arrival>
        <arrival publicID="quakeml:uw.anss.org/AssocArO/UW/3844533">
          <pickID>quakeml:uw.anss.org/Arrival/UW/3844533</pickID>
          <phase>P</phase>
          <azimuth>150.1</azimuth>
          <distance>2.215</distance>
          <timeResidual>0.94</timeResidual>
          <creationInfo>
            <agencyID>UW</agencyID>
            <creationTime>2012-02-27T16:44:21.000000Z</creationTime>
          </creationInfo>
        </arrival>
        <arrival publicID="quakeml:uw.anss.org/AssocArO/UW/3844538">
          <pickID>quakeml:uw.anss.org/Arrival/UW/3844538</pickID>
          <phase>P</phase>
          <azimuth>239.3</azimuth>
          <distance>1.703</distance>
          <timeResidual>1.71</timeResidual>
          <creationInfo>
            <agencyID>UW</agencyID>
            <creationTime>2012-02-27T16:44:21.000000Z</creationTime>
          </creationInfo>
        </arrival>
        <arrival publicID="quakeml:uw.anss.org/AssocArO/UW/3844543">
          <pickID>quakeml:uw.anss.org/Arrival/UW/3844543</pickID>
          <phase>P</phase>
          <azimuth>117.2</azimuth>
          <distance>1.817</distance>
          <timeResidual>2.34</timeResidual>
          <creationInfo>
            <agencyID>UW</agencyID>
            <creationTime>2012-02-27T16:44:21.000000Z</creationTime>
          </creationInfo>
        </arrival>
        <arrival publicID="quakeml:uw.anss.org/AssocArO/UW/3844548">
          <pickID>quakeml:uw.anss.org/Arrival/UW/3844548</pickID>
          <phase>P</phase>
          <timeResidual>0.08</timeResidual>
          <creationInfo>
            <agencyID>UW</agencyID>
            <creationTime>2012-02-27T16:44:21.000000Z</creationTime>
          </creationInfo>
        </arrival>
        <arrival publicID="quakeml:uw.anss.org/AssocArO/UW/3844553">
          <pickID>quakeml:uw.anss.org/Arrival/UW/3844553</pickID>
          <phase>S</phase>
          <timeResidual>-0.03</timeResidual>
          <creationInfo>
            <agencyID>UW</agencyID>
            <creationTime>2012-02-27T16:44:21.000000Z</creationTime>
          </creationInfo>
        </arrival>
        <arrival publicID="quakeml:uw.anss.org/AssocArO/UW/3844558">
          <pickID>quakeml:uw.anss.org/Arrival/UW/3844558</pickID>
          <phase>P</phase>
          <azimuth>235.7</azimuth>
          <timeResidual>-0.1</timeResidual>
          <creationInfo>
            <agencyID>UW</agencyID>
