<?xml version='1.0' encoding='utf-8'?>
<q:quakeml xmlns="http://quakeml.org/xmlns/bed/1.2" xmlns:q="http://quakeml.org/xmlns/quakeml/1.2" xmlns:ns0="http://anss.org/xmlns/catalog/0.1">
  <eventParameters publicID="smi:local/718b760a-8bfa-492b-a602-e164dba2df41">
    <event publicID="quakeml:uw.anss.org/Event/UW/10259573" ns0:datasource="uw" ns0:dataid="uw10259573" ns0:eventsource="uw" ns0:eventid="10259573">
      <preferredOriginID>quakeml:uw.anss.org/Origin/UW/536518</preferredOriginID>
      <preferredMagnitudeID>quakeml:uw.anss.org/Netmag/UW/448968</preferredMagnitudeID>
      <type>earthquake</type>
      <creationInfo>
        <agencyID>UW</agencyID>
        <creationTime>2012-02-27T16:46:14.000000Z</creationTime>
        <version>3</version>
      </creationInfo>
      <origin publicID="quakeml:uw.anss.org/Origin/UW/536518" ns0:datasource="uw" ns0:dataid="uw10259573" ns0:eventsource="uw" ns0:eventid="10259573">
        <time>
          <value>1990-04-18T06:41:31.830000Z</value>
          <uncertainty>0.12</uncertainty>
        </time>
        <latitude>
          <value>48.8591667</value>
          <uncertainty>1.29</uncertainty>
        </latitude>
        <longitude>
          <value>-122.1573333</value>
          <uncertainty>1.06</uncertainty>
        </longitude>
        <depth>
          <value>14032.0</value>
          <uncertainty>3350.0</uncertainty>
        </depth>
        <depthType>from location</depthType>
        <timeFixed>false</timeFixed>
        <epicenterFixed>false</epicenterFixed>
        <methodID>smi:uw.anss.org/origin/spong</methodID>
        <quality>
          <associatedPhaseCount>35</associatedPhaseCount>
          <usedPhaseCount>19</usedPhaseCount>
          <associatedStationCount>29</associatedStationCount>
          <usedStationCount>0</usedStationCount>
          <standardError>0.36</standardError>
          <azimuthalGap>121.0</azimuthalGap>
        </quality>
        <type>hypocenter</type>
        <evaluationMode>manual</evaluationMode>
        <evaluationStatus>final</evaluationStatus>
        <creationInfo>
          <agencyID>UW</agencyID>
          <creationTime>2012-02-27T16:46:14.000000Z</creationTime>
        </creationInfo>
        <originUncertainty>
          <preferredDescription>horizontal uncertainty</preferredDescription>
          <horizontalUncertainty>1670.0</horizontalUncertainty>
        </originUncertainty>
        <arrival publicID="quakeml:uw.anss.org/AssocArO/UW/3857113">
          <pickID>quakeml:uw.anss.org/Arrival/UW/3857113</pickID>
          <phase>P</phase>
          <azimuth>287.4</azimuth>
          <timeResidual>-0.18</timeResidual>
          <creationInfo>
            <agencyID>UW</agencyID>
            <creationTime>2012-02-27T16:46:14.000000Z</creationTime>
          </creationInfo>
        </arrival>
        <arrival publicID="quakeml:uw.anss.org/AssocArO/UW/3857118">
          <pickID>quakeml:uw.anss.org/Arrival/UW/3857118</pickID>
          <phase>S</phase>
          <azimuth>287.4</azimuth>
          <timeResidual>-0.93</timeResidual>
          <creationInfo>
            <agencyID>UW</agencyID>
            <creationTime>2012-02-27T16:46:14.000000Z</creationTime>
          </creationInfo>
        </arrival>
        <arrival publicID="quakeml:uw.anss.org/AssocArO/UW/3857123">
          <pickID>quakeml:uw.anss.org/Arrival/UW/3857123</pickID>
          <phase>P</phase>
          <azimuth>206.6</azimuth>
          <distance>1.352</distance>
          <timeResidual>-0.31</timeResidual>
          <creationInfo>
            <agencyID>UW</agencyID>
            <creationTime>2012-02-27T16:46:14.000000Z</creationTime>
          </creationInfo>
        </arrival>
        <arrival publicID="quakeml:uw.anss.org/AssocArO/UW/3857128">
          <pickID>quakeml:uw.anss.org/Arrival/UW/3857128</pickID>
          <phase>P</phase>
          <azimuth>122.6</azimuth>
          <distance>1.444</distance>
          <timeResidual>1.56</timeResidual>
          <creationInfo>
            <agencyID>UW</agencyID>
            <creationTime>2012-02-27T16:46:14.000000Z</creationTime>
          </creationInfo>
        </arrival>
        <arrival publicID="quakeml:uw.anss.org/AssocArO/UW/3857133">
          <pickID>quakeml:uw.anss.org/Arrival/UW/3857133</pickID>
          <phase>P</phase>
          <azimuth>326.5</azimuth>
          <timeResidual>-0.12</timeResidual>
          <creationInfo>
            <agencyID>UW</agencyID>
            <creationTime>2012-02-27T16:46:14.000000Z</creationTime>
          </creationInfo>
        </arrival>
        <arrival publicID="quakeml:uw.anss.org/AssocArO/UW/3857138">
          <pickID>quakeml:uw.anss.org/Arrival/UW/3857138</pickID>
          <phase>P</phase>
          <timeResidual>0.27</timeResidual>
          <creationInfo>
            <agencyID>UW</agencyID>
            <creationTime>2012-02-27T16:46:14.000000Z</creationTime>
          </creationInfo>
        </arrival>
        <arrival publicID="quakeml:uw.anss.org/AssocArO/UW/3857143">
          <pickID>quakeml:uw.anss.org/Arrival/UW/3857143</pickID>
          <phase>S</phase>
          <azimuth>176.8</azimuth>
          <distance>0.4367</distance>
          <timeResidual>0.35</timeResidual>
          <creationInfo>
            <agencyID>UW</agencyID>
            <creationTime>2012-02-27T16:46:14.000000Z</creationTime>
          </creationInfo>
        </arrival>
        <arrival publicID="quakeml:uw.anss.org/AssocArO/UW/3857148">
          <pickID>quakeml:uw.anss.org/Arrival/UW/3857148</pickID>
          <phase>P</phase>
          <azimuth>171.6</azimuth>
          <timeResidual>0.85</timeResidual>
          <creationInfo>
            <agencyID>UW</agencyID>
            <creationTime>2012-02-27T16:46:14.000000Z</creationTime>
          </creationInfo>
        </arrival>
        <arrival publicID="quakeml:uw.anss.org/AssocArO/UW/3857153">
          <pickID>quakeml:uw.anss.org/Arrival/UW/3857153</pickID>
          <phase>P</phase>
          <azimuth>199.6</azimuth>
          <distance>1.999</distance>
          <timeResidual>1.18</timeResidual>
          <creationInfo>
            <agencyID>UW</agencyID>
            <creationTime>2012-02-27T16:46:14.000000Z</creationTime>
          </creationInfo>
        </arrival>
        <arrival publicID="quakeml:uw.anss.org/AssocArO/UW/3857158">
          <pickID>quakeml:uw.anss.org/Arrival/UW/3857158</pickID>
          <phase>P</phase>
          <azimuth>176.3</azimuth>
          <distance>1.92</distance>
          <timeResidual>1.02</timeResidual>
          <creationInfo>
            <agencyID>UW</agencyID>
            <creationTime>2012-02-27T16:46:14.000000Z</creationTime>
          </creationInfo>
        </arrival>
        <arrival publicID="quakeml:uw.anss.org/AssocArO/UW/3857163">
          <pickID>quakeml:uw.anss.org/Arrival/UW/3857163</pickID>
          <phase>P</phase>
          <timeResidual>0.22</timeResidual>
          <creationInfo>
            <agencyID>UW</agencyID>
            <creationTime>2012-02-27T16:46:14.000000Z</creationTime>
          </creationInfo>
        </arrival>
        <arrival publicID="quakeml:uw.anss.org/AssocArO/UW/3857168">
          <pickID>quakeml:uw.anss.org/Arrival/UW/3857168</pickID>
          <phase>P</phase>
          <azimuth>133.8</azimuth>
          <distance>0.5922</distance>
          <timeResidual>-0.2</timeResidual>
          <creationInfo>
            <agencyID>UW</agencyID>
            <creationTime>2012-02-27T16:46:14.000000Z</creationTime>
          </creationInfo>
        </arrival>
        <arrival publicID="quakeml:uw.anss.org/AssocArO/UW/3857173">
          <pickID>quakeml:uw.anss.org/Arrival/UW/3857173</pickID>
          <phase>S</phase>
          <azimuth>133.8</azimuth>
          <distance>0.5922</distance>
          <timeResidual>0.22</timeResidual>
          <creationInfo>
            <agencyID>UW</agencyID>
            <creationTime>2012-02-27T16:46:14.000000Z</creationTime>
          </creationInfo>
        </arrival>
        <arrival publicID="quakeml:uw.anss.org/AssocArO/UW/3857178">
          <pickID>quakeml:uw.anss.org/Arrival/UW/3857178</pickID>
          <phase>P</phase>
          <azimuth>306.6</azimuth>
          <timeResidual>-0.17</timeResidual>
          <creationInfo>
            <agencyID>UW</agencyID>
            <creationTime>2012-02-27T16:46:14.000000Z</creationTime>
          </creationInfo>
        </arrival>
        <arrival publicID="quakeml:uw.anss.org/AssocArO/UW/3857183">
          <pickID>quakeml:uw.anss.org/Arrival/UW/3857183</pickID>
          <phase>S</phase>
          <azimuth>113.9</azimuth>
          <distance>0.1855</distance>
          <timeResidual>0.78</timeResidual>
          <creationInfo>
            <agencyID>UW</agencyID>
            <creationTime>2012-02-27T16:46:14.000000Z</creationTime>
          </creationInfo>
        </arrival>
        <arrival publicID="quakeml:uw.anss.org/AssocArO/UW/3857188">
          <pickID>quakeml:uw.anss.org/Arrival/UW/3857188</pickID>
          <phase>P</phase>
          <azimuth>121.2</azimuth>
          <distance>2.175</distance>
          <timeResidual>3.79</timeResidual>
          <creationInfo>
            <agencyID>UW</agencyID>
            <creationTime>2012-02-27T16:46:14.000000Z</creationTime>
          </creationInfo>
        </arrival>
        <arrival publicID="quakeml:uw.anss.org/AssocArO/UW/3857193">
          <pickID>quakeml:uw.anss.org/Arrival/UW/3857193</pickID>
          <phase>P</phase>
          <azimuth>225.2</azimuth>
          <distance>1.468</distance>
          <timeResidual>-0.34</timeResidual>
          <creationInfo>
            <agencyID>UW</agencyID>
            <creationTime>2012-02-27T16:46:14.000000Z</creationTime>
          </creationInfo>
        </arrival>
        <arrival publicID="quakeml:uw.anss.org/AssocArO/UW/3857198">
          <pickID>quakeml:uw.anss.org/Arrival/UW/3857198</pickID>
          <phase>P</phase>
          <azimuth>319.4</azimuth>
          <timeResidual>0.15</timeResidual>
          <creationInfo>
            <agencyID>UW</agencyID>
            <creationTime>2012-02-27T16:46:14.000000Z</creationTime>
          </creationInfo>
        </arrival>
        <arrival publicID="quakeml:uw.anss.org/AssocArO/UW/3857203">
          <pickID>quakeml:uw.anss.org/Arrival/UW/3857203</pickID>
          <phase>P</phase>
          <azimuth>167.0</azimuth>
          <timeResidual>-0.2</timeResidual>
          <creationInfo>
            <agencyID>UW</agencyID>
            <creationTime>2012-02-27T16:46:14.000000Z</creationTime>
          </creationInfo>
        </arrival>
        <arrival publicID="quakeml:uw.anss.org/AssocArO/UW/3857208">
          <pickID>quakeml:uw.anss.org/Arrival/UW/3857208</pickID>
          <phase>S</phase>
          <azimuth>167.0</azimuth>
          <timeResidual>1.3</timeResidual>
          <creationInfo>
            <agencyID>UW</agencyID>
            <creationTime>2012-02-27T16:46:14.000000Z</creationTime>
          </creationInfo>
        </arrival>
        <arrival publicID="quakeml:uw.anss.org/AssocArO/UW/3857213">
          <pickID>quakeml:uw.anss.org/Arrival/UW/3857213</pickID>
          <phase>P</phase>
          <azimuth>170.2</azimuth>
          <timeResidual>1.0</timeResidual>
          <creationInfo>
            <agencyID>UW</agencyID>
            <creationTime>2012-02-27T16:46:14.000000Z</creationTime>
          </creationInfo>
        </arrival>
        <arrival publicID="quakeml:uw.anss.org/AssocArO/UW/3857218">
          <pickID>quakeml:uw.anss.org/Arrival/UW/3857218</pickID>
          <phase>P</phase>
          <azimuth>118.0</azimuth>
          <distance>1.813</distance>
          <timeResidual>2.72</timeResidual>
          <creationInfo>
            <agencyID>UW</agencyID>
            <creationTime>2012-02-27T16:46:14.000000Z</creationTime>
          </creationInfo>
        </arrival>
        <arrival publicID="quakeml:uw.anss.org/AssocArO/UW/3857223">
          <pickID>quakeml:uw.anss.org/Arrival/UW/3857223</pickID>
          <phase>P</phase>
          <timeResidual>0.44</timeResidual>
          <creationInfo>
            <agencyID>UW</agencyID>
            <creationTime>2012-02-27T16:46:14.000000Z</creationTime>
          </creationInfo>
        </arrival>
        <arrival publicID="quakeml:uw.anss.org/AssocArO/UW/3857228">
          <pickID>quakeml:uw.anss.org/Arrival/UW/3857228</pickID>
          <phase>P</phase>
          <azimuth>235.3</azimuth>
          <timeResidual>-0.19</timeResidual>
          <creationInfo>
            <agencyID>UW</agencyID>
            <creationTime>2012-02-27T16:46:14.000000Z</creationTime>
          </creationInfo>
        </arrival>
        <arrival publicID="quakeml:uw.anss.org/AssocArO/UW/3857233">
          <pickID>quakeml:uw.anss.org/Arrival/UW/3857233</pickID>
          <phase>P</phase>
          <timeResidual>0.17</timeResidual>
          <creationInfo>
            <agencyID>UW</agencyID>
            <creationTime>2012-02-27T16:46:14.000000Z</creationTime>
          </creationInfo>
        </arrival>
        <arrival publicID="quakeml:uw.anss.org/AssocArO/UW/3857238">
          <pickID>quakeml:uw.anss.org/Arrival/UW/3857238</pickID>
          <phase>S</phase>
          <timeResidual>-0.19</timeResidual>
          <creationInfo>
            <agencyID>UW</agencyID>
            <creationTime>2012-02-27T16:46:14.000000Z</creationTime>
          </creationInfo>
        </arrival>
        <arrival publicID="quakeml:uw.anss.org/AssocArO/UW/3857243">
          <pickID>quakeml:uw.anss.org/Arrival/UW/3857243</pickID>
          <phase>P</phase>
          <azimuth>198.0</azimuth>
          <distance>1.378</distance>
          <timeResidual>0.02</timeResidual>
          <creationInfo>
            <agencyID>UW</agencyID>
            <creationTime>2012-02-27T16:46:14.000000Z</creationTime>
          </creationInfo>
        </arrival>
        <arrival publicID="quakeml:uw.anss.org/AssocArO/UW/3857248">
          <pickID>quakeml:uw.anss.org/Arrival/UW/3857248</pickID>
          <phase>P</phase>
          <azimuth>170.4</azimuth>
          <distance>1.42</distance>
          <timeResidual>0.74</timeResidual>
          <creationInfo>
            <agencyID>UW</agencyID>
            <creationTime>2012-02-27T16:46:14.000000Z</creationTime>
          </creationInfo>
        </arrival>
        <arrival publicID="quakeml:uw.anss.org/AssocArO/UW/3857258">
          <pickID>quakeml:uw.anss.org/Arrival/UW/3857258</pickID>
          <phase>P</phase>
          <timeResidual>-0.43</timeResidual>
          <creationInfo>
            <agencyID>UW</agencyID>
            <creationTime>2012-02-27T16:46:14.000000Z</creationTime>
          </creationInfo>
        </arrival>
        <arrival publicID="quakeml:uw.anss.org/AssocArO/UW/3857268">
          <pickID>quakeml:uw.anss.org/Arrival/UW/3857268</pickID>
          <phase>P</phase>
          <timeResidual>0.17</timeResidual>
          <creationInfo>
            <agencyID>UW</agencyID>
            <creationTime>2012-02-27T16:46:14.000000Z</creationTime>
          </creationInfo>
        </arrival>
        <arrival publicID="quakeml:uw.anss.org/AssocArO/UW/3857278">
          <pickID>quakeml:uw.anss.org/Arrival/UW/3857278</pickID>
          <phase>P</phase>
          <azimuth>166.1</azimuth>
          <distance>1.088</distance>
          <timeResidual>0.79</timeResidual>
          <creationInfo>
            <agencyID>UW</agencyID>
            <creationTime>2012-02-27T16:46:14.000000Z</creationTime>
          </creationInfo>
        </arrival>
        <arrival publicID="quakeml:uw.anss.org/AssocArO/UW/3857288">
          <pickID>quakeml:uw.anss.org/Arrival/UW/3857288</pickID>
          <phase>S</phase>
          <azimuth>166.1</azimuth>
          <distance>1.088</distance>
          <timeResidual>0.85</timeResidual>
          <creationInfo>
            <agencyID>UW</agencyID>
            <creationTime>2012-02-27T16:46:14.000000Z</creationTime>
          </creationInfo>
        </arrival>
        <arrival publicID="quakeml:uw.anss.org/AssocArO/UW/3857303">
          <pickID>quakeml:uw.anss.org/Arrival/UW/3857303</pickID>
          <phase>P</phase>
          <azimuth>212.7</azimuth>
          <distance>1.011</distance>
          <timeResidual>0.51</timeResidual>
          <creationInfo>
            <agencyID>UW</agencyID>
            <creationTime>2012-02-27T16:46:14.000000Z</creationTime>
          </creationInfo>
        </arrival>
        <arrival publicID="quakeml:uw.anss.org/AssocArO/UW/3857338">
          <pickID>quakeml:uw.anss.org/Arrival/UW/3857338</pickID>
          <phase>S</phase>
          <azimuth>212.7</azimuth>
          <distance>1.011</distance>
          <timeResidual>1.72</timeResidual>
          <creationInfo>
            <agencyID>UW</agencyID>
            <creationTime>2012-02-27T16:46:14.000000Z</creationTime>
          </creationInfo>
        </arrival>
        <arrival publicID="quakeml:uw.anss.org/AssocArO/UW/3857353">
          <pickID>quakeml:uw.anss.org/Arrival/UW/3857353</pickID>
          <phase>S</phase>
          <azimuth>248.2</azimuth>
          <distance>0.4818</distance>
          <timeResidual>-0.68</timeResidual>
          <creationInfo>
            <agencyID>UW</agencyID>
            <creationTime>2012-02-27T16:46:14.000000Z</creationTime>
          </creationInfo>
        </arrival>
      </origin>
      <magnitude publicID="quakeml:uw.anss.org/Netmag/UW/448968">
        <mag>
          <value>2.1</value>
          <uncertainty>0.09</uncertainty>
        </mag>
        <type>Md</type>
        <originID>quakeml:uw.anss.org/Origin/UW/536518</originID>
        <methodID>smi:uw.anss.org/magnitude/Crosson</methodID>
        <stationCount>4</stationCount>
        <evaluationMode>manual</evaluationMode>
        <evaluationStatus>final</evaluationStatus>
        <stationMagnitudeContribution>
          <stationMagnitudeID>quakeml:uw.anss.org/AssocCoM/UW/1102923</stationMagnitudeID>
          <weight>1.0</weight>
          <residual>0.18</residual>
        </stationMagnitudeContribution>
        <stationMagnitudeContribution>
          <stationMagnitudeID>quakeml:uw.anss.org/AssocCoM/UW/1102943</stationMagnitudeID>
          <weight>1.0</weight>
          <residual>-0.11</residual>
        </stationMagnitudeContribution>
        <stationMagnitudeContribution>
          <stationMagnitudeID>quakeml:uw.anss.org/AssocCoM/UW/1102928</stationMagnitudeID>
          <weight>1.0</weight>
          <residual>-0.01</residual>
        </stationMagnitudeContribution>
        <stationMagnitudeContribution>
          <stationMagnitudeID>quakeml:uw.anss.org/AssocCoM/UW/1102933</stationMagnitudeID>
          <weight>1.0</weight>
          <residual>-0.21</residual>
        </stationMagnitudeContribution>
        <creationInfo>
          <agencyID>UW</agencyID>
          <creationTime>2012-02-27T16:46:14.000000Z</creationTime>
        </creationInfo>
      </magnitude>
      <stationMagnitude publicID="quakeml:uw.anss.org/AssocCoM/UW/1102923">
        <originID>quakeml:uw.anss.org/Origin/UW/536518</originID>
        <mag>
          <value>2.28</value>
        </mag>
        <type>MD</type>
        <amplitudeID>quakeml:uw.anss.org/Coda/UW/1102923</amplitudeID>
        <waveformID networkCode="UW" stationCode="RPW" locationCode="" channelCode="EHZ"></waveformID>
      </stationMagnitude>
      <stationMagnitude publicID="quakeml:uw.anss.org/AssocCoM/UW/1102928">
        <originID>quakeml:uw.anss.org/Origin/UW/536518</originID>
        <mag>
          <value>2.09</value>
        </mag>
        <type>MD</type>
        <amplitudeID>quakeml:uw.anss.org/Coda/UW/1102928</amplitudeID>
        <waveformID networkCode="UW" stationCode="JCW" locationCode="" channelCode="EHZ"></waveformID>
      </stationMagnitude>
      <stationMagnitude publicID="quakeml:uw.anss.org/AssocCoM/UW/1102933">
        <originID>quakeml:uw.anss.org/Origin/UW/536518</originID>
