<?xml version='1.0' encoding='utf-8'?>
<q:quakeml xmlns="http://quakeml.org/xmlns/bed/1.2" xmlns:q="http://quakeml.org/xmlns/quakeml/1.2" xmlns:ns0="http://anss.org/xmlns/catalog/0.1">
  <eventParameters publicID="smi:local/98916dd1-ba8d-4e5a-a2bf-fb237c1d96bf">
    <event publicID="quakeml:uw.anss.org/Event/UW/10259063" ns0:datasource="uw" ns0:dataid="uw10259063" ns0:eventsource="uw" ns0:eventid="10259063">
      <preferredOriginID>quakeml:uw.anss.org/Origin/UW/536008</preferredOriginID>
      <preferredMagnitudeID>quakeml:uw.anss.org/Netmag/UW/448503</preferredMagnitudeID>
      <type>earthquake</type>
      <creationInfo>
        <agencyID>UW</agencyID>
        <creationTime>2012-02-27T16:44:36.000000Z</creationTime>
        <version>3</version>
      </creationInfo>
      <origin publicID="quakeml:uw.anss.org/Origin/UW/536008" ns0:datasource="uw" ns0:dataid="uw10259063" ns0:eventsource="uw" ns0:eventid="10259063">
        <time>
          <value>1990-05-17T23:39:55.590000Z</value>
          <uncertainty>0.73</uncertainty>
        </time>
        <latitude>
          <value>48.8245</value>
          <uncertainty>1.03</uncertainty>
        </latitude>
        <longitude>
          <value>-122.1923333</value>
          <uncertainty>1.15</uncertainty>
        </longitude>
        <depth>
          <value>2902.0</value>
          <uncertainty>6420.0</uncertainty>
        </depth>
        <depthType>from location</depthType>
        <timeFixed>false</timeFixed>
        <epicenterFixed>false</epicenterFixed>
        <methodID>smi:uw.anss.org/origin/spong</methodID>
        <quality>
          <associatedPhaseCount>32</associatedPhaseCount>
          <usedPhaseCount>23</usedPhaseCount>
          <associatedStationCount>25</associatedStationCount>
          <usedStationCount>0</usedStationCount>
          <standardError>0.5</standardError>
          <azimuthalGap>85.0</azimuthalGap>
        </quality>
        <type>hypocenter</type>
        <evaluationMode>manual</evaluationMode>
        <evaluationStatus>final</evaluationStatus>
        <creationInfo>
          <agencyID>UW</agencyID>
          <creationTime>2012-02-27T16:44:36.000000Z</creationTime>
        </creationInfo>
        <originUncertainty>
          <preferredDescription>horizontal uncertainty</preferredDescription>
          <horizontalUncertainty>1544.0</horizontalUncertainty>
        </originUncertainty>
        <arrival publicID="quakeml:uw.anss.org/AssocArO/UW/3846048">
          <pickID>quakeml:uw.anss.org/Arrival/UW/3846048</pickID>
          <phase>P</phase>
          <azimuth>289.2</azimuth>
          <timeResidual>-0.56</timeResidual>
          <creationInfo>
            <agencyID>UW</agencyID>
            <creationTime>2012-02-27T16:44:36.000000Z</creationTime>
          </creationInfo>
        </arrival>
        <arrival publicID="quakeml:uw.anss.org/AssocArO/UW/3846053">
          <pickID>quakeml:uw.anss.org/Arrival/UW/3846053</pickID>
          <phase>S</phase>
          <azimuth>289.2</azimuth>
          <timeResidual>-1.22</timeResidual>
          <creationInfo>
            <agencyID>UW</agencyID>
            <creationTime>2012-02-27T16:44:36.000000Z</creationTime>
          </creationInfo>
        </arrival>
        <arrival publicID="quakeml:uw.anss.org/AssocArO/UW/3846058">
          <pickID>quakeml:uw.anss.org/Arrival/UW/3846058</pickID>
          <phase>P</phase>
          <azimuth>206.4</azimuth>
          <distance>1.311</distance>
          <timeResidual>0.27</timeResidual>
          <creationInfo>
            <agencyID>UW</agencyID>
            <creationTime>2012-02-27T16:44:36.000000Z</creationTime>
          </creationInfo>
        </arrival>
        <arrival publicID="quakeml:uw.anss.org/AssocArO/UW/3846063">
          <pickID>quakeml:uw.anss.org/Arrival/UW/3846063</pickID>
          <phase>P</phase>
          <azimuth>120.9</azimuth>
          <distance>1.445</distance>
          <timeResidual>0.98</timeResidual>
          <creationInfo>
            <agencyID>UW</agencyID>
            <creationTime>2012-02-27T16:44:36.000000Z</creationTime>
          </creationInfo>
        </arrival>
        <arrival publicID="quakeml:uw.anss.org/AssocArO/UW/3846068">
          <pickID>quakeml:uw.anss.org/Arrival/UW/3846068</pickID>
          <phase>P</phase>
          <azimuth>330.7</azimuth>
          <timeResidual>-0.28</timeResidual>
          <creationInfo>
            <agencyID>UW</agencyID>
            <creationTime>2012-02-27T16:44:36.000000Z</creationTime>
          </creationInfo>
        </arrival>
        <arrival publicID="quakeml:uw.anss.org/AssocArO/UW/3846073">
          <pickID>quakeml:uw.anss.org/Arrival/UW/3846073</pickID>
          <phase>S</phase>
          <azimuth>330.7</azimuth>
          <timeResidual>-0.52</timeResidual>
          <creationInfo>
            <agencyID>UW</agencyID>
            <creationTime>2012-02-27T16:44:36.000000Z</creationTime>
          </creationInfo>
        </arrival>
        <arrival publicID="quakeml:uw.anss.org/AssocArO/UW/3846078">
          <pickID>quakeml:uw.anss.org/Arrival/UW/3846078</pickID>
          <phase>P</phase>
          <azimuth>133.9</azimuth>
          <distance>1.743</distance>
          <timeResidual>1.65</timeResidual>
          <creationInfo>
            <agencyID>UW</agencyID>
            <creationTime>2012-02-27T16:44:36.000000Z</creationTime>
          </creationInfo>
        </arrival>
        <arrival publicID="quakeml:uw.anss.org/AssocArO/UW/3846083">
          <pickID>quakeml:uw.anss.org/Arrival/UW/3846083</pickID>
          <phase>P</phase>
          <timeResidual>0.16</timeResidual>
          <creationInfo>
            <agencyID>UW</agencyID>
            <creationTime>2012-02-27T16:44:36.000000Z</creationTime>
          </creationInfo>
        </arrival>
        <arrival publicID="quakeml:uw.anss.org/AssocArO/UW/3846088">
          <pickID>quakeml:uw.anss.org/Arrival/UW/3846088</pickID>
          <phase>S</phase>
          <timeResidual>0.78</timeResidual>
          <creationInfo>
            <agencyID>UW</agencyID>
            <creationTime>2012-02-27T16:44:36.000000Z</creationTime>
          </creationInfo>
        </arrival>
        <arrival publicID="quakeml:uw.anss.org/AssocArO/UW/3846093">
          <pickID>quakeml:uw.anss.org/Arrival/UW/3846093</pickID>
          <phase>P</phase>
          <azimuth>173.2</azimuth>
          <distance>0.4042</distance>
          <timeResidual>-0.44</timeResidual>
          <creationInfo>
            <agencyID>UW</agencyID>
            <creationTime>2012-02-27T16:44:36.000000Z</creationTime>
          </creationInfo>
        </arrival>
        <arrival publicID="quakeml:uw.anss.org/AssocArO/UW/3846098">
          <pickID>quakeml:uw.anss.org/Arrival/UW/3846098</pickID>
          <phase>P</phase>
          <azimuth>170.6</azimuth>
          <timeResidual>0.71</timeResidual>
          <creationInfo>
            <agencyID>UW</agencyID>
            <creationTime>2012-02-27T16:44:36.000000Z</creationTime>
          </creationInfo>
        </arrival>
        <arrival publicID="quakeml:uw.anss.org/AssocArO/UW/3846103">
          <pickID>quakeml:uw.anss.org/Arrival/UW/3846103</pickID>
          <phase>P</phase>
          <timeResidual>0.57</timeResidual>
          <creationInfo>
            <agencyID>UW</agencyID>
            <creationTime>2012-02-27T16:44:36.000000Z</creationTime>
          </creationInfo>
        </arrival>
        <arrival publicID="quakeml:uw.anss.org/AssocArO/UW/3846108">
          <pickID>quakeml:uw.anss.org/Arrival/UW/3846108</pickID>
          <phase>P</phase>
          <azimuth>129.8</azimuth>
          <distance>0.5864</distance>
          <timeResidual>0.07</timeResidual>
          <creationInfo>
            <agencyID>UW</agencyID>
            <creationTime>2012-02-27T16:44:36.000000Z</creationTime>
          </creationInfo>
        </arrival>
        <arrival publicID="quakeml:uw.anss.org/AssocArO/UW/3846113">
          <pickID>quakeml:uw.anss.org/Arrival/UW/3846113</pickID>
          <phase>S</phase>
          <azimuth>129.8</azimuth>
          <distance>0.5864</distance>
          <timeResidual>0.19</timeResidual>
          <creationInfo>
            <agencyID>UW</agencyID>
            <creationTime>2012-02-27T16:44:36.000000Z</creationTime>
          </creationInfo>
        </arrival>
        <arrival publicID="quakeml:uw.anss.org/AssocArO/UW/3846118">
          <pickID>quakeml:uw.anss.org/Arrival/UW/3846118</pickID>
          <phase>P</phase>
          <azimuth>101.9</azimuth>
          <distance>0.1969</distance>
          <timeResidual>-0.28</timeResidual>
          <creationInfo>
            <agencyID>UW</agencyID>
            <creationTime>2012-02-27T16:44:36.000000Z</creationTime>
          </creationInfo>
        </arrival>
        <arrival publicID="quakeml:uw.anss.org/AssocArO/UW/3846123">
          <pickID>quakeml:uw.anss.org/Arrival/UW/3846123</pickID>
          <phase>P</phase>
          <azimuth>321.5</azimuth>
          <timeResidual>-0.3</timeResidual>
          <creationInfo>
            <agencyID>UW</agencyID>
            <creationTime>2012-02-27T16:44:36.000000Z</creationTime>
          </creationInfo>
        </arrival>
        <arrival publicID="quakeml:uw.anss.org/AssocArO/UW/3846128">
          <pickID>quakeml:uw.anss.org/Arrival/UW/3846128</pickID>
          <phase>P</phase>
          <azimuth>164.3</azimuth>
          <timeResidual>0.04</timeResidual>
          <creationInfo>
            <agencyID>UW</agencyID>
            <creationTime>2012-02-27T16:44:36.000000Z</creationTime>
          </creationInfo>
        </arrival>
        <arrival publicID="quakeml:uw.anss.org/AssocArO/UW/3846133">
          <pickID>quakeml:uw.anss.org/Arrival/UW/3846133</pickID>
          <phase>S</phase>
          <azimuth>164.3</azimuth>
          <timeResidual>1.85</timeResidual>
          <creationInfo>
            <agencyID>UW</agencyID>
            <creationTime>2012-02-27T16:44:36.000000Z</creationTime>
          </creationInfo>
        </arrival>
        <arrival publicID="quakeml:uw.anss.org/AssocArO/UW/3846138">
          <pickID>quakeml:uw.anss.org/Arrival/UW/3846138</pickID>
          <phase>P</phase>
          <timeResidual>0.04</timeResidual>
          <creationInfo>
            <agencyID>UW</agencyID>
            <creationTime>2012-02-27T16:44:36.000000Z</creationTime>
          </creationInfo>
        </arrival>
        <arrival publicID="quakeml:uw.anss.org/AssocArO/UW/3846143">
          <pickID>quakeml:uw.anss.org/Arrival/UW/3846143</pickID>
          <phase>P</phase>
          <azimuth>236.0</azimuth>
          <timeResidual>0.65</timeResidual>
          <creationInfo>
            <agencyID>UW</agencyID>
            <creationTime>2012-02-27T16:44:36.000000Z</creationTime>
          </creationInfo>
        </arrival>
        <arrival publicID="quakeml:uw.anss.org/AssocArO/UW/3846148">
          <pickID>quakeml:uw.anss.org/Arrival/UW/3846148</pickID>
          <phase>P</phase>
          <timeResidual>0.7</timeResidual>
          <creationInfo>
            <agencyID>UW</agencyID>
            <creationTime>2012-02-27T16:44:36.000000Z</creationTime>
          </creationInfo>
        </arrival>
        <arrival publicID="quakeml:uw.anss.org/AssocArO/UW/3846153">
          <pickID>quakeml:uw.anss.org/Arrival/UW/3846153</pickID>
          <phase>P</phase>
          <azimuth>197.5</azimuth>
          <distance>1.338</distance>
          <timeResidual>-0.08</timeResidual>
          <creationInfo>
            <agencyID>UW</agencyID>
            <creationTime>2012-02-27T16:44:36.000000Z</creationTime>
          </creationInfo>
        </arrival>
        <arrival publicID="quakeml:uw.anss.org/AssocArO/UW/3846158">
          <pickID>quakeml:uw.anss.org/Arrival/UW/3846158</pickID>
          <phase>P</phase>
          <azimuth>169.2</azimuth>
          <distance>1.39</distance>
          <timeResidual>0.61</timeResidual>
          <creationInfo>
            <agencyID>UW</agencyID>
            <creationTime>2012-02-27T16:44:36.000000Z</creationTime>
          </creationInfo>
        </arrival>
        <arrival publicID="quakeml:uw.anss.org/AssocArO/UW/3846163">
          <pickID>quakeml:uw.anss.org/Arrival/UW/3846163</pickID>
          <phase>P</phase>
          <timeResidual>-0.47</timeResidual>
          <creationInfo>
            <agencyID>UW</agencyID>
            <creationTime>2012-02-27T16:44:36.000000Z</creationTime>
          </creationInfo>
        </arrival>
        <arrival publicID="quakeml:uw.anss.org/AssocArO/UW/3846168">
          <pickID>quakeml:uw.anss.org/Arrival/UW/3846168</pickID>
          <phase>S</phase>
          <timeResidual>-0.82</timeResidual>
          <creationInfo>
            <agencyID>UW</agencyID>
            <creationTime>2012-02-27T16:44:36.000000Z</creationTime>
          </creationInfo>
        </arrival>
        <arrival publicID="quakeml:uw.anss.org/AssocArO/UW/3846173">
          <pickID>quakeml:uw.anss.org/Arrival/UW/3846173</pickID>
          <phase>P</phase>
          <timeResidual>0.41</timeResidual>
          <creationInfo>
            <agencyID>UW</agencyID>
            <creationTime>2012-02-27T16:44:36.000000Z</creationTime>
          </creationInfo>
        </arrival>
        <arrival publicID="quakeml:uw.anss.org/AssocArO/UW/3846178">
          <pickID>quakeml:uw.anss.org/Arrival/UW/3846178</pickID>
          <phase>P</phase>
          <azimuth>164.4</azimuth>
          <distance>1.06</distance>
          <timeResidual>1.1</timeResidual>
          <creationInfo>
            <agencyID>UW</agencyID>
            <creationTime>2012-02-27T16:44:36.000000Z</creationTime>
          </creationInfo>
        </arrival>
        <arrival publicID="quakeml:uw.anss.org/AssocArO/UW/3846183">
          <pickID>quakeml:uw.anss.org/Arrival/UW/3846183</pickID>
          <phase>P</phase>
          <azimuth>124.7</azimuth>
          <distance>1.761</distance>
          <timeResidual>1.17</timeResidual>
          <creationInfo>
            <agencyID>UW</agencyID>
            <creationTime>2012-02-27T16:44:36.000000Z</creationTime>
          </creationInfo>
        </arrival>
        <arrival publicID="quakeml:uw.anss.org/AssocArO/UW/3846188">
          <pickID>quakeml:uw.anss.org/Arrival/UW/3846188</pickID>
          <phase>P</phase>
          <azimuth>212.7</azimuth>
          <distance>0.9696</distance>
          <timeResidual>0.7</timeResidual>
          <creationInfo>
            <agencyID>UW</agencyID>
            <creationTime>2012-02-27T16:44:36.000000Z</creationTime>
          </creationInfo>
        </arrival>
        <arrival publicID="quakeml:uw.anss.org/AssocArO/UW/3846193">
          <pickID>quakeml:uw.anss.org/Arrival/UW/3846193</pickID>
          <phase>P</phase>
          <azimuth>251.2</azimuth>
          <distance>0.4481</distance>
          <timeResidual>-0.02</timeResidual>
          <creationInfo>
            <agencyID>UW</agencyID>
            <creationTime>2012-02-27T16:44:36.000000Z</creationTime>
          </creationInfo>
        </arrival>
        <arrival publicID="quakeml:uw.anss.org/AssocArO/UW/3846198">
          <pickID>quakeml:uw.anss.org/Arrival/UW/3846198</pickID>
          <phase>S</phase>
          <azimuth>251.2</azimuth>
          <distance>0.4481</distance>
          <timeResidual>2.26</timeResidual>
          <creationInfo>
            <agencyID>UW</agencyID>
            <creationTime>2012-02-27T16:44:36.000000Z</creationTime>
          </creationInfo>
        </arrival>
        <arrival publicID="quakeml:uw.anss.org/AssocArO/UW/3846203">
          <pickID>quakeml:uw.anss.org/Arrival/UW/3846203</pickID>
          <phase>P</phase>
          <azimuth>173.8</azimuth>
          <distance>0.9949</distance>
          <timeResidual>0.81</timeResidual>
          <creationInfo>
            <agencyID>UW</agencyID>
            <creationTime>2012-02-27T16:44:36.000000Z</creationTime>
          </creationInfo>
        </arrival>
      </origin>
      <magnitude publicID="quakeml:uw.anss.org/Netmag/UW/448503">
        <mag>
          <value>2.6</value>
          <uncertainty>0.08</uncertainty>
        </mag>
        <type>Md</type>
        <originID>quakeml:uw.anss.org/Origin/UW/536008</originID>
        <methodID>smi:uw.anss.org/magnitude/Crosson</methodID>
        <stationCount>2</stationCount>
        <evaluationMode>manual</evaluationMode>
        <evaluationStatus>final</evaluationStatus>
        <stationMagnitudeContribution>
          <stationMagnitudeID>quakeml:uw.anss.org/AssocCoM/UW/1101098</stationMagnitudeID>
          <weight>1.0</weight>
          <residual>0.14</residual>
        </stationMagnitudeContribution>
        <stationMagnitudeContribution>
          <stationMagnitudeID>quakeml:uw.anss.org/AssocCoM/UW/1101103</stationMagnitudeID>
          <weight>1.0</weight>
          <residual>-0.24</residual>
        </stationMagnitudeContribution>
        <creationInfo>
          <agencyID>UW</agencyID>
          <creationTime>2012-02-27T16:44:36.000000Z</creationTime>
        </creationInfo>
      </magnitude>
      <stationMagnitude publicID="quakeml:uw.anss.org/AssocCoM/UW/1101098">
        <originID>quakeml:uw.anss.org/Origin/UW/536008</originID>
        <mag>
          <value>2.74</value>
        </mag>
        <type>MD</type>
        <amplitudeID>quakeml:uw.anss.org/Coda/UW/1101098</amplitudeID>
        <waveformID networkCode="UW" stationCode="RPW" locationCode="" channelCode="EHZ"></waveformID>
      </stationMagnitude>
      <stationMagnitude publicID="quakeml:uw.anss.org/AssocCoM/UW/1101103">
        <originID>quakeml:uw.anss.org/Origin/UW/536008</originID>
        <mag>
          <value>2.36</value>
        </mag>
        <type>MD</type>
        <amplitudeID>quakeml:uw.anss.org/Coda/UW/1101103</amplitudeID>
        <waveformID networkCode="UW" stationCode="JCW" locationCode="" channelCode="EHZ"></waveformID>
      </stationMagnitude>
      <pick publicID="quakeml:uw.anss.org/Arrival/UW/3846048">
        <time>
          <value>1990-05-17T23:40:17.060000Z</value>
          <uncertainty>0.1</uncertainty>
        </time>
        <waveformID networkCode="CN" stationCode="NAB" locationCode="" channelCode="EHZ"></waveformID>
        <polarity>undecidable</polarity>
        <evaluationMode>manual</evaluationMode>
        <evaluationStatus>final</evaluationStatus>
        <creationInfo>
          <agencyID>UW</agencyID>
          <creationTime>2012-02-27T16:44:36.000000Z</creationTime>
        </creationInfo>
      </pick>
      <pick publicID="quakeml:uw.anss.org/Arrival/UW/3846053">
        <time>
          <value>1990-05-17T23:40:33.590000Z</value>
          <uncertainty>0.1</uncertainty>
        </time>
        <waveformID networkCode="CN" stationCode="NAB" locationCode="" channelCode="EHZ"></waveformID>
        <polarity>undecidable</polarity>
        <evaluationMode>manual</evaluationMode>
        <evaluationStatus>final</evaluationStatus>
        <creationInfo>
          <agencyID>UW</agencyID>
          <creationTime>2012-02-27T16:44:36.000000Z</creationTime>
        </creationInfo>
      </pick>
      <pick publicID="quakeml:uw.anss.org/Arrival/UW/3846058">
        <time>
          <value>1990-05-17T23:40:18.680000Z</value>
          <uncertainty>0.05</uncertainty>
        </time>
        <waveformID networkCode="UW" stationCode="HDW" locationCode="" channelCode="EHZ"></waveformID>
        <polarity>undecidable</polarity>
        <evaluationMode>manual</evaluationMode>
        <evaluationStatus>final</evaluationStatus>
        <creationInfo>
          <agencyID>UW</agencyID>
          <creationTime>2012-02-27T16:44:36.000000Z</creationTime>
        </creationInfo>
      </pick>
      <pick publicID="quakeml:uw.anss.org/Arrival/UW/3846063">
        <time>
          <value>1990-05-17T23:40:21.740000Z</value>
          <uncertainty>0.18</uncertainty>
        </time>
