<?xml version='1.0' encoding='utf-8'?>
<q:quakeml xmlns="http://quakeml.org/xmlns/bed/1.2" xmlns:q="http://quakeml.org/xmlns/quakeml/1.2" xmlns:ns0="http://anss.org/xmlns/catalog/0.1">
  <eventParameters publicID="smi:local/fb575ed9-b4c5-4d53-80f0-9fe17d993087">
    <event publicID="quakeml:uw.anss.org/Event/UW/10261163" ns0:datasource="uw" ns0:dataid="uw10261163" ns0:eventsource="uw" ns0:eventid="10261163">
      <preferredOriginID>quakeml:uw.anss.org/Origin/UW/538108</preferredOriginID>
      <preferredMagnitudeID>quakeml:uw.anss.org/Netmag/UW/450438</preferredMagnitudeID>
      <type>earthquake</type>
      <creationInfo>
        <agencyID>UW</agencyID>
        <creationTime>2012-02-27T16:49:19.000000Z</creationTime>
        <version>3</version>
      </creationInfo>
      <origin publicID="quakeml:uw.anss.org/Origin/UW/538108" ns0:datasource="uw" ns0:dataid="uw10261163" ns0:eventsource="uw" ns0:eventid="10261163">
        <time>
          <value>1990-04-21T13:33:01.440000Z</value>
          <uncertainty>0.36</uncertainty>
        </time>
        <latitude>
          <value>48.8301667</value>
          <uncertainty>0.59</uncertainty>
        </latitude>
        <longitude>
          <value>-122.1583333</value>
          <uncertainty>0.65</uncertainty>
        </longitude>
        <depth>
          <value>2971.0</value>
          <uncertainty>3260.0</uncertainty>
        </depth>
        <depthType>operator assigned</depthType>
        <timeFixed>false</timeFixed>
        <epicenterFixed>true</epicenterFixed>
        <methodID>smi:uw.anss.org/origin/spong</methodID>
        <quality>
          <associatedPhaseCount>100</associatedPhaseCount>
          <usedPhaseCount>30</usedPhaseCount>
          <associatedStationCount>69</associatedStationCount>
          <usedStationCount>0</usedStationCount>
          <standardError>0.3</standardError>
          <azimuthalGap>94.0</azimuthalGap>
        </quality>
        <type>hypocenter</type>
        <evaluationMode>manual</evaluationMode>
        <evaluationStatus>final</evaluationStatus>
        <creationInfo>
          <agencyID>UW</agencyID>
          <creationTime>2012-02-27T16:49:19.000000Z</creationTime>
        </creationInfo>
        <originUncertainty>
          <preferredDescription>horizontal uncertainty</preferredDescription>
          <horizontalUncertainty>878.0</horizontalUncertainty>
        </originUncertainty>
        <arrival publicID="quakeml:uw.anss.org/AssocArO/UW/3886613">
          <pickID>quakeml:uw.anss.org/Arrival/UW/3886613</pickID>
          <phase>P</phase>
          <azimuth>288.7</azimuth>
          <timeResidual>-0.51</timeResidual>
          <creationInfo>
            <agencyID>UW</agencyID>
            <creationTime>2012-02-27T16:49:19.000000Z</creationTime>
          </creationInfo>
        </arrival>
        <arrival publicID="quakeml:uw.anss.org/AssocArO/UW/3886618">
          <pickID>quakeml:uw.anss.org/Arrival/UW/3886618</pickID>
          <phase>S</phase>
          <azimuth>288.7</azimuth>
          <timeResidual>-1.23</timeResidual>
          <creationInfo>
            <agencyID>UW</agencyID>
            <creationTime>2012-02-27T16:49:19.000000Z</creationTime>
          </creationInfo>
        </arrival>
        <arrival publicID="quakeml:uw.anss.org/AssocArO/UW/3886623">
          <pickID>quakeml:uw.anss.org/Arrival/UW/3886623</pickID>
          <phase>P</phase>
          <azimuth>207.2</azimuth>
          <distance>1.326</distance>
          <timeResidual>-0.01</timeResidual>
          <creationInfo>
            <agencyID>UW</agencyID>
            <creationTime>2012-02-27T16:49:19.000000Z</creationTime>
          </creationInfo>
        </arrival>
        <arrival publicID="quakeml:uw.anss.org/AssocArO/UW/3886628">
          <pickID>quakeml:uw.anss.org/Arrival/UW/3886628</pickID>
          <phase>S</phase>
          <azimuth>207.2</azimuth>
          <distance>1.326</distance>
          <timeResidual>0.57</timeResidual>
          <creationInfo>
            <agencyID>UW</agencyID>
            <creationTime>2012-02-27T16:49:19.000000Z</creationTime>
          </creationInfo>
        </arrival>
        <arrival publicID="quakeml:uw.anss.org/AssocArO/UW/3886633">
          <pickID>quakeml:uw.anss.org/Arrival/UW/3886633</pickID>
          <phase>P</phase>
          <azimuth>121.6</azimuth>
          <distance>1.429</distance>
          <timeResidual>0.98</timeResidual>
          <creationInfo>
            <agencyID>UW</agencyID>
            <creationTime>2012-02-27T16:49:19.000000Z</creationTime>
          </creationInfo>
        </arrival>
        <arrival publicID="quakeml:uw.anss.org/AssocArO/UW/3886638">
          <pickID>quakeml:uw.anss.org/Arrival/UW/3886638</pickID>
          <phase>P</phase>
          <azimuth>328.3</azimuth>
          <timeResidual>-0.1</timeResidual>
          <creationInfo>
            <agencyID>UW</agencyID>
            <creationTime>2012-02-27T16:49:19.000000Z</creationTime>
          </creationInfo>
        </arrival>
        <arrival publicID="quakeml:uw.anss.org/AssocArO/UW/3886643">
          <pickID>quakeml:uw.anss.org/Arrival/UW/3886643</pickID>
          <phase>S</phase>
          <azimuth>328.3</azimuth>
          <timeResidual>-0.06</timeResidual>
          <creationInfo>
            <agencyID>UW</agencyID>
            <creationTime>2012-02-27T16:49:19.000000Z</creationTime>
          </creationInfo>
        </arrival>
        <arrival publicID="quakeml:uw.anss.org/AssocArO/UW/3886648">
          <pickID>quakeml:uw.anss.org/Arrival/UW/3886648</pickID>
          <phase>P</phase>
          <azimuth>134.6</azimuth>
          <distance>1.731</distance>
          <timeResidual>0.93</timeResidual>
          <creationInfo>
            <agencyID>UW</agencyID>
            <creationTime>2012-02-27T16:49:19.000000Z</creationTime>
          </creationInfo>
        </arrival>
        <arrival publicID="quakeml:uw.anss.org/AssocArO/UW/3886653">
          <pickID>quakeml:uw.anss.org/Arrival/UW/3886653</pickID>
          <phase>P</phase>
          <azimuth>156.4</azimuth>
          <distance>2.283</distance>
          <timeResidual>0.21</timeResidual>
          <creationInfo>
            <agencyID>UW</agencyID>
            <creationTime>2012-02-27T16:49:19.000000Z</creationTime>
          </creationInfo>
        </arrival>
        <arrival publicID="quakeml:uw.anss.org/AssocArO/UW/3886658">
          <pickID>quakeml:uw.anss.org/Arrival/UW/3886658</pickID>
          <phase>P</phase>
          <azimuth>208.1</azimuth>
          <distance>1.708</distance>
          <timeResidual>1.02</timeResidual>
          <creationInfo>
            <agencyID>UW</agencyID>
            <creationTime>2012-02-27T16:49:19.000000Z</creationTime>
          </creationInfo>
        </arrival>
        <arrival publicID="quakeml:uw.anss.org/AssocArO/UW/3886663">
          <pickID>quakeml:uw.anss.org/Arrival/UW/3886663</pickID>
          <phase>P</phase>
          <azimuth>185.7</azimuth>
          <distance>2.408</distance>
          <timeResidual>0.47</timeResidual>
          <creationInfo>
            <agencyID>UW</agencyID>
            <creationTime>2012-02-27T16:49:19.000000Z</creationTime>
          </creationInfo>
        </arrival>
        <arrival publicID="quakeml:uw.anss.org/AssocArO/UW/3886668">
          <pickID>quakeml:uw.anss.org/Arrival/UW/3886668</pickID>
          <phase>S</phase>
          <azimuth>185.7</azimuth>
          <distance>2.408</distance>
          <timeResidual>0.55</timeResidual>
          <creationInfo>
            <agencyID>UW</agencyID>
            <creationTime>2012-02-27T16:49:19.000000Z</creationTime>
          </creationInfo>
        </arrival>
        <arrival publicID="quakeml:uw.anss.org/AssocArO/UW/3886673">
          <pickID>quakeml:uw.anss.org/Arrival/UW/3886673</pickID>
          <phase>P</phase>
          <azimuth>171.5</azimuth>
          <distance>1.981</distance>
          <timeResidual>0.51</timeResidual>
          <creationInfo>
            <agencyID>UW</agencyID>
            <creationTime>2012-02-27T16:49:19.000000Z</creationTime>
          </creationInfo>
        </arrival>
        <arrival publicID="quakeml:uw.anss.org/AssocArO/UW/3886678">
          <pickID>quakeml:uw.anss.org/Arrival/UW/3886678</pickID>
          <phase>S</phase>
          <azimuth>171.5</azimuth>
          <distance>1.981</distance>
          <timeResidual>0.78</timeResidual>
          <creationInfo>
            <agencyID>UW</agencyID>
            <creationTime>2012-02-27T16:49:19.000000Z</creationTime>
          </creationInfo>
        </arrival>
        <arrival publicID="quakeml:uw.anss.org/AssocArO/UW/3886683">
          <pickID>quakeml:uw.anss.org/Arrival/UW/3886683</pickID>
          <phase>P</phase>
          <timeResidual>0.36</timeResidual>
          <creationInfo>
            <agencyID>UW</agencyID>
            <creationTime>2012-02-27T16:49:19.000000Z</creationTime>
          </creationInfo>
        </arrival>
        <arrival publicID="quakeml:uw.anss.org/AssocArO/UW/3886688">
          <pickID>quakeml:uw.anss.org/Arrival/UW/3886688</pickID>
          <phase>S</phase>
          <timeResidual>1.52</timeResidual>
          <creationInfo>
            <agencyID>UW</agencyID>
            <creationTime>2012-02-27T16:49:19.000000Z</creationTime>
          </creationInfo>
        </arrival>
        <arrival publicID="quakeml:uw.anss.org/AssocArO/UW/3886693">
          <pickID>quakeml:uw.anss.org/Arrival/UW/3886693</pickID>
          <phase>P</phase>
          <azimuth>152.5</azimuth>
          <distance>1.902</distance>
          <timeResidual>1.71</timeResidual>
          <creationInfo>
            <agencyID>UW</agencyID>
            <creationTime>2012-02-27T16:49:19.000000Z</creationTime>
          </creationInfo>
        </arrival>
        <arrival publicID="quakeml:uw.anss.org/AssocArO/UW/3886698">
          <pickID>quakeml:uw.anss.org/Arrival/UW/3886698</pickID>
          <phase>P</phase>
          <azimuth>129.8</azimuth>
          <distance>2.263</distance>
          <timeResidual>2.66</timeResidual>
          <creationInfo>
            <agencyID>UW</agencyID>
            <creationTime>2012-02-27T16:49:19.000000Z</creationTime>
          </creationInfo>
        </arrival>
        <arrival publicID="quakeml:uw.anss.org/AssocArO/UW/3886703">
          <pickID>quakeml:uw.anss.org/Arrival/UW/3886703</pickID>
          <phase>P</phase>
          <azimuth>176.4</azimuth>
          <distance>0.4078</distance>
          <timeResidual>-0.53</timeResidual>
          <creationInfo>
            <agencyID>UW</agencyID>
            <creationTime>2012-02-27T16:49:19.000000Z</creationTime>
          </creationInfo>
        </arrival>
        <arrival publicID="quakeml:uw.anss.org/AssocArO/UW/3886708">
          <pickID>quakeml:uw.anss.org/Arrival/UW/3886708</pickID>
          <phase>S</phase>
          <azimuth>176.4</azimuth>
          <distance>0.4078</distance>
          <timeResidual>0.92</timeResidual>
          <creationInfo>
            <agencyID>UW</agencyID>
            <creationTime>2012-02-27T16:49:19.000000Z</creationTime>
          </creationInfo>
        </arrival>
        <arrival publicID="quakeml:uw.anss.org/AssocArO/UW/3886713">
          <pickID>quakeml:uw.anss.org/Arrival/UW/3886713</pickID>
          <phase>P</phase>
          <azimuth>180.6</azimuth>
          <distance>2.369</distance>
          <timeResidual>0.59</timeResidual>
          <creationInfo>
            <agencyID>UW</agencyID>
            <creationTime>2012-02-27T16:49:19.000000Z</creationTime>
          </creationInfo>
        </arrival>
        <arrival publicID="quakeml:uw.anss.org/AssocArO/UW/3886718">
          <pickID>quakeml:uw.anss.org/Arrival/UW/3886718</pickID>
          <phase>P</phase>
          <azimuth>171.4</azimuth>
          <timeResidual>0.18</timeResidual>
          <creationInfo>
            <agencyID>UW</agencyID>
            <creationTime>2012-02-27T16:49:19.000000Z</creationTime>
          </creationInfo>
        </arrival>
        <arrival publicID="quakeml:uw.anss.org/AssocArO/UW/3886723">
          <pickID>quakeml:uw.anss.org/Arrival/UW/3886723</pickID>
          <phase>S</phase>
          <azimuth>171.4</azimuth>
          <timeResidual>0.68</timeResidual>
          <creationInfo>
            <agencyID>UW</agencyID>
            <creationTime>2012-02-27T16:49:19.000000Z</creationTime>
          </creationInfo>
        </arrival>
        <arrival publicID="quakeml:uw.anss.org/AssocArO/UW/3886728">
          <pickID>quakeml:uw.anss.org/Arrival/UW/3886728</pickID>
          <phase>P</phase>
          <azimuth>196.3</azimuth>
          <distance>3.323</distance>
          <timeResidual>-0.09</timeResidual>
          <creationInfo>
            <agencyID>UW</agencyID>
            <creationTime>2012-02-27T16:49:19.000000Z</creationTime>
          </creationInfo>
        </arrival>
        <arrival publicID="quakeml:uw.anss.org/AssocArO/UW/3886733">
          <pickID>quakeml:uw.anss.org/Arrival/UW/3886733</pickID>
          <phase>P</phase>
          <azimuth>199.8</azimuth>
          <distance>1.971</distance>
          <timeResidual>-0.15</timeResidual>
          <creationInfo>
            <agencyID>UW</agencyID>
            <creationTime>2012-02-27T16:49:19.000000Z</creationTime>
          </creationInfo>
        </arrival>
        <arrival publicID="quakeml:uw.anss.org/AssocArO/UW/3886738">
          <pickID>quakeml:uw.anss.org/Arrival/UW/3886738</pickID>
          <phase>S</phase>
          <azimuth>199.8</azimuth>
          <distance>1.971</distance>
          <timeResidual>2.58</timeResidual>
          <creationInfo>
            <agencyID>UW</agencyID>
            <creationTime>2012-02-27T16:49:19.000000Z</creationTime>
          </creationInfo>
        </arrival>
        <arrival publicID="quakeml:uw.anss.org/AssocArO/UW/3886743">
          <pickID>quakeml:uw.anss.org/Arrival/UW/3886743</pickID>
          <phase>P</phase>
          <azimuth>176.2</azimuth>
          <distance>1.891</distance>
          <timeResidual>0.18</timeResidual>
          <creationInfo>
            <agencyID>UW</agencyID>
            <creationTime>2012-02-27T16:49:19.000000Z</creationTime>
          </creationInfo>
        </arrival>
        <arrival publicID="quakeml:uw.anss.org/AssocArO/UW/3886748">
          <pickID>quakeml:uw.anss.org/Arrival/UW/3886748</pickID>
          <phase>S</phase>
          <azimuth>176.2</azimuth>
          <distance>1.891</distance>
          <timeResidual>0.37</timeResidual>
          <creationInfo>
            <agencyID>UW</agencyID>
            <creationTime>2012-02-27T16:49:19.000000Z</creationTime>
          </creationInfo>
        </arrival>
        <arrival publicID="quakeml:uw.anss.org/AssocArO/UW/3886753">
          <pickID>quakeml:uw.anss.org/Arrival/UW/3886753</pickID>
          <phase>P</phase>
          <azimuth>173.4</azimuth>
          <distance>2.094</distance>
          <timeResidual>0.15</timeResidual>
          <creationInfo>
            <agencyID>UW</agencyID>
            <creationTime>2012-02-27T16:49:19.000000Z</creationTime>
          </creationInfo>
        </arrival>
        <arrival publicID="quakeml:uw.anss.org/AssocArO/UW/3886758">
          <pickID>quakeml:uw.anss.org/Arrival/UW/3886758</pickID>
          <phase>S</phase>
          <azimuth>173.4</azimuth>
          <distance>2.094</distance>
          <timeResidual>-0.67</timeResidual>
          <creationInfo>
            <agencyID>UW</agencyID>
            <creationTime>2012-02-27T16:49:19.000000Z</creationTime>
          </creationInfo>
        </arrival>
        <arrival publicID="quakeml:uw.anss.org/AssocArO/UW/3886763">
          <pickID>quakeml:uw.anss.org/Arrival/UW/3886763</pickID>
          <phase>P</phase>
          <timeResidual>0.09</timeResidual>
          <creationInfo>
            <agencyID>UW</agencyID>
            <creationTime>2012-02-27T16:49:19.000000Z</creationTime>
          </creationInfo>
        </arrival>
        <arrival publicID="quakeml:uw.anss.org/AssocArO/UW/3886768">
          <pickID>quakeml:uw.anss.org/Arrival/UW/3886768</pickID>
          <phase>S</phase>
          <timeResidual>0.05</timeResidual>
          <creationInfo>
            <agencyID>UW</agencyID>
            <creationTime>2012-02-27T16:49:19.000000Z</creationTime>
          </creationInfo>
        </arrival>
        <arrival publicID="quakeml:uw.anss.org/AssocArO/UW/3886773">
          <pickID>quakeml:uw.anss.org/Arrival/UW/3886773</pickID>
          <phase>P</phase>
          <azimuth>131.7</azimuth>
          <distance>0.573</distance>
          <timeResidual>-0.08</timeResidual>
          <creationInfo>
            <agencyID>UW</agencyID>
            <creationTime>2012-02-27T16:49:19.000000Z</creationTime>
          </creationInfo>
        </arrival>
        <arrival publicID="quakeml:uw.anss.org/AssocArO/UW/3886778">
          <pickID>quakeml:uw.anss.org/Arrival/UW/3886778</pickID>
          <phase>S</phase>
          <azimuth>131.7</azimuth>
          <distance>0.573</distance>
          <timeResidual>0.48</timeResidual>
          <creationInfo>
            <agencyID>UW</agencyID>
            <creationTime>2012-02-27T16:49:19.000000Z</creationTime>
          </creationInfo>
        </arrival>
        <arrival publicID="quakeml:uw.anss.org/AssocArO/UW/3886783">
          <pickID>quakeml:uw.anss.org/Arrival/UW/3886783</pickID>
          <phase>P</phase>
          <azimuth>170.6</azimuth>
          <distance>2.304</distance>
          <timeResidual>0.71</timeResidual>
          <creationInfo>
            <agencyID>UW</agencyID>
            <creationTime>2012-02-27T16:49:19.000000Z</creationTime>
          </creationInfo>
        </arrival>
        <arrival publicID="quakeml:uw.anss.org/AssocArO/UW/3886788">
          <pickID>quakeml:uw.anss.org/Arrival/UW/3886788</pickID>
          <phase>P</phase>
          <azimuth>168.7</azimuth>
          <distance>2.174</distance>
          <timeResidual>0.42</timeResidual>
          <creationInfo>
            <agencyID>UW</agencyID>
            <creationTime>2012-02-27T16:49:19.000000Z</creationTime>
          </creationInfo>
        </arrival>
        <arrival publicID="quakeml:uw.anss.org/AssocArO/UW/3886793">
          <pickID>quakeml:uw.anss.org/Arrival/UW/3886793</pickID>
          <phase>S</phase>
          <azimuth>168.7</azimuth>
          <distance>2.174</distance>
          <timeResidual>-0.25</timeResidual>
          <creationInfo>
            <agencyID>UW</agencyID>
            <creationTime>2012-02-27T16:49:19.000000Z</creationTime>
          </creationInfo>
        </arrival>
        <arrival publicID="quakeml:uw.anss.org/AssocArO/UW/3886798">
          <pickID>quakeml:uw.anss.org/Arrival/UW/3886798</pickID>
          <phase>P</phase>
          <azimuth>146.6</azimuth>
          <distance>3.109</distance>
          <timeResidual>0.39</timeResidual>
          <creationInfo>
            <agencyID>UW</agencyID>
            <creationTime>2012-02-27T16:49:19.000000Z</creationTime>
          </creationInfo>
        </arrival>
        <arrival publicID="quakeml:uw.anss.org/AssocArO/UW/3886803">
          <pickID>quakeml:uw.anss.org/Arrival/UW/3886803</pickID>
          <phase>P</phase>
          <azimuth>222.9</azimuth>
          <timeResidual>0.71</timeResidual>
          <creationInfo>
            <agencyID>UW</agencyID>
            <creationTime>2012-02-27T16:49:19.000000Z</creationTime>
          </creationInfo>
        </arrival>
        <arrival publicID="quakeml:uw.anss.org/AssocArO/UW/3886808">
          <pickID>quakeml:uw.anss.org/Arrival/UW/3886808</pickID>
          <phase>P</phase>
          <azimuth>308.1</azimuth>
          <timeResidual>-0.34</timeResidual>
          <creationInfo>
            <agencyID>UW</agencyID>
            <creationTime>2012-02-27T16:49:19.000000Z</creationTime>
          </creationInfo>
        </arrival>
