<?xml version='1.0' encoding='utf-8'?>
<q:quakeml xmlns="http://quakeml.org/xmlns/bed/1.2" xmlns:q="http://quakeml.org/xmlns/quakeml/1.2" xmlns:ns0="http://anss.org/xmlns/catalog/0.1">
  <eventParameters publicID="smi:local/226fbfe8-1452-459d-9379-7aaaa1d91f9d">
    <event publicID="quakeml:uw.anss.org/Event/UW/10262208" ns0:datasource="uw" ns0:dataid="uw10262208" ns0:eventsource="uw" ns0:eventid="10262208">
      <preferredOriginID>quakeml:uw.anss.org/Origin/UW/539153</preferredOriginID>
      <preferredMagnitudeID>quakeml:uw.anss.org/Netmag/UW/451428</preferredMagnitudeID>
      <type>earthquake</type>
      <creationInfo>
        <agencyID>UW</agencyID>
        <creationTime>2012-02-27T16:51:22.000000Z</creationTime>
        <version>3</version>
      </creationInfo>
      <origin publicID="quakeml:uw.anss.org/Origin/UW/539153" ns0:datasource="uw" ns0:dataid="uw10262208" ns0:eventsource="uw" ns0:eventid="10262208">
        <time>
          <value>1990-06-21T02:11:51.490000Z</value>
          <uncertainty>0.3</uncertainty>
        </time>
        <latitude>
          <value>48.8595</value>
          <uncertainty>1.56</uncertainty>
        </latitude>
        <longitude>
          <value>-121.8963333</value>
          <uncertainty>1.4</uncertainty>
        </longitude>
        <depth>
          <value>1502.0</value>
          <uncertainty>2180.0</uncertainty>
        </depth>
        <depthType>from location</depthType>
        <timeFixed>false</timeFixed>
        <epicenterFixed>false</epicenterFixed>
        <methodID>smi:uw.anss.org/origin/spong</methodID>
        <quality>
          <associatedPhaseCount>40</associatedPhaseCount>
          <usedPhaseCount>16</usedPhaseCount>
          <associatedStationCount>28</associatedStationCount>
          <usedStationCount>0</usedStationCount>
          <standardError>0.4</standardError>
          <azimuthalGap>187.0</azimuthalGap>
        </quality>
        <type>hypocenter</type>
        <evaluationMode>manual</evaluationMode>
        <evaluationStatus>final</evaluationStatus>
        <creationInfo>
          <agencyID>UW</agencyID>
          <creationTime>2012-02-27T16:51:22.000000Z</creationTime>
        </creationInfo>
        <originUncertainty>
          <preferredDescription>horizontal uncertainty</preferredDescription>
          <horizontalUncertainty>2096.0</horizontalUncertainty>
        </originUncertainty>
        <arrival publicID="quakeml:uw.anss.org/AssocArO/UW/3905693">
          <pickID>quakeml:uw.anss.org/Arrival/UW/3905693</pickID>
          <phase>P</phase>
          <azimuth>285.5</azimuth>
          <timeResidual>0.42</timeResidual>
          <creationInfo>
            <agencyID>UW</agencyID>
            <creationTime>2012-02-27T16:51:22.000000Z</creationTime>
          </creationInfo>
        </arrival>
        <arrival publicID="quakeml:uw.anss.org/AssocArO/UW/3905698">
          <pickID>quakeml:uw.anss.org/Arrival/UW/3905698</pickID>
          <phase>S</phase>
          <azimuth>285.5</azimuth>
          <timeResidual>-1.64</timeResidual>
          <creationInfo>
            <agencyID>UW</agencyID>
            <creationTime>2012-02-27T16:51:22.000000Z</creationTime>
          </creationInfo>
        </arrival>
        <arrival publicID="quakeml:uw.anss.org/AssocArO/UW/3905703">
          <pickID>quakeml:uw.anss.org/Arrival/UW/3905703</pickID>
          <phase>P</phase>
          <azimuth>212.9</azimuth>
          <distance>1.438</distance>
          <timeResidual>-0.01</timeResidual>
          <creationInfo>
            <agencyID>UW</agencyID>
            <creationTime>2012-02-27T16:51:22.000000Z</creationTime>
          </creationInfo>
        </arrival>
        <arrival publicID="quakeml:uw.anss.org/AssocArO/UW/3905708">
          <pickID>quakeml:uw.anss.org/Arrival/UW/3905708</pickID>
          <phase>S</phase>
          <azimuth>212.9</azimuth>
          <distance>1.438</distance>
          <timeResidual>0.19</timeResidual>
          <creationInfo>
            <agencyID>UW</agencyID>
            <creationTime>2012-02-27T16:51:22.000000Z</creationTime>
          </creationInfo>
        </arrival>
        <arrival publicID="quakeml:uw.anss.org/AssocArO/UW/3905713">
          <pickID>quakeml:uw.anss.org/Arrival/UW/3905713</pickID>
          <phase>P</phase>
          <azimuth>126.9</azimuth>
          <distance>1.302</distance>
          <timeResidual>2.02</timeResidual>
          <creationInfo>
            <agencyID>UW</agencyID>
            <creationTime>2012-02-27T16:51:22.000000Z</creationTime>
          </creationInfo>
        </arrival>
        <arrival publicID="quakeml:uw.anss.org/AssocArO/UW/3905718">
          <pickID>quakeml:uw.anss.org/Arrival/UW/3905718</pickID>
          <phase>P</phase>
          <azimuth>313.1</azimuth>
          <timeResidual>0.03</timeResidual>
          <creationInfo>
            <agencyID>UW</agencyID>
            <creationTime>2012-02-27T16:51:22.000000Z</creationTime>
          </creationInfo>
        </arrival>
        <arrival publicID="quakeml:uw.anss.org/AssocArO/UW/3905723">
          <pickID>quakeml:uw.anss.org/Arrival/UW/3905723</pickID>
          <phase>S</phase>
          <azimuth>313.1</azimuth>
          <timeResidual>-0.7</timeResidual>
          <creationInfo>
            <agencyID>UW</agencyID>
            <creationTime>2012-02-27T16:51:22.000000Z</creationTime>
          </creationInfo>
        </arrival>
        <arrival publicID="quakeml:uw.anss.org/AssocArO/UW/3905728">
          <pickID>quakeml:uw.anss.org/Arrival/UW/3905728</pickID>
          <phase>P</phase>
          <azimuth>139.7</azimuth>
          <distance>1.634</distance>
          <timeResidual>1.88</timeResidual>
          <creationInfo>
            <agencyID>UW</agencyID>
            <creationTime>2012-02-27T16:51:22.000000Z</creationTime>
          </creationInfo>
        </arrival>
        <arrival publicID="quakeml:uw.anss.org/AssocArO/UW/3905733">
          <pickID>quakeml:uw.anss.org/Arrival/UW/3905733</pickID>
          <phase>P</phase>
          <timeResidual>0.22</timeResidual>
          <creationInfo>
            <agencyID>UW</agencyID>
            <creationTime>2012-02-27T16:51:22.000000Z</creationTime>
          </creationInfo>
        </arrival>
        <arrival publicID="quakeml:uw.anss.org/AssocArO/UW/3905738">
          <pickID>quakeml:uw.anss.org/Arrival/UW/3905738</pickID>
          <phase>P</phase>
          <azimuth>198.8</azimuth>
          <distance>0.4609</distance>
          <timeResidual>-0.29</timeResidual>
          <creationInfo>
            <agencyID>UW</agencyID>
            <creationTime>2012-02-27T16:51:22.000000Z</creationTime>
          </creationInfo>
        </arrival>
        <arrival publicID="quakeml:uw.anss.org/AssocArO/UW/3905743">
          <pickID>quakeml:uw.anss.org/Arrival/UW/3905743</pickID>
          <phase>S</phase>
          <azimuth>198.8</azimuth>
          <distance>0.4609</distance>
          <timeResidual>-0.4</timeResidual>
          <creationInfo>
            <agencyID>UW</agencyID>
            <creationTime>2012-02-27T16:51:22.000000Z</creationTime>
          </creationInfo>
        </arrival>
        <arrival publicID="quakeml:uw.anss.org/AssocArO/UW/3905748">
          <pickID>quakeml:uw.anss.org/Arrival/UW/3905748</pickID>
          <phase>P</phase>
          <azimuth>177.6</azimuth>
          <timeResidual>0.74</timeResidual>
          <creationInfo>
            <agencyID>UW</agencyID>
            <creationTime>2012-02-27T16:51:22.000000Z</creationTime>
          </creationInfo>
        </arrival>
        <arrival publicID="quakeml:uw.anss.org/AssocArO/UW/3905753">
          <pickID>quakeml:uw.anss.org/Arrival/UW/3905753</pickID>
          <phase>S</phase>
          <azimuth>177.6</azimuth>
          <timeResidual>-1.21</timeResidual>
          <creationInfo>
            <agencyID>UW</agencyID>
            <creationTime>2012-02-27T16:51:22.000000Z</creationTime>
          </creationInfo>
        </arrival>
        <arrival publicID="quakeml:uw.anss.org/AssocArO/UW/3905758">
          <pickID>quakeml:uw.anss.org/Arrival/UW/3905758</pickID>
          <phase>P</phase>
          <azimuth>181.6</azimuth>
          <distance>1.917</distance>
          <timeResidual>1.02</timeResidual>
          <creationInfo>
            <agencyID>UW</agencyID>
            <creationTime>2012-02-27T16:51:22.000000Z</creationTime>
          </creationInfo>
        </arrival>
        <arrival publicID="quakeml:uw.anss.org/AssocArO/UW/3905763">
          <pickID>quakeml:uw.anss.org/Arrival/UW/3905763</pickID>
          <phase>P</phase>
          <timeResidual>0.55</timeResidual>
          <creationInfo>
            <agencyID>UW</agencyID>
            <creationTime>2012-02-27T16:51:22.000000Z</creationTime>
          </creationInfo>
        </arrival>
        <arrival publicID="quakeml:uw.anss.org/AssocArO/UW/3905768">
          <pickID>quakeml:uw.anss.org/Arrival/UW/3905768</pickID>
          <phase>S</phase>
          <timeResidual>-0.32</timeResidual>
          <creationInfo>
            <agencyID>UW</agencyID>
            <creationTime>2012-02-27T16:51:22.000000Z</creationTime>
          </creationInfo>
        </arrival>
        <arrival publicID="quakeml:uw.anss.org/AssocArO/UW/3905773">
          <pickID>quakeml:uw.anss.org/Arrival/UW/3905773</pickID>
          <phase>P</phase>
          <azimuth>148.4</azimuth>
          <distance>0.4832</distance>
          <timeResidual>-0.06</timeResidual>
          <creationInfo>
            <agencyID>UW</agencyID>
            <creationTime>2012-02-27T16:51:22.000000Z</creationTime>
          </creationInfo>
        </arrival>
        <arrival publicID="quakeml:uw.anss.org/AssocArO/UW/3905778">
          <pickID>quakeml:uw.anss.org/Arrival/UW/3905778</pickID>
          <phase>S</phase>
          <azimuth>148.4</azimuth>
          <distance>0.4832</distance>
          <timeResidual>-0.38</timeResidual>
          <creationInfo>
            <agencyID>UW</agencyID>
            <creationTime>2012-02-27T16:51:22.000000Z</creationTime>
          </creationInfo>
        </arrival>
        <arrival publicID="quakeml:uw.anss.org/AssocArO/UW/3905783">
          <pickID>quakeml:uw.anss.org/Arrival/UW/3905783</pickID>
          <phase>P</phase>
          <azimuth>301.3</azimuth>
          <timeResidual>0.13</timeResidual>
          <creationInfo>
            <agencyID>UW</agencyID>
            <creationTime>2012-02-27T16:51:22.000000Z</creationTime>
          </creationInfo>
        </arrival>
        <arrival publicID="quakeml:uw.anss.org/AssocArO/UW/3905788">
          <pickID>quakeml:uw.anss.org/Arrival/UW/3905788</pickID>
          <phase>S</phase>
          <azimuth>301.3</azimuth>
          <timeResidual>-1.27</timeResidual>
          <creationInfo>
            <agencyID>UW</agencyID>
            <creationTime>2012-02-27T16:51:22.000000Z</creationTime>
          </creationInfo>
        </arrival>
        <arrival publicID="quakeml:uw.anss.org/AssocArO/UW/3905793">
          <pickID>quakeml:uw.anss.org/Arrival/UW/3905793</pickID>
          <phase>P</phase>
          <azimuth>190.3</azimuth>
          <distance>1.328</distance>
          <timeResidual>0.5</timeResidual>
          <creationInfo>
            <agencyID>UW</agencyID>
            <creationTime>2012-02-27T16:51:22.000000Z</creationTime>
          </creationInfo>
        </arrival>
        <arrival publicID="quakeml:uw.anss.org/AssocArO/UW/3905798">
          <pickID>quakeml:uw.anss.org/Arrival/UW/3905798</pickID>
          <phase>P</phase>
          <azimuth>182.3</azimuth>
          <distance>0.07583</distance>
          <timeResidual>-0.12</timeResidual>
          <creationInfo>
            <agencyID>UW</agencyID>
            <creationTime>2012-02-27T16:51:22.000000Z</creationTime>
          </creationInfo>
        </arrival>
        <arrival publicID="quakeml:uw.anss.org/AssocArO/UW/3905803">
          <pickID>quakeml:uw.anss.org/Arrival/UW/3905803</pickID>
          <phase>P</phase>
          <azimuth>313.1</azimuth>
          <timeResidual>0.07</timeResidual>
          <creationInfo>
            <agencyID>UW</agencyID>
            <creationTime>2012-02-27T16:51:22.000000Z</creationTime>
          </creationInfo>
        </arrival>
        <arrival publicID="quakeml:uw.anss.org/AssocArO/UW/3905808">
          <pickID>quakeml:uw.anss.org/Arrival/UW/3905808</pickID>
          <phase>P</phase>
          <azimuth>181.8</azimuth>
          <timeResidual>0.28</timeResidual>
          <creationInfo>
            <agencyID>UW</agencyID>
            <creationTime>2012-02-27T16:51:22.000000Z</creationTime>
          </creationInfo>
        </arrival>
        <arrival publicID="quakeml:uw.anss.org/AssocArO/UW/3905813">
          <pickID>quakeml:uw.anss.org/Arrival/UW/3905813</pickID>
          <phase>S</phase>
          <azimuth>181.8</azimuth>
          <timeResidual>-0.18</timeResidual>
          <creationInfo>
            <agencyID>UW</agencyID>
            <creationTime>2012-02-27T16:51:22.000000Z</creationTime>
          </creationInfo>
        </arrival>
        <arrival publicID="quakeml:uw.anss.org/AssocArO/UW/3905818">
          <pickID>quakeml:uw.anss.org/Arrival/UW/3905818</pickID>
          <phase>P</phase>
          <azimuth>175.4</azimuth>
          <timeResidual>-0.62</timeResidual>
          <creationInfo>
            <agencyID>UW</agencyID>
            <creationTime>2012-02-27T16:51:22.000000Z</creationTime>
          </creationInfo>
        </arrival>
        <arrival publicID="quakeml:uw.anss.org/AssocArO/UW/3905823">
          <pickID>quakeml:uw.anss.org/Arrival/UW/3905823</pickID>
          <phase>P</phase>
          <timeResidual>0.27</timeResidual>
          <creationInfo>
            <agencyID>UW</agencyID>
            <creationTime>2012-02-27T16:51:22.000000Z</creationTime>
          </creationInfo>
        </arrival>
        <arrival publicID="quakeml:uw.anss.org/AssocArO/UW/3905828">
          <pickID>quakeml:uw.anss.org/Arrival/UW/3905828</pickID>
          <phase>S</phase>
          <timeResidual>-0.63</timeResidual>
          <creationInfo>
            <agencyID>UW</agencyID>
            <creationTime>2012-02-27T16:51:22.000000Z</creationTime>
          </creationInfo>
        </arrival>
        <arrival publicID="quakeml:uw.anss.org/AssocArO/UW/3905833">
          <pickID>quakeml:uw.anss.org/Arrival/UW/3905833</pickID>
          <phase>P</phase>
          <azimuth>239.6</azimuth>
          <timeResidual>0.86</timeResidual>
          <creationInfo>
            <agencyID>UW</agencyID>
            <creationTime>2012-02-27T16:51:22.000000Z</creationTime>
          </creationInfo>
        </arrival>
        <arrival publicID="quakeml:uw.anss.org/AssocArO/UW/3905838">
          <pickID>quakeml:uw.anss.org/Arrival/UW/3905838</pickID>
          <phase>P</phase>
          <timeResidual>0.65</timeResidual>
          <creationInfo>
            <agencyID>UW</agencyID>
            <creationTime>2012-02-27T16:51:22.000000Z</creationTime>
          </creationInfo>
        </arrival>
        <arrival publicID="quakeml:uw.anss.org/AssocArO/UW/3905843">
          <pickID>quakeml:uw.anss.org/Arrival/UW/3905843</pickID>
          <phase>P</phase>
          <azimuth>131.2</azimuth>
          <distance>1.741</distance>
          <timeResidual>1.95</timeResidual>
          <creationInfo>
            <agencyID>UW</agencyID>
            <creationTime>2012-02-27T16:51:22.000000Z</creationTime>
          </creationInfo>
        </arrival>
        <arrival publicID="quakeml:uw.anss.org/AssocArO/UW/3905848">
          <pickID>quakeml:uw.anss.org/Arrival/UW/3905848</pickID>
          <phase>S</phase>
          <azimuth>131.2</azimuth>
          <distance>1.741</distance>
          <timeResidual>2.02</timeResidual>
          <creationInfo>
            <agencyID>UW</agencyID>
            <creationTime>2012-02-27T16:51:22.000000Z</creationTime>
          </creationInfo>
        </arrival>
        <arrival publicID="quakeml:uw.anss.org/AssocArO/UW/3905853">
          <pickID>quakeml:uw.anss.org/Arrival/UW/3905853</pickID>
          <phase>P</phase>
          <azimuth>177.5</azimuth>
          <distance>1.402</distance>
          <timeResidual>0.84</timeResidual>
          <creationInfo>
            <agencyID>UW</agencyID>
            <creationTime>2012-02-27T16:51:22.000000Z</creationTime>
          </creationInfo>
        </arrival>
        <arrival publicID="quakeml:uw.anss.org/AssocArO/UW/3905858">
          <pickID>quakeml:uw.anss.org/Arrival/UW/3905858</pickID>
          <phase>P</phase>
          <timeResidual>0.67</timeResidual>
          <creationInfo>
            <agencyID>UW</agencyID>
            <creationTime>2012-02-27T16:51:22.000000Z</creationTime>
          </creationInfo>
        </arrival>
        <arrival publicID="quakeml:uw.anss.org/AssocArO/UW/3905863">
          <pickID>quakeml:uw.anss.org/Arrival/UW/3905863</pickID>
          <phase>P</phase>
          <azimuth>175.4</azimuth>
          <distance>1.06</distance>
          <timeResidual>0.77</timeResidual>
          <creationInfo>
            <agencyID>UW</agencyID>
            <creationTime>2012-02-27T16:51:22.000000Z</creationTime>
          </creationInfo>
        </arrival>
        <arrival publicID="quakeml:uw.anss.org/AssocArO/UW/3905868">
          <pickID>quakeml:uw.anss.org/Arrival/UW/3905868</pickID>
          <phase>P</phase>
          <azimuth>129.9</azimuth>
          <distance>1.626</distance>
          <timeResidual>1.95</timeResidual>
          <creationInfo>
            <agencyID>UW</agencyID>
            <creationTime>2012-02-27T16:51:22.000000Z</creationTime>
          </creationInfo>
        </arrival>
        <arrival publicID="quakeml:uw.anss.org/AssocArO/UW/3905873">
          <pickID>quakeml:uw.anss.org/Arrival/UW/3905873</pickID>
          <phase>P</phase>
          <azimuth>220.4</azimuth>
          <distance>1.115</distance>
          <timeResidual>1.27</timeResidual>
          <creationInfo>
            <agencyID>UW</agencyID>
            <creationTime>2012-02-27T16:51:22.000000Z</creationTime>
          </creationInfo>
        </arrival>
        <arrival publicID="quakeml:uw.anss.org/AssocArO/UW/3905878">
          <pickID>quakeml:uw.anss.org/Arrival/UW/3905878</pickID>
          <phase>P</phase>
          <azimuth>152.3</azimuth>
          <distance>1.902</distance>
          <timeResidual>0.92</timeResidual>
          <creationInfo>
            <agencyID>UW</agencyID>
            <creationTime>2012-02-27T16:51:22.000000Z</creationTime>
          </creationInfo>
        </arrival>
        <arrival publicID="quakeml:uw.anss.org/AssocArO/UW/3905883">
          <pickID>quakeml:uw.anss.org/Arrival/UW/3905883</pickID>
          <phase>P</phase>
          <azimuth>254.1</azimuth>
          <distance>0.6452</distance>
          <timeResidual>0.35</timeResidual>
          <creationInfo>
            <agencyID>UW</agencyID>
            <creationTime>2012-02-27T16:51:22.000000Z</creationTime>
          </creationInfo>
        </arrival>
        <arrival publicID="quakeml:uw.anss.org/AssocArO/UW/3905888">
          <pickID>quakeml:uw.anss.org/Arrival/UW/3905888</pickID>
          <phase>S</phase>
          <azimuth>254.1</azimuth>
          <distance>0.6452</distance>
          <timeResidual>0.04</timeResidual>
          <creationInfo>
            <agencyID>UW</agencyID>
            <creationTime>2012-02-27T16:51:22.000000Z</creationTime>
          </creationInfo>
        </arrival>
      </origin>
      <magnitude publicID="quakeml:uw.anss.org/Netmag/UW/451428">
        <mag>
          <value>2.1</value>
          <uncertainty>0.07</uncertainty>
        </mag>
        <type>Md</type>
        <originID>quakeml:uw.anss.org/Origin/UW/539153</originID>
        <methodID>smi:uw.anss.org/magnitude/Crosson</methodID>
        <stationCount>6</stationCount>
        <evaluationMode>manual</evaluationMode>
