<?xml version='1.0' encoding='utf-8'?>
<q:quakeml xmlns="http://quakeml.org/xmlns/bed/1.2" xmlns:q="http://quakeml.org/xmlns/quakeml/1.2" xmlns:ns0="http://anss.org/xmlns/catalog/0.1">
  <eventParameters publicID="smi:local/599927e9-024c-4b9c-b092-1a93f6f5b6a9">
    <event publicID="quakeml:uw.anss.org/Event/UW/10253563" ns0:datasource="uw" ns0:dataid="uw10253563" ns0:eventsource="uw" ns0:eventid="10253563">
      <preferredOriginID>quakeml:uw.anss.org/Origin/UW/530508</preferredOriginID>
      <preferredMagnitudeID>quakeml:uw.anss.org/Netmag/UW/443403</preferredMagnitudeID>
      <type>earthquake</type>
      <creationInfo>
        <agencyID>UW</agencyID>
        <creationTime>2012-02-27T16:33:16.000000Z</creationTime>
        <version>3</version>
      </creationInfo>
      <origin publicID="quakeml:uw.anss.org/Origin/UW/530508" ns0:datasource="uw" ns0:dataid="uw10253563" ns0:eventsource="uw" ns0:eventid="10253563">
        <time>
          <value>1990-04-03T02:18:20.810000Z</value>
          <uncertainty>0.28</uncertainty>
        </time>
        <latitude>
          <value>48.8356667</value>
          <uncertainty>1.65</uncertainty>
        </latitude>
        <longitude>
          <value>-122.1748333</value>
          <uncertainty>1.49</uncertainty>
        </longitude>
        <depth>
          <value>931.0</value>
          <uncertainty>4480.0</uncertainty>
        </depth>
        <depthType>operator assigned</depthType>
        <timeFixed>false</timeFixed>
        <epicenterFixed>true</epicenterFixed>
        <methodID>smi:uw.anss.org/origin/spong</methodID>
        <quality>
          <associatedPhaseCount>153</associatedPhaseCount>
          <usedPhaseCount>29</usedPhaseCount>
          <associatedStationCount>115</associatedStationCount>
          <usedStationCount>0</usedStationCount>
          <standardError>0.46</standardError>
          <azimuthalGap>91.0</azimuthalGap>
        </quality>
        <type>hypocenter</type>
        <evaluationMode>manual</evaluationMode>
        <evaluationStatus>final</evaluationStatus>
        <creationInfo>
          <agencyID>UW</agencyID>
          <creationTime>2012-02-27T16:33:16.000000Z</creationTime>
        </creationInfo>
        <originUncertainty>
          <preferredDescription>horizontal uncertainty</preferredDescription>
          <horizontalUncertainty>2223.0</horizontalUncertainty>
        </originUncertainty>
        <arrival publicID="quakeml:uw.anss.org/AssocArO/UW/3742838">
          <pickID>quakeml:uw.anss.org/Arrival/UW/3742838</pickID>
          <phase>P</phase>
          <azimuth>288.6</azimuth>
          <timeResidual>-0.36</timeResidual>
          <creationInfo>
            <agencyID>UW</agencyID>
            <creationTime>2012-02-27T16:33:16.000000Z</creationTime>
          </creationInfo>
        </arrival>
        <arrival publicID="quakeml:uw.anss.org/AssocArO/UW/3742843">
          <pickID>quakeml:uw.anss.org/Arrival/UW/3742843</pickID>
          <phase>P</phase>
          <azimuth>156.2</azimuth>
          <distance>2.292</distance>
          <timeResidual>0.17</timeResidual>
          <creationInfo>
            <agencyID>UW</agencyID>
            <creationTime>2012-02-27T16:33:16.000000Z</creationTime>
          </creationInfo>
        </arrival>
        <arrival publicID="quakeml:uw.anss.org/AssocArO/UW/3742848">
          <pickID>quakeml:uw.anss.org/Arrival/UW/3742848</pickID>
          <phase>S</phase>
          <azimuth>156.2</azimuth>
          <distance>2.292</distance>
          <timeResidual>0.87</timeResidual>
          <creationInfo>
            <agencyID>UW</agencyID>
            <creationTime>2012-02-27T16:33:16.000000Z</creationTime>
          </creationInfo>
        </arrival>
        <arrival publicID="quakeml:uw.anss.org/AssocArO/UW/3742853">
          <pickID>quakeml:uw.anss.org/Arrival/UW/3742853</pickID>
          <phase>P</phase>
          <azimuth>182.2</azimuth>
          <distance>1.797</distance>
          <timeResidual>0.03</timeResidual>
          <creationInfo>
            <agencyID>UW</agencyID>
            <creationTime>2012-02-27T16:33:16.000000Z</creationTime>
          </creationInfo>
        </arrival>
        <arrival publicID="quakeml:uw.anss.org/AssocArO/UW/3742858">
          <pickID>quakeml:uw.anss.org/Arrival/UW/3742858</pickID>
          <phase>S</phase>
          <azimuth>182.2</azimuth>
          <distance>1.797</distance>
          <timeResidual>0.68</timeResidual>
          <creationInfo>
            <agencyID>UW</agencyID>
            <creationTime>2012-02-27T16:33:16.000000Z</creationTime>
          </creationInfo>
        </arrival>
        <arrival publicID="quakeml:uw.anss.org/AssocArO/UW/3742863">
          <pickID>quakeml:uw.anss.org/Arrival/UW/3742863</pickID>
          <phase>P</phase>
          <azimuth>150.1</azimuth>
          <distance>3.383</distance>
          <timeResidual>-0.47</timeResidual>
          <creationInfo>
            <agencyID>UW</agencyID>
            <creationTime>2012-02-27T16:33:16.000000Z</creationTime>
          </creationInfo>
        </arrival>
        <arrival publicID="quakeml:uw.anss.org/AssocArO/UW/3742868">
          <pickID>quakeml:uw.anss.org/Arrival/UW/3742868</pickID>
          <phase>P</phase>
          <azimuth>197.1</azimuth>
          <distance>2.467</distance>
          <timeResidual>0.06</timeResidual>
          <creationInfo>
            <agencyID>UW</agencyID>
            <creationTime>2012-02-27T16:33:16.000000Z</creationTime>
          </creationInfo>
        </arrival>
        <arrival publicID="quakeml:uw.anss.org/AssocArO/UW/3742873">
          <pickID>quakeml:uw.anss.org/Arrival/UW/3742873</pickID>
          <phase>P</phase>
          <azimuth>170.3</azimuth>
          <distance>2.311</distance>
          <timeResidual>0.85</timeResidual>
          <creationInfo>
            <agencyID>UW</agencyID>
            <creationTime>2012-02-27T16:33:16.000000Z</creationTime>
          </creationInfo>
        </arrival>
        <arrival publicID="quakeml:uw.anss.org/AssocArO/UW/3742878">
          <pickID>quakeml:uw.anss.org/Arrival/UW/3742878</pickID>
          <phase>S</phase>
          <azimuth>170.3</azimuth>
          <distance>2.311</distance>
          <timeResidual>0.09</timeResidual>
          <creationInfo>
            <agencyID>UW</agencyID>
            <creationTime>2012-02-27T16:33:16.000000Z</creationTime>
          </creationInfo>
        </arrival>
        <arrival publicID="quakeml:uw.anss.org/AssocArO/UW/3742883">
          <pickID>quakeml:uw.anss.org/Arrival/UW/3742883</pickID>
          <phase>P</phase>
          <azimuth>129.7</azimuth>
          <distance>2.275</distance>
          <timeResidual>2.18</timeResidual>
          <creationInfo>
            <agencyID>UW</agencyID>
            <creationTime>2012-02-27T16:33:16.000000Z</creationTime>
          </creationInfo>
        </arrival>
        <arrival publicID="quakeml:uw.anss.org/AssocArO/UW/3742888">
          <pickID>quakeml:uw.anss.org/Arrival/UW/3742888</pickID>
          <phase>P</phase>
          <azimuth>171.0</azimuth>
          <timeResidual>0.11</timeResidual>
          <creationInfo>
            <agencyID>UW</agencyID>
            <creationTime>2012-02-27T16:33:16.000000Z</creationTime>
          </creationInfo>
        </arrival>
        <arrival publicID="quakeml:uw.anss.org/AssocArO/UW/3742893">
          <pickID>quakeml:uw.anss.org/Arrival/UW/3742893</pickID>
          <phase>S</phase>
          <azimuth>171.0</azimuth>
          <timeResidual>-0.16</timeResidual>
          <creationInfo>
            <agencyID>UW</agencyID>
            <creationTime>2012-02-27T16:33:16.000000Z</creationTime>
          </creationInfo>
        </arrival>
        <arrival publicID="quakeml:uw.anss.org/AssocArO/UW/3742898">
          <pickID>quakeml:uw.anss.org/Arrival/UW/3742898</pickID>
          <phase>P</phase>
          <azimuth>196.1</azimuth>
          <distance>3.325</distance>
          <timeResidual>-0.72</timeResidual>
          <creationInfo>
            <agencyID>UW</agencyID>
            <creationTime>2012-02-27T16:33:16.000000Z</creationTime>
          </creationInfo>
        </arrival>
        <arrival publicID="quakeml:uw.anss.org/AssocArO/UW/3742903">
          <pickID>quakeml:uw.anss.org/Arrival/UW/3742903</pickID>
          <phase>P</phase>
          <azimuth>199.5</azimuth>
          <distance>1.973</distance>
          <timeResidual>-0.5</timeResidual>
          <creationInfo>
            <agencyID>UW</agencyID>
            <creationTime>2012-02-27T16:33:16.000000Z</creationTime>
          </creationInfo>
        </arrival>
        <arrival publicID="quakeml:uw.anss.org/AssocArO/UW/3742908">
          <pickID>quakeml:uw.anss.org/Arrival/UW/3742908</pickID>
          <phase>S</phase>
          <azimuth>199.5</azimuth>
          <distance>1.973</distance>
          <timeResidual>1.72</timeResidual>
          <creationInfo>
            <agencyID>UW</agencyID>
            <creationTime>2012-02-27T16:33:16.000000Z</creationTime>
          </creationInfo>
        </arrival>
        <arrival publicID="quakeml:uw.anss.org/AssocArO/UW/3742913">
          <pickID>quakeml:uw.anss.org/Arrival/UW/3742913</pickID>
          <phase>P</phase>
          <azimuth>217.5</azimuth>
          <distance>1.889</distance>
          <timeResidual>0.25</timeResidual>
          <creationInfo>
            <agencyID>UW</agencyID>
            <creationTime>2012-02-27T16:33:16.000000Z</creationTime>
          </creationInfo>
        </arrival>
        <arrival publicID="quakeml:uw.anss.org/AssocArO/UW/3742918">
          <pickID>quakeml:uw.anss.org/Arrival/UW/3742918</pickID>
          <phase>S</phase>
          <azimuth>217.5</azimuth>
          <distance>1.889</distance>
          <timeResidual>1.91</timeResidual>
          <creationInfo>
            <agencyID>UW</agencyID>
            <creationTime>2012-02-27T16:33:16.000000Z</creationTime>
          </creationInfo>
        </arrival>
        <arrival publicID="quakeml:uw.anss.org/AssocArO/UW/3742923">
          <pickID>quakeml:uw.anss.org/Arrival/UW/3742923</pickID>
          <phase>P</phase>
          <azimuth>146.4</azimuth>
          <distance>3.119</distance>
          <timeResidual>0.3</timeResidual>
          <creationInfo>
            <agencyID>UW</agencyID>
            <creationTime>2012-02-27T16:33:16.000000Z</creationTime>
          </creationInfo>
        </arrival>
        <arrival publicID="quakeml:uw.anss.org/AssocArO/UW/3742928">
          <pickID>quakeml:uw.anss.org/Arrival/UW/3742928</pickID>
          <phase>P</phase>
          <azimuth>182.2</azimuth>
          <distance>1.284</distance>
          <timeResidual>0.53</timeResidual>
          <creationInfo>
            <agencyID>UW</agencyID>
            <creationTime>2012-02-27T16:33:16.000000Z</creationTime>
          </creationInfo>
        </arrival>
        <arrival publicID="quakeml:uw.anss.org/AssocArO/UW/3742933">
          <pickID>quakeml:uw.anss.org/Arrival/UW/3742933</pickID>
          <phase>P</phase>
          <azimuth>180.1</azimuth>
          <distance>2.663</distance>
          <timeResidual>1.05</timeResidual>
          <creationInfo>
            <agencyID>UW</agencyID>
            <creationTime>2012-02-27T16:33:16.000000Z</creationTime>
          </creationInfo>
        </arrival>
        <arrival publicID="quakeml:uw.anss.org/AssocArO/UW/3742938">
          <pickID>quakeml:uw.anss.org/Arrival/UW/3742938</pickID>
          <phase>P</phase>
          <azimuth>173.6</azimuth>
          <timeResidual>0.46</timeResidual>
          <creationInfo>
            <agencyID>UW</agencyID>
            <creationTime>2012-02-27T16:33:16.000000Z</creationTime>
          </creationInfo>
        </arrival>
        <arrival publicID="quakeml:uw.anss.org/AssocArO/UW/3742943">
          <pickID>quakeml:uw.anss.org/Arrival/UW/3742943</pickID>
          <phase>S</phase>
          <azimuth>173.6</azimuth>
          <timeResidual>0.7</timeResidual>
          <creationInfo>
            <agencyID>UW</agencyID>
            <creationTime>2012-02-27T16:33:16.000000Z</creationTime>
          </creationInfo>
        </arrival>
        <arrival publicID="quakeml:uw.anss.org/AssocArO/UW/3742948">
          <pickID>quakeml:uw.anss.org/Arrival/UW/3742948</pickID>
          <phase>P</phase>
          <azimuth>188.3</azimuth>
          <distance>2.715</distance>
          <timeResidual>0.68</timeResidual>
          <creationInfo>
            <agencyID>UW</agencyID>
            <creationTime>2012-02-27T16:33:16.000000Z</creationTime>
          </creationInfo>
        </arrival>
        <arrival publicID="quakeml:uw.anss.org/AssocArO/UW/3742953">
          <pickID>quakeml:uw.anss.org/Arrival/UW/3742953</pickID>
          <phase>P</phase>
          <azimuth>139.2</azimuth>
          <distance>2.968</distance>
          <timeResidual>2.02</timeResidual>
          <creationInfo>
            <agencyID>UW</agencyID>
            <creationTime>2012-02-27T16:33:16.000000Z</creationTime>
          </creationInfo>
        </arrival>
        <arrival publicID="quakeml:uw.anss.org/AssocArO/UW/3742958">
          <pickID>quakeml:uw.anss.org/Arrival/UW/3742958</pickID>
          <phase>P</phase>
          <azimuth>205.0</azimuth>
          <distance>0.5654</distance>
          <timeResidual>0.2</timeResidual>
          <creationInfo>
            <agencyID>UW</agencyID>
            <creationTime>2012-02-27T16:33:16.000000Z</creationTime>
          </creationInfo>
        </arrival>
        <arrival publicID="quakeml:uw.anss.org/AssocArO/UW/3742963">
          <pickID>quakeml:uw.anss.org/Arrival/UW/3742963</pickID>
          <phase>S</phase>
          <azimuth>205.0</azimuth>
          <distance>0.5654</distance>
          <timeResidual>1.36</timeResidual>
          <creationInfo>
            <agencyID>UW</agencyID>
            <creationTime>2012-02-27T16:33:16.000000Z</creationTime>
          </creationInfo>
        </arrival>
        <arrival publicID="quakeml:uw.anss.org/AssocArO/UW/3742968">
          <pickID>quakeml:uw.anss.org/Arrival/UW/3742968</pickID>
          <phase>P</phase>
          <azimuth>120.5</azimuth>
          <distance>2.173</distance>
          <timeResidual>2.02</timeResidual>
          <creationInfo>
            <agencyID>UW</agencyID>
            <creationTime>2012-02-27T16:33:16.000000Z</creationTime>
          </creationInfo>
        </arrival>
        <arrival publicID="quakeml:uw.anss.org/AssocArO/UW/3742978">
          <pickID>quakeml:uw.anss.org/Arrival/UW/3742978</pickID>
          <phase>S</phase>
          <azimuth>120.5</azimuth>
          <distance>2.173</distance>
          <timeResidual>3.84</timeResidual>
          <creationInfo>
            <agencyID>UW</agencyID>
            <creationTime>2012-02-27T16:33:16.000000Z</creationTime>
          </creationInfo>
        </arrival>
        <arrival publicID="quakeml:uw.anss.org/AssocArO/UW/3742983">
          <pickID>quakeml:uw.anss.org/Arrival/UW/3742983</pickID>
          <phase>P</phase>
          <azimuth>131.4</azimuth>
          <distance>2.764</distance>
          <timeResidual>3.65</timeResidual>
          <creationInfo>
            <agencyID>UW</agencyID>
            <creationTime>2012-02-27T16:33:16.000000Z</creationTime>
          </creationInfo>
        </arrival>
        <arrival publicID="quakeml:uw.anss.org/AssocArO/UW/3742993">
          <pickID>quakeml:uw.anss.org/Arrival/UW/3742993</pickID>
          <phase>S</phase>
          <azimuth>131.4</azimuth>
          <distance>2.764</distance>
          <timeResidual>8.12</timeResidual>
          <creationInfo>
            <agencyID>UW</agencyID>
            <creationTime>2012-02-27T16:33:16.000000Z</creationTime>
          </creationInfo>
        </arrival>
        <arrival publicID="quakeml:uw.anss.org/AssocArO/UW/3743003">
          <pickID>quakeml:uw.anss.org/Arrival/UW/3743003</pickID>
          <phase>P</phase>
          <timeResidual>0.14</timeResidual>
          <creationInfo>
            <agencyID>UW</agencyID>
            <creationTime>2012-02-27T16:33:16.000000Z</creationTime>
          </creationInfo>
        </arrival>
        <arrival publicID="quakeml:uw.anss.org/AssocArO/UW/3743023">
          <pickID>quakeml:uw.anss.org/Arrival/UW/3743023</pickID>
          <phase>P</phase>
          <azimuth>141.9</azimuth>
          <distance>2.547</distance>
          <timeResidual>1.07</timeResidual>
          <creationInfo>
            <agencyID>UW</agencyID>
            <creationTime>2012-02-27T16:33:16.000000Z</creationTime>
          </creationInfo>
        </arrival>
        <arrival publicID="quakeml:uw.anss.org/AssocArO/UW/3743028">
          <pickID>quakeml:uw.anss.org/Arrival/UW/3743028</pickID>
          <phase>S</phase>
          <azimuth>141.9</azimuth>
          <distance>2.547</distance>
          <timeResidual>4.18</timeResidual>
          <creationInfo>
            <agencyID>UW</agencyID>
            <creationTime>2012-02-27T16:33:16.000000Z</creationTime>
          </creationInfo>
        </arrival>
        <arrival publicID="quakeml:uw.anss.org/AssocArO/UW/3743033">
          <pickID>quakeml:uw.anss.org/Arrival/UW/3743033</pickID>
          <phase>P</phase>
          <azimuth>180.2</azimuth>
          <distance>2.628</distance>
          <timeResidual>0.89</timeResidual>
          <creationInfo>
            <agencyID>UW</agencyID>
            <creationTime>2012-02-27T16:33:16.000000Z</creationTime>
          </creationInfo>
        </arrival>
        <arrival publicID="quakeml:uw.anss.org/AssocArO/UW/3743038">
          <pickID>quakeml:uw.anss.org/Arrival/UW/3743038</pickID>
          <phase>P</phase>
          <azimuth>188.7</azimuth>
          <distance>2.204</distance>
          <timeResidual>-0.21</timeResidual>
          <creationInfo>
            <agencyID>UW</agencyID>
            <creationTime>2012-02-27T16:33:16.000000Z</creationTime>
          </creationInfo>
        </arrival>
        <arrival publicID="quakeml:uw.anss.org/AssocArO/UW/3743043">
          <pickID>quakeml:uw.anss.org/Arrival/UW/3743043</pickID>
          <phase>S</phase>
          <azimuth>188.7</azimuth>
          <distance>2.204</distance>
          <timeResidual>-0.05</timeResidual>
          <creationInfo>
            <agencyID>UW</agencyID>
            <creationTime>2012-02-27T16:33:16.000000Z</creationTime>
          </creationInfo>
        </arrival>
        <arrival publicID="quakeml:uw.anss.org/AssocArO/UW/3743048">
          <pickID>quakeml:uw.anss.org/Arrival/UW/3743048</pickID>
          <phase>P</phase>
          <azimuth>206.6</azimuth>
          <distance>1.326</distance>
          <timeResidual>-0.01</timeResidual>
          <creationInfo>
            <agencyID>UW</agencyID>
            <creationTime>2012-02-27T16:33:16.000000Z</creationTime>
          </creationInfo>
        </arrival>
        <arrival publicID="quakeml:uw.anss.org/AssocArO/UW/3743053">
          <pickID>quakeml:uw.anss.org/Arrival/UW/3743053</pickID>
          <phase>P</phase>
          <azimuth>185.5</azimuth>
          <distance>2.412</distance>
          <timeResidual>0.32</timeResidual>
          <creationInfo>
            <agencyID>UW</agencyID>
            <creationTime>2012-02-27T16:33:16.000000Z</creationTime>
          </creationInfo>
        </arrival>
        <arrival publicID="quakeml:uw.anss.org/AssocArO/UW/3743058">
          <pickID>quakeml:uw.anss.org/Arrival/UW/3743058</pickID>
          <phase>S</phase>
          <azimuth>185.5</azimuth>
          <distance>2.412</distance>
          <timeResidual>0.42</timeResidual>
          <creationInfo>
            <agencyID>UW</agencyID>
            <creationTime>2012-02-27T16:33:16.000000Z</creationTime>
          </creationInfo>
        </arrival>
        <arrival publicID="quakeml:uw.anss.org/AssocArO/UW/3743063">
          <pickID>quakeml:uw.anss.org/Arrival/UW/3743063</pickID>
          <phase>P</phase>
