<?xml version='1.0' encoding='utf-8'?>
<q:quakeml xmlns="http://quakeml.org/xmlns/bed/1.2" xmlns:q="http://quakeml.org/xmlns/quakeml/1.2" xmlns:ns0="http://anss.org/xmlns/catalog/0.1">
  <eventParameters publicID="smi:local/f7cb75c6-c547-42af-9321-cb56b235bf87">
    <event publicID="quakeml:uw.anss.org/Event/UW/10258783" ns0:datasource="uw" ns0:dataid="uw10258783" ns0:eventsource="uw" ns0:eventid="10258783">
      <preferredOriginID>quakeml:uw.anss.org/Origin/UW/535728</preferredOriginID>
      <preferredMagnitudeID>quakeml:uw.anss.org/Netmag/UW/448228</preferredMagnitudeID>
      <type>earthquake</type>
      <creationInfo>
        <agencyID>UW</agencyID>
        <creationTime>2012-02-27T16:43:45.000000Z</creationTime>
        <version>3</version>
      </creationInfo>
      <origin publicID="quakeml:uw.anss.org/Origin/UW/535728" ns0:datasource="uw" ns0:dataid="uw10258783" ns0:eventsource="uw" ns0:eventid="10258783">
        <time>
          <value>1990-04-15T01:49:52.160000Z</value>
          <uncertainty>0.38</uncertainty>
        </time>
        <latitude>
          <value>48.8235</value>
          <uncertainty>2.14</uncertainty>
        </latitude>
        <longitude>
          <value>-122.1981667</value>
          <uncertainty>1.59</uncertainty>
        </longitude>
        <depth>
          <value>602.0</value>
          <uncertainty>5740.0</uncertainty>
        </depth>
        <depthType>operator assigned</depthType>
        <timeFixed>false</timeFixed>
        <epicenterFixed>true</epicenterFixed>
        <methodID>smi:uw.anss.org/origin/spong</methodID>
        <quality>
          <associatedPhaseCount>41</associatedPhaseCount>
          <usedPhaseCount>24</usedPhaseCount>
          <associatedStationCount>31</associatedStationCount>
          <usedStationCount>0</usedStationCount>
          <standardError>0.44</standardError>
          <azimuthalGap>84.0</azimuthalGap>
        </quality>
        <type>hypocenter</type>
        <evaluationMode>manual</evaluationMode>
        <evaluationStatus>final</evaluationStatus>
        <creationInfo>
          <agencyID>UW</agencyID>
          <creationTime>2012-02-27T16:43:45.000000Z</creationTime>
        </creationInfo>
        <originUncertainty>
          <preferredDescription>horizontal uncertainty</preferredDescription>
          <horizontalUncertainty>2666.0</horizontalUncertainty>
        </originUncertainty>
        <arrival publicID="quakeml:uw.anss.org/AssocArO/UW/3840188">
          <pickID>quakeml:uw.anss.org/Arrival/UW/3840188</pickID>
          <phase>P</phase>
          <azimuth>289.3</azimuth>
          <timeResidual>-0.44</timeResidual>
          <creationInfo>
            <agencyID>UW</agencyID>
            <creationTime>2012-02-27T16:43:45.000000Z</creationTime>
          </creationInfo>
        </arrival>
        <arrival publicID="quakeml:uw.anss.org/AssocArO/UW/3840193">
          <pickID>quakeml:uw.anss.org/Arrival/UW/3840193</pickID>
          <phase>S</phase>
          <azimuth>289.3</azimuth>
          <timeResidual>-1.24</timeResidual>
          <creationInfo>
            <agencyID>UW</agencyID>
            <creationTime>2012-02-27T16:43:45.000000Z</creationTime>
          </creationInfo>
        </arrival>
        <arrival publicID="quakeml:uw.anss.org/AssocArO/UW/3840198">
          <pickID>quakeml:uw.anss.org/Arrival/UW/3840198</pickID>
          <phase>P</phase>
          <azimuth>206.2</azimuth>
          <distance>1.308</distance>
          <timeResidual>0.18</timeResidual>
          <creationInfo>
            <agencyID>UW</agencyID>
            <creationTime>2012-02-27T16:43:45.000000Z</creationTime>
          </creationInfo>
        </arrival>
        <arrival publicID="quakeml:uw.anss.org/AssocArO/UW/3840203">
          <pickID>quakeml:uw.anss.org/Arrival/UW/3840203</pickID>
          <phase>P</phase>
          <azimuth>120.8</azimuth>
          <distance>1.448</distance>
          <timeResidual>0.9</timeResidual>
          <creationInfo>
            <agencyID>UW</agencyID>
            <creationTime>2012-02-27T16:43:45.000000Z</creationTime>
          </creationInfo>
        </arrival>
        <arrival publicID="quakeml:uw.anss.org/AssocArO/UW/3840208">
          <pickID>quakeml:uw.anss.org/Arrival/UW/3840208</pickID>
          <phase>P</phase>
          <azimuth>331.2</azimuth>
          <timeResidual>-0.22</timeResidual>
          <creationInfo>
            <agencyID>UW</agencyID>
            <creationTime>2012-02-27T16:43:45.000000Z</creationTime>
          </creationInfo>
        </arrival>
        <arrival publicID="quakeml:uw.anss.org/AssocArO/UW/3840213">
          <pickID>quakeml:uw.anss.org/Arrival/UW/3840213</pickID>
          <phase>P</phase>
          <azimuth>133.8</azimuth>
          <distance>1.745</distance>
          <timeResidual>1.13</timeResidual>
          <creationInfo>
            <agencyID>UW</agencyID>
            <creationTime>2012-02-27T16:43:45.000000Z</creationTime>
          </creationInfo>
        </arrival>
        <arrival publicID="quakeml:uw.anss.org/AssocArO/UW/3840218">
          <pickID>quakeml:uw.anss.org/Arrival/UW/3840218</pickID>
          <phase>P</phase>
          <timeResidual>0.16</timeResidual>
          <creationInfo>
            <agencyID>UW</agencyID>
            <creationTime>2012-02-27T16:43:45.000000Z</creationTime>
          </creationInfo>
        </arrival>
        <arrival publicID="quakeml:uw.anss.org/AssocArO/UW/3840223">
          <pickID>quakeml:uw.anss.org/Arrival/UW/3840223</pickID>
          <phase>S</phase>
          <timeResidual>0.87</timeResidual>
          <creationInfo>
            <agencyID>UW</agencyID>
            <creationTime>2012-02-27T16:43:45.000000Z</creationTime>
          </creationInfo>
        </arrival>
        <arrival publicID="quakeml:uw.anss.org/AssocArO/UW/3840228">
          <pickID>quakeml:uw.anss.org/Arrival/UW/3840228</pickID>
          <phase>P</phase>
          <azimuth>172.6</azimuth>
          <distance>0.4036</distance>
          <timeResidual>-0.49</timeResidual>
          <creationInfo>
            <agencyID>UW</agencyID>
            <creationTime>2012-02-27T16:43:45.000000Z</creationTime>
          </creationInfo>
        </arrival>
        <arrival publicID="quakeml:uw.anss.org/AssocArO/UW/3840233">
          <pickID>quakeml:uw.anss.org/Arrival/UW/3840233</pickID>
          <phase>S</phase>
          <azimuth>172.6</azimuth>
          <distance>0.4036</distance>
          <timeResidual>1.79</timeResidual>
          <creationInfo>
            <agencyID>UW</agencyID>
            <creationTime>2012-02-27T16:43:45.000000Z</creationTime>
          </creationInfo>
        </arrival>
        <arrival publicID="quakeml:uw.anss.org/AssocArO/UW/3840253">
          <pickID>quakeml:uw.anss.org/Arrival/UW/3840253</pickID>
          <phase>P</phase>
          <azimuth>170.4</azimuth>
          <timeResidual>0.8</timeResidual>
          <creationInfo>
            <agencyID>UW</agencyID>
            <creationTime>2012-02-27T16:43:45.000000Z</creationTime>
          </creationInfo>
        </arrival>
        <arrival publicID="quakeml:uw.anss.org/AssocArO/UW/3840268">
          <pickID>quakeml:uw.anss.org/Arrival/UW/3840268</pickID>
          <phase>S</phase>
          <azimuth>170.4</azimuth>
          <timeResidual>-0.18</timeResidual>
          <creationInfo>
            <agencyID>UW</agencyID>
            <creationTime>2012-02-27T16:43:45.000000Z</creationTime>
          </creationInfo>
        </arrival>
        <arrival publicID="quakeml:uw.anss.org/AssocArO/UW/3840308">
          <pickID>quakeml:uw.anss.org/Arrival/UW/3840308</pickID>
          <phase>P</phase>
          <azimuth>175.3</azimuth>
          <distance>1.887</distance>
          <timeResidual>0.4</timeResidual>
          <creationInfo>
            <agencyID>UW</agencyID>
            <creationTime>2012-02-27T16:43:46.000000Z</creationTime>
          </creationInfo>
        </arrival>
        <arrival publicID="quakeml:uw.anss.org/AssocArO/UW/3840313">
          <pickID>quakeml:uw.anss.org/Arrival/UW/3840313</pickID>
          <phase>P</phase>
          <timeResidual>-0.08</timeResidual>
          <creationInfo>
            <agencyID>UW</agencyID>
            <creationTime>2012-02-27T16:43:46.000000Z</creationTime>
          </creationInfo>
        </arrival>
        <arrival publicID="quakeml:uw.anss.org/AssocArO/UW/3840318">
          <pickID>quakeml:uw.anss.org/Arrival/UW/3840318</pickID>
          <phase>P</phase>
          <azimuth>129.5</azimuth>
          <distance>0.5887</distance>
          <timeResidual>-0.2</timeResidual>
          <creationInfo>
            <agencyID>UW</agencyID>
            <creationTime>2012-02-27T16:43:46.000000Z</creationTime>
          </creationInfo>
        </arrival>
        <arrival publicID="quakeml:uw.anss.org/AssocArO/UW/3840323">
          <pickID>quakeml:uw.anss.org/Arrival/UW/3840323</pickID>
          <phase>S</phase>
          <azimuth>129.5</azimuth>
          <distance>0.5887</distance>
          <timeResidual>-0.05</timeResidual>
          <creationInfo>
            <agencyID>UW</agencyID>
            <creationTime>2012-02-27T16:43:46.000000Z</creationTime>
          </creationInfo>
        </arrival>
        <arrival publicID="quakeml:uw.anss.org/AssocArO/UW/3840328">
          <pickID>quakeml:uw.anss.org/Arrival/UW/3840328</pickID>
          <phase>P</phase>
          <azimuth>309.4</azimuth>
          <timeResidual>-0.39</timeResidual>
          <creationInfo>
            <agencyID>UW</agencyID>
            <creationTime>2012-02-27T16:43:46.000000Z</creationTime>
          </creationInfo>
        </arrival>
        <arrival publicID="quakeml:uw.anss.org/AssocArO/UW/3840338">
          <pickID>quakeml:uw.anss.org/Arrival/UW/3840338</pickID>
          <phase>P</phase>
          <azimuth>195.1</azimuth>
          <distance>1.038</distance>
          <timeResidual>0.59</timeResidual>
          <creationInfo>
            <agencyID>UW</agencyID>
            <creationTime>2012-02-27T16:43:46.000000Z</creationTime>
          </creationInfo>
        </arrival>
        <arrival publicID="quakeml:uw.anss.org/AssocArO/UW/3840348">
          <pickID>quakeml:uw.anss.org/Arrival/UW/3840348</pickID>
          <phase>P</phase>
          <azimuth>101.3</azimuth>
          <distance>0.2005</distance>
          <timeResidual>-0.11</timeResidual>
          <creationInfo>
            <agencyID>UW</agencyID>
            <creationTime>2012-02-27T16:43:46.000000Z</creationTime>
          </creationInfo>
        </arrival>
        <arrival publicID="quakeml:uw.anss.org/AssocArO/UW/3840363">
          <pickID>quakeml:uw.anss.org/Arrival/UW/3840363</pickID>
          <phase>P</phase>
          <azimuth>120.0</azimuth>
          <distance>2.18</distance>
          <timeResidual>2.52</timeResidual>
          <creationInfo>
            <agencyID>UW</agencyID>
            <creationTime>2012-02-27T16:43:46.000000Z</creationTime>
          </creationInfo>
        </arrival>
        <arrival publicID="quakeml:uw.anss.org/AssocArO/UW/3840368">
          <pickID>quakeml:uw.anss.org/Arrival/UW/3840368</pickID>
          <phase>P</phase>
          <azimuth>225.4</azimuth>
          <distance>1.424</distance>
          <timeResidual>0.36</timeResidual>
          <creationInfo>
            <agencyID>UW</agencyID>
            <creationTime>2012-02-27T16:43:46.000000Z</creationTime>
          </creationInfo>
        </arrival>
        <arrival publicID="quakeml:uw.anss.org/AssocArO/UW/3840373">
          <pickID>quakeml:uw.anss.org/Arrival/UW/3840373</pickID>
          <phase>P</phase>
          <azimuth>321.7</azimuth>
          <timeResidual>-0.22</timeResidual>
          <creationInfo>
            <agencyID>UW</agencyID>
            <creationTime>2012-02-27T16:43:46.000000Z</creationTime>
          </creationInfo>
        </arrival>
        <arrival publicID="quakeml:uw.anss.org/AssocArO/UW/3840378">
          <pickID>quakeml:uw.anss.org/Arrival/UW/3840378</pickID>
          <phase>P</phase>
          <azimuth>164.0</azimuth>
          <timeResidual>0.13</timeResidual>
          <creationInfo>
            <agencyID>UW</agencyID>
            <creationTime>2012-02-27T16:43:46.000000Z</creationTime>
          </creationInfo>
        </arrival>
        <arrival publicID="quakeml:uw.anss.org/AssocArO/UW/3840383">
          <pickID>quakeml:uw.anss.org/Arrival/UW/3840383</pickID>
          <phase>S</phase>
          <azimuth>164.0</azimuth>
          <timeResidual>1.95</timeResidual>
          <creationInfo>
            <agencyID>UW</agencyID>
            <creationTime>2012-02-27T16:43:46.000000Z</creationTime>
          </creationInfo>
        </arrival>
        <arrival publicID="quakeml:uw.anss.org/AssocArO/UW/3840388">
          <pickID>quakeml:uw.anss.org/Arrival/UW/3840388</pickID>
          <phase>P</phase>
          <azimuth>149.6</azimuth>
          <distance>2.208</distance>
          <timeResidual>1.37</timeResidual>
          <creationInfo>
            <agencyID>UW</agencyID>
            <creationTime>2012-02-27T16:43:46.000000Z</creationTime>
          </creationInfo>
        </arrival>
        <arrival publicID="quakeml:uw.anss.org/AssocArO/UW/3840393">
          <pickID>quakeml:uw.anss.org/Arrival/UW/3840393</pickID>
          <phase>P</phase>
          <azimuth>169.2</azimuth>
          <timeResidual>0.5</timeResidual>
          <creationInfo>
            <agencyID>UW</agencyID>
            <creationTime>2012-02-27T16:43:46.000000Z</creationTime>
          </creationInfo>
        </arrival>
        <arrival publicID="quakeml:uw.anss.org/AssocArO/UW/3840398">
          <pickID>quakeml:uw.anss.org/Arrival/UW/3840398</pickID>
          <phase>S</phase>
          <azimuth>169.2</azimuth>
          <timeResidual>0.1</timeResidual>
          <creationInfo>
            <agencyID>UW</agencyID>
            <creationTime>2012-02-27T16:43:46.000000Z</creationTime>
          </creationInfo>
        </arrival>
        <arrival publicID="quakeml:uw.anss.org/AssocArO/UW/3840403">
          <pickID>quakeml:uw.anss.org/Arrival/UW/3840403</pickID>
          <phase>P</phase>
          <timeResidual>0.16</timeResidual>
          <creationInfo>
            <agencyID>UW</agencyID>
            <creationTime>2012-02-27T16:43:46.000000Z</creationTime>
          </creationInfo>
        </arrival>
        <arrival publicID="quakeml:uw.anss.org/AssocArO/UW/3840408">
          <pickID>quakeml:uw.anss.org/Arrival/UW/3840408</pickID>
          <phase>S</phase>
          <timeResidual>-0.14</timeResidual>
          <creationInfo>
            <agencyID>UW</agencyID>
            <creationTime>2012-02-27T16:43:46.000000Z</creationTime>
          </creationInfo>
        </arrival>
        <arrival publicID="quakeml:uw.anss.org/AssocArO/UW/3840413">
          <pickID>quakeml:uw.anss.org/Arrival/UW/3840413</pickID>
          <phase>P</phase>
          <azimuth>236.0</azimuth>
          <timeResidual>-0.01</timeResidual>
          <creationInfo>
            <agencyID>UW</agencyID>
            <creationTime>2012-02-27T16:43:46.000000Z</creationTime>
          </creationInfo>
        </arrival>
        <arrival publicID="quakeml:uw.anss.org/AssocArO/UW/3840418">
          <pickID>quakeml:uw.anss.org/Arrival/UW/3840418</pickID>
          <phase>P</phase>
          <azimuth>126.2</azimuth>
          <distance>1.874</distance>
          <timeResidual>1.4</timeResidual>
          <creationInfo>
            <agencyID>UW</agencyID>
            <creationTime>2012-02-27T16:43:46.000000Z</creationTime>
          </creationInfo>
        </arrival>
        <arrival publicID="quakeml:uw.anss.org/AssocArO/UW/3840423">
          <pickID>quakeml:uw.anss.org/Arrival/UW/3840423</pickID>
          <phase>P</phase>
          <azimuth>169.0</azimuth>
          <distance>1.39</distance>
          <timeResidual>0.48</timeResidual>
          <creationInfo>
            <agencyID>UW</agencyID>
            <creationTime>2012-02-27T16:43:46.000000Z</creationTime>
          </creationInfo>
        </arrival>
        <arrival publicID="quakeml:uw.anss.org/AssocArO/UW/3840428">
          <pickID>quakeml:uw.anss.org/Arrival/UW/3840428</pickID>
          <phase>P</phase>
          <azimuth>149.7</azimuth>
          <timeResidual>3.37</timeResidual>
          <creationInfo>
            <agencyID>UW</agencyID>
            <creationTime>2012-02-27T16:43:46.000000Z</creationTime>
          </creationInfo>
        </arrival>
        <arrival publicID="quakeml:uw.anss.org/AssocArO/UW/3840433">
          <pickID>quakeml:uw.anss.org/Arrival/UW/3840433</pickID>
          <phase>P</phase>
          <timeResidual>0.33</timeResidual>
          <creationInfo>
            <agencyID>UW</agencyID>
            <creationTime>2012-02-27T16:43:46.000000Z</creationTime>
          </creationInfo>
        </arrival>
        <arrival publicID="quakeml:uw.anss.org/AssocArO/UW/3840438">
          <pickID>quakeml:uw.anss.org/Arrival/UW/3840438</pickID>
          <phase>P</phase>
          <azimuth>164.2</azimuth>
          <distance>1.06</distance>
          <timeResidual>1.04</timeResidual>
          <creationInfo>
            <agencyID>UW</agencyID>
            <creationTime>2012-02-27T16:43:46.000000Z</creationTime>
          </creationInfo>
        </arrival>
        <arrival publicID="quakeml:uw.anss.org/AssocArO/UW/3840443">
          <pickID>quakeml:uw.anss.org/Arrival/UW/3840443</pickID>
          <phase>S</phase>
          <azimuth>164.2</azimuth>
          <distance>1.06</distance>
          <timeResidual>0.55</timeResidual>
          <creationInfo>
            <agencyID>UW</agencyID>
            <creationTime>2012-02-27T16:43:46.000000Z</creationTime>
          </creationInfo>
        </arrival>
        <arrival publicID="quakeml:uw.anss.org/AssocArO/UW/3840448">
          <pickID>quakeml:uw.anss.org/Arrival/UW/3840448</pickID>
          <phase>P</phase>
          <azimuth>124.6</azimuth>
          <distance>1.763</distance>
          <timeResidual>1.25</timeResidual>
          <creationInfo>
            <agencyID>UW</agencyID>
            <creationTime>2012-02-27T16:43:46.000000Z</creationTime>
          </creationInfo>
        </arrival>
        <arrival publicID="quakeml:uw.anss.org/AssocArO/UW/3840453">
          <pickID>quakeml:uw.anss.org/Arrival/UW/3840453</pickID>
          <phase>P</phase>
          <azimuth>212.5</azimuth>
          <distance>0.9667</distance>
          <timeResidual>0.61</timeResidual>
          <creationInfo>
            <agencyID>UW</agencyID>
            <creationTime>2012-02-27T16:43:46.000000Z</creationTime>
          </creationInfo>
        </arrival>
        <arrival publicID="quakeml:uw.anss.org/AssocArO/UW/3840458">
          <pickID>quakeml:uw.anss.org/Arrival/UW/3840458</pickID>
          <phase>P</phase>
          <azimuth>146.5</azimuth>
          <distance>1.973</distance>
          <timeResidual>0.73</timeResidual>
          <creationInfo>
            <agencyID>UW</agencyID>
            <creationTime>2012-02-27T16:43:46.000000Z</creationTime>
          </creationInfo>
        </arrival>
        <arrival publicID="quakeml:uw.anss.org/AssocArO/UW/3840463">
          <pickID>quakeml:uw.anss.org/Arrival/UW/3840463</pickID>
          <phase>P</phase>
          <azimuth>251.2</azimuth>
          <distance>0.4441</distance>
          <timeResidual>0.17</timeResidual>
          <creationInfo>
            <agencyID>UW</agencyID>
            <creationTime>2012-02-27T16:43:46.000000Z</creationTime>
          </creationInfo>
        </arrival>
        <arrival publicID="quakeml:uw.anss.org/AssocArO/UW/3840468">
          <pickID>quakeml:uw.anss.org/Arrival/UW/3840468</pickID>
          <phase>S</phase>
          <azimuth>251.2</azimuth>
          <distance>0.4441</distance>
          <timeResidual>0.46</timeResidual>
          <creationInfo>
            <agencyID>UW</agencyID>
