<?xml version='1.0' encoding='utf-8'?>
<q:quakeml xmlns="http://quakeml.org/xmlns/bed/1.2" xmlns:q="http://quakeml.org/xmlns/quakeml/1.2" xmlns:ns0="http://anss.org/xmlns/catalog/0.1">
  <eventParameters publicID="smi:local/4786a109-e37a-4b43-b79a-7d2a3216562f">
    <event publicID="quakeml:uw.anss.org/Event/UW/10253273" ns0:datasource="uw" ns0:dataid="uw10253273" ns0:eventsource="uw" ns0:eventid="10253273">
      <preferredOriginID>quakeml:uw.anss.org/Origin/UW/530218</preferredOriginID>
      <preferredMagnitudeID>quakeml:uw.anss.org/Netmag/UW/443118</preferredMagnitudeID>
      <type>earthquake</type>
      <creationInfo>
        <agencyID>UW</agencyID>
        <creationTime>2012-02-27T16:32:42.000000Z</creationTime>
        <version>3</version>
      </creationInfo>
      <origin publicID="quakeml:uw.anss.org/Origin/UW/530218" ns0:datasource="uw" ns0:dataid="uw10253273" ns0:eventsource="uw" ns0:eventid="10253273">
        <time>
          <value>1990-04-02T13:18:21.670000Z</value>
          <uncertainty>1.58</uncertainty>
        </time>
        <latitude>
          <value>48.8213333</value>
          <uncertainty>1.4</uncertainty>
        </latitude>
        <longitude>
          <value>-122.1916667</value>
          <uncertainty>2.14</uncertainty>
        </longitude>
        <depth>
          <value>191.0</value>
          <uncertainty>13080.0</uncertainty>
        </depth>
        <depthType>operator assigned</depthType>
        <timeFixed>false</timeFixed>
        <epicenterFixed>true</epicenterFixed>
        <methodID>smi:uw.anss.org/origin/spong</methodID>
        <quality>
          <associatedPhaseCount>40</associatedPhaseCount>
          <usedPhaseCount>27</usedPhaseCount>
          <associatedStationCount>33</associatedStationCount>
          <usedStationCount>0</usedStationCount>
          <standardError>0.48</standardError>
          <azimuthalGap>84.0</azimuthalGap>
        </quality>
        <type>hypocenter</type>
        <evaluationMode>manual</evaluationMode>
        <evaluationStatus>final</evaluationStatus>
        <creationInfo>
          <agencyID>UW</agencyID>
          <creationTime>2012-02-27T16:32:42.000000Z</creationTime>
        </creationInfo>
        <originUncertainty>
          <preferredDescription>horizontal uncertainty</preferredDescription>
          <horizontalUncertainty>2557.0</horizontalUncertainty>
        </originUncertainty>
        <arrival publicID="quakeml:uw.anss.org/AssocArO/UW/3737608">
          <pickID>quakeml:uw.anss.org/Arrival/UW/3737608</pickID>
          <phase>P</phase>
          <azimuth>289.3</azimuth>
          <timeResidual>-0.52</timeResidual>
          <creationInfo>
            <agencyID>UW</agencyID>
            <creationTime>2012-02-27T16:32:42.000000Z</creationTime>
          </creationInfo>
        </arrival>
        <arrival publicID="quakeml:uw.anss.org/AssocArO/UW/3737613">
          <pickID>quakeml:uw.anss.org/Arrival/UW/3737613</pickID>
          <phase>S</phase>
          <azimuth>289.3</azimuth>
          <timeResidual>-1.47</timeResidual>
          <creationInfo>
            <agencyID>UW</agencyID>
            <creationTime>2012-02-27T16:32:42.000000Z</creationTime>
          </creationInfo>
        </arrival>
        <arrival publicID="quakeml:uw.anss.org/AssocArO/UW/3737618">
          <pickID>quakeml:uw.anss.org/Arrival/UW/3737618</pickID>
          <phase>P</phase>
          <azimuth>206.5</azimuth>
          <distance>1.308</distance>
          <timeResidual>0.16</timeResidual>
          <creationInfo>
            <agencyID>UW</agencyID>
            <creationTime>2012-02-27T16:32:42.000000Z</creationTime>
          </creationInfo>
        </arrival>
        <arrival publicID="quakeml:uw.anss.org/AssocArO/UW/3737623">
          <pickID>quakeml:uw.anss.org/Arrival/UW/3737623</pickID>
          <phase>P</phase>
          <azimuth>120.8</azimuth>
          <distance>1.443</distance>
          <timeResidual>1.0</timeResidual>
          <creationInfo>
            <agencyID>UW</agencyID>
            <creationTime>2012-02-27T16:32:43.000000Z</creationTime>
          </creationInfo>
        </arrival>
        <arrival publicID="quakeml:uw.anss.org/AssocArO/UW/3737628">
          <pickID>quakeml:uw.anss.org/Arrival/UW/3737628</pickID>
          <phase>P</phase>
          <azimuth>330.9</azimuth>
          <timeResidual>-0.32</timeResidual>
          <creationInfo>
            <agencyID>UW</agencyID>
            <creationTime>2012-02-27T16:32:43.000000Z</creationTime>
          </creationInfo>
        </arrival>
        <arrival publicID="quakeml:uw.anss.org/AssocArO/UW/3737633">
          <pickID>quakeml:uw.anss.org/Arrival/UW/3737633</pickID>
          <phase>P</phase>
          <timeResidual>0.17</timeResidual>
          <creationInfo>
            <agencyID>UW</agencyID>
            <creationTime>2012-02-27T16:32:43.000000Z</creationTime>
          </creationInfo>
        </arrival>
        <arrival publicID="quakeml:uw.anss.org/AssocArO/UW/3737638">
          <pickID>quakeml:uw.anss.org/Arrival/UW/3737638</pickID>
          <phase>S</phase>
          <timeResidual>0.61</timeResidual>
          <creationInfo>
            <agencyID>UW</agencyID>
            <creationTime>2012-02-27T16:32:43.000000Z</creationTime>
          </creationInfo>
        </arrival>
        <arrival publicID="quakeml:uw.anss.org/AssocArO/UW/3737643">
          <pickID>quakeml:uw.anss.org/Arrival/UW/3737643</pickID>
          <phase>P</phase>
          <azimuth>173.2</azimuth>
          <distance>0.401</distance>
          <timeResidual>-0.38</timeResidual>
          <creationInfo>
            <agencyID>UW</agencyID>
            <creationTime>2012-02-27T16:32:43.000000Z</creationTime>
          </creationInfo>
        </arrival>
        <arrival publicID="quakeml:uw.anss.org/AssocArO/UW/3737648">
          <pickID>quakeml:uw.anss.org/Arrival/UW/3737648</pickID>
          <phase>S</phase>
          <azimuth>173.2</azimuth>
          <distance>0.401</distance>
          <timeResidual>1.47</timeResidual>
          <creationInfo>
            <agencyID>UW</agencyID>
            <creationTime>2012-02-27T16:32:43.000000Z</creationTime>
          </creationInfo>
        </arrival>
        <arrival publicID="quakeml:uw.anss.org/AssocArO/UW/3737653">
          <pickID>quakeml:uw.anss.org/Arrival/UW/3737653</pickID>
          <phase>P</phase>
          <azimuth>170.6</azimuth>
          <timeResidual>0.48</timeResidual>
          <creationInfo>
            <agencyID>UW</agencyID>
            <creationTime>2012-02-27T16:32:43.000000Z</creationTime>
          </creationInfo>
        </arrival>
        <arrival publicID="quakeml:uw.anss.org/AssocArO/UW/3737658">
          <pickID>quakeml:uw.anss.org/Arrival/UW/3737658</pickID>
          <phase>P</phase>
          <azimuth>175.5</azimuth>
          <distance>1.884</distance>
          <timeResidual>0.41</timeResidual>
          <creationInfo>
            <agencyID>UW</agencyID>
            <creationTime>2012-02-27T16:32:43.000000Z</creationTime>
          </creationInfo>
        </arrival>
        <arrival publicID="quakeml:uw.anss.org/AssocArO/UW/3737663">
          <pickID>quakeml:uw.anss.org/Arrival/UW/3737663</pickID>
          <phase>P</phase>
          <timeResidual>0.31</timeResidual>
          <creationInfo>
            <agencyID>UW</agencyID>
            <creationTime>2012-02-27T16:32:43.000000Z</creationTime>
          </creationInfo>
        </arrival>
        <arrival publicID="quakeml:uw.anss.org/AssocArO/UW/3737668">
          <pickID>quakeml:uw.anss.org/Arrival/UW/3737668</pickID>
          <phase>P</phase>
          <azimuth>129.6</azimuth>
          <distance>0.584</distance>
          <timeResidual>-0.22</timeResidual>
          <creationInfo>
            <agencyID>UW</agencyID>
            <creationTime>2012-02-27T16:32:43.000000Z</creationTime>
          </creationInfo>
        </arrival>
        <arrival publicID="quakeml:uw.anss.org/AssocArO/UW/3737673">
          <pickID>quakeml:uw.anss.org/Arrival/UW/3737673</pickID>
          <phase>S</phase>
          <azimuth>129.6</azimuth>
          <distance>0.584</distance>
          <timeResidual>0.0</timeResidual>
          <creationInfo>
            <agencyID>UW</agencyID>
            <creationTime>2012-02-27T16:32:43.000000Z</creationTime>
          </creationInfo>
        </arrival>
        <arrival publicID="quakeml:uw.anss.org/AssocArO/UW/3737678">
          <pickID>quakeml:uw.anss.org/Arrival/UW/3737678</pickID>
          <phase>P</phase>
          <azimuth>168.0</azimuth>
          <distance>2.169</distance>
          <timeResidual>0.41</timeResidual>
          <creationInfo>
            <agencyID>UW</agencyID>
            <creationTime>2012-02-27T16:32:43.000000Z</creationTime>
          </creationInfo>
        </arrival>
        <arrival publicID="quakeml:uw.anss.org/AssocArO/UW/3737683">
          <pickID>quakeml:uw.anss.org/Arrival/UW/3737683</pickID>
          <phase>P</phase>
          <azimuth>309.3</azimuth>
          <timeResidual>-0.5</timeResidual>
          <creationInfo>
            <agencyID>UW</agencyID>
            <creationTime>2012-02-27T16:32:43.000000Z</creationTime>
          </creationInfo>
        </arrival>
        <arrival publicID="quakeml:uw.anss.org/AssocArO/UW/3737688">
          <pickID>quakeml:uw.anss.org/Arrival/UW/3737688</pickID>
          <phase>P</phase>
          <azimuth>204.5</azimuth>
          <distance>0.5477</distance>
          <timeResidual>0.98</timeResidual>
          <creationInfo>
            <agencyID>UW</agencyID>
            <creationTime>2012-02-27T16:32:43.000000Z</creationTime>
          </creationInfo>
        </arrival>
        <arrival publicID="quakeml:uw.anss.org/AssocArO/UW/3737693">
          <pickID>quakeml:uw.anss.org/Arrival/UW/3737693</pickID>
          <phase>P</phase>
          <azimuth>120.0</azimuth>
          <distance>2.175</distance>
          <timeResidual>2.88</timeResidual>
          <creationInfo>
            <agencyID>UW</agencyID>
            <creationTime>2012-02-27T16:32:43.000000Z</creationTime>
          </creationInfo>
        </arrival>
        <arrival publicID="quakeml:uw.anss.org/AssocArO/UW/3737698">
          <pickID>quakeml:uw.anss.org/Arrival/UW/3737698</pickID>
          <phase>P</phase>
          <azimuth>225.6</azimuth>
          <distance>1.426</distance>
          <timeResidual>0.45</timeResidual>
          <creationInfo>
            <agencyID>UW</agencyID>
            <creationTime>2012-02-27T16:32:43.000000Z</creationTime>
          </creationInfo>
        </arrival>
        <arrival publicID="quakeml:uw.anss.org/AssocArO/UW/3737703">
          <pickID>quakeml:uw.anss.org/Arrival/UW/3737703</pickID>
          <phase>P</phase>
          <azimuth>321.6</azimuth>
          <timeResidual>-0.43</timeResidual>
          <creationInfo>
            <agencyID>UW</agencyID>
            <creationTime>2012-02-27T16:32:43.000000Z</creationTime>
          </creationInfo>
        </arrival>
        <arrival publicID="quakeml:uw.anss.org/AssocArO/UW/3737708">
          <pickID>quakeml:uw.anss.org/Arrival/UW/3737708</pickID>
          <phase>P</phase>
          <azimuth>164.3</azimuth>
          <timeResidual>-0.1</timeResidual>
          <creationInfo>
            <agencyID>UW</agencyID>
            <creationTime>2012-02-27T16:32:43.000000Z</creationTime>
          </creationInfo>
        </arrival>
        <arrival publicID="quakeml:uw.anss.org/AssocArO/UW/3737713">
          <pickID>quakeml:uw.anss.org/Arrival/UW/3737713</pickID>
          <phase>S</phase>
          <azimuth>164.3</azimuth>
          <timeResidual>1.57</timeResidual>
          <creationInfo>
            <agencyID>UW</agencyID>
            <creationTime>2012-02-27T16:32:43.000000Z</creationTime>
          </creationInfo>
        </arrival>
        <arrival publicID="quakeml:uw.anss.org/AssocArO/UW/3737718">
          <pickID>quakeml:uw.anss.org/Arrival/UW/3737718</pickID>
          <phase>P</phase>
          <azimuth>169.3</azimuth>
          <timeResidual>0.42</timeResidual>
          <creationInfo>
            <agencyID>UW</agencyID>
            <creationTime>2012-02-27T16:32:43.000000Z</creationTime>
          </creationInfo>
        </arrival>
        <arrival publicID="quakeml:uw.anss.org/AssocArO/UW/3737723">
          <pickID>quakeml:uw.anss.org/Arrival/UW/3737723</pickID>
          <phase>P</phase>
          <timeResidual>0.01</timeResidual>
          <creationInfo>
            <agencyID>UW</agencyID>
            <creationTime>2012-02-27T16:32:43.000000Z</creationTime>
          </creationInfo>
        </arrival>
        <arrival publicID="quakeml:uw.anss.org/AssocArO/UW/3737728">
          <pickID>quakeml:uw.anss.org/Arrival/UW/3737728</pickID>
          <phase>S</phase>
          <timeResidual>-0.31</timeResidual>
          <creationInfo>
            <agencyID>UW</agencyID>
            <creationTime>2012-02-27T16:32:43.000000Z</creationTime>
          </creationInfo>
        </arrival>
        <arrival publicID="quakeml:uw.anss.org/AssocArO/UW/3737733">
          <pickID>quakeml:uw.anss.org/Arrival/UW/3737733</pickID>
          <phase>P</phase>
          <azimuth>236.2</azimuth>
          <timeResidual>0.15</timeResidual>
          <creationInfo>
            <agencyID>UW</agencyID>
            <creationTime>2012-02-27T16:32:43.000000Z</creationTime>
          </creationInfo>
        </arrival>
        <arrival publicID="quakeml:uw.anss.org/AssocArO/UW/3737738">
          <pickID>quakeml:uw.anss.org/Arrival/UW/3737738</pickID>
          <phase>P</phase>
          <timeResidual>0.39</timeResidual>
          <creationInfo>
            <agencyID>UW</agencyID>
            <creationTime>2012-02-27T16:32:43.000000Z</creationTime>
          </creationInfo>
        </arrival>
        <arrival publicID="quakeml:uw.anss.org/AssocArO/UW/3737743">
          <pickID>quakeml:uw.anss.org/Arrival/UW/3737743</pickID>
          <phase>P</phase>
          <azimuth>126.2</azimuth>
          <distance>1.87</distance>
          <timeResidual>1.43</timeResidual>
          <creationInfo>
            <agencyID>UW</agencyID>
            <creationTime>2012-02-27T16:32:43.000000Z</creationTime>
          </creationInfo>
        </arrival>
        <arrival publicID="quakeml:uw.anss.org/AssocArO/UW/3737748">
          <pickID>quakeml:uw.anss.org/Arrival/UW/3737748</pickID>
          <phase>P</phase>
          <azimuth>197.5</azimuth>
          <distance>1.335</distance>
          <timeResidual>0.28</timeResidual>
          <creationInfo>
            <agencyID>UW</agencyID>
            <creationTime>2012-02-27T16:32:43.000000Z</creationTime>
          </creationInfo>
        </arrival>
        <arrival publicID="quakeml:uw.anss.org/AssocArO/UW/3737753">
          <pickID>quakeml:uw.anss.org/Arrival/UW/3737753</pickID>
          <phase>P</phase>
          <azimuth>169.2</azimuth>
          <distance>1.387</distance>
          <timeResidual>0.68</timeResidual>
          <creationInfo>
            <agencyID>UW</agencyID>
            <creationTime>2012-02-27T16:32:43.000000Z</creationTime>
          </creationInfo>
        </arrival>
        <arrival publicID="quakeml:uw.anss.org/AssocArO/UW/3737758">
          <pickID>quakeml:uw.anss.org/Arrival/UW/3737758</pickID>
          <phase>P</phase>
          <timeResidual>-0.64</timeResidual>
          <creationInfo>
            <agencyID>UW</agencyID>
            <creationTime>2012-02-27T16:32:43.000000Z</creationTime>
          </creationInfo>
        </arrival>
        <arrival publicID="quakeml:uw.anss.org/AssocArO/UW/3737763">
          <pickID>quakeml:uw.anss.org/Arrival/UW/3737763</pickID>
          <phase>P</phase>
          <azimuth>101.0</azimuth>
          <distance>0.1959</distance>
          <timeResidual>-0.04</timeResidual>
          <creationInfo>
            <agencyID>UW</agencyID>
            <creationTime>2012-02-27T16:32:43.000000Z</creationTime>
          </creationInfo>
        </arrival>
        <arrival publicID="quakeml:uw.anss.org/AssocArO/UW/3737768">
          <pickID>quakeml:uw.anss.org/Arrival/UW/3737768</pickID>
          <phase>S</phase>
          <azimuth>101.0</azimuth>
          <distance>0.1959</distance>
          <timeResidual>0.45</timeResidual>
          <creationInfo>
            <agencyID>UW</agencyID>
            <creationTime>2012-02-27T16:32:43.000000Z</creationTime>
          </creationInfo>
        </arrival>
        <arrival publicID="quakeml:uw.anss.org/AssocArO/UW/3737773">
          <pickID>quakeml:uw.anss.org/Arrival/UW/3737773</pickID>
          <phase>P</phase>
          <timeResidual>0.29</timeResidual>
          <creationInfo>
            <agencyID>UW</agencyID>
            <creationTime>2012-02-27T16:32:43.000000Z</creationTime>
          </creationInfo>
        </arrival>
        <arrival publicID="quakeml:uw.anss.org/AssocArO/UW/3737778">
          <pickID>quakeml:uw.anss.org/Arrival/UW/3737778</pickID>
          <phase>P</phase>
          <azimuth>181.8</azimuth>
          <distance>2.156</distance>
          <timeResidual>0.02</timeResidual>
          <creationInfo>
            <agencyID>UW</agencyID>
            <creationTime>2012-02-27T16:32:43.000000Z</creationTime>
          </creationInfo>
        </arrival>
        <arrival publicID="quakeml:uw.anss.org/AssocArO/UW/3737783">
          <pickID>quakeml:uw.anss.org/Arrival/UW/3737783</pickID>
          <phase>P</phase>
          <azimuth>164.4</azimuth>
          <distance>1.057</distance>
          <timeResidual>0.8</timeResidual>
          <creationInfo>
            <agencyID>UW</agencyID>
            <creationTime>2012-02-27T16:32:43.000000Z</creationTime>
          </creationInfo>
        </arrival>
        <arrival publicID="quakeml:uw.anss.org/AssocArO/UW/3737788">
          <pickID>quakeml:uw.anss.org/Arrival/UW/3737788</pickID>
          <phase>P</phase>
          <azimuth>124.6</azimuth>
          <distance>1.759</distance>
          <timeResidual>1.28</timeResidual>
          <creationInfo>
            <agencyID>UW</agencyID>
            <creationTime>2012-02-27T16:32:43.000000Z</creationTime>
          </creationInfo>
        </arrival>
        <arrival publicID="quakeml:uw.anss.org/AssocArO/UW/3737793">
          <pickID>quakeml:uw.anss.org/Arrival/UW/3737793</pickID>
          <phase>P</phase>
          <azimuth>212.8</azimuth>
          <distance>0.9672</distance>
          <timeResidual>0.77</timeResidual>
          <creationInfo>
            <agencyID>UW</agencyID>
            <creationTime>2012-02-27T16:32:43.000000Z</creationTime>
          </creationInfo>
        </arrival>
        <arrival publicID="quakeml:uw.anss.org/AssocArO/UW/3737798">
          <pickID>quakeml:uw.anss.org/Arrival/UW/3737798</pickID>
          <phase>P</phase>
          <azimuth>146.6</azimuth>
          <distance>1.968</distance>
          <timeResidual>1.48</timeResidual>
          <creationInfo>
            <agencyID>UW</agencyID>
            <creationTime>2012-02-27T16:32:43.000000Z</creationTime>
          </creationInfo>
        </arrival>
        <arrival publicID="quakeml:uw.anss.org/AssocArO/UW/3737803">
          <pickID>quakeml:uw.anss.org/Arrival/UW/3737803</pickID>
          <phase>P</phase>
          <azimuth>251.6</azimuth>
          <distance>0.4475</distance>
          <timeResidual>0.17</timeResidual>
          <creationInfo>
            <agencyID>UW</agencyID>
            <creationTime>2012-02-27T16:32:43.000000Z</creationTime>
          </creationInfo>
        </arrival>
      </origin>
      <magnitude publicID="quakeml:uw.anss.org/Netmag/UW/443118">
        <mag>
          <value>2.3</value>
          <uncertainty>0.1</uncertainty>
        </mag>
        <type>Md</type>
        <originID>quakeml:uw.anss.org/Origin/UW/530218</originID>
        <methodID>smi:uw.anss.org/magnitude/Crosson</methodID>
        <stationCount>2</stationCount>
