<?xml version='1.0' encoding='utf-8'?>
<q:quakeml xmlns="http://quakeml.org/xmlns/bed/1.2" xmlns:q="http://quakeml.org/xmlns/quakeml/1.2" xmlns:ns0="http://anss.org/xmlns/catalog/0.1">
  <eventParameters publicID="smi:local/e6b10a4e-0e92-4971-a805-eaf171bcaf98">
    <event publicID="quakeml:uw.anss.org/Event/UW/10257753" ns0:datasource="uw" ns0:dataid="uw10257753" ns0:eventsource="uw" ns0:eventid="10257753">
      <preferredOriginID>quakeml:uw.anss.org/Origin/UW/534698</preferredOriginID>
      <preferredMagnitudeID>quakeml:uw.anss.org/Netmag/UW/447318</preferredMagnitudeID>
      <type>earthquake</type>
      <creationInfo>
        <agencyID>UW</agencyID>
        <creationTime>2012-02-27T16:41:41.000000Z</creationTime>
        <version>3</version>
      </creationInfo>
      <origin publicID="quakeml:uw.anss.org/Origin/UW/534698" ns0:datasource="uw" ns0:dataid="uw10257753" ns0:eventsource="uw" ns0:eventid="10257753">
        <time>
          <value>1990-04-14T05:40:07.260000Z</value>
          <uncertainty>0.46</uncertainty>
        </time>
        <latitude>
          <value>48.822</value>
          <uncertainty>0.7</uncertainty>
        </latitude>
        <longitude>
          <value>-122.1885</value>
          <uncertainty>0.81</uncertainty>
        </longitude>
        <depth>
          <value>2851.0</value>
          <uncertainty>4010.0</uncertainty>
        </depth>
        <depthType>from location</depthType>
        <timeFixed>false</timeFixed>
        <epicenterFixed>false</epicenterFixed>
        <methodID>smi:uw.anss.org/origin/spong</methodID>
        <quality>
          <associatedPhaseCount>130</associatedPhaseCount>
          <usedPhaseCount>34</usedPhaseCount>
          <associatedStationCount>102</associatedStationCount>
          <usedStationCount>0</usedStationCount>
          <standardError>0.41</standardError>
          <azimuthalGap>85.0</azimuthalGap>
        </quality>
        <type>hypocenter</type>
        <evaluationMode>manual</evaluationMode>
        <evaluationStatus>final</evaluationStatus>
        <creationInfo>
          <agencyID>UW</agencyID>
          <creationTime>2012-02-27T16:41:41.000000Z</creationTime>
        </creationInfo>
        <originUncertainty>
          <preferredDescription>horizontal uncertainty</preferredDescription>
          <horizontalUncertainty>1071.0</horizontalUncertainty>
        </originUncertainty>
        <arrival publicID="quakeml:uw.anss.org/AssocArO/UW/3820938">
          <pickID>quakeml:uw.anss.org/Arrival/UW/3820938</pickID>
          <phase>P</phase>
          <azimuth>289.3</azimuth>
          <timeResidual>-0.47</timeResidual>
          <creationInfo>
            <agencyID>UW</agencyID>
            <creationTime>2012-02-27T16:41:41.000000Z</creationTime>
          </creationInfo>
        </arrival>
        <arrival publicID="quakeml:uw.anss.org/AssocArO/UW/3820948">
          <pickID>quakeml:uw.anss.org/Arrival/UW/3820948</pickID>
          <phase>S</phase>
          <azimuth>289.3</azimuth>
          <timeResidual>-1.15</timeResidual>
          <creationInfo>
            <agencyID>UW</agencyID>
            <creationTime>2012-02-27T16:41:41.000000Z</creationTime>
          </creationInfo>
        </arrival>
        <arrival publicID="quakeml:uw.anss.org/AssocArO/UW/3820958">
          <pickID>quakeml:uw.anss.org/Arrival/UW/3820958</pickID>
          <phase>P</phase>
          <azimuth>155.8</azimuth>
          <distance>2.284</distance>
          <timeResidual>-0.05</timeResidual>
          <creationInfo>
            <agencyID>UW</agencyID>
            <creationTime>2012-02-27T16:41:41.000000Z</creationTime>
          </creationInfo>
        </arrival>
        <arrival publicID="quakeml:uw.anss.org/AssocArO/UW/3820963">
          <pickID>quakeml:uw.anss.org/Arrival/UW/3820963</pickID>
          <phase>P</phase>
          <azimuth>181.9</azimuth>
          <distance>1.783</distance>
          <timeResidual>0.17</timeResidual>
          <creationInfo>
            <agencyID>UW</agencyID>
            <creationTime>2012-02-27T16:41:41.000000Z</creationTime>
          </creationInfo>
        </arrival>
        <arrival publicID="quakeml:uw.anss.org/AssocArO/UW/3820973">
          <pickID>quakeml:uw.anss.org/Arrival/UW/3820973</pickID>
          <phase>S</phase>
          <azimuth>181.9</azimuth>
          <distance>1.783</distance>
          <timeResidual>1.26</timeResidual>
          <creationInfo>
            <agencyID>UW</agencyID>
            <creationTime>2012-02-27T16:41:41.000000Z</creationTime>
          </creationInfo>
        </arrival>
        <arrival publicID="quakeml:uw.anss.org/AssocArO/UW/3820983">
          <pickID>quakeml:uw.anss.org/Arrival/UW/3820983</pickID>
          <phase>P</phase>
          <azimuth>197.0</azimuth>
          <distance>2.452</distance>
          <timeResidual>0.12</timeResidual>
          <creationInfo>
            <agencyID>UW</agencyID>
            <creationTime>2012-02-27T16:41:41.000000Z</creationTime>
          </creationInfo>
        </arrival>
        <arrival publicID="quakeml:uw.anss.org/AssocArO/UW/3820988">
          <pickID>quakeml:uw.anss.org/Arrival/UW/3820988</pickID>
          <phase>P</phase>
          <azimuth>170.0</azimuth>
          <distance>2.299</distance>
          <timeResidual>0.58</timeResidual>
          <creationInfo>
            <agencyID>UW</agencyID>
            <creationTime>2012-02-27T16:41:41.000000Z</creationTime>
          </creationInfo>
        </arrival>
        <arrival publicID="quakeml:uw.anss.org/AssocArO/UW/3820993">
          <pickID>quakeml:uw.anss.org/Arrival/UW/3820993</pickID>
          <phase>P</phase>
          <azimuth>129.3</azimuth>
          <distance>2.274</distance>
          <timeResidual>0.96</timeResidual>
          <creationInfo>
            <agencyID>UW</agencyID>
            <creationTime>2012-02-27T16:41:41.000000Z</creationTime>
          </creationInfo>
        </arrival>
        <arrival publicID="quakeml:uw.anss.org/AssocArO/UW/3820998">
          <pickID>quakeml:uw.anss.org/Arrival/UW/3820998</pickID>
          <phase>P</phase>
          <azimuth>170.6</azimuth>
          <timeResidual>0.09</timeResidual>
          <creationInfo>
            <agencyID>UW</agencyID>
            <creationTime>2012-02-27T16:41:41.000000Z</creationTime>
          </creationInfo>
        </arrival>
        <arrival publicID="quakeml:uw.anss.org/AssocArO/UW/3821003">
          <pickID>quakeml:uw.anss.org/Arrival/UW/3821003</pickID>
          <phase>S</phase>
          <azimuth>170.6</azimuth>
          <timeResidual>0.32</timeResidual>
          <creationInfo>
            <agencyID>UW</agencyID>
            <creationTime>2012-02-27T16:41:41.000000Z</creationTime>
          </creationInfo>
        </arrival>
        <arrival publicID="quakeml:uw.anss.org/AssocArO/UW/3821008">
          <pickID>quakeml:uw.anss.org/Arrival/UW/3821008</pickID>
          <phase>P</phase>
          <azimuth>196.0</azimuth>
          <distance>3.309</distance>
          <timeResidual>-0.65</timeResidual>
          <creationInfo>
            <agencyID>UW</agencyID>
            <creationTime>2012-02-27T16:41:41.000000Z</creationTime>
          </creationInfo>
        </arrival>
        <arrival publicID="quakeml:uw.anss.org/AssocArO/UW/3821013">
          <pickID>quakeml:uw.anss.org/Arrival/UW/3821013</pickID>
          <phase>P</phase>
          <azimuth>199.4</azimuth>
          <distance>1.957</distance>
          <timeResidual>-0.3</timeResidual>
          <creationInfo>
            <agencyID>UW</agencyID>
            <creationTime>2012-02-27T16:41:41.000000Z</creationTime>
          </creationInfo>
        </arrival>
        <arrival publicID="quakeml:uw.anss.org/AssocArO/UW/3821018">
          <pickID>quakeml:uw.anss.org/Arrival/UW/3821018</pickID>
          <phase>P</phase>
          <azimuth>175.5</azimuth>
          <distance>1.885</distance>
          <timeResidual>0.04</timeResidual>
          <creationInfo>
            <agencyID>UW</agencyID>
            <creationTime>2012-02-27T16:41:41.000000Z</creationTime>
          </creationInfo>
        </arrival>
        <arrival publicID="quakeml:uw.anss.org/AssocArO/UW/3821023">
          <pickID>quakeml:uw.anss.org/Arrival/UW/3821023</pickID>
          <phase>P</phase>
          <azimuth>217.5</azimuth>
          <distance>1.873</distance>
          <timeResidual>0.32</timeResidual>
          <creationInfo>
            <agencyID>UW</agencyID>
            <creationTime>2012-02-27T16:41:41.000000Z</creationTime>
          </creationInfo>
        </arrival>
        <arrival publicID="quakeml:uw.anss.org/AssocArO/UW/3821028">
          <pickID>quakeml:uw.anss.org/Arrival/UW/3821028</pickID>
          <phase>P</phase>
          <azimuth>146.1</azimuth>
          <distance>3.113</distance>
          <timeResidual>0.23</timeResidual>
          <creationInfo>
            <agencyID>UW</agencyID>
            <creationTime>2012-02-27T16:41:41.000000Z</creationTime>
          </creationInfo>
        </arrival>
        <arrival publicID="quakeml:uw.anss.org/AssocArO/UW/3821033">
          <pickID>quakeml:uw.anss.org/Arrival/UW/3821033</pickID>
          <phase>P</phase>
          <azimuth>181.8</azimuth>
          <distance>1.27</distance>
          <timeResidual>0.51</timeResidual>
          <creationInfo>
            <agencyID>UW</agencyID>
            <creationTime>2012-02-27T16:41:41.000000Z</creationTime>
          </creationInfo>
        </arrival>
        <arrival publicID="quakeml:uw.anss.org/AssocArO/UW/3821038">
          <pickID>quakeml:uw.anss.org/Arrival/UW/3821038</pickID>
          <phase>P</phase>
          <azimuth>179.9</azimuth>
          <distance>2.649</distance>
          <timeResidual>1.06</timeResidual>
          <creationInfo>
            <agencyID>UW</agencyID>
            <creationTime>2012-02-27T16:41:41.000000Z</creationTime>
          </creationInfo>
        </arrival>
        <arrival publicID="quakeml:uw.anss.org/AssocArO/UW/3821043">
          <pickID>quakeml:uw.anss.org/Arrival/UW/3821043</pickID>
          <phase>P</phase>
          <azimuth>173.2</azimuth>
          <timeResidual>0.09</timeResidual>
          <creationInfo>
            <agencyID>UW</agencyID>
            <creationTime>2012-02-27T16:41:41.000000Z</creationTime>
          </creationInfo>
        </arrival>
        <arrival publicID="quakeml:uw.anss.org/AssocArO/UW/3821048">
          <pickID>quakeml:uw.anss.org/Arrival/UW/3821048</pickID>
          <phase>P</phase>
          <azimuth>188.2</azimuth>
          <distance>2.7</distance>
          <timeResidual>1.01</timeResidual>
          <creationInfo>
            <agencyID>UW</agencyID>
            <creationTime>2012-02-27T16:41:41.000000Z</creationTime>
          </creationInfo>
        </arrival>
        <arrival publicID="quakeml:uw.anss.org/AssocArO/UW/3821053">
          <pickID>quakeml:uw.anss.org/Arrival/UW/3821053</pickID>
          <phase>P</phase>
          <azimuth>138.9</azimuth>
          <distance>2.964</distance>
          <timeResidual>0.21</timeResidual>
          <creationInfo>
            <agencyID>UW</agencyID>
            <creationTime>2012-02-27T16:41:41.000000Z</creationTime>
          </creationInfo>
        </arrival>
        <arrival publicID="quakeml:uw.anss.org/AssocArO/UW/3821058">
          <pickID>quakeml:uw.anss.org/Arrival/UW/3821058</pickID>
          <phase>P</phase>
          <azimuth>204.7</azimuth>
          <distance>0.5492</distance>
          <timeResidual>0.23</timeResidual>
          <creationInfo>
            <agencyID>UW</agencyID>
            <creationTime>2012-02-27T16:41:41.000000Z</creationTime>
          </creationInfo>
        </arrival>
        <arrival publicID="quakeml:uw.anss.org/AssocArO/UW/3821063">
          <pickID>quakeml:uw.anss.org/Arrival/UW/3821063</pickID>
          <phase>P</phase>
          <azimuth>120.1</azimuth>
          <distance>2.174</distance>
          <timeResidual>2.54</timeResidual>
          <creationInfo>
            <agencyID>UW</agencyID>
            <creationTime>2012-02-27T16:41:41.000000Z</creationTime>
          </creationInfo>
        </arrival>
        <arrival publicID="quakeml:uw.anss.org/AssocArO/UW/3821068">
          <pickID>quakeml:uw.anss.org/Arrival/UW/3821068</pickID>
          <phase>P</phase>
          <azimuth>239.6</azimuth>
          <distance>1.69</distance>
          <timeResidual>0.19</timeResidual>
          <creationInfo>
            <agencyID>UW</agencyID>
            <creationTime>2012-02-27T16:41:41.000000Z</creationTime>
          </creationInfo>
        </arrival>
        <arrival publicID="quakeml:uw.anss.org/AssocArO/UW/3821073">
          <pickID>quakeml:uw.anss.org/Arrival/UW/3821073</pickID>
          <phase>P</phase>
          <timeResidual>0.19</timeResidual>
          <creationInfo>
            <agencyID>UW</agencyID>
            <creationTime>2012-02-27T16:41:41.000000Z</creationTime>
          </creationInfo>
        </arrival>
        <arrival publicID="quakeml:uw.anss.org/AssocArO/UW/3821078">
          <pickID>quakeml:uw.anss.org/Arrival/UW/3821078</pickID>
          <phase>P</phase>
          <timeResidual>0.39</timeResidual>
          <creationInfo>
            <agencyID>UW</agencyID>
            <creationTime>2012-02-27T16:41:41.000000Z</creationTime>
          </creationInfo>
        </arrival>
        <arrival publicID="quakeml:uw.anss.org/AssocArO/UW/3821083">
          <pickID>quakeml:uw.anss.org/Arrival/UW/3821083</pickID>
          <phase>P</phase>
          <azimuth>188.5</azimuth>
          <distance>2.189</distance>
          <timeResidual>-0.21</timeResidual>
          <creationInfo>
            <agencyID>UW</agencyID>
            <creationTime>2012-02-27T16:41:41.000000Z</creationTime>
          </creationInfo>
        </arrival>
        <arrival publicID="quakeml:uw.anss.org/AssocArO/UW/3821088">
          <pickID>quakeml:uw.anss.org/Arrival/UW/3821088</pickID>
          <phase>S</phase>
          <azimuth>188.5</azimuth>
          <distance>2.189</distance>
          <timeResidual>0.04</timeResidual>
          <creationInfo>
            <agencyID>UW</agencyID>
            <creationTime>2012-02-27T16:41:41.000000Z</creationTime>
          </creationInfo>
        </arrival>
        <arrival publicID="quakeml:uw.anss.org/AssocArO/UW/3821093">
          <pickID>quakeml:uw.anss.org/Arrival/UW/3821093</pickID>
          <phase>P</phase>
          <azimuth>206.5</azimuth>
          <distance>1.31</distance>
          <timeResidual>-0.1</timeResidual>
          <creationInfo>
            <agencyID>UW</agencyID>
            <creationTime>2012-02-27T16:41:41.000000Z</creationTime>
          </creationInfo>
        </arrival>
        <arrival publicID="quakeml:uw.anss.org/AssocArO/UW/3821098">
          <pickID>quakeml:uw.anss.org/Arrival/UW/3821098</pickID>
          <phase>P</phase>
          <azimuth>185.3</azimuth>
          <distance>2.398</distance>
          <timeResidual>0.27</timeResidual>
          <creationInfo>
            <agencyID>UW</agencyID>
            <creationTime>2012-02-27T16:41:41.000000Z</creationTime>
          </creationInfo>
        </arrival>
        <arrival publicID="quakeml:uw.anss.org/AssocArO/UW/3821103">
          <pickID>quakeml:uw.anss.org/Arrival/UW/3821103</pickID>
          <phase>S</phase>
          <azimuth>185.3</azimuth>
          <distance>2.398</distance>
          <timeResidual>0.89</timeResidual>
          <creationInfo>
            <agencyID>UW</agencyID>
            <creationTime>2012-02-27T16:41:41.000000Z</creationTime>
          </creationInfo>
        </arrival>
        <arrival publicID="quakeml:uw.anss.org/AssocArO/UW/3821108">
          <pickID>quakeml:uw.anss.org/Arrival/UW/3821108</pickID>
          <phase>P</phase>
          <azimuth>139.5</azimuth>
          <distance>2.888</distance>
          <timeResidual>-0.57</timeResidual>
          <creationInfo>
            <agencyID>UW</agencyID>
            <creationTime>2012-02-27T16:41:41.000000Z</creationTime>
          </creationInfo>
        </arrival>
        <arrival publicID="quakeml:uw.anss.org/AssocArO/UW/3821113">
          <pickID>quakeml:uw.anss.org/Arrival/UW/3821113</pickID>
          <phase>P</phase>
          <azimuth>171.9</azimuth>
          <distance>2.927</distance>
          <timeResidual>1.41</timeResidual>
          <creationInfo>
            <agencyID>UW</agencyID>
            <creationTime>2012-02-27T16:41:41.000000Z</creationTime>
          </creationInfo>
        </arrival>
        <arrival publicID="quakeml:uw.anss.org/AssocArO/UW/3821118">
          <pickID>quakeml:uw.anss.org/Arrival/UW/3821118</pickID>
          <phase>P</phase>
          <timeResidual>0.2</timeResidual>
          <creationInfo>
            <agencyID>UW</agencyID>
            <creationTime>2012-02-27T16:41:41.000000Z</creationTime>
          </creationInfo>
        </arrival>
        <arrival publicID="quakeml:uw.anss.org/AssocArO/UW/3821123">
          <pickID>quakeml:uw.anss.org/Arrival/UW/3821123</pickID>
          <phase>S</phase>
          <timeResidual>0.95</timeResidual>
          <creationInfo>
            <agencyID>UW</agencyID>
            <creationTime>2012-02-27T16:41:41.000000Z</creationTime>
          </creationInfo>
        </arrival>
        <arrival publicID="quakeml:uw.anss.org/AssocArO/UW/3821128">
          <pickID>quakeml:uw.anss.org/Arrival/UW/3821128</pickID>
          <phase>P</phase>
          <azimuth>173.5</azimuth>
          <distance>0.4014</distance>
          <timeResidual>-0.52</timeResidual>
          <creationInfo>
            <agencyID>UW</agencyID>
            <creationTime>2012-02-27T16:41:41.000000Z</creationTime>
          </creationInfo>
        </arrival>
        <arrival publicID="quakeml:uw.anss.org/AssocArO/UW/3821133">
          <pickID>quakeml:uw.anss.org/Arrival/UW/3821133</pickID>
          <phase>P</phase>
          <azimuth>181.9</azimuth>
          <distance>2.157</distance>
          <timeResidual>-0.04</timeResidual>
          <creationInfo>
            <agencyID>UW</agencyID>
            <creationTime>2012-02-27T16:41:41.000000Z</creationTime>
          </creationInfo>
        </arrival>
        <arrival publicID="quakeml:uw.anss.org/AssocArO/UW/3821138">
          <pickID>quakeml:uw.anss.org/Arrival/UW/3821138</pickID>
          <phase>S</phase>
          <azimuth>181.9</azimuth>
          <distance>2.157</distance>
          <timeResidual>0.75</timeResidual>
          <creationInfo>
            <agencyID>UW</agencyID>
            <creationTime>2012-02-27T16:41:41.000000Z</creationTime>
          </creationInfo>
        </arrival>
        <arrival publicID="quakeml:uw.anss.org/AssocArO/UW/3821143">
          <pickID>quakeml:uw.anss.org/Arrival/UW/3821143</pickID>
          <phase>P</phase>
          <azimuth>178.2</azimuth>
          <distance>3.287</distance>
          <timeResidual>2.01</timeResidual>
          <creationInfo>
            <agencyID>UW</agencyID>
            <creationTime>2012-02-27T16:41:41.000000Z</creationTime>
          </creationInfo>
        </arrival>
        <arrival publicID="quakeml:uw.anss.org/AssocArO/UW/3821148">
          <pickID>quakeml:uw.anss.org/Arrival/UW/3821148</pickID>
          <phase>P</phase>
          <azimuth>252.2</azimuth>
          <distance>1.684</distance>
          <timeResidual>-0.85</timeResidual>
          <creationInfo>
            <agencyID>UW</agencyID>
            <creationTime>2012-02-27T16:41:41.000000Z</creationTime>
          </creationInfo>
        </arrival>
        <arrival publicID="quakeml:uw.anss.org/AssocArO/UW/3821153">
          <pickID>quakeml:uw.anss.org/Arrival/UW/3821153</pickID>
          <phase>P</phase>
          <azimuth>179.5</azimuth>
          <distance>2.677</distance>
          <timeResidual>1.08</timeResidual>
          <creationInfo>
            <agencyID>UW</agencyID>
