<?xml version='1.0' encoding='utf-8'?>
<q:quakeml xmlns="http://quakeml.org/xmlns/bed/1.2" xmlns:q="http://quakeml.org/xmlns/quakeml/1.2" xmlns:ns0="http://anss.org/xmlns/catalog/0.1">
  <eventParameters publicID="smi:local/f4f66dad-ec87-49e6-a7de-d6d328421cca">
    <event publicID="quakeml:uw.anss.org/Event/UW/10260113" ns0:datasource="uw" ns0:dataid="uw10260113" ns0:eventsource="uw" ns0:eventid="10260113">
      <preferredOriginID>quakeml:uw.anss.org/Origin/UW/537058</preferredOriginID>
      <preferredMagnitudeID>quakeml:uw.anss.org/Netmag/UW/449448</preferredMagnitudeID>
      <type>earthquake</type>
      <creationInfo>
        <agencyID>UW</agencyID>
        <creationTime>2012-02-27T16:47:24.000000Z</creationTime>
        <version>3</version>
      </creationInfo>
      <origin publicID="quakeml:uw.anss.org/Origin/UW/537058" ns0:datasource="uw" ns0:dataid="uw10260113" ns0:eventsource="uw" ns0:eventid="10260113">
        <time>
          <value>1990-04-19T10:25:23.530000Z</value>
          <uncertainty>3.01</uncertainty>
        </time>
        <latitude>
          <value>48.8438333</value>
          <uncertainty>1.59</uncertainty>
        </latitude>
        <longitude>
          <value>-122.1783333</value>
          <uncertainty>2.76</uncertainty>
        </longitude>
        <depth>
          <value>3931.0</value>
          <uncertainty>26460.0</uncertainty>
        </depth>
        <depthType>operator assigned</depthType>
        <timeFixed>false</timeFixed>
        <epicenterFixed>true</epicenterFixed>
        <methodID>smi:uw.anss.org/origin/spong</methodID>
        <quality>
          <associatedPhaseCount>35</associatedPhaseCount>
          <usedPhaseCount>23</usedPhaseCount>
          <associatedStationCount>28</associatedStationCount>
          <usedStationCount>0</usedStationCount>
          <standardError>0.37</standardError>
          <azimuthalGap>92.0</azimuthalGap>
        </quality>
        <type>hypocenter</type>
        <evaluationMode>manual</evaluationMode>
        <evaluationStatus>final</evaluationStatus>
        <creationInfo>
          <agencyID>UW</agencyID>
          <creationTime>2012-02-27T16:47:24.000000Z</creationTime>
        </creationInfo>
        <originUncertainty>
          <preferredDescription>horizontal uncertainty</preferredDescription>
          <horizontalUncertainty>3185.0</horizontalUncertainty>
        </originUncertainty>
        <arrival publicID="quakeml:uw.anss.org/AssocArO/UW/3866498">
          <pickID>quakeml:uw.anss.org/Arrival/UW/3866498</pickID>
          <phase>P</phase>
          <azimuth>206.4</azimuth>
          <distance>1.332</distance>
          <timeResidual>0.3</timeResidual>
          <creationInfo>
            <agencyID>UW</agencyID>
            <creationTime>2012-02-27T16:47:24.000000Z</creationTime>
          </creationInfo>
        </arrival>
        <arrival publicID="quakeml:uw.anss.org/AssocArO/UW/3866503">
          <pickID>quakeml:uw.anss.org/Arrival/UW/3866503</pickID>
          <phase>P</phase>
          <azimuth>328.8</azimuth>
          <timeResidual>-0.23</timeResidual>
          <creationInfo>
            <agencyID>UW</agencyID>
            <creationTime>2012-02-27T16:47:24.000000Z</creationTime>
          </creationInfo>
        </arrival>
        <arrival publicID="quakeml:uw.anss.org/AssocArO/UW/3866508">
          <pickID>quakeml:uw.anss.org/Arrival/UW/3866508</pickID>
          <phase>S</phase>
          <azimuth>328.8</azimuth>
          <timeResidual>-0.02</timeResidual>
          <creationInfo>
            <agencyID>UW</agencyID>
            <creationTime>2012-02-27T16:47:24.000000Z</creationTime>
          </creationInfo>
        </arrival>
        <arrival publicID="quakeml:uw.anss.org/AssocArO/UW/3866513">
          <pickID>quakeml:uw.anss.org/Arrival/UW/3866513</pickID>
          <phase>P</phase>
          <timeResidual>0.14</timeResidual>
          <creationInfo>
            <agencyID>UW</agencyID>
            <creationTime>2012-02-27T16:47:24.000000Z</creationTime>
          </creationInfo>
        </arrival>
        <arrival publicID="quakeml:uw.anss.org/AssocArO/UW/3866518">
          <pickID>quakeml:uw.anss.org/Arrival/UW/3866518</pickID>
          <phase>P</phase>
          <azimuth>174.8</azimuth>
          <distance>0.4224</distance>
          <timeResidual>-0.69</timeResidual>
          <creationInfo>
            <agencyID>UW</agencyID>
            <creationTime>2012-02-27T16:47:24.000000Z</creationTime>
          </creationInfo>
        </arrival>
        <arrival publicID="quakeml:uw.anss.org/AssocArO/UW/3866523">
          <pickID>quakeml:uw.anss.org/Arrival/UW/3866523</pickID>
          <phase>S</phase>
          <azimuth>174.8</azimuth>
          <distance>0.4224</distance>
          <timeResidual>1.06</timeResidual>
          <creationInfo>
            <agencyID>UW</agencyID>
            <creationTime>2012-02-27T16:47:24.000000Z</creationTime>
          </creationInfo>
        </arrival>
        <arrival publicID="quakeml:uw.anss.org/AssocArO/UW/3866528">
          <pickID>quakeml:uw.anss.org/Arrival/UW/3866528</pickID>
          <phase>P</phase>
          <azimuth>171.0</azimuth>
          <timeResidual>0.63</timeResidual>
          <creationInfo>
            <agencyID>UW</agencyID>
            <creationTime>2012-02-27T16:47:24.000000Z</creationTime>
          </creationInfo>
        </arrival>
        <arrival publicID="quakeml:uw.anss.org/AssocArO/UW/3866533">
          <pickID>quakeml:uw.anss.org/Arrival/UW/3866533</pickID>
          <phase>P</phase>
          <azimuth>175.8</azimuth>
          <distance>1.906</distance>
          <timeResidual>0.18</timeResidual>
          <creationInfo>
            <agencyID>UW</agencyID>
            <creationTime>2012-02-27T16:47:24.000000Z</creationTime>
          </creationInfo>
        </arrival>
        <arrival publicID="quakeml:uw.anss.org/AssocArO/UW/3866538">
          <pickID>quakeml:uw.anss.org/Arrival/UW/3866538</pickID>
          <phase>P</phase>
          <timeResidual>0.03</timeResidual>
          <creationInfo>
            <agencyID>UW</agencyID>
            <creationTime>2012-02-27T16:47:24.000000Z</creationTime>
          </creationInfo>
        </arrival>
        <arrival publicID="quakeml:uw.anss.org/AssocArO/UW/3866543">
          <pickID>quakeml:uw.anss.org/Arrival/UW/3866543</pickID>
          <phase>P</phase>
          <azimuth>131.8</azimuth>
          <distance>0.592</distance>
          <timeResidual>-0.15</timeResidual>
          <creationInfo>
            <agencyID>UW</agencyID>
            <creationTime>2012-02-27T16:47:24.000000Z</creationTime>
          </creationInfo>
        </arrival>
        <arrival publicID="quakeml:uw.anss.org/AssocArO/UW/3866548">
          <pickID>quakeml:uw.anss.org/Arrival/UW/3866548</pickID>
          <phase>S</phase>
          <azimuth>131.8</azimuth>
          <distance>0.592</distance>
          <timeResidual>0.07</timeResidual>
          <creationInfo>
            <agencyID>UW</agencyID>
            <creationTime>2012-02-27T16:47:24.000000Z</creationTime>
          </creationInfo>
        </arrival>
        <arrival publicID="quakeml:uw.anss.org/AssocArO/UW/3866553">
          <pickID>quakeml:uw.anss.org/Arrival/UW/3866553</pickID>
          <phase>P</phase>
          <azimuth>307.9</azimuth>
          <timeResidual>-0.38</timeResidual>
          <creationInfo>
            <agencyID>UW</agencyID>
            <creationTime>2012-02-27T16:47:24.000000Z</creationTime>
          </creationInfo>
        </arrival>
        <arrival publicID="quakeml:uw.anss.org/AssocArO/UW/3866558">
          <pickID>quakeml:uw.anss.org/Arrival/UW/3866558</pickID>
          <phase>P</phase>
          <azimuth>195.5</azimuth>
          <distance>1.061</distance>
          <timeResidual>0.61</timeResidual>
          <creationInfo>
            <agencyID>UW</agencyID>
            <creationTime>2012-02-27T16:47:24.000000Z</creationTime>
          </creationInfo>
        </arrival>
        <arrival publicID="quakeml:uw.anss.org/AssocArO/UW/3866563">
          <pickID>quakeml:uw.anss.org/Arrival/UW/3866563</pickID>
          <phase>P</phase>
          <azimuth>204.4</azimuth>
          <distance>0.5719</distance>
          <timeResidual>0.53</timeResidual>
          <creationInfo>
            <agencyID>UW</agencyID>
            <creationTime>2012-02-27T16:47:24.000000Z</creationTime>
          </creationInfo>
        </arrival>
        <arrival publicID="quakeml:uw.anss.org/AssocArO/UW/3866568">
          <pickID>quakeml:uw.anss.org/Arrival/UW/3866568</pickID>
          <phase>P</phase>
          <azimuth>225.2</azimuth>
          <distance>1.448</distance>
          <timeResidual>0.4</timeResidual>
          <creationInfo>
            <agencyID>UW</agencyID>
            <creationTime>2012-02-27T16:47:24.000000Z</creationTime>
          </creationInfo>
        </arrival>
        <arrival publicID="quakeml:uw.anss.org/AssocArO/UW/3866573">
          <pickID>quakeml:uw.anss.org/Arrival/UW/3866573</pickID>
          <phase>P</phase>
          <azimuth>320.5</azimuth>
          <timeResidual>-0.37</timeResidual>
          <creationInfo>
            <agencyID>UW</agencyID>
            <creationTime>2012-02-27T16:47:24.000000Z</creationTime>
          </creationInfo>
        </arrival>
        <arrival publicID="quakeml:uw.anss.org/AssocArO/UW/3866578">
          <pickID>quakeml:uw.anss.org/Arrival/UW/3866578</pickID>
          <phase>S</phase>
          <azimuth>320.5</azimuth>
          <timeResidual>-0.63</timeResidual>
          <creationInfo>
            <agencyID>UW</agencyID>
            <creationTime>2012-02-27T16:47:24.000000Z</creationTime>
          </creationInfo>
        </arrival>
        <arrival publicID="quakeml:uw.anss.org/AssocArO/UW/3866583">
          <pickID>quakeml:uw.anss.org/Arrival/UW/3866583</pickID>
          <phase>P</phase>
          <azimuth>165.5</azimuth>
          <timeResidual>-0.15</timeResidual>
          <creationInfo>
            <agencyID>UW</agencyID>
            <creationTime>2012-02-27T16:47:24.000000Z</creationTime>
          </creationInfo>
        </arrival>
        <arrival publicID="quakeml:uw.anss.org/AssocArO/UW/3866588">
          <pickID>quakeml:uw.anss.org/Arrival/UW/3866588</pickID>
          <phase>S</phase>
          <azimuth>165.5</azimuth>
          <timeResidual>1.7</timeResidual>
          <creationInfo>
            <agencyID>UW</agencyID>
            <creationTime>2012-02-27T16:47:24.000000Z</creationTime>
          </creationInfo>
        </arrival>
        <arrival publicID="quakeml:uw.anss.org/AssocArO/UW/3866593">
          <pickID>quakeml:uw.anss.org/Arrival/UW/3866593</pickID>
          <phase>P</phase>
          <azimuth>169.7</azimuth>
          <timeResidual>0.48</timeResidual>
          <creationInfo>
            <agencyID>UW</agencyID>
            <creationTime>2012-02-27T16:47:24.000000Z</creationTime>
          </creationInfo>
        </arrival>
        <arrival publicID="quakeml:uw.anss.org/AssocArO/UW/3866598">
          <pickID>quakeml:uw.anss.org/Arrival/UW/3866598</pickID>
          <phase>P</phase>
          <timeResidual>0.11</timeResidual>
          <creationInfo>
            <agencyID>UW</agencyID>
            <creationTime>2012-02-27T16:47:24.000000Z</creationTime>
          </creationInfo>
        </arrival>
        <arrival publicID="quakeml:uw.anss.org/AssocArO/UW/3866603">
          <pickID>quakeml:uw.anss.org/Arrival/UW/3866603</pickID>
          <phase>S</phase>
          <timeResidual>-0.25</timeResidual>
          <creationInfo>
            <agencyID>UW</agencyID>
            <creationTime>2012-02-27T16:47:24.000000Z</creationTime>
          </creationInfo>
        </arrival>
        <arrival publicID="quakeml:uw.anss.org/AssocArO/UW/3866608">
          <pickID>quakeml:uw.anss.org/Arrival/UW/3866608</pickID>
          <phase>P</phase>
          <azimuth>235.5</azimuth>
          <timeResidual>-0.29</timeResidual>
          <creationInfo>
            <agencyID>UW</agencyID>
            <creationTime>2012-02-27T16:47:24.000000Z</creationTime>
          </creationInfo>
        </arrival>
        <arrival publicID="quakeml:uw.anss.org/AssocArO/UW/3866613">
          <pickID>quakeml:uw.anss.org/Arrival/UW/3866613</pickID>
          <phase>P</phase>
          <timeResidual>-0.22</timeResidual>
          <creationInfo>
            <agencyID>UW</agencyID>
            <creationTime>2012-02-27T16:47:24.000000Z</creationTime>
          </creationInfo>
        </arrival>
        <arrival publicID="quakeml:uw.anss.org/AssocArO/UW/3866618">
          <pickID>quakeml:uw.anss.org/Arrival/UW/3866618</pickID>
          <phase>P</phase>
          <azimuth>197.6</azimuth>
          <distance>1.36</distance>
          <timeResidual>-0.1</timeResidual>
          <creationInfo>
            <agencyID>UW</agencyID>
            <creationTime>2012-02-27T16:47:24.000000Z</creationTime>
          </creationInfo>
        </arrival>
        <arrival publicID="quakeml:uw.anss.org/AssocArO/UW/3866623">
          <pickID>quakeml:uw.anss.org/Arrival/UW/3866623</pickID>
          <phase>P</phase>
          <azimuth>169.7</azimuth>
          <distance>1.407</distance>
          <timeResidual>0.54</timeResidual>
          <creationInfo>
            <agencyID>UW</agencyID>
            <creationTime>2012-02-27T16:47:24.000000Z</creationTime>
          </creationInfo>
        </arrival>
        <arrival publicID="quakeml:uw.anss.org/AssocArO/UW/3866628">
          <pickID>quakeml:uw.anss.org/Arrival/UW/3866628</pickID>
          <phase>P</phase>
          <timeResidual>-0.74</timeResidual>
          <creationInfo>
            <agencyID>UW</agencyID>
            <creationTime>2012-02-27T16:47:24.000000Z</creationTime>
          </creationInfo>
        </arrival>
        <arrival publicID="quakeml:uw.anss.org/AssocArO/UW/3866633">
          <pickID>quakeml:uw.anss.org/Arrival/UW/3866633</pickID>
          <phase>P</phase>
          <azimuth>108.1</azimuth>
          <distance>0.193</distance>
          <timeResidual>-0.1</timeResidual>
          <creationInfo>
            <agencyID>UW</agencyID>
            <creationTime>2012-02-27T16:47:24.000000Z</creationTime>
          </creationInfo>
        </arrival>
        <arrival publicID="quakeml:uw.anss.org/AssocArO/UW/3866638">
          <pickID>quakeml:uw.anss.org/Arrival/UW/3866638</pickID>
          <phase>S</phase>
          <azimuth>108.1</azimuth>
          <distance>0.193</distance>
          <timeResidual>0.51</timeResidual>
          <creationInfo>
            <agencyID>UW</agencyID>
            <creationTime>2012-02-27T16:47:24.000000Z</creationTime>
          </creationInfo>
        </arrival>
        <arrival publicID="quakeml:uw.anss.org/AssocArO/UW/3866643">
          <pickID>quakeml:uw.anss.org/Arrival/UW/3866643</pickID>
          <phase>P</phase>
          <timeResidual>0.13</timeResidual>
          <creationInfo>
            <agencyID>UW</agencyID>
            <creationTime>2012-02-27T16:47:24.000000Z</creationTime>
          </creationInfo>
        </arrival>
        <arrival publicID="quakeml:uw.anss.org/AssocArO/UW/3866648">
          <pickID>quakeml:uw.anss.org/Arrival/UW/3866648</pickID>
          <phase>P</phase>
          <azimuth>165.2</azimuth>
          <distance>1.076</distance>
          <timeResidual>0.87</timeResidual>
          <creationInfo>
            <agencyID>UW</agencyID>
            <creationTime>2012-02-27T16:47:24.000000Z</creationTime>
          </creationInfo>
        </arrival>
        <arrival publicID="quakeml:uw.anss.org/AssocArO/UW/3866653">
          <pickID>quakeml:uw.anss.org/Arrival/UW/3866653</pickID>
          <phase>P</phase>
          <azimuth>125.4</azimuth>
          <distance>1.764</distance>
          <timeResidual>1.28</timeResidual>
          <creationInfo>
            <agencyID>UW</agencyID>
            <creationTime>2012-02-27T16:47:24.000000Z</creationTime>
          </creationInfo>
        </arrival>
        <arrival publicID="quakeml:uw.anss.org/AssocArO/UW/3866658">
          <pickID>quakeml:uw.anss.org/Arrival/UW/3866658</pickID>
          <phase>P</phase>
          <azimuth>212.5</azimuth>
          <distance>0.9909</distance>
          <timeResidual>0.63</timeResidual>
          <creationInfo>
            <agencyID>UW</agencyID>
            <creationTime>2012-02-27T16:47:24.000000Z</creationTime>
          </creationInfo>
        </arrival>
        <arrival publicID="quakeml:uw.anss.org/AssocArO/UW/3866663">
          <pickID>quakeml:uw.anss.org/Arrival/UW/3866663</pickID>
          <phase>P</phase>
          <azimuth>147.2</azimuth>
          <distance>1.982</distance>
          <timeResidual>0.78</timeResidual>
          <creationInfo>
            <agencyID>UW</agencyID>
            <creationTime>2012-02-27T16:47:24.000000Z</creationTime>
          </creationInfo>
        </arrival>
        <arrival publicID="quakeml:uw.anss.org/AssocArO/UW/3866668">
          <pickID>quakeml:uw.anss.org/Arrival/UW/3866668</pickID>
          <phase>P</phase>
          <azimuth>249.3</azimuth>
          <distance>0.4633</distance>
          <timeResidual>-0.29</timeResidual>
          <creationInfo>
            <agencyID>UW</agencyID>
            <creationTime>2012-02-27T16:47:24.000000Z</creationTime>
          </creationInfo>
        </arrival>
      </origin>
      <magnitude publicID="quakeml:uw.anss.org/Netmag/UW/449448">
        <mag>
          <value>2.1</value>
          <uncertainty>0.1</uncertainty>
        </mag>
        <type>Md</type>
        <originID>quakeml:uw.anss.org/Origin/UW/537058</originID>
        <methodID>smi:uw.anss.org/magnitude/Crosson</methodID>
        <stationCount>3</stationCount>
        <evaluationMode>manual</evaluationMode>
        <evaluationStatus>final</evaluationStatus>
        <stationMagnitudeContribution>
          <stationMagnitudeID>quakeml:uw.anss.org/AssocCoM/UW/1104638</stationMagnitudeID>
          <weight>1.0</weight>
          <residual>-0.11</residual>
        </stationMagnitudeContribution>
        <stationMagnitudeContribution>
          <stationMagnitudeID>quakeml:uw.anss.org/AssocCoM/UW/1104633</stationMagnitudeID>
          <weight>1.0</weight>
          <residual>0.1</residual>
        </stationMagnitudeContribution>
        <stationMagnitudeContribution>
          <stationMagnitudeID>quakeml:uw.anss.org/AssocCoM/UW/1104628</stationMagnitudeID>
          <weight>1.0</weight>
          <residual>0.02</residual>
        </stationMagnitudeContribution>
        <creationInfo>
          <agencyID>UW</agencyID>
          <creationTime>2012-02-27T16:47:24.000000Z</creationTime>
        </creationInfo>
      </magnitude>
      <stationMagnitude publicID="quakeml:uw.anss.org/AssocCoM/UW/1104628">
        <originID>quakeml:uw.anss.org/Origin/UW/537058</originID>
        <mag>
          <value>2.12</value>
        </mag>
        <type>MD</type>
        <amplitudeID>quakeml:uw.anss.org/Coda/UW/1104628</amplitudeID>
        <waveformID networkCode="UW" stationCode="CMW" locationCode="" channelCode="EHZ"></waveformID>
      </stationMagnitude>
      <stationMagnitude publicID="quakeml:uw.anss.org/AssocCoM/UW/1104633">
        <originID>quakeml:uw.anss.org/Origin/UW/537058</originID>
        <mag>
          <value>2.2</value>
        </mag>
        <type>MD</type>
        <amplitudeID>quakeml:uw.anss.org/Coda/UW/1104633</amplitudeID>
        <waveformID networkCode="UW" stationCode="RPW" locationCode="" channelCode="EHZ"></waveformID>
      </stationMagnitude>
      <stationMagnitude publicID="quakeml:uw.anss.org/AssocCoM/UW/1104638">
        <originID>quakeml:uw.anss.org/Origin/UW/537058</originID>
        <mag>
          <value>1.99</value>
        </mag>
        <type>MD</type>
        <amplitudeID>quakeml:uw.anss.org/Coda/UW/1104638</amplitudeID>
