<?xml version='1.0' encoding='utf-8'?>
<q:quakeml xmlns="http://quakeml.org/xmlns/bed/1.2" xmlns:q="http://quakeml.org/xmlns/quakeml/1.2" xmlns:ns0="http://anss.org/xmlns/catalog/0.1">
  <eventParameters publicID="smi:local/57fbcc4e-1859-4b3b-b8cb-364bc867df7f">
    <event publicID="quakeml:uw.anss.org/Event/UW/10259168" ns0:datasource="uw" ns0:dataid="uw10259168" ns0:eventsource="uw" ns0:eventid="10259168">
      <preferredOriginID>quakeml:uw.anss.org/Origin/UW/536113</preferredOriginID>
      <preferredMagnitudeID>quakeml:uw.anss.org/Netmag/UW/448598</preferredMagnitudeID>
      <type>earthquake</type>
      <creationInfo>
        <agencyID>UW</agencyID>
        <creationTime>2012-02-27T16:44:50.000000Z</creationTime>
        <version>3</version>
      </creationInfo>
      <origin publicID="quakeml:uw.anss.org/Origin/UW/536113" ns0:datasource="uw" ns0:dataid="uw10259168" ns0:eventsource="uw" ns0:eventid="10259168">
        <time>
          <value>1990-04-16T02:50:56.990000Z</value>
          <uncertainty>0.03</uncertainty>
        </time>
        <latitude>
          <value>48.8378333</value>
          <uncertainty>0.15</uncertainty>
        </latitude>
        <longitude>
          <value>-122.1801667</value>
          <uncertainty>0.11</uncertainty>
        </longitude>
        <depth>
          <value>871.0</value>
          <uncertainty>340.0</uncertainty>
        </depth>
        <depthType>operator assigned</depthType>
        <timeFixed>false</timeFixed>
        <epicenterFixed>false</epicenterFixed>
        <methodID>smi:uw.anss.org/origin/spong</methodID>
        <quality>
          <associatedPhaseCount>54</associatedPhaseCount>
          <usedPhaseCount>32</usedPhaseCount>
          <associatedStationCount>42</associatedStationCount>
          <usedStationCount>0</usedStationCount>
          <standardError>0.44</standardError>
          <azimuthalGap>91.0</azimuthalGap>
        </quality>
        <type>hypocenter</type>
        <evaluationMode>manual</evaluationMode>
        <evaluationStatus>final</evaluationStatus>
        <creationInfo>
          <agencyID>UW</agencyID>
          <creationTime>2012-02-27T16:44:50.000000Z</creationTime>
        </creationInfo>
        <originUncertainty>
          <preferredDescription>horizontal uncertainty</preferredDescription>
          <horizontalUncertainty>186.0</horizontalUncertainty>
        </originUncertainty>
        <arrival publicID="quakeml:uw.anss.org/AssocArO/UW/3848208">
          <pickID>quakeml:uw.anss.org/Arrival/UW/3848208</pickID>
          <phase>P</phase>
          <azimuth>288.5</azimuth>
          <timeResidual>-0.29</timeResidual>
          <creationInfo>
            <agencyID>UW</agencyID>
            <creationTime>2012-02-27T16:44:50.000000Z</creationTime>
          </creationInfo>
        </arrival>
        <arrival publicID="quakeml:uw.anss.org/AssocArO/UW/3848213">
          <pickID>quakeml:uw.anss.org/Arrival/UW/3848213</pickID>
          <phase>S</phase>
          <azimuth>288.5</azimuth>
          <timeResidual>-1.38</timeResidual>
          <creationInfo>
            <agencyID>UW</agencyID>
            <creationTime>2012-02-27T16:44:50.000000Z</creationTime>
          </creationInfo>
        </arrival>
        <arrival publicID="quakeml:uw.anss.org/AssocArO/UW/3848218">
          <pickID>quakeml:uw.anss.org/Arrival/UW/3848218</pickID>
          <phase>P</phase>
          <azimuth>206.4</azimuth>
          <distance>1.326</distance>
          <timeResidual>0.23</timeResidual>
          <creationInfo>
            <agencyID>UW</agencyID>
            <creationTime>2012-02-27T16:44:50.000000Z</creationTime>
          </creationInfo>
        </arrival>
        <arrival publicID="quakeml:uw.anss.org/AssocArO/UW/3848223">
          <pickID>quakeml:uw.anss.org/Arrival/UW/3848223</pickID>
          <phase>S</phase>
          <azimuth>206.4</azimuth>
          <distance>1.326</distance>
          <timeResidual>0.59</timeResidual>
          <creationInfo>
            <agencyID>UW</agencyID>
            <creationTime>2012-02-27T16:44:50.000000Z</creationTime>
          </creationInfo>
        </arrival>
        <arrival publicID="quakeml:uw.anss.org/AssocArO/UW/3848228">
          <pickID>quakeml:uw.anss.org/Arrival/UW/3848228</pickID>
          <phase>P</phase>
          <azimuth>121.5</azimuth>
          <distance>1.445</distance>
          <timeResidual>0.94</timeResidual>
          <creationInfo>
            <agencyID>UW</agencyID>
            <creationTime>2012-02-27T16:44:51.000000Z</creationTime>
          </creationInfo>
        </arrival>
        <arrival publicID="quakeml:uw.anss.org/AssocArO/UW/3848233">
          <pickID>quakeml:uw.anss.org/Arrival/UW/3848233</pickID>
          <phase>P</phase>
          <azimuth>329.2</azimuth>
          <timeResidual>-0.14</timeResidual>
          <creationInfo>
            <agencyID>UW</agencyID>
            <creationTime>2012-02-27T16:44:51.000000Z</creationTime>
          </creationInfo>
        </arrival>
        <arrival publicID="quakeml:uw.anss.org/AssocArO/UW/3848238">
          <pickID>quakeml:uw.anss.org/Arrival/UW/3848238</pickID>
          <phase>S</phase>
          <azimuth>329.2</azimuth>
          <timeResidual>-0.25</timeResidual>
          <creationInfo>
            <agencyID>UW</agencyID>
            <creationTime>2012-02-27T16:44:51.000000Z</creationTime>
          </creationInfo>
        </arrival>
        <arrival publicID="quakeml:uw.anss.org/AssocArO/UW/3848243">
          <pickID>quakeml:uw.anss.org/Arrival/UW/3848243</pickID>
          <phase>P</phase>
          <azimuth>134.4</azimuth>
          <distance>1.746</distance>
          <timeResidual>0.96</timeResidual>
          <creationInfo>
            <agencyID>UW</agencyID>
            <creationTime>2012-02-27T16:44:51.000000Z</creationTime>
          </creationInfo>
        </arrival>
        <arrival publicID="quakeml:uw.anss.org/AssocArO/UW/3848248">
          <pickID>quakeml:uw.anss.org/Arrival/UW/3848248</pickID>
          <phase>P</phase>
          <azimuth>156.1</azimuth>
          <distance>2.296</distance>
          <timeResidual>-0.67</timeResidual>
          <creationInfo>
            <agencyID>UW</agencyID>
            <creationTime>2012-02-27T16:44:51.000000Z</creationTime>
          </creationInfo>
        </arrival>
        <arrival publicID="quakeml:uw.anss.org/AssocArO/UW/3848253">
          <pickID>quakeml:uw.anss.org/Arrival/UW/3848253</pickID>
          <phase>P</phase>
          <azimuth>207.6</azimuth>
          <distance>1.708</distance>
          <timeResidual>1.53</timeResidual>
          <creationInfo>
            <agencyID>UW</agencyID>
            <creationTime>2012-02-27T16:44:51.000000Z</creationTime>
          </creationInfo>
        </arrival>
        <arrival publicID="quakeml:uw.anss.org/AssocArO/UW/3848258">
          <pickID>quakeml:uw.anss.org/Arrival/UW/3848258</pickID>
          <phase>P</phase>
          <timeResidual>0.11</timeResidual>
          <creationInfo>
            <agencyID>UW</agencyID>
            <creationTime>2012-02-27T16:44:51.000000Z</creationTime>
          </creationInfo>
        </arrival>
        <arrival publicID="quakeml:uw.anss.org/AssocArO/UW/3848263">
          <pickID>quakeml:uw.anss.org/Arrival/UW/3848263</pickID>
          <phase>S</phase>
          <timeResidual>0.89</timeResidual>
          <creationInfo>
            <agencyID>UW</agencyID>
            <creationTime>2012-02-27T16:44:51.000000Z</creationTime>
          </creationInfo>
        </arrival>
        <arrival publicID="quakeml:uw.anss.org/AssocArO/UW/3848268">
          <pickID>quakeml:uw.anss.org/Arrival/UW/3848268</pickID>
          <phase>P</phase>
          <azimuth>174.5</azimuth>
          <distance>0.4166</distance>
          <timeResidual>-0.5</timeResidual>
          <creationInfo>
            <agencyID>UW</agencyID>
            <creationTime>2012-02-27T16:44:51.000000Z</creationTime>
          </creationInfo>
        </arrival>
        <arrival publicID="quakeml:uw.anss.org/AssocArO/UW/3848273">
          <pickID>quakeml:uw.anss.org/Arrival/UW/3848273</pickID>
          <phase>S</phase>
          <azimuth>174.5</azimuth>
          <distance>0.4166</distance>
          <timeResidual>0.64</timeResidual>
          <creationInfo>
            <agencyID>UW</agencyID>
            <creationTime>2012-02-27T16:44:51.000000Z</creationTime>
          </creationInfo>
        </arrival>
        <arrival publicID="quakeml:uw.anss.org/AssocArO/UW/3848278">
          <pickID>quakeml:uw.anss.org/Arrival/UW/3848278</pickID>
          <phase>P</phase>
          <azimuth>170.9</azimuth>
          <timeResidual>0.21</timeResidual>
          <creationInfo>
            <agencyID>UW</agencyID>
            <creationTime>2012-02-27T16:44:51.000000Z</creationTime>
          </creationInfo>
        </arrival>
        <arrival publicID="quakeml:uw.anss.org/AssocArO/UW/3848283">
          <pickID>quakeml:uw.anss.org/Arrival/UW/3848283</pickID>
          <phase>S</phase>
          <azimuth>170.9</azimuth>
          <timeResidual>0.34</timeResidual>
          <creationInfo>
            <agencyID>UW</agencyID>
            <creationTime>2012-02-27T16:44:51.000000Z</creationTime>
          </creationInfo>
        </arrival>
        <arrival publicID="quakeml:uw.anss.org/AssocArO/UW/3848288">
          <pickID>quakeml:uw.anss.org/Arrival/UW/3848288</pickID>
          <phase>P</phase>
          <azimuth>199.4</azimuth>
          <distance>1.973</distance>
          <timeResidual>1.07</timeResidual>
          <creationInfo>
            <agencyID>UW</agencyID>
            <creationTime>2012-02-27T16:44:51.000000Z</creationTime>
          </creationInfo>
        </arrival>
        <arrival publicID="quakeml:uw.anss.org/AssocArO/UW/3848293">
          <pickID>quakeml:uw.anss.org/Arrival/UW/3848293</pickID>
          <phase>P</phase>
          <azimuth>175.8</azimuth>
          <distance>1.9</distance>
          <timeResidual>0.27</timeResidual>
          <creationInfo>
            <agencyID>UW</agencyID>
            <creationTime>2012-02-27T16:44:51.000000Z</creationTime>
          </creationInfo>
        </arrival>
        <arrival publicID="quakeml:uw.anss.org/AssocArO/UW/3848298">
          <pickID>quakeml:uw.anss.org/Arrival/UW/3848298</pickID>
          <phase>P</phase>
          <azimuth>173.1</azimuth>
          <distance>2.103</distance>
          <timeResidual>0.29</timeResidual>
          <creationInfo>
            <agencyID>UW</agencyID>
            <creationTime>2012-02-27T16:44:51.000000Z</creationTime>
          </creationInfo>
        </arrival>
        <arrival publicID="quakeml:uw.anss.org/AssocArO/UW/3848303">
          <pickID>quakeml:uw.anss.org/Arrival/UW/3848303</pickID>
          <phase>P</phase>
          <timeResidual>0.17</timeResidual>
          <creationInfo>
            <agencyID>UW</agencyID>
            <creationTime>2012-02-27T16:44:51.000000Z</creationTime>
          </creationInfo>
        </arrival>
        <arrival publicID="quakeml:uw.anss.org/AssocArO/UW/3848308">
          <pickID>quakeml:uw.anss.org/Arrival/UW/3848308</pickID>
          <phase>P</phase>
          <azimuth>131.3</azimuth>
          <distance>0.5889</distance>
          <timeResidual>-0.24</timeResidual>
          <creationInfo>
            <agencyID>UW</agencyID>
            <creationTime>2012-02-27T16:44:51.000000Z</creationTime>
          </creationInfo>
        </arrival>
        <arrival publicID="quakeml:uw.anss.org/AssocArO/UW/3848313">
          <pickID>quakeml:uw.anss.org/Arrival/UW/3848313</pickID>
          <phase>S</phase>
          <azimuth>131.3</azimuth>
          <distance>0.5889</distance>
          <timeResidual>-0.05</timeResidual>
          <creationInfo>
            <agencyID>UW</agencyID>
            <creationTime>2012-02-27T16:44:51.000000Z</creationTime>
          </creationInfo>
        </arrival>
        <arrival publicID="quakeml:uw.anss.org/AssocArO/UW/3848318">
          <pickID>quakeml:uw.anss.org/Arrival/UW/3848318</pickID>
          <phase>P</phase>
          <azimuth>308.2</azimuth>
          <timeResidual>-0.31</timeResidual>
          <creationInfo>
            <agencyID>UW</agencyID>
            <creationTime>2012-02-27T16:44:51.000000Z</creationTime>
          </creationInfo>
        </arrival>
        <arrival publicID="quakeml:uw.anss.org/AssocArO/UW/3848323">
          <pickID>quakeml:uw.anss.org/Arrival/UW/3848323</pickID>
          <phase>P</phase>
          <azimuth>195.5</azimuth>
          <distance>1.055</distance>
          <timeResidual>0.57</timeResidual>
          <creationInfo>
            <agencyID>UW</agencyID>
            <creationTime>2012-02-27T16:44:51.000000Z</creationTime>
          </creationInfo>
        </arrival>
        <arrival publicID="quakeml:uw.anss.org/AssocArO/UW/3848328">
          <pickID>quakeml:uw.anss.org/Arrival/UW/3848328</pickID>
          <phase>P</phase>
          <azimuth>204.5</azimuth>
          <distance>0.5659</distance>
          <timeResidual>0.92</timeResidual>
          <creationInfo>
            <agencyID>UW</agencyID>
            <creationTime>2012-02-27T16:44:51.000000Z</creationTime>
          </creationInfo>
        </arrival>
        <arrival publicID="quakeml:uw.anss.org/AssocArO/UW/3848333">
          <pickID>quakeml:uw.anss.org/Arrival/UW/3848333</pickID>
          <phase>P</phase>
          <azimuth>120.5</azimuth>
          <distance>2.177</distance>
          <timeResidual>2.6</timeResidual>
          <creationInfo>
            <agencyID>UW</agencyID>
            <creationTime>2012-02-27T16:44:51.000000Z</creationTime>
          </creationInfo>
        </arrival>
        <arrival publicID="quakeml:uw.anss.org/AssocArO/UW/3848338">
          <pickID>quakeml:uw.anss.org/Arrival/UW/3848338</pickID>
          <phase>P</phase>
          <azimuth>225.4</azimuth>
          <distance>1.442</distance>
          <timeResidual>0.41</timeResidual>
          <creationInfo>
            <agencyID>UW</agencyID>
            <creationTime>2012-02-27T16:44:51.000000Z</creationTime>
          </creationInfo>
        </arrival>
        <arrival publicID="quakeml:uw.anss.org/AssocArO/UW/3848343">
          <pickID>quakeml:uw.anss.org/Arrival/UW/3848343</pickID>
          <phase>P</phase>
          <azimuth>320.8</azimuth>
          <timeResidual>-0.12</timeResidual>
          <creationInfo>
            <agencyID>UW</agencyID>
            <creationTime>2012-02-27T16:44:51.000000Z</creationTime>
          </creationInfo>
        </arrival>
        <arrival publicID="quakeml:uw.anss.org/AssocArO/UW/3848348">
          <pickID>quakeml:uw.anss.org/Arrival/UW/3848348</pickID>
          <phase>S</phase>
          <azimuth>320.8</azimuth>
          <timeResidual>-0.82</timeResidual>
          <creationInfo>
            <agencyID>UW</agencyID>
            <creationTime>2012-02-27T16:44:51.000000Z</creationTime>
          </creationInfo>
        </arrival>
        <arrival publicID="quakeml:uw.anss.org/AssocArO/UW/3848353">
          <pickID>quakeml:uw.anss.org/Arrival/UW/3848353</pickID>
          <phase>P</phase>
          <azimuth>165.3</azimuth>
          <timeResidual>0.08</timeResidual>
          <creationInfo>
            <agencyID>UW</agencyID>
            <creationTime>2012-02-27T16:44:51.000000Z</creationTime>
          </creationInfo>
        </arrival>
        <arrival publicID="quakeml:uw.anss.org/AssocArO/UW/3848358">
          <pickID>quakeml:uw.anss.org/Arrival/UW/3848358</pickID>
          <phase>S</phase>
          <azimuth>165.3</azimuth>
          <timeResidual>1.64</timeResidual>
          <creationInfo>
            <agencyID>UW</agencyID>
            <creationTime>2012-02-27T16:44:51.000000Z</creationTime>
          </creationInfo>
        </arrival>
        <arrival publicID="quakeml:uw.anss.org/AssocArO/UW/3848363">
          <pickID>quakeml:uw.anss.org/Arrival/UW/3848363</pickID>
          <phase>P</phase>
          <azimuth>150.1</azimuth>
          <distance>2.214</distance>
          <timeResidual>1.26</timeResidual>
          <creationInfo>
            <agencyID>UW</agencyID>
            <creationTime>2012-02-27T16:44:51.000000Z</creationTime>
          </creationInfo>
        </arrival>
        <arrival publicID="quakeml:uw.anss.org/AssocArO/UW/3848368">
          <pickID>quakeml:uw.anss.org/Arrival/UW/3848368</pickID>
          <phase>P</phase>
          <azimuth>169.6</azimuth>
          <timeResidual>0.22</timeResidual>
          <creationInfo>
            <agencyID>UW</agencyID>
            <creationTime>2012-02-27T16:44:51.000000Z</creationTime>
          </creationInfo>
        </arrival>
        <arrival publicID="quakeml:uw.anss.org/AssocArO/UW/3848373">
          <pickID>quakeml:uw.anss.org/Arrival/UW/3848373</pickID>
          <phase>P</phase>
          <azimuth>173.5</azimuth>
          <timeResidual>0.47</timeResidual>
          <creationInfo>
            <agencyID>UW</agencyID>
            <creationTime>2012-02-27T16:44:51.000000Z</creationTime>
          </creationInfo>
        </arrival>
        <arrival publicID="quakeml:uw.anss.org/AssocArO/UW/3848378">
          <pickID>quakeml:uw.anss.org/Arrival/UW/3848378</pickID>
          <phase>P</phase>
          <azimuth>117.2</azimuth>
          <distance>1.817</distance>
          <timeResidual>1.91</timeResidual>
          <creationInfo>
            <agencyID>UW</agencyID>
            <creationTime>2012-02-27T16:44:51.000000Z</creationTime>
          </creationInfo>
        </arrival>
        <arrival publicID="quakeml:uw.anss.org/AssocArO/UW/3848383">
          <pickID>quakeml:uw.anss.org/Arrival/UW/3848383</pickID>
          <phase>P</phase>
          <timeResidual>0.14</timeResidual>
          <creationInfo>
            <agencyID>UW</agencyID>
            <creationTime>2012-02-27T16:44:51.000000Z</creationTime>
          </creationInfo>
        </arrival>
        <arrival publicID="quakeml:uw.anss.org/AssocArO/UW/3848388">
          <pickID>quakeml:uw.anss.org/Arrival/UW/3848388</pickID>
          <phase>S</phase>
          <timeResidual>-0.2</timeResidual>
          <creationInfo>
            <agencyID>UW</agencyID>
            <creationTime>2012-02-27T16:44:51.000000Z</creationTime>
          </creationInfo>
        </arrival>
        <arrival publicID="quakeml:uw.anss.org/AssocArO/UW/3848393">
          <pickID>quakeml:uw.anss.org/Arrival/UW/3848393</pickID>
          <phase>P</phase>
          <azimuth>235.7</azimuth>
          <timeResidual>0.0</timeResidual>
          <creationInfo>
            <agencyID>UW</agencyID>
            <creationTime>2012-02-27T16:44:51.000000Z</creationTime>
          </creationInfo>
        </arrival>
        <arrival publicID="quakeml:uw.anss.org/AssocArO/UW/3848398">
          <pickID>quakeml:uw.anss.org/Arrival/UW/3848398</pickID>
          <phase>P</phase>
          <timeResidual>0.29</timeResidual>
          <creationInfo>
            <agencyID>UW</agencyID>
            <creationTime>2012-02-27T16:44:51.000000Z</creationTime>
          </creationInfo>
        </arrival>
        <arrival publicID="quakeml:uw.anss.org/AssocArO/UW/3848403">
          <pickID>quakeml:uw.anss.org/Arrival/UW/3848403</pickID>
          <phase>S</phase>
          <timeResidual>0.39</timeResidual>
          <creationInfo>
            <agencyID>UW</agencyID>
            <creationTime>2012-02-27T16:44:51.000000Z</creationTime>
          </creationInfo>
        </arrival>
        <arrival publicID="quakeml:uw.anss.org/AssocArO/UW/3848408">
          <pickID>quakeml:uw.anss.org/Arrival/UW/3848408</pickID>
          <phase>P</phase>
          <azimuth>126.7</azimuth>
          <distance>1.873</distance>
          <timeResidual>1.41</timeResidual>
          <creationInfo>
            <agencyID>UW</agencyID>
            <creationTime>2012-02-27T16:44:51.000000Z</creationTime>
          </creationInfo>
        </arrival>
