<?xml version='1.0' encoding='utf-8'?>
<q:quakeml xmlns="http://quakeml.org/xmlns/bed/1.2" xmlns:q="http://quakeml.org/xmlns/quakeml/1.2" xmlns:ns0="http://anss.org/xmlns/catalog/0.1">
  <eventParameters publicID="smi:local/ed711ac7-ab79-477a-b7db-839d202dba3e">
    <event publicID="quakeml:uw.anss.org/Event/UW/10262123" ns0:datasource="uw" ns0:dataid="uw10262123" ns0:eventsource="uw" ns0:eventid="10262123">
      <preferredOriginID>quakeml:uw.anss.org/Origin/UW/539068</preferredOriginID>
      <preferredMagnitudeID>quakeml:uw.anss.org/Netmag/UW/451358</preferredMagnitudeID>
      <type>earthquake</type>
      <creationInfo>
        <agencyID>UW</agencyID>
        <creationTime>2012-02-27T16:51:11.000000Z</creationTime>
        <version>3</version>
      </creationInfo>
      <origin publicID="quakeml:uw.anss.org/Origin/UW/539068" ns0:datasource="uw" ns0:dataid="uw10262123" ns0:eventsource="uw" ns0:eventid="10262123">
        <time>
          <value>1990-04-23T08:28:01.990000Z</value>
          <uncertainty>0.07</uncertainty>
        </time>
        <latitude>
          <value>48.8568333</value>
          <uncertainty>0.55</uncertainty>
        </latitude>
        <longitude>
          <value>-122.1466667</value>
          <uncertainty>0.55</uncertainty>
        </longitude>
        <depth>
          <value>10872.0</value>
          <uncertainty>2290.0</uncertainty>
        </depth>
        <depthType>from location</depthType>
        <timeFixed>false</timeFixed>
        <epicenterFixed>false</epicenterFixed>
        <methodID>smi:uw.anss.org/origin/spong</methodID>
        <quality>
          <associatedPhaseCount>47</associatedPhaseCount>
          <usedPhaseCount>24</usedPhaseCount>
          <associatedStationCount>38</associatedStationCount>
          <usedStationCount>0</usedStationCount>
          <standardError>0.24</standardError>
          <azimuthalGap>104.0</azimuthalGap>
        </quality>
        <type>hypocenter</type>
        <evaluationMode>manual</evaluationMode>
        <evaluationStatus>final</evaluationStatus>
        <creationInfo>
          <agencyID>UW</agencyID>
          <creationTime>2012-02-27T16:51:11.000000Z</creationTime>
        </creationInfo>
        <originUncertainty>
          <preferredDescription>horizontal uncertainty</preferredDescription>
          <horizontalUncertainty>778.0</horizontalUncertainty>
        </originUncertainty>
        <arrival publicID="quakeml:uw.anss.org/AssocArO/UW/3903953">
          <pickID>quakeml:uw.anss.org/Arrival/UW/3903953</pickID>
          <phase>P</phase>
          <azimuth>287.4</azimuth>
          <timeResidual>-0.35</timeResidual>
          <creationInfo>
            <agencyID>UW</agencyID>
            <creationTime>2012-02-27T16:51:11.000000Z</creationTime>
          </creationInfo>
        </arrival>
        <arrival publicID="quakeml:uw.anss.org/AssocArO/UW/3903968">
          <pickID>quakeml:uw.anss.org/Arrival/UW/3903968</pickID>
          <phase>S</phase>
          <azimuth>287.4</azimuth>
          <timeResidual>-1.26</timeResidual>
          <creationInfo>
            <agencyID>UW</agencyID>
            <creationTime>2012-02-27T16:51:11.000000Z</creationTime>
          </creationInfo>
        </arrival>
        <arrival publicID="quakeml:uw.anss.org/AssocArO/UW/3903983">
          <pickID>quakeml:uw.anss.org/Arrival/UW/3903983</pickID>
          <phase>P</phase>
          <azimuth>206.9</azimuth>
          <distance>1.353</distance>
          <timeResidual>-0.07</timeResidual>
          <creationInfo>
            <agencyID>UW</agencyID>
            <creationTime>2012-02-27T16:51:11.000000Z</creationTime>
          </creationInfo>
        </arrival>
        <arrival publicID="quakeml:uw.anss.org/AssocArO/UW/3903998">
          <pickID>quakeml:uw.anss.org/Arrival/UW/3903998</pickID>
          <phase>P</phase>
          <azimuth>122.6</azimuth>
          <distance>1.437</distance>
          <timeResidual>1.44</timeResidual>
          <creationInfo>
            <agencyID>UW</agencyID>
            <creationTime>2012-02-27T16:51:11.000000Z</creationTime>
          </creationInfo>
        </arrival>
        <arrival publicID="quakeml:uw.anss.org/AssocArO/UW/3904008">
          <pickID>quakeml:uw.anss.org/Arrival/UW/3904008</pickID>
          <phase>P</phase>
          <azimuth>326.0</azimuth>
          <timeResidual>-0.03</timeResidual>
          <creationInfo>
            <agencyID>UW</agencyID>
            <creationTime>2012-02-27T16:51:11.000000Z</creationTime>
          </creationInfo>
        </arrival>
        <arrival publicID="quakeml:uw.anss.org/AssocArO/UW/3904013">
          <pickID>quakeml:uw.anss.org/Arrival/UW/3904013</pickID>
          <phase>S</phase>
          <azimuth>326.0</azimuth>
          <timeResidual>0.12</timeResidual>
          <creationInfo>
            <agencyID>UW</agencyID>
            <creationTime>2012-02-27T16:51:11.000000Z</creationTime>
          </creationInfo>
        </arrival>
        <arrival publicID="quakeml:uw.anss.org/AssocArO/UW/3904028">
          <pickID>quakeml:uw.anss.org/Arrival/UW/3904028</pickID>
          <phase>P</phase>
          <azimuth>156.8</azimuth>
          <distance>2.304</distance>
          <timeResidual>0.8</timeResidual>
          <creationInfo>
            <agencyID>UW</agencyID>
            <creationTime>2012-02-27T16:51:11.000000Z</creationTime>
          </creationInfo>
        </arrival>
        <arrival publicID="quakeml:uw.anss.org/AssocArO/UW/3904038">
          <pickID>quakeml:uw.anss.org/Arrival/UW/3904038</pickID>
          <phase>P</phase>
          <azimuth>207.9</azimuth>
          <distance>1.735</distance>
          <timeResidual>0.93</timeResidual>
          <creationInfo>
            <agencyID>UW</agencyID>
            <creationTime>2012-02-27T16:51:11.000000Z</creationTime>
          </creationInfo>
        </arrival>
        <arrival publicID="quakeml:uw.anss.org/AssocArO/UW/3904048">
          <pickID>quakeml:uw.anss.org/Arrival/UW/3904048</pickID>
          <phase>P</phase>
          <timeResidual>0.35</timeResidual>
          <creationInfo>
            <agencyID>UW</agencyID>
            <creationTime>2012-02-27T16:51:11.000000Z</creationTime>
          </creationInfo>
        </arrival>
        <arrival publicID="quakeml:uw.anss.org/AssocArO/UW/3904058">
          <pickID>quakeml:uw.anss.org/Arrival/UW/3904058</pickID>
          <phase>S</phase>
          <timeResidual>1.36</timeResidual>
          <creationInfo>
            <agencyID>UW</agencyID>
            <creationTime>2012-02-27T16:51:11.000000Z</creationTime>
          </creationInfo>
        </arrival>
        <arrival publicID="quakeml:uw.anss.org/AssocArO/UW/3904073">
          <pickID>quakeml:uw.anss.org/Arrival/UW/3904073</pickID>
          <phase>P</phase>
          <azimuth>177.7</azimuth>
          <distance>0.434</distance>
          <timeResidual>-0.86</timeResidual>
          <creationInfo>
            <agencyID>UW</agencyID>
            <creationTime>2012-02-27T16:51:11.000000Z</creationTime>
          </creationInfo>
        </arrival>
        <arrival publicID="quakeml:uw.anss.org/AssocArO/UW/3904083">
          <pickID>quakeml:uw.anss.org/Arrival/UW/3904083</pickID>
          <phase>S</phase>
          <azimuth>177.7</azimuth>
          <distance>0.434</distance>
          <timeResidual>0.44</timeResidual>
          <creationInfo>
            <agencyID>UW</agencyID>
            <creationTime>2012-02-27T16:51:11.000000Z</creationTime>
          </creationInfo>
        </arrival>
        <arrival publicID="quakeml:uw.anss.org/AssocArO/UW/3904113">
          <pickID>quakeml:uw.anss.org/Arrival/UW/3904113</pickID>
          <phase>P</phase>
          <azimuth>171.8</azimuth>
          <timeResidual>0.65</timeResidual>
          <creationInfo>
            <agencyID>UW</agencyID>
            <creationTime>2012-02-27T16:51:11.000000Z</creationTime>
          </creationInfo>
        </arrival>
        <arrival publicID="quakeml:uw.anss.org/AssocArO/UW/3904123">
          <pickID>quakeml:uw.anss.org/Arrival/UW/3904123</pickID>
          <phase>P</phase>
          <azimuth>199.8</azimuth>
          <distance>1.999</distance>
          <timeResidual>0.13</timeResidual>
          <creationInfo>
            <agencyID>UW</agencyID>
            <creationTime>2012-02-27T16:51:11.000000Z</creationTime>
          </creationInfo>
        </arrival>
        <arrival publicID="quakeml:uw.anss.org/AssocArO/UW/3904133">
          <pickID>quakeml:uw.anss.org/Arrival/UW/3904133</pickID>
          <phase>P</phase>
          <azimuth>176.5</azimuth>
          <distance>1.918</distance>
          <timeResidual>0.54</timeResidual>
          <creationInfo>
            <agencyID>UW</agencyID>
            <creationTime>2012-02-27T16:51:11.000000Z</creationTime>
          </creationInfo>
        </arrival>
        <arrival publicID="quakeml:uw.anss.org/AssocArO/UW/3904138">
          <pickID>quakeml:uw.anss.org/Arrival/UW/3904138</pickID>
          <phase>P</phase>
          <timeResidual>0.09</timeResidual>
          <creationInfo>
            <agencyID>UW</agencyID>
            <creationTime>2012-02-27T16:51:11.000000Z</creationTime>
          </creationInfo>
        </arrival>
        <arrival publicID="quakeml:uw.anss.org/AssocArO/UW/3904148">
          <pickID>quakeml:uw.anss.org/Arrival/UW/3904148</pickID>
          <phase>S</phase>
          <timeResidual>-0.15</timeResidual>
          <creationInfo>
            <agencyID>UW</agencyID>
            <creationTime>2012-02-27T16:51:11.000000Z</creationTime>
          </creationInfo>
        </arrival>
        <arrival publicID="quakeml:uw.anss.org/AssocArO/UW/3904163">
          <pickID>quakeml:uw.anss.org/Arrival/UW/3904163</pickID>
          <phase>P</phase>
          <azimuth>134.2</azimuth>
          <distance>0.5855</distance>
          <timeResidual>-0.07</timeResidual>
          <creationInfo>
            <agencyID>UW</agencyID>
            <creationTime>2012-02-27T16:51:11.000000Z</creationTime>
          </creationInfo>
        </arrival>
        <arrival publicID="quakeml:uw.anss.org/AssocArO/UW/3904168">
          <pickID>quakeml:uw.anss.org/Arrival/UW/3904168</pickID>
          <phase>S</phase>
          <azimuth>134.2</azimuth>
          <distance>0.5855</distance>
          <timeResidual>0.44</timeResidual>
          <creationInfo>
            <agencyID>UW</agencyID>
            <creationTime>2012-02-27T16:51:11.000000Z</creationTime>
          </creationInfo>
        </arrival>
        <arrival publicID="quakeml:uw.anss.org/AssocArO/UW/3904193">
          <pickID>quakeml:uw.anss.org/Arrival/UW/3904193</pickID>
          <phase>P</phase>
          <azimuth>170.9</azimuth>
          <distance>2.329</distance>
          <timeResidual>1.81</timeResidual>
          <creationInfo>
            <agencyID>UW</agencyID>
            <creationTime>2012-02-27T16:51:11.000000Z</creationTime>
          </creationInfo>
        </arrival>
        <arrival publicID="quakeml:uw.anss.org/AssocArO/UW/3904203">
          <pickID>quakeml:uw.anss.org/Arrival/UW/3904203</pickID>
          <phase>P</phase>
          <azimuth>306.5</azimuth>
          <timeResidual>-0.28</timeResidual>
          <creationInfo>
            <agencyID>UW</agencyID>
            <creationTime>2012-02-27T16:51:11.000000Z</creationTime>
          </creationInfo>
        </arrival>
        <arrival publicID="quakeml:uw.anss.org/AssocArO/UW/3904268">
          <pickID>quakeml:uw.anss.org/Arrival/UW/3904268</pickID>
          <phase>P</phase>
          <azimuth>205.7</azimuth>
          <distance>0.5925</distance>
          <timeResidual>0.38</timeResidual>
          <creationInfo>
            <agencyID>UW</agencyID>
            <creationTime>2012-02-27T16:51:11.000000Z</creationTime>
          </creationInfo>
        </arrival>
        <arrival publicID="quakeml:uw.anss.org/AssocArO/UW/3904278">
          <pickID>quakeml:uw.anss.org/Arrival/UW/3904278</pickID>
          <phase>P</phase>
          <azimuth>225.5</azimuth>
          <distance>1.472</distance>
          <timeResidual>0.14</timeResidual>
          <creationInfo>
            <agencyID>UW</agencyID>
            <creationTime>2012-02-27T16:51:11.000000Z</creationTime>
          </creationInfo>
        </arrival>
        <arrival publicID="quakeml:uw.anss.org/AssocArO/UW/3904293">
          <pickID>quakeml:uw.anss.org/Arrival/UW/3904293</pickID>
          <phase>P</phase>
          <azimuth>319.2</azimuth>
          <timeResidual>-0.02</timeResidual>
          <creationInfo>
            <agencyID>UW</agencyID>
            <creationTime>2012-02-27T16:51:11.000000Z</creationTime>
          </creationInfo>
        </arrival>
        <arrival publicID="quakeml:uw.anss.org/AssocArO/UW/3904308">
          <pickID>quakeml:uw.anss.org/Arrival/UW/3904308</pickID>
          <phase>S</phase>
          <azimuth>319.2</azimuth>
          <timeResidual>-0.19</timeResidual>
          <creationInfo>
            <agencyID>UW</agencyID>
            <creationTime>2012-02-27T16:51:11.000000Z</creationTime>
          </creationInfo>
        </arrival>
        <arrival publicID="quakeml:uw.anss.org/AssocArO/UW/3904318">
          <pickID>quakeml:uw.anss.org/Arrival/UW/3904318</pickID>
          <phase>P</phase>
          <azimuth>183.0</azimuth>
          <distance>2.556</distance>
          <timeResidual>1.27</timeResidual>
          <creationInfo>
            <agencyID>UW</agencyID>
            <creationTime>2012-02-27T16:51:11.000000Z</creationTime>
          </creationInfo>
        </arrival>
        <arrival publicID="quakeml:uw.anss.org/AssocArO/UW/3904323">
          <pickID>quakeml:uw.anss.org/Arrival/UW/3904323</pickID>
          <phase>P</phase>
          <azimuth>167.5</azimuth>
          <timeResidual>-0.02</timeResidual>
          <creationInfo>
            <agencyID>UW</agencyID>
            <creationTime>2012-02-27T16:51:11.000000Z</creationTime>
          </creationInfo>
        </arrival>
        <arrival publicID="quakeml:uw.anss.org/AssocArO/UW/3904333">
          <pickID>quakeml:uw.anss.org/Arrival/UW/3904333</pickID>
          <phase>S</phase>
          <azimuth>167.5</azimuth>
          <timeResidual>1.95</timeResidual>
          <creationInfo>
            <agencyID>UW</agencyID>
            <creationTime>2012-02-27T16:51:11.000000Z</creationTime>
          </creationInfo>
        </arrival>
        <arrival publicID="quakeml:uw.anss.org/AssocArO/UW/3904358">
          <pickID>quakeml:uw.anss.org/Arrival/UW/3904358</pickID>
          <phase>P</phase>
          <azimuth>170.4</azimuth>
          <timeResidual>0.52</timeResidual>
          <creationInfo>
            <agencyID>UW</agencyID>
            <creationTime>2012-02-27T16:51:11.000000Z</creationTime>
          </creationInfo>
        </arrival>
        <arrival publicID="quakeml:uw.anss.org/AssocArO/UW/3904373">
          <pickID>quakeml:uw.anss.org/Arrival/UW/3904373</pickID>
          <phase>P</phase>
          <azimuth>118.1</azimuth>
          <distance>1.806</distance>
          <timeResidual>2.7</timeResidual>
          <creationInfo>
            <agencyID>UW</agencyID>
            <creationTime>2012-02-27T16:51:11.000000Z</creationTime>
          </creationInfo>
        </arrival>
        <arrival publicID="quakeml:uw.anss.org/AssocArO/UW/3904388">
          <pickID>quakeml:uw.anss.org/Arrival/UW/3904388</pickID>
          <phase>P</phase>
          <timeResidual>0.23</timeResidual>
          <creationInfo>
            <agencyID>UW</agencyID>
            <creationTime>2012-02-27T16:51:11.000000Z</creationTime>
          </creationInfo>
        </arrival>
        <arrival publicID="quakeml:uw.anss.org/AssocArO/UW/3904398">
          <pickID>quakeml:uw.anss.org/Arrival/UW/3904398</pickID>
          <phase>P</phase>
          <azimuth>235.6</azimuth>
          <timeResidual>-0.26</timeResidual>
          <creationInfo>
            <agencyID>UW</agencyID>
            <creationTime>2012-02-27T16:51:11.000000Z</creationTime>
          </creationInfo>
        </arrival>
        <arrival publicID="quakeml:uw.anss.org/AssocArO/UW/3904413">
          <pickID>quakeml:uw.anss.org/Arrival/UW/3904413</pickID>
          <phase>P</phase>
          <timeResidual>0.03</timeResidual>
          <creationInfo>
            <agencyID>UW</agencyID>
            <creationTime>2012-02-27T16:51:11.000000Z</creationTime>
          </creationInfo>
        </arrival>
        <arrival publicID="quakeml:uw.anss.org/AssocArO/UW/3904423">
          <pickID>quakeml:uw.anss.org/Arrival/UW/3904423</pickID>
          <phase>P</phase>
          <azimuth>127.6</azimuth>
          <distance>1.867</distance>
          <timeResidual>1.96</timeResidual>
          <creationInfo>
            <agencyID>UW</agencyID>
            <creationTime>2012-02-27T16:51:11.000000Z</creationTime>
          </creationInfo>
        </arrival>
        <arrival publicID="quakeml:uw.anss.org/AssocArO/UW/3904433">
          <pickID>quakeml:uw.anss.org/Arrival/UW/3904433</pickID>
          <phase>P</phase>
          <azimuth>198.3</azimuth>
          <distance>1.378</distance>
          <timeResidual>0.0</timeResidual>
          <creationInfo>
            <agencyID>UW</agencyID>
            <creationTime>2012-02-27T16:51:11.000000Z</creationTime>
          </creationInfo>
        </arrival>
        <arrival publicID="quakeml:uw.anss.org/AssocArO/UW/3904438">
          <pickID>quakeml:uw.anss.org/Arrival/UW/3904438</pickID>
          <phase>P</phase>
          <azimuth>170.7</azimuth>
          <distance>1.417</distance>
          <timeResidual>-0.14</timeResidual>
          <creationInfo>
            <agencyID>UW</agencyID>
            <creationTime>2012-02-27T16:51:11.000000Z</creationTime>
          </creationInfo>
        </arrival>
        <arrival publicID="quakeml:uw.anss.org/AssocArO/UW/3904443">
          <pickID>quakeml:uw.anss.org/Arrival/UW/3904443</pickID>
          <phase>P</phase>
          <timeResidual>-0.48</timeResidual>
          <creationInfo>
            <agencyID>UW</agencyID>
            <creationTime>2012-02-27T16:51:11.000000Z</creationTime>
          </creationInfo>
        </arrival>
        <arrival publicID="quakeml:uw.anss.org/AssocArO/UW/3904448">
          <pickID>quakeml:uw.anss.org/Arrival/UW/3904448</pickID>
          <phase>S</phase>
          <timeResidual>-0.35</timeResidual>
          <creationInfo>
            <agencyID>UW</agencyID>
            <creationTime>2012-02-27T16:51:11.000000Z</creationTime>
          </creationInfo>
        </arrival>
        <arrival publicID="quakeml:uw.anss.org/AssocArO/UW/3904453">
          <pickID>quakeml:uw.anss.org/Arrival/UW/3904453</pickID>
          <phase>P</phase>
          <azimuth>114.2</azimuth>
          <distance>0.1781</distance>
          <timeResidual>-0.12</timeResidual>
          <creationInfo>
            <agencyID>UW</agencyID>
            <creationTime>2012-02-27T16:51:11.000000Z</creationTime>
          </creationInfo>
        </arrival>
        <arrival publicID="quakeml:uw.anss.org/AssocArO/UW/3904458">
          <pickID>quakeml:uw.anss.org/Arrival/UW/3904458</pickID>
          <phase>P</phase>
          <timeResidual>0.19</timeResidual>
          <creationInfo>
            <agencyID>UW</agencyID>
            <creationTime>2012-02-27T16:51:11.000000Z</creationTime>
          </creationInfo>
        </arrival>
        <arrival publicID="quakeml:uw.anss.org/AssocArO/UW/3904463">
          <pickID>quakeml:uw.anss.org/Arrival/UW/3904463</pickID>
          <phase>P</phase>
          <azimuth>337.9</azimuth>
          <distance>1.377</distance>
          <timeResidual>0.52</timeResidual>
          <creationInfo>
            <agencyID>UW</agencyID>
            <creationTime>2012-02-27T16:51:11.000000Z</creationTime>
          </creationInfo>
        </arrival>
        <arrival publicID="quakeml:uw.anss.org/AssocArO/UW/3904468">
