<?xml version='1.0' encoding='utf-8'?>
<q:quakeml xmlns="http://quakeml.org/xmlns/bed/1.2" xmlns:q="http://quakeml.org/xmlns/quakeml/1.2" xmlns:ns0="http://anss.org/xmlns/catalog/0.1">
  <eventParameters publicID="smi:local/a80f160f-389d-495c-99ae-538e560114ab">
    <event publicID="quakeml:uw.anss.org/Event/UW/10253833" ns0:datasource="uw" ns0:dataid="uw10253833" ns0:eventsource="uw" ns0:eventid="10253833">
      <preferredOriginID>quakeml:uw.anss.org/Origin/UW/530778</preferredOriginID>
      <preferredMagnitudeID>quakeml:uw.anss.org/Netmag/UW/443673</preferredMagnitudeID>
      <type>earthquake</type>
      <creationInfo>
        <agencyID>UW</agencyID>
        <creationTime>2012-02-27T16:33:52.000000Z</creationTime>
        <version>3</version>
      </creationInfo>
      <origin publicID="quakeml:uw.anss.org/Origin/UW/530778" ns0:datasource="uw" ns0:dataid="uw10253833" ns0:eventsource="uw" ns0:eventid="10253833">
        <time>
          <value>1990-04-03T17:53:38.170000Z</value>
          <uncertainty>0.33</uncertainty>
        </time>
        <latitude>
          <value>48.8201667</value>
          <uncertainty>1.78</uncertainty>
        </latitude>
        <longitude>
          <value>-122.1783333</value>
          <uncertainty>1.27</uncertainty>
        </longitude>
        <depth>
          <value>801.0</value>
          <uncertainty>4720.0</uncertainty>
        </depth>
        <depthType>operator assigned</depthType>
        <timeFixed>false</timeFixed>
        <epicenterFixed>true</epicenterFixed>
        <methodID>smi:uw.anss.org/origin/spong</methodID>
        <quality>
          <associatedPhaseCount>41</associatedPhaseCount>
          <usedPhaseCount>25</usedPhaseCount>
          <associatedStationCount>33</associatedStationCount>
          <usedStationCount>0</usedStationCount>
          <standardError>0.43</standardError>
          <azimuthalGap>87.0</azimuthalGap>
        </quality>
        <type>hypocenter</type>
        <evaluationMode>manual</evaluationMode>
        <evaluationStatus>final</evaluationStatus>
        <creationInfo>
          <agencyID>UW</agencyID>
          <creationTime>2012-02-27T16:33:52.000000Z</creationTime>
        </creationInfo>
        <originUncertainty>
          <preferredDescription>horizontal uncertainty</preferredDescription>
          <horizontalUncertainty>2187.0</horizontalUncertainty>
        </originUncertainty>
        <arrival publicID="quakeml:uw.anss.org/AssocArO/UW/3748613">
          <pickID>quakeml:uw.anss.org/Arrival/UW/3748613</pickID>
          <phase>P</phase>
          <azimuth>206.8</azimuth>
          <distance>1.311</distance>
          <timeResidual>0.13</timeResidual>
          <creationInfo>
            <agencyID>UW</agencyID>
            <creationTime>2012-02-27T16:33:52.000000Z</creationTime>
          </creationInfo>
        </arrival>
        <arrival publicID="quakeml:uw.anss.org/AssocArO/UW/3748623">
          <pickID>quakeml:uw.anss.org/Arrival/UW/3748623</pickID>
          <phase>P</phase>
          <azimuth>330.1</azimuth>
          <timeResidual>-0.32</timeResidual>
          <creationInfo>
            <agencyID>UW</agencyID>
            <creationTime>2012-02-27T16:33:52.000000Z</creationTime>
          </creationInfo>
        </arrival>
        <arrival publicID="quakeml:uw.anss.org/AssocArO/UW/3748633">
          <pickID>quakeml:uw.anss.org/Arrival/UW/3748633</pickID>
          <phase>P</phase>
          <timeResidual>0.27</timeResidual>
          <creationInfo>
            <agencyID>UW</agencyID>
            <creationTime>2012-02-27T16:33:52.000000Z</creationTime>
          </creationInfo>
        </arrival>
        <arrival publicID="quakeml:uw.anss.org/AssocArO/UW/3748643">
          <pickID>quakeml:uw.anss.org/Arrival/UW/3748643</pickID>
          <phase>S</phase>
          <timeResidual>0.84</timeResidual>
          <creationInfo>
            <agencyID>UW</agencyID>
            <creationTime>2012-02-27T16:33:52.000000Z</creationTime>
          </creationInfo>
        </arrival>
        <arrival publicID="quakeml:uw.anss.org/AssocArO/UW/3748653">
          <pickID>quakeml:uw.anss.org/Arrival/UW/3748653</pickID>
          <phase>P</phase>
          <azimuth>174.5</azimuth>
          <distance>0.3988</distance>
          <timeResidual>-0.37</timeResidual>
          <creationInfo>
            <agencyID>UW</agencyID>
            <creationTime>2012-02-27T16:33:52.000000Z</creationTime>
          </creationInfo>
        </arrival>
        <arrival publicID="quakeml:uw.anss.org/AssocArO/UW/3748663">
          <pickID>quakeml:uw.anss.org/Arrival/UW/3748663</pickID>
          <phase>S</phase>
          <azimuth>174.5</azimuth>
          <distance>0.3988</distance>
          <timeResidual>1.54</timeResidual>
          <creationInfo>
            <agencyID>UW</agencyID>
            <creationTime>2012-02-27T16:33:52.000000Z</creationTime>
          </creationInfo>
        </arrival>
        <arrival publicID="quakeml:uw.anss.org/AssocArO/UW/3748678">
          <pickID>quakeml:uw.anss.org/Arrival/UW/3748678</pickID>
          <phase>P</phase>
          <azimuth>170.9</azimuth>
          <timeResidual>0.78</timeResidual>
          <creationInfo>
            <agencyID>UW</agencyID>
            <creationTime>2012-02-27T16:33:52.000000Z</creationTime>
          </creationInfo>
        </arrival>
        <arrival publicID="quakeml:uw.anss.org/AssocArO/UW/3748688">
          <pickID>quakeml:uw.anss.org/Arrival/UW/3748688</pickID>
          <phase>P</phase>
          <azimuth>175.8</azimuth>
          <distance>1.882</distance>
          <timeResidual>0.49</timeResidual>
          <creationInfo>
            <agencyID>UW</agencyID>
            <creationTime>2012-02-27T16:33:52.000000Z</creationTime>
          </creationInfo>
        </arrival>
        <arrival publicID="quakeml:uw.anss.org/AssocArO/UW/3748698">
          <pickID>quakeml:uw.anss.org/Arrival/UW/3748698</pickID>
          <phase>P</phase>
          <azimuth>173.0</azimuth>
          <distance>2.086</distance>
          <timeResidual>0.49</timeResidual>
          <creationInfo>
            <agencyID>UW</agencyID>
            <creationTime>2012-02-27T16:33:52.000000Z</creationTime>
          </creationInfo>
        </arrival>
        <arrival publicID="quakeml:uw.anss.org/AssocArO/UW/3748708">
          <pickID>quakeml:uw.anss.org/Arrival/UW/3748708</pickID>
          <phase>P</phase>
          <azimuth>169.5</azimuth>
          <distance>1.384</distance>
          <timeResidual>0.72</timeResidual>
          <creationInfo>
            <agencyID>UW</agencyID>
            <creationTime>2012-02-27T16:33:52.000000Z</creationTime>
          </creationInfo>
        </arrival>
        <arrival publicID="quakeml:uw.anss.org/AssocArO/UW/3748713">
          <pickID>quakeml:uw.anss.org/Arrival/UW/3748713</pickID>
          <phase>P</phase>
          <azimuth>130.1</azimuth>
          <distance>0.5765</distance>
          <timeResidual>-0.07</timeResidual>
          <creationInfo>
            <agencyID>UW</agencyID>
            <creationTime>2012-02-27T16:33:52.000000Z</creationTime>
          </creationInfo>
        </arrival>
        <arrival publicID="quakeml:uw.anss.org/AssocArO/UW/3748718">
          <pickID>quakeml:uw.anss.org/Arrival/UW/3748718</pickID>
          <phase>S</phase>
          <azimuth>130.1</azimuth>
          <distance>0.5765</distance>
          <timeResidual>0.26</timeResidual>
          <creationInfo>
            <agencyID>UW</agencyID>
            <creationTime>2012-02-27T16:33:52.000000Z</creationTime>
          </creationInfo>
        </arrival>
        <arrival publicID="quakeml:uw.anss.org/AssocArO/UW/3748723">
          <pickID>quakeml:uw.anss.org/Arrival/UW/3748723</pickID>
          <phase>P</phase>
          <azimuth>309.0</azimuth>
          <timeResidual>-0.51</timeResidual>
          <creationInfo>
            <agencyID>UW</agencyID>
            <creationTime>2012-02-27T16:33:52.000000Z</creationTime>
          </creationInfo>
        </arrival>
        <arrival publicID="quakeml:uw.anss.org/AssocArO/UW/3748728">
          <pickID>quakeml:uw.anss.org/Arrival/UW/3748728</pickID>
          <phase>P</phase>
          <azimuth>205.4</azimuth>
          <distance>0.5504</distance>
          <timeResidual>0.99</timeResidual>
          <creationInfo>
            <agencyID>UW</agencyID>
            <creationTime>2012-02-27T16:33:52.000000Z</creationTime>
          </creationInfo>
        </arrival>
        <arrival publicID="quakeml:uw.anss.org/AssocArO/UW/3748738">
          <pickID>quakeml:uw.anss.org/Arrival/UW/3748738</pickID>
          <phase>P</phase>
          <azimuth>225.9</azimuth>
          <distance>1.431</distance>
          <timeResidual>0.31</timeResidual>
          <creationInfo>
            <agencyID>UW</agencyID>
            <creationTime>2012-02-27T16:33:52.000000Z</creationTime>
          </creationInfo>
        </arrival>
        <arrival publicID="quakeml:uw.anss.org/AssocArO/UW/3748748">
          <pickID>quakeml:uw.anss.org/Arrival/UW/3748748</pickID>
          <phase>P</phase>
          <azimuth>321.3</azimuth>
          <timeResidual>-0.38</timeResidual>
          <creationInfo>
            <agencyID>UW</agencyID>
            <creationTime>2012-02-27T16:33:52.000000Z</creationTime>
          </creationInfo>
        </arrival>
        <arrival publicID="quakeml:uw.anss.org/AssocArO/UW/3748758">
          <pickID>quakeml:uw.anss.org/Arrival/UW/3748758</pickID>
          <phase>P</phase>
          <azimuth>182.6</azimuth>
          <distance>2.518</distance>
          <timeResidual>0.79</timeResidual>
          <creationInfo>
            <agencyID>UW</agencyID>
            <creationTime>2012-02-27T16:33:52.000000Z</creationTime>
          </creationInfo>
        </arrival>
        <arrival publicID="quakeml:uw.anss.org/AssocArO/UW/3748768">
          <pickID>quakeml:uw.anss.org/Arrival/UW/3748768</pickID>
          <phase>P</phase>
          <azimuth>165.0</azimuth>
          <timeResidual>0.18</timeResidual>
          <creationInfo>
            <agencyID>UW</agencyID>
            <creationTime>2012-02-27T16:33:52.000000Z</creationTime>
          </creationInfo>
        </arrival>
        <arrival publicID="quakeml:uw.anss.org/AssocArO/UW/3748778">
          <pickID>quakeml:uw.anss.org/Arrival/UW/3748778</pickID>
          <phase>S</phase>
          <azimuth>165.0</azimuth>
          <timeResidual>2.16</timeResidual>
          <creationInfo>
            <agencyID>UW</agencyID>
            <creationTime>2012-02-27T16:33:52.000000Z</creationTime>
          </creationInfo>
        </arrival>
        <arrival publicID="quakeml:uw.anss.org/AssocArO/UW/3748788">
          <pickID>quakeml:uw.anss.org/Arrival/UW/3748788</pickID>
          <phase>P</phase>
          <azimuth>149.9</azimuth>
          <distance>2.198</distance>
          <timeResidual>0.41</timeResidual>
          <creationInfo>
            <agencyID>UW</agencyID>
            <creationTime>2012-02-27T16:33:52.000000Z</creationTime>
          </creationInfo>
        </arrival>
        <arrival publicID="quakeml:uw.anss.org/AssocArO/UW/3748793">
          <pickID>quakeml:uw.anss.org/Arrival/UW/3748793</pickID>
          <phase>P</phase>
          <azimuth>169.5</azimuth>
          <timeResidual>0.49</timeResidual>
          <creationInfo>
            <agencyID>UW</agencyID>
            <creationTime>2012-02-27T16:33:52.000000Z</creationTime>
          </creationInfo>
        </arrival>
        <arrival publicID="quakeml:uw.anss.org/AssocArO/UW/3748798">
          <pickID>quakeml:uw.anss.org/Arrival/UW/3748798</pickID>
          <phase>P</phase>
          <azimuth>116.7</azimuth>
          <distance>1.808</distance>
          <timeResidual>2.23</timeResidual>
          <creationInfo>
            <agencyID>UW</agencyID>
            <creationTime>2012-02-27T16:33:52.000000Z</creationTime>
          </creationInfo>
        </arrival>
        <arrival publicID="quakeml:uw.anss.org/AssocArO/UW/3748803">
          <pickID>quakeml:uw.anss.org/Arrival/UW/3748803</pickID>
          <phase>P</phase>
          <timeResidual>-0.08</timeResidual>
          <creationInfo>
            <agencyID>UW</agencyID>
            <creationTime>2012-02-27T16:33:52.000000Z</creationTime>
          </creationInfo>
        </arrival>
        <arrival publicID="quakeml:uw.anss.org/AssocArO/UW/3748808">
          <pickID>quakeml:uw.anss.org/Arrival/UW/3748808</pickID>
          <phase>S</phase>
          <timeResidual>-0.13</timeResidual>
          <creationInfo>
            <agencyID>UW</agencyID>
            <creationTime>2012-02-27T16:33:52.000000Z</creationTime>
          </creationInfo>
        </arrival>
        <arrival publicID="quakeml:uw.anss.org/AssocArO/UW/3748813">
          <pickID>quakeml:uw.anss.org/Arrival/UW/3748813</pickID>
          <phase>P</phase>
          <azimuth>236.5</azimuth>
          <timeResidual>-0.06</timeResidual>
          <creationInfo>
            <agencyID>UW</agencyID>
            <creationTime>2012-02-27T16:33:52.000000Z</creationTime>
          </creationInfo>
        </arrival>
        <arrival publicID="quakeml:uw.anss.org/AssocArO/UW/3748818">
          <pickID>quakeml:uw.anss.org/Arrival/UW/3748818</pickID>
          <phase>P</phase>
          <timeResidual>-0.63</timeResidual>
          <creationInfo>
            <agencyID>UW</agencyID>
            <creationTime>2012-02-27T16:33:52.000000Z</creationTime>
          </creationInfo>
        </arrival>
        <arrival publicID="quakeml:uw.anss.org/AssocArO/UW/3748823">
          <pickID>quakeml:uw.anss.org/Arrival/UW/3748823</pickID>
          <phase>S</phase>
          <timeResidual>0.23</timeResidual>
          <creationInfo>
            <agencyID>UW</agencyID>
            <creationTime>2012-02-27T16:33:52.000000Z</creationTime>
          </creationInfo>
        </arrival>
        <arrival publicID="quakeml:uw.anss.org/AssocArO/UW/3748828">
          <pickID>quakeml:uw.anss.org/Arrival/UW/3748828</pickID>
          <phase>P</phase>
          <azimuth>126.3</azimuth>
          <distance>1.862</distance>
          <timeResidual>1.36</timeResidual>
          <creationInfo>
            <agencyID>UW</agencyID>
            <creationTime>2012-02-27T16:33:52.000000Z</creationTime>
          </creationInfo>
        </arrival>
        <arrival publicID="quakeml:uw.anss.org/AssocArO/UW/3748833">
          <pickID>quakeml:uw.anss.org/Arrival/UW/3748833</pickID>
          <phase>P</phase>
          <azimuth>197.9</azimuth>
          <distance>1.337</distance>
          <timeResidual>0.31</timeResidual>
          <creationInfo>
            <agencyID>UW</agencyID>
            <creationTime>2012-02-27T16:33:52.000000Z</creationTime>
          </creationInfo>
        </arrival>
        <arrival publicID="quakeml:uw.anss.org/AssocArO/UW/3748838">
          <pickID>quakeml:uw.anss.org/Arrival/UW/3748838</pickID>
          <phase>P</phase>
          <timeResidual>-0.67</timeResidual>
          <creationInfo>
            <agencyID>UW</agencyID>
            <creationTime>2012-02-27T16:33:52.000000Z</creationTime>
          </creationInfo>
        </arrival>
        <arrival publicID="quakeml:uw.anss.org/AssocArO/UW/3748843">
          <pickID>quakeml:uw.anss.org/Arrival/UW/3748843</pickID>
          <phase>P</phase>
          <azimuth>101.1</azimuth>
          <distance>0.187</distance>
          <timeResidual>-0.04</timeResidual>
          <creationInfo>
            <agencyID>UW</agencyID>
            <creationTime>2012-02-27T16:33:52.000000Z</creationTime>
          </creationInfo>
        </arrival>
        <arrival publicID="quakeml:uw.anss.org/AssocArO/UW/3748848">
          <pickID>quakeml:uw.anss.org/Arrival/UW/3748848</pickID>
          <phase>P</phase>
          <azimuth>339.2</azimuth>
          <distance>1.404</distance>
          <timeResidual>0.27</timeResidual>
          <creationInfo>
            <agencyID>UW</agencyID>
            <creationTime>2012-02-27T16:33:52.000000Z</creationTime>
          </creationInfo>
        </arrival>
        <arrival publicID="quakeml:uw.anss.org/AssocArO/UW/3748853">
          <pickID>quakeml:uw.anss.org/Arrival/UW/3748853</pickID>
          <phase>S</phase>
          <azimuth>339.2</azimuth>
          <distance>1.404</distance>
          <timeResidual>-0.23</timeResidual>
          <creationInfo>
            <agencyID>UW</agencyID>
            <creationTime>2012-02-27T16:33:52.000000Z</creationTime>
          </creationInfo>
        </arrival>
        <arrival publicID="quakeml:uw.anss.org/AssocArO/UW/3748858">
          <pickID>quakeml:uw.anss.org/Arrival/UW/3748858</pickID>
          <phase>P</phase>
          <azimuth>164.8</azimuth>
          <distance>1.053</distance>
          <timeResidual>0.83</timeResidual>
          <creationInfo>
            <agencyID>UW</agencyID>
            <creationTime>2012-02-27T16:33:52.000000Z</creationTime>
          </creationInfo>
        </arrival>
        <arrival publicID="quakeml:uw.anss.org/AssocArO/UW/3748863">
          <pickID>quakeml:uw.anss.org/Arrival/UW/3748863</pickID>
          <phase>S</phase>
          <azimuth>164.8</azimuth>
          <distance>1.053</distance>
          <timeResidual>0.95</timeResidual>
          <creationInfo>
            <agencyID>UW</agencyID>
            <creationTime>2012-02-27T16:33:52.000000Z</creationTime>
          </creationInfo>
        </arrival>
        <arrival publicID="quakeml:uw.anss.org/AssocArO/UW/3748868">
          <pickID>quakeml:uw.anss.org/Arrival/UW/3748868</pickID>
          <phase>P</phase>
          <azimuth>124.8</azimuth>
          <distance>1.751</distance>
          <timeResidual>1.03</timeResidual>
          <creationInfo>
            <agencyID>UW</agencyID>
            <creationTime>2012-02-27T16:33:52.000000Z</creationTime>
          </creationInfo>
        </arrival>
        <arrival publicID="quakeml:uw.anss.org/AssocArO/UW/3748873">
          <pickID>quakeml:uw.anss.org/Arrival/UW/3748873</pickID>
          <phase>P</phase>
          <azimuth>213.3</azimuth>
          <distance>0.971</distance>
          <timeResidual>0.78</timeResidual>
          <creationInfo>
            <agencyID>UW</agencyID>
            <creationTime>2012-02-27T16:33:52.000000Z</creationTime>
          </creationInfo>
        </arrival>
        <arrival publicID="quakeml:uw.anss.org/AssocArO/UW/3748878">
          <pickID>quakeml:uw.anss.org/Arrival/UW/3748878</pickID>
          <phase>P</phase>
          <azimuth>146.8</azimuth>
          <distance>1.963</distance>
          <timeResidual>0.85</timeResidual>
          <creationInfo>
            <agencyID>UW</agencyID>
            <creationTime>2012-02-27T16:33:52.000000Z</creationTime>
          </creationInfo>
        </arrival>
        <arrival publicID="quakeml:uw.anss.org/AssocArO/UW/3748883">
          <pickID>quakeml:uw.anss.org/Arrival/UW/3748883</pickID>
          <phase>P</phase>
          <timeResidual>-0.55</timeResidual>
          <creationInfo>
            <agencyID>UW</agencyID>
            <creationTime>2012-02-27T16:33:52.000000Z</creationTime>
          </creationInfo>
        </arrival>
        <arrival publicID="quakeml:uw.anss.org/AssocArO/UW/3748888">
          <pickID>quakeml:uw.anss.org/Arrival/UW/3748888</pickID>
          <phase>P</phase>
          <azimuth>252.1</azimuth>
          <distance>0.4555</distance>
          <timeResidual>0.2</timeResidual>
          <creationInfo>
            <agencyID>UW</agencyID>
            <creationTime>2012-02-27T16:33:52.000000Z</creationTime>
          </creationInfo>
        </arrival>
        <arrival publicID="quakeml:uw.anss.org/AssocArO/UW/3748893">
          <pickID>quakeml:uw.anss.org/Arrival/UW/3748893</pickID>
          <phase>P</phase>
          <azimuth>174.4</azimuth>
          <distance>0.9896</distance>
          <timeResidual>0.02</timeResidual>
          <creationInfo>
