<?xml version='1.0' encoding='utf-8'?>
<q:quakeml xmlns="http://quakeml.org/xmlns/bed/1.2" xmlns:q="http://quakeml.org/xmlns/quakeml/1.2" xmlns:ns0="http://anss.org/xmlns/catalog/0.1">
  <eventParameters publicID="smi:local/ca992cd0-87ef-4549-b0f5-92bc1f6f383a">
    <event publicID="quakeml:uw.anss.org/Event/UW/10259343" ns0:datasource="uw" ns0:dataid="uw10259343" ns0:eventsource="uw" ns0:eventid="10259343">
      <preferredOriginID>quakeml:uw.anss.org/Origin/UW/536288</preferredOriginID>
      <preferredMagnitudeID>quakeml:uw.anss.org/Netmag/UW/448768</preferredMagnitudeID>
      <type>earthquake</type>
      <creationInfo>
        <agencyID>UW</agencyID>
        <creationTime>2012-02-27T16:45:23.000000Z</creationTime>
        <version>3</version>
      </creationInfo>
      <origin publicID="quakeml:uw.anss.org/Origin/UW/536288" ns0:datasource="uw" ns0:dataid="uw10259343" ns0:eventsource="uw" ns0:eventid="10259343">
        <time>
          <value>1990-04-16T19:38:51.530000Z</value>
          <uncertainty>1.68</uncertainty>
        </time>
        <latitude>
          <value>48.8488333</value>
          <uncertainty>1.46</uncertainty>
        </latitude>
        <longitude>
          <value>-122.1703333</value>
          <uncertainty>1.29</uncertainty>
        </longitude>
        <depth>
          <value>3471.0</value>
          <uncertainty>14690.0</uncertainty>
        </depth>
        <depthType>operator assigned</depthType>
        <timeFixed>false</timeFixed>
        <epicenterFixed>true</epicenterFixed>
        <methodID>smi:uw.anss.org/origin/spong</methodID>
        <quality>
          <associatedPhaseCount>51</associatedPhaseCount>
          <usedPhaseCount>27</usedPhaseCount>
          <associatedStationCount>44</associatedStationCount>
          <usedStationCount>0</usedStationCount>
          <standardError>0.33</standardError>
          <azimuthalGap>95.0</azimuthalGap>
        </quality>
        <type>hypocenter</type>
        <evaluationMode>manual</evaluationMode>
        <evaluationStatus>final</evaluationStatus>
        <creationInfo>
          <agencyID>UW</agencyID>
          <creationTime>2012-02-27T16:45:23.000000Z</creationTime>
        </creationInfo>
        <originUncertainty>
          <preferredDescription>horizontal uncertainty</preferredDescription>
          <horizontalUncertainty>1948.0</horizontalUncertainty>
        </originUncertainty>
        <arrival publicID="quakeml:uw.anss.org/AssocArO/UW/3852423">
          <pickID>quakeml:uw.anss.org/Arrival/UW/3852423</pickID>
          <phase>P</phase>
          <azimuth>206.5</azimuth>
          <distance>1.339</distance>
          <timeResidual>-0.08</timeResidual>
          <creationInfo>
            <agencyID>UW</agencyID>
            <creationTime>2012-02-27T16:45:23.000000Z</creationTime>
          </creationInfo>
        </arrival>
        <arrival publicID="quakeml:uw.anss.org/AssocArO/UW/3852428">
          <pickID>quakeml:uw.anss.org/Arrival/UW/3852428</pickID>
          <phase>P</phase>
          <azimuth>122.0</azimuth>
          <distance>1.445</distance>
          <timeResidual>1.04</timeResidual>
          <creationInfo>
            <agencyID>UW</agencyID>
            <creationTime>2012-02-27T16:45:23.000000Z</creationTime>
          </creationInfo>
        </arrival>
        <arrival publicID="quakeml:uw.anss.org/AssocArO/UW/3852433">
          <pickID>quakeml:uw.anss.org/Arrival/UW/3852433</pickID>
          <phase>P</phase>
          <azimuth>328.0</azimuth>
          <timeResidual>-0.1</timeResidual>
          <creationInfo>
            <agencyID>UW</agencyID>
            <creationTime>2012-02-27T16:45:23.000000Z</creationTime>
          </creationInfo>
        </arrival>
        <arrival publicID="quakeml:uw.anss.org/AssocArO/UW/3852443">
          <pickID>quakeml:uw.anss.org/Arrival/UW/3852443</pickID>
          <phase>S</phase>
          <azimuth>328.0</azimuth>
          <timeResidual>0.03</timeResidual>
          <creationInfo>
            <agencyID>UW</agencyID>
            <creationTime>2012-02-27T16:45:23.000000Z</creationTime>
          </creationInfo>
        </arrival>
        <arrival publicID="quakeml:uw.anss.org/AssocArO/UW/3852453">
          <pickID>quakeml:uw.anss.org/Arrival/UW/3852453</pickID>
          <phase>P</phase>
          <azimuth>134.8</azimuth>
          <distance>1.749</distance>
          <timeResidual>1.8</timeResidual>
          <creationInfo>
            <agencyID>UW</agencyID>
            <creationTime>2012-02-27T16:45:23.000000Z</creationTime>
          </creationInfo>
        </arrival>
        <arrival publicID="quakeml:uw.anss.org/AssocArO/UW/3852458">
          <pickID>quakeml:uw.anss.org/Arrival/UW/3852458</pickID>
          <phase>P</phase>
          <azimuth>173.7</azimuth>
          <timeResidual>0.26</timeResidual>
          <creationInfo>
            <agencyID>UW</agencyID>
            <creationTime>2012-02-27T16:45:23.000000Z</creationTime>
          </creationInfo>
        </arrival>
        <arrival publicID="quakeml:uw.anss.org/AssocArO/UW/3852468">
          <pickID>quakeml:uw.anss.org/Arrival/UW/3852468</pickID>
          <phase>P</phase>
          <azimuth>185.5</azimuth>
          <distance>2.426</distance>
          <timeResidual>0.08</timeResidual>
          <creationInfo>
            <agencyID>UW</agencyID>
            <creationTime>2012-02-27T16:45:23.000000Z</creationTime>
          </creationInfo>
        </arrival>
        <arrival publicID="quakeml:uw.anss.org/AssocArO/UW/3852478">
          <pickID>quakeml:uw.anss.org/Arrival/UW/3852478</pickID>
          <phase>P</phase>
          <azimuth>171.4</azimuth>
          <distance>2.001</distance>
          <timeResidual>0.56</timeResidual>
          <creationInfo>
            <agencyID>UW</agencyID>
            <creationTime>2012-02-27T16:45:23.000000Z</creationTime>
          </creationInfo>
        </arrival>
        <arrival publicID="quakeml:uw.anss.org/AssocArO/UW/3852483">
          <pickID>quakeml:uw.anss.org/Arrival/UW/3852483</pickID>
          <phase>P</phase>
          <timeResidual>0.32</timeResidual>
          <creationInfo>
            <agencyID>UW</agencyID>
            <creationTime>2012-02-27T16:45:23.000000Z</creationTime>
          </creationInfo>
        </arrival>
        <arrival publicID="quakeml:uw.anss.org/AssocArO/UW/3852493">
          <pickID>quakeml:uw.anss.org/Arrival/UW/3852493</pickID>
          <phase>P</phase>
          <azimuth>175.5</azimuth>
          <distance>0.427</distance>
          <timeResidual>-0.68</timeResidual>
          <creationInfo>
            <agencyID>UW</agencyID>
            <creationTime>2012-02-27T16:45:23.000000Z</creationTime>
          </creationInfo>
        </arrival>
        <arrival publicID="quakeml:uw.anss.org/AssocArO/UW/3852503">
          <pickID>quakeml:uw.anss.org/Arrival/UW/3852503</pickID>
          <phase>P</phase>
          <azimuth>171.2</azimuth>
          <timeResidual>0.62</timeResidual>
          <creationInfo>
            <agencyID>UW</agencyID>
            <creationTime>2012-02-27T16:45:23.000000Z</creationTime>
          </creationInfo>
        </arrival>
        <arrival publicID="quakeml:uw.anss.org/AssocArO/UW/3852533">
          <pickID>quakeml:uw.anss.org/Arrival/UW/3852533</pickID>
          <phase>S</phase>
          <azimuth>171.2</azimuth>
          <timeResidual>0.21</timeResidual>
          <creationInfo>
            <agencyID>UW</agencyID>
            <creationTime>2012-02-27T16:45:23.000000Z</creationTime>
          </creationInfo>
        </arrival>
        <arrival publicID="quakeml:uw.anss.org/AssocArO/UW/3852548">
          <pickID>quakeml:uw.anss.org/Arrival/UW/3852548</pickID>
          <phase>P</phase>
          <azimuth>176.0</azimuth>
          <distance>1.911</distance>
          <timeResidual>0.0</timeResidual>
          <creationInfo>
            <agencyID>UW</agencyID>
            <creationTime>2012-02-27T16:45:23.000000Z</creationTime>
          </creationInfo>
        </arrival>
        <arrival publicID="quakeml:uw.anss.org/AssocArO/UW/3852558">
          <pickID>quakeml:uw.anss.org/Arrival/UW/3852558</pickID>
          <phase>P</phase>
          <azimuth>173.3</azimuth>
          <distance>2.114</distance>
          <timeResidual>0.21</timeResidual>
          <creationInfo>
            <agencyID>UW</agencyID>
            <creationTime>2012-02-27T16:45:23.000000Z</creationTime>
          </creationInfo>
        </arrival>
        <arrival publicID="quakeml:uw.anss.org/AssocArO/UW/3852568">
          <pickID>quakeml:uw.anss.org/Arrival/UW/3852568</pickID>
          <phase>P</phase>
          <timeResidual>0.04</timeResidual>
          <creationInfo>
            <agencyID>UW</agencyID>
            <creationTime>2012-02-27T16:45:23.000000Z</creationTime>
          </creationInfo>
        </arrival>
        <arrival publicID="quakeml:uw.anss.org/AssocArO/UW/3852573">
          <pickID>quakeml:uw.anss.org/Arrival/UW/3852573</pickID>
          <phase>P</phase>
          <azimuth>132.5</azimuth>
          <distance>0.5914</distance>
          <timeResidual>-0.18</timeResidual>
          <creationInfo>
            <agencyID>UW</agencyID>
            <creationTime>2012-02-27T16:45:23.000000Z</creationTime>
          </creationInfo>
        </arrival>
        <arrival publicID="quakeml:uw.anss.org/AssocArO/UW/3852583">
          <pickID>quakeml:uw.anss.org/Arrival/UW/3852583</pickID>
          <phase>P</phase>
          <azimuth>307.5</azimuth>
          <timeResidual>-0.34</timeResidual>
          <creationInfo>
            <agencyID>UW</agencyID>
            <creationTime>2012-02-27T16:45:23.000000Z</creationTime>
          </creationInfo>
        </arrival>
        <arrival publicID="quakeml:uw.anss.org/AssocArO/UW/3852593">
          <pickID>quakeml:uw.anss.org/Arrival/UW/3852593</pickID>
          <phase>S</phase>
          <azimuth>307.5</azimuth>
          <timeResidual>-0.68</timeResidual>
          <creationInfo>
            <agencyID>UW</agencyID>
            <creationTime>2012-02-27T16:45:23.000000Z</creationTime>
          </creationInfo>
        </arrival>
        <arrival publicID="quakeml:uw.anss.org/AssocArO/UW/3852598">
          <pickID>quakeml:uw.anss.org/Arrival/UW/3852598</pickID>
          <phase>P</phase>
          <azimuth>204.7</azimuth>
          <distance>0.5786</distance>
          <timeResidual>0.66</timeResidual>
          <creationInfo>
            <agencyID>UW</agencyID>
            <creationTime>2012-02-27T16:45:23.000000Z</creationTime>
          </creationInfo>
        </arrival>
        <arrival publicID="quakeml:uw.anss.org/AssocArO/UW/3852603">
          <pickID>quakeml:uw.anss.org/Arrival/UW/3852603</pickID>
          <phase>P</phase>
          <azimuth>120.9</azimuth>
          <distance>2.177</distance>
          <timeResidual>2.73</timeResidual>
          <creationInfo>
            <agencyID>UW</agencyID>
            <creationTime>2012-02-27T16:45:23.000000Z</creationTime>
          </creationInfo>
        </arrival>
        <arrival publicID="quakeml:uw.anss.org/AssocArO/UW/3852608">
          <pickID>quakeml:uw.anss.org/Arrival/UW/3852608</pickID>
          <phase>P</phase>
          <azimuth>225.2</azimuth>
          <distance>1.455</distance>
          <timeResidual>0.03</timeResidual>
          <creationInfo>
            <agencyID>UW</agencyID>
            <creationTime>2012-02-27T16:45:23.000000Z</creationTime>
          </creationInfo>
        </arrival>
        <arrival publicID="quakeml:uw.anss.org/AssocArO/UW/3852613">
          <pickID>quakeml:uw.anss.org/Arrival/UW/3852613</pickID>
          <phase>P</phase>
          <azimuth>320.1</azimuth>
          <timeResidual>-0.17</timeResidual>
          <creationInfo>
            <agencyID>UW</agencyID>
            <creationTime>2012-02-27T16:45:23.000000Z</creationTime>
          </creationInfo>
        </arrival>
        <arrival publicID="quakeml:uw.anss.org/AssocArO/UW/3852618">
          <pickID>quakeml:uw.anss.org/Arrival/UW/3852618</pickID>
          <phase>S</phase>
          <azimuth>320.1</azimuth>
          <timeResidual>-0.48</timeResidual>
          <creationInfo>
            <agencyID>UW</agencyID>
            <creationTime>2012-02-27T16:45:23.000000Z</creationTime>
          </creationInfo>
        </arrival>
        <arrival publicID="quakeml:uw.anss.org/AssocArO/UW/3852623">
          <pickID>quakeml:uw.anss.org/Arrival/UW/3852623</pickID>
          <phase>P</phase>
          <azimuth>166.1</azimuth>
          <timeResidual>-0.04</timeResidual>
          <creationInfo>
            <agencyID>UW</agencyID>
            <creationTime>2012-02-27T16:45:23.000000Z</creationTime>
          </creationInfo>
        </arrival>
        <arrival publicID="quakeml:uw.anss.org/AssocArO/UW/3852628">
          <pickID>quakeml:uw.anss.org/Arrival/UW/3852628</pickID>
          <phase>S</phase>
          <azimuth>166.1</azimuth>
          <timeResidual>1.73</timeResidual>
          <creationInfo>
            <agencyID>UW</agencyID>
            <creationTime>2012-02-27T16:45:23.000000Z</creationTime>
          </creationInfo>
        </arrival>
        <arrival publicID="quakeml:uw.anss.org/AssocArO/UW/3852633">
          <pickID>quakeml:uw.anss.org/Arrival/UW/3852633</pickID>
          <phase>P</phase>
          <azimuth>150.4</azimuth>
          <distance>2.22</distance>
          <timeResidual>1.53</timeResidual>
          <creationInfo>
            <agencyID>UW</agencyID>
            <creationTime>2012-02-27T16:45:23.000000Z</creationTime>
          </creationInfo>
        </arrival>
        <arrival publicID="quakeml:uw.anss.org/AssocArO/UW/3852638">
          <pickID>quakeml:uw.anss.org/Arrival/UW/3852638</pickID>
          <phase>P</phase>
          <azimuth>171.7</azimuth>
          <distance>2.725</distance>
          <timeResidual>1.64</timeResidual>
          <creationInfo>
            <agencyID>UW</agencyID>
            <creationTime>2012-02-27T16:45:23.000000Z</creationTime>
          </creationInfo>
        </arrival>
        <arrival publicID="quakeml:uw.anss.org/AssocArO/UW/3852643">
          <pickID>quakeml:uw.anss.org/Arrival/UW/3852643</pickID>
          <phase>P</phase>
          <azimuth>169.9</azimuth>
          <timeResidual>0.21</timeResidual>
          <creationInfo>
            <agencyID>UW</agencyID>
            <creationTime>2012-02-27T16:45:23.000000Z</creationTime>
          </creationInfo>
        </arrival>
        <arrival publicID="quakeml:uw.anss.org/AssocArO/UW/3852648">
          <pickID>quakeml:uw.anss.org/Arrival/UW/3852648</pickID>
          <phase>P</phase>
          <azimuth>117.6</azimuth>
          <distance>1.816</distance>
          <timeResidual>1.96</timeResidual>
          <creationInfo>
            <agencyID>UW</agencyID>
            <creationTime>2012-02-27T16:45:23.000000Z</creationTime>
          </creationInfo>
        </arrival>
        <arrival publicID="quakeml:uw.anss.org/AssocArO/UW/3852653">
          <pickID>quakeml:uw.anss.org/Arrival/UW/3852653</pickID>
          <phase>P</phase>
          <timeResidual>0.18</timeResidual>
          <creationInfo>
            <agencyID>UW</agencyID>
            <creationTime>2012-02-27T16:45:23.000000Z</creationTime>
          </creationInfo>
        </arrival>
        <arrival publicID="quakeml:uw.anss.org/AssocArO/UW/3852658">
          <pickID>quakeml:uw.anss.org/Arrival/UW/3852658</pickID>
          <phase>P</phase>
          <azimuth>235.5</azimuth>
          <timeResidual>-0.41</timeResidual>
          <creationInfo>
            <agencyID>UW</agencyID>
            <creationTime>2012-02-27T16:45:23.000000Z</creationTime>
          </creationInfo>
        </arrival>
        <arrival publicID="quakeml:uw.anss.org/AssocArO/UW/3852663">
          <pickID>quakeml:uw.anss.org/Arrival/UW/3852663</pickID>
          <phase>P</phase>
          <timeResidual>0.08</timeResidual>
          <creationInfo>
            <agencyID>UW</agencyID>
            <creationTime>2012-02-27T16:45:23.000000Z</creationTime>
          </creationInfo>
        </arrival>
        <arrival publicID="quakeml:uw.anss.org/AssocArO/UW/3852668">
          <pickID>quakeml:uw.anss.org/Arrival/UW/3852668</pickID>
          <phase>S</phase>
          <timeResidual>0.22</timeResidual>
          <creationInfo>
            <agencyID>UW</agencyID>
            <creationTime>2012-02-27T16:45:23.000000Z</creationTime>
          </creationInfo>
        </arrival>
        <arrival publicID="quakeml:uw.anss.org/AssocArO/UW/3852673">
          <pickID>quakeml:uw.anss.org/Arrival/UW/3852673</pickID>
          <phase>P</phase>
          <azimuth>127.1</azimuth>
          <distance>1.875</distance>
          <timeResidual>1.45</timeResidual>
          <creationInfo>
            <agencyID>UW</agencyID>
            <creationTime>2012-02-27T16:45:23.000000Z</creationTime>
          </creationInfo>
        </arrival>
        <arrival publicID="quakeml:uw.anss.org/AssocArO/UW/3852678">
          <pickID>quakeml:uw.anss.org/Arrival/UW/3852678</pickID>
          <phase>P</phase>
          <azimuth>197.8</azimuth>
          <distance>1.366</distance>
          <timeResidual>-0.13</timeResidual>
          <creationInfo>
            <agencyID>UW</agencyID>
            <creationTime>2012-02-27T16:45:23.000000Z</creationTime>
          </creationInfo>
        </arrival>
        <arrival publicID="quakeml:uw.anss.org/AssocArO/UW/3852683">
          <pickID>quakeml:uw.anss.org/Arrival/UW/3852683</pickID>
          <phase>P</phase>
          <azimuth>170.0</azimuth>
          <distance>1.411</distance>
          <timeResidual>0.49</timeResidual>
          <creationInfo>
            <agencyID>UW</agencyID>
            <creationTime>2012-02-27T16:45:23.000000Z</creationTime>
          </creationInfo>
        </arrival>
        <arrival publicID="quakeml:uw.anss.org/AssocArO/UW/3852688">
          <pickID>quakeml:uw.anss.org/Arrival/UW/3852688</pickID>
          <phase>P</phase>
          <timeResidual>-0.86</timeResidual>
          <creationInfo>
            <agencyID>UW</agencyID>
            <creationTime>2012-02-27T16:45:23.000000Z</creationTime>
          </creationInfo>
        </arrival>
        <arrival publicID="quakeml:uw.anss.org/AssocArO/UW/3852693">
          <pickID>quakeml:uw.anss.org/Arrival/UW/3852693</pickID>
          <phase>S</phase>
          <timeResidual>-1.2</timeResidual>
          <creationInfo>
            <agencyID>UW</agencyID>
            <creationTime>2012-02-27T16:45:23.000000Z</creationTime>
          </creationInfo>
        </arrival>
        <arrival publicID="quakeml:uw.anss.org/AssocArO/UW/3852698">
          <pickID>quakeml:uw.anss.org/Arrival/UW/3852698</pickID>
          <phase>P</phase>
          <azimuth>110.0</azimuth>
          <distance>0.1896</distance>
          <timeResidual>-0.13</timeResidual>
          <creationInfo>
            <agencyID>UW</agencyID>
            <creationTime>2012-02-27T16:45:23.000000Z</creationTime>
          </creationInfo>
        </arrival>
        <arrival publicID="quakeml:uw.anss.org/AssocArO/UW/3852703">
          <pickID>quakeml:uw.anss.org/Arrival/UW/3852703</pickID>
          <phase>P</phase>
          <timeResidual>0.05</timeResidual>
          <creationInfo>
            <agencyID>UW</agencyID>
            <creationTime>2012-02-27T16:45:23.000000Z</creationTime>
          </creationInfo>
        </arrival>
        <arrival publicID="quakeml:uw.anss.org/AssocArO/UW/3852708">
          <pickID>quakeml:uw.anss.org/Arrival/UW/3852708</pickID>
          <phase>P</phase>
          <azimuth>338.6</azimuth>
          <distance>1.379</distance>
          <timeResidual>0.31</timeResidual>
          <creationInfo>
            <agencyID>UW</agencyID>
            <creationTime>2012-02-27T16:45:23.000000Z</creationTime>
          </creationInfo>
        </arrival>
