<?xml version='1.0' encoding='utf-8'?>
<q:quakeml xmlns="http://quakeml.org/xmlns/bed/1.2" xmlns:q="http://quakeml.org/xmlns/quakeml/1.2" xmlns:ns0="http://anss.org/xmlns/catalog/0.1">
  <eventParameters publicID="smi:local/80bc90ca-ee14-4be7-94c9-25cc41efc532">
    <event publicID="quakeml:uw.anss.org/Event/UW/10253368" ns0:datasource="uw" ns0:dataid="uw10253368" ns0:eventsource="uw" ns0:eventid="10253368">
      <preferredOriginID>quakeml:uw.anss.org/Origin/UW/530313</preferredOriginID>
      <preferredMagnitudeID>quakeml:uw.anss.org/Netmag/UW/443213</preferredMagnitudeID>
      <type>earthquake</type>
      <creationInfo>
        <agencyID>UW</agencyID>
        <creationTime>2012-02-27T16:32:53.000000Z</creationTime>
        <version>3</version>
      </creationInfo>
      <origin publicID="quakeml:uw.anss.org/Origin/UW/530313" ns0:datasource="uw" ns0:dataid="uw10253368" ns0:eventsource="uw" ns0:eventid="10253368">
        <time>
          <value>1990-04-02T18:01:53.080000Z</value>
          <uncertainty>0.34</uncertainty>
        </time>
        <latitude>
          <value>48.8098333</value>
          <uncertainty>1.27</uncertainty>
        </latitude>
        <longitude>
          <value>-122.1846667</value>
          <uncertainty>0.97</uncertainty>
        </longitude>
        <depth>
          <value>181.0</value>
          <uncertainty>3310.0</uncertainty>
        </depth>
        <depthType>from location</depthType>
        <timeFixed>false</timeFixed>
        <epicenterFixed>false</epicenterFixed>
        <methodID>smi:uw.anss.org/origin/spong</methodID>
        <quality>
          <associatedPhaseCount>27</associatedPhaseCount>
          <usedPhaseCount>18</usedPhaseCount>
          <associatedStationCount>23</associatedStationCount>
          <usedStationCount>0</usedStationCount>
          <standardError>0.48</standardError>
          <azimuthalGap>83.0</azimuthalGap>
        </quality>
        <type>hypocenter</type>
        <evaluationMode>manual</evaluationMode>
        <evaluationStatus>final</evaluationStatus>
        <creationInfo>
          <agencyID>UW</agencyID>
          <creationTime>2012-02-27T16:32:53.000000Z</creationTime>
        </creationInfo>
        <originUncertainty>
          <preferredDescription>horizontal uncertainty</preferredDescription>
          <horizontalUncertainty>1598.0</horizontalUncertainty>
        </originUncertainty>
        <arrival publicID="quakeml:uw.anss.org/AssocArO/UW/3739538">
          <pickID>quakeml:uw.anss.org/Arrival/UW/3739538</pickID>
          <phase>P</phase>
          <azimuth>206.9</azimuth>
          <distance>1.3</distance>
          <timeResidual>0.19</timeResidual>
          <creationInfo>
            <agencyID>UW</agencyID>
            <creationTime>2012-02-27T16:32:53.000000Z</creationTime>
          </creationInfo>
        </arrival>
        <arrival publicID="quakeml:uw.anss.org/AssocArO/UW/3739543">
          <pickID>quakeml:uw.anss.org/Arrival/UW/3739543</pickID>
          <phase>P</phase>
          <azimuth>120.5</azimuth>
          <distance>1.433</distance>
          <timeResidual>1.2</timeResidual>
          <creationInfo>
            <agencyID>UW</agencyID>
            <creationTime>2012-02-27T16:32:53.000000Z</creationTime>
          </creationInfo>
        </arrival>
        <arrival publicID="quakeml:uw.anss.org/AssocArO/UW/3739548">
          <pickID>quakeml:uw.anss.org/Arrival/UW/3739548</pickID>
          <phase>P</phase>
          <azimuth>331.0</azimuth>
          <timeResidual>-0.48</timeResidual>
          <creationInfo>
            <agencyID>UW</agencyID>
            <creationTime>2012-02-27T16:32:53.000000Z</creationTime>
          </creationInfo>
        </arrival>
        <arrival publicID="quakeml:uw.anss.org/AssocArO/UW/3739553">
          <pickID>quakeml:uw.anss.org/Arrival/UW/3739553</pickID>
          <phase>P</phase>
          <timeResidual>0.02</timeResidual>
          <creationInfo>
            <agencyID>UW</agencyID>
            <creationTime>2012-02-27T16:32:53.000000Z</creationTime>
          </creationInfo>
        </arrival>
        <arrival publicID="quakeml:uw.anss.org/AssocArO/UW/3739558">
          <pickID>quakeml:uw.anss.org/Arrival/UW/3739558</pickID>
          <phase>S</phase>
          <timeResidual>0.31</timeResidual>
          <creationInfo>
            <agencyID>UW</agencyID>
            <creationTime>2012-02-27T16:32:53.000000Z</creationTime>
          </creationInfo>
        </arrival>
        <arrival publicID="quakeml:uw.anss.org/AssocArO/UW/3739563">
          <pickID>quakeml:uw.anss.org/Arrival/UW/3739563</pickID>
          <phase>P</phase>
          <azimuth>173.7</azimuth>
          <distance>0.389</distance>
          <timeResidual>-0.32</timeResidual>
          <creationInfo>
            <agencyID>UW</agencyID>
            <creationTime>2012-02-27T16:32:53.000000Z</creationTime>
          </creationInfo>
        </arrival>
        <arrival publicID="quakeml:uw.anss.org/AssocArO/UW/3739568">
          <pickID>quakeml:uw.anss.org/Arrival/UW/3739568</pickID>
          <phase>P</phase>
          <azimuth>170.7</azimuth>
          <timeResidual>0.9</timeResidual>
          <creationInfo>
            <agencyID>UW</agencyID>
            <creationTime>2012-02-27T16:32:53.000000Z</creationTime>
          </creationInfo>
        </arrival>
        <arrival publicID="quakeml:uw.anss.org/AssocArO/UW/3739573">
          <pickID>quakeml:uw.anss.org/Arrival/UW/3739573</pickID>
          <phase>P</phase>
          <azimuth>175.6</azimuth>
          <distance>1.872</distance>
          <timeResidual>0.52</timeResidual>
          <creationInfo>
            <agencyID>UW</agencyID>
            <creationTime>2012-02-27T16:32:53.000000Z</creationTime>
          </creationInfo>
        </arrival>
        <arrival publicID="quakeml:uw.anss.org/AssocArO/UW/3739578">
          <pickID>quakeml:uw.anss.org/Arrival/UW/3739578</pickID>
          <phase>P</phase>
          <timeResidual>0.32</timeResidual>
          <creationInfo>
            <agencyID>UW</agencyID>
            <creationTime>2012-02-27T16:32:53.000000Z</creationTime>
          </creationInfo>
        </arrival>
        <arrival publicID="quakeml:uw.anss.org/AssocArO/UW/3739583">
          <pickID>quakeml:uw.anss.org/Arrival/UW/3739583</pickID>
          <phase>P</phase>
          <azimuth>129.0</azimuth>
          <distance>0.5731</distance>
          <timeResidual>-0.03</timeResidual>
          <creationInfo>
            <agencyID>UW</agencyID>
            <creationTime>2012-02-27T16:32:53.000000Z</creationTime>
          </creationInfo>
        </arrival>
        <arrival publicID="quakeml:uw.anss.org/AssocArO/UW/3739588">
          <pickID>quakeml:uw.anss.org/Arrival/UW/3739588</pickID>
          <phase>S</phase>
          <azimuth>129.0</azimuth>
          <distance>0.5731</distance>
          <timeResidual>0.35</timeResidual>
          <creationInfo>
            <agencyID>UW</agencyID>
            <creationTime>2012-02-27T16:32:53.000000Z</creationTime>
          </creationInfo>
        </arrival>
        <arrival publicID="quakeml:uw.anss.org/AssocArO/UW/3739593">
          <pickID>quakeml:uw.anss.org/Arrival/UW/3739593</pickID>
          <phase>P</phase>
          <azimuth>309.7</azimuth>
          <timeResidual>-0.69</timeResidual>
          <creationInfo>
            <agencyID>UW</agencyID>
            <creationTime>2012-02-27T16:32:53.000000Z</creationTime>
          </creationInfo>
        </arrival>
        <arrival publicID="quakeml:uw.anss.org/AssocArO/UW/3739598">
          <pickID>quakeml:uw.anss.org/Arrival/UW/3739598</pickID>
          <phase>P</phase>
          <azimuth>205.5</azimuth>
          <distance>0.5393</distance>
          <timeResidual>1.08</timeResidual>
          <creationInfo>
            <agencyID>UW</agencyID>
            <creationTime>2012-02-27T16:32:53.000000Z</creationTime>
          </creationInfo>
        </arrival>
        <arrival publicID="quakeml:uw.anss.org/AssocArO/UW/3739603">
          <pickID>quakeml:uw.anss.org/Arrival/UW/3739603</pickID>
          <phase>P</phase>
          <azimuth>226.1</azimuth>
          <distance>1.421</distance>
          <timeResidual>0.38</timeResidual>
          <creationInfo>
            <agencyID>UW</agencyID>
            <creationTime>2012-02-27T16:32:53.000000Z</creationTime>
          </creationInfo>
        </arrival>
        <arrival publicID="quakeml:uw.anss.org/AssocArO/UW/3739608">
          <pickID>quakeml:uw.anss.org/Arrival/UW/3739608</pickID>
          <phase>P</phase>
          <azimuth>164.4</azimuth>
          <timeResidual>0.18</timeResidual>
          <creationInfo>
            <agencyID>UW</agencyID>
            <creationTime>2012-02-27T16:32:53.000000Z</creationTime>
          </creationInfo>
        </arrival>
        <arrival publicID="quakeml:uw.anss.org/AssocArO/UW/3739613">
          <pickID>quakeml:uw.anss.org/Arrival/UW/3739613</pickID>
          <phase>S</phase>
          <azimuth>164.4</azimuth>
          <timeResidual>2.23</timeResidual>
          <creationInfo>
            <agencyID>UW</agencyID>
            <creationTime>2012-02-27T16:32:53.000000Z</creationTime>
          </creationInfo>
        </arrival>
        <arrival publicID="quakeml:uw.anss.org/AssocArO/UW/3739623">
          <pickID>quakeml:uw.anss.org/Arrival/UW/3739623</pickID>
          <phase>P</phase>
          <azimuth>169.4</azimuth>
          <timeResidual>0.58</timeResidual>
          <creationInfo>
            <agencyID>UW</agencyID>
            <creationTime>2012-02-27T16:32:53.000000Z</creationTime>
          </creationInfo>
        </arrival>
        <arrival publicID="quakeml:uw.anss.org/AssocArO/UW/3739628">
          <pickID>quakeml:uw.anss.org/Arrival/UW/3739628</pickID>
          <phase>P</phase>
          <timeResidual>-0.17</timeResidual>
          <creationInfo>
            <agencyID>UW</agencyID>
            <creationTime>2012-02-27T16:32:53.000000Z</creationTime>
          </creationInfo>
        </arrival>
        <arrival publicID="quakeml:uw.anss.org/AssocArO/UW/3739638">
          <pickID>quakeml:uw.anss.org/Arrival/UW/3739638</pickID>
          <phase>P</phase>
          <azimuth>236.8</azimuth>
          <timeResidual>-0.05</timeResidual>
          <creationInfo>
            <agencyID>UW</agencyID>
            <creationTime>2012-02-27T16:32:53.000000Z</creationTime>
          </creationInfo>
        </arrival>
        <arrival publicID="quakeml:uw.anss.org/AssocArO/UW/3739648">
          <pickID>quakeml:uw.anss.org/Arrival/UW/3739648</pickID>
          <phase>P</phase>
          <azimuth>169.3</azimuth>
          <distance>1.375</distance>
          <timeResidual>0.91</timeResidual>
          <creationInfo>
            <agencyID>UW</agencyID>
            <creationTime>2012-02-27T16:32:53.000000Z</creationTime>
          </creationInfo>
        </arrival>
        <arrival publicID="quakeml:uw.anss.org/AssocArO/UW/3739653">
          <pickID>quakeml:uw.anss.org/Arrival/UW/3739653</pickID>
          <phase>P</phase>
          <timeResidual>-0.63</timeResidual>
          <creationInfo>
            <agencyID>UW</agencyID>
            <creationTime>2012-02-27T16:32:53.000000Z</creationTime>
          </creationInfo>
        </arrival>
        <arrival publicID="quakeml:uw.anss.org/AssocArO/UW/3739663">
          <pickID>quakeml:uw.anss.org/Arrival/UW/3739663</pickID>
          <phase>S</phase>
          <timeResidual>-1.07</timeResidual>
          <creationInfo>
            <agencyID>UW</agencyID>
            <creationTime>2012-02-27T16:32:53.000000Z</creationTime>
          </creationInfo>
        </arrival>
        <arrival publicID="quakeml:uw.anss.org/AssocArO/UW/3739668">
          <pickID>quakeml:uw.anss.org/Arrival/UW/3739668</pickID>
          <phase>P</phase>
          <azimuth>97.8</azimuth>
          <distance>0.1894</distance>
          <timeResidual>0.11</timeResidual>
          <creationInfo>
            <agencyID>UW</agencyID>
            <creationTime>2012-02-27T16:32:53.000000Z</creationTime>
          </creationInfo>
        </arrival>
        <arrival publicID="quakeml:uw.anss.org/AssocArO/UW/3739683">
          <pickID>quakeml:uw.anss.org/Arrival/UW/3739683</pickID>
          <phase>P</phase>
          <timeResidual>0.17</timeResidual>
          <creationInfo>
            <agencyID>UW</agencyID>
            <creationTime>2012-02-27T16:32:53.000000Z</creationTime>
          </creationInfo>
        </arrival>
        <arrival publicID="quakeml:uw.anss.org/AssocArO/UW/3739693">
          <pickID>quakeml:uw.anss.org/Arrival/UW/3739693</pickID>
          <phase>P</phase>
          <azimuth>164.5</azimuth>
          <distance>1.044</distance>
          <timeResidual>1.08</timeResidual>
          <creationInfo>
            <agencyID>UW</agencyID>
            <creationTime>2012-02-27T16:32:53.000000Z</creationTime>
          </creationInfo>
        </arrival>
        <arrival publicID="quakeml:uw.anss.org/AssocArO/UW/3739703">
          <pickID>quakeml:uw.anss.org/Arrival/UW/3739703</pickID>
          <phase>P</phase>
          <azimuth>213.4</azimuth>
          <distance>0.9601</distance>
          <timeResidual>0.77</timeResidual>
          <creationInfo>
            <agencyID>UW</agencyID>
            <creationTime>2012-02-27T16:32:54.000000Z</creationTime>
          </creationInfo>
        </arrival>
        <arrival publicID="quakeml:uw.anss.org/AssocArO/UW/3739723">
          <pickID>quakeml:uw.anss.org/Arrival/UW/3739723</pickID>
          <phase>P</phase>
          <azimuth>253.2</azimuth>
          <distance>0.4484</distance>
          <timeResidual>0.04</timeResidual>
          <creationInfo>
            <agencyID>UW</agencyID>
            <creationTime>2012-02-27T16:32:54.000000Z</creationTime>
          </creationInfo>
        </arrival>
      </origin>
      <magnitude publicID="quakeml:uw.anss.org/Netmag/UW/443213">
        <mag>
          <value>2.0</value>
          <uncertainty>0.09</uncertainty>
        </mag>
        <type>Md</type>
        <originID>quakeml:uw.anss.org/Origin/UW/530313</originID>
        <methodID>smi:uw.anss.org/magnitude/Crosson</methodID>
        <stationCount>4</stationCount>
        <evaluationMode>manual</evaluationMode>
        <evaluationStatus>final</evaluationStatus>
        <stationMagnitudeContribution>
          <stationMagnitudeID>quakeml:uw.anss.org/AssocCoM/UW/1081733</stationMagnitudeID>
          <weight>1.0</weight>
          <residual>-0.01</residual>
        </stationMagnitudeContribution>
        <stationMagnitudeContribution>
          <stationMagnitudeID>quakeml:uw.anss.org/AssocCoM/UW/1081748</stationMagnitudeID>
          <weight>1.0</weight>
          <residual>-0.62</residual>
        </stationMagnitudeContribution>
        <stationMagnitudeContribution>
          <stationMagnitudeID>quakeml:uw.anss.org/AssocCoM/UW/1081723</stationMagnitudeID>
          <weight>1.0</weight>
          <residual>0.12</residual>
        </stationMagnitudeContribution>
        <stationMagnitudeContribution>
          <stationMagnitudeID>quakeml:uw.anss.org/AssocCoM/UW/1081728</stationMagnitudeID>
          <weight>1.0</weight>
          <residual>0.2</residual>
        </stationMagnitudeContribution>
        <creationInfo>
          <agencyID>UW</agencyID>
          <creationTime>2012-02-27T16:32:53.000000Z</creationTime>
        </creationInfo>
      </magnitude>
      <stationMagnitude publicID="quakeml:uw.anss.org/AssocCoM/UW/1081723">
        <originID>quakeml:uw.anss.org/Origin/UW/530313</originID>
        <mag>
          <value>2.12</value>
        </mag>
        <type>MD</type>
        <amplitudeID>quakeml:uw.anss.org/Coda/UW/1081723</amplitudeID>
        <waveformID networkCode="UW" stationCode="CMW" locationCode="" channelCode="EHZ"></waveformID>
      </stationMagnitude>
      <stationMagnitude publicID="quakeml:uw.anss.org/AssocCoM/UW/1081728">
        <originID>quakeml:uw.anss.org/Origin/UW/530313</originID>
        <mag>
          <value>2.2</value>
        </mag>
        <type>MD</type>
        <amplitudeID>quakeml:uw.anss.org/Coda/UW/1081728</amplitudeID>
        <waveformID networkCode="UW" stationCode="RPW" locationCode="" channelCode="EHZ"></waveformID>
      </stationMagnitude>
      <stationMagnitude publicID="quakeml:uw.anss.org/AssocCoM/UW/1081733">
        <originID>quakeml:uw.anss.org/Origin/UW/530313</originID>
        <mag>
          <value>1.99</value>
        </mag>
        <type>MD</type>
        <amplitudeID>quakeml:uw.anss.org/Coda/UW/1081733</amplitudeID>
        <waveformID networkCode="UW" stationCode="JCW" locationCode="" channelCode="EHZ"></waveformID>
      </stationMagnitude>
      <stationMagnitude publicID="quakeml:uw.anss.org/AssocCoM/UW/1081748">
        <originID>quakeml:uw.anss.org/Origin/UW/530313</originID>
        <mag>
          <value>1.38</value>
        </mag>
        <type>MD</type>
        <amplitudeID>quakeml:uw.anss.org/Coda/UW/1081748</amplitudeID>
        <waveformID networkCode="UW" stationCode="MBW" locationCode="" channelCode="EHZ"></waveformID>
      </stationMagnitude>
      <pick publicID="quakeml:uw.anss.org/Arrival/UW/3739538">
        <time>
          <value>1990-04-02T18:02:16.220000Z</value>
          <uncertainty>0.17</uncertainty>
        </time>
        <waveformID networkCode="UW" stationCode="HDW" locationCode="" channelCode="EHZ"></waveformID>
        <polarity>undecidable</polarity>
        <evaluationMode>manual</evaluationMode>
        <evaluationStatus>final</evaluationStatus>
        <creationInfo>
          <agencyID>UW</agencyID>
          <creationTime>2012-02-27T16:32:53.000000Z</creationTime>
        </creationInfo>
      </pick>
      <pick publicID="quakeml:uw.anss.org/Arrival/UW/3739543">
        <time>
          <value>1990-04-02T18:02:19.550000Z</value>
          <uncertainty>0.16</uncertainty>
        </time>
        <waveformID networkCode="UW" stationCode="NEL" locationCode="" channelCode="EHZ"></waveformID>
        <polarity>undecidable</polarity>
        <evaluationMode>manual</evaluationMode>
        <evaluationStatus>final</evaluationStatus>
        <creationInfo>
          <agencyID>UW</agencyID>
          <creationTime>2012-02-27T16:32:53.000000Z</creationTime>
        </creationInfo>
      </pick>
      <pick publicID="quakeml:uw.anss.org/Arrival/UW/3739548">
        <time>
          <value>1990-04-02T18:02:02.440000Z</value>
          <uncertainty>0.1</uncertainty>
        </time>
        <waveformID networkCode="CN" stationCode="HNB" locationCode="" channelCode="EHZ"></waveformID>
        <polarity>undecidable</polarity>
        <evaluationMode>manual</evaluationMode>
        <evaluationStatus>final</evaluationStatus>
        <creationInfo>
          <agencyID>UW</agencyID>
          <creationTime>2012-02-27T16:32:53.000000Z</creationTime>
        </creationInfo>
      </pick>
      <pick publicID="quakeml:uw.anss.org/Arrival/UW/3739553">
        <time>
          <value>1990-04-02T18:01:57.680000Z</value>
          <uncertainty>0.1</uncertainty>
        </time>
        <waveformID networkCode="CN" stationCode="VDB" locationCode="" channelCode="EHZ"></waveformID>
        <polarity>negative</polarity>
        <evaluationMode>manual</evaluationMode>
        <evaluationStatus>final</evaluationStatus>
        <creationInfo>
          <agencyID>UW</agencyID>
          <creationTime>2012-02-27T16:32:53.000000Z</creationTime>
        </creationInfo>
      </pick>
      <pick publicID="quakeml:uw.anss.org/Arrival/UW/3739558">
        <time>
          <value>1990-04-02T18:02:01.540000Z</value>
          <uncertainty>0.1</uncertainty>
        </time>
        <waveformID networkCode="CN" stationCode="VDB" locationCode="" channelCode="EHZ"></waveformID>
        <polarity>undecidable</polarity>
        <evaluationMode>manual</evaluationMode>
        <evaluationStatus>final</evaluationStatus>
