<?xml version='1.0' encoding='utf-8'?>
<q:quakeml xmlns="http://quakeml.org/xmlns/bed/1.2" xmlns:q="http://quakeml.org/xmlns/quakeml/1.2" xmlns:ns0="http://anss.org/xmlns/catalog/0.1">
  <eventParameters publicID="smi:local/9a28688d-27ff-47e6-ba9b-11693745a1a4">
    <event publicID="quakeml:uw.anss.org/Event/UW/10259483" ns0:datasource="uw" ns0:dataid="uw10259483" ns0:eventsource="uw" ns0:eventid="10259483">
      <preferredOriginID>quakeml:uw.anss.org/Origin/UW/536428</preferredOriginID>
      <preferredMagnitudeID>quakeml:uw.anss.org/Netmag/UW/448888</preferredMagnitudeID>
      <type>earthquake</type>
      <creationInfo>
        <agencyID>UW</agencyID>
        <creationTime>2012-02-27T16:45:57.000000Z</creationTime>
        <version>3</version>
      </creationInfo>
      <origin publicID="quakeml:uw.anss.org/Origin/UW/536428" ns0:datasource="uw" ns0:dataid="uw10259483" ns0:eventsource="uw" ns0:eventid="10259483">
        <time>
          <value>1990-04-17T22:07:07.530000Z</value>
          <uncertainty>0.72</uncertainty>
        </time>
        <latitude>
          <value>48.8341667</value>
          <uncertainty>0.88</uncertainty>
        </latitude>
        <longitude>
          <value>-122.1748333</value>
          <uncertainty>1.12</uncertainty>
        </longitude>
        <depth>
          <value>2611.0</value>
          <uncertainty>6330.0</uncertainty>
        </depth>
        <depthType>from location</depthType>
        <timeFixed>false</timeFixed>
        <epicenterFixed>false</epicenterFixed>
        <methodID>smi:uw.anss.org/origin/spong</methodID>
        <quality>
          <associatedPhaseCount>41</associatedPhaseCount>
          <usedPhaseCount>25</usedPhaseCount>
          <associatedStationCount>35</associatedStationCount>
          <usedStationCount>0</usedStationCount>
          <standardError>0.45</standardError>
          <azimuthalGap>91.0</azimuthalGap>
        </quality>
        <type>hypocenter</type>
        <evaluationMode>manual</evaluationMode>
        <evaluationStatus>final</evaluationStatus>
        <creationInfo>
          <agencyID>UW</agencyID>
          <creationTime>2012-02-27T16:45:57.000000Z</creationTime>
        </creationInfo>
        <originUncertainty>
          <preferredDescription>horizontal uncertainty</preferredDescription>
          <horizontalUncertainty>1424.0</horizontalUncertainty>
        </originUncertainty>
        <arrival publicID="quakeml:uw.anss.org/AssocArO/UW/3854953">
          <pickID>quakeml:uw.anss.org/Arrival/UW/3854953</pickID>
          <phase>P</phase>
          <azimuth>206.6</azimuth>
          <distance>1.325</distance>
          <timeResidual>0.0</timeResidual>
          <creationInfo>
            <agencyID>UW</agencyID>
            <creationTime>2012-02-27T16:45:57.000000Z</creationTime>
          </creationInfo>
        </arrival>
        <arrival publicID="quakeml:uw.anss.org/AssocArO/UW/3854958">
          <pickID>quakeml:uw.anss.org/Arrival/UW/3854958</pickID>
          <phase>P</phase>
          <azimuth>156.1</azimuth>
          <distance>2.291</distance>
          <timeResidual>1.64</timeResidual>
          <creationInfo>
            <agencyID>UW</agencyID>
            <creationTime>2012-02-27T16:45:57.000000Z</creationTime>
          </creationInfo>
        </arrival>
        <arrival publicID="quakeml:uw.anss.org/AssocArO/UW/3854963">
          <pickID>quakeml:uw.anss.org/Arrival/UW/3854963</pickID>
          <phase>P</phase>
          <azimuth>121.5</azimuth>
          <distance>1.44</distance>
          <timeResidual>1.0</timeResidual>
          <creationInfo>
            <agencyID>UW</agencyID>
            <creationTime>2012-02-27T16:45:57.000000Z</creationTime>
          </creationInfo>
        </arrival>
        <arrival publicID="quakeml:uw.anss.org/AssocArO/UW/3854968">
          <pickID>quakeml:uw.anss.org/Arrival/UW/3854968</pickID>
          <phase>P</phase>
          <azimuth>329.1</azimuth>
          <timeResidual>-0.28</timeResidual>
          <creationInfo>
            <agencyID>UW</agencyID>
            <creationTime>2012-02-27T16:45:57.000000Z</creationTime>
          </creationInfo>
        </arrival>
        <arrival publicID="quakeml:uw.anss.org/AssocArO/UW/3854973">
          <pickID>quakeml:uw.anss.org/Arrival/UW/3854973</pickID>
          <phase>S</phase>
          <azimuth>329.1</azimuth>
          <timeResidual>-0.35</timeResidual>
          <creationInfo>
            <agencyID>UW</agencyID>
            <creationTime>2012-02-27T16:45:57.000000Z</creationTime>
          </creationInfo>
        </arrival>
        <arrival publicID="quakeml:uw.anss.org/AssocArO/UW/3854978">
          <pickID>quakeml:uw.anss.org/Arrival/UW/3854978</pickID>
          <phase>P</phase>
          <azimuth>134.4</azimuth>
          <distance>1.741</distance>
          <timeResidual>1.44</timeResidual>
          <creationInfo>
            <agencyID>UW</agencyID>
            <creationTime>2012-02-27T16:45:57.000000Z</creationTime>
          </creationInfo>
        </arrival>
        <arrival publicID="quakeml:uw.anss.org/AssocArO/UW/3854983">
          <pickID>quakeml:uw.anss.org/Arrival/UW/3854983</pickID>
          <phase>P</phase>
          <timeResidual>0.13</timeResidual>
          <creationInfo>
            <agencyID>UW</agencyID>
            <creationTime>2012-02-27T16:45:57.000000Z</creationTime>
          </creationInfo>
        </arrival>
        <arrival publicID="quakeml:uw.anss.org/AssocArO/UW/3854988">
          <pickID>quakeml:uw.anss.org/Arrival/UW/3854988</pickID>
          <phase>S</phase>
          <timeResidual>0.92</timeResidual>
          <creationInfo>
            <agencyID>UW</agencyID>
            <creationTime>2012-02-27T16:45:57.000000Z</creationTime>
          </creationInfo>
        </arrival>
        <arrival publicID="quakeml:uw.anss.org/AssocArO/UW/3854993">
          <pickID>quakeml:uw.anss.org/Arrival/UW/3854993</pickID>
          <phase>P</phase>
          <azimuth>175.0</azimuth>
          <distance>0.4126</distance>
          <timeResidual>-0.44</timeResidual>
          <creationInfo>
            <agencyID>UW</agencyID>
            <creationTime>2012-02-27T16:45:57.000000Z</creationTime>
          </creationInfo>
        </arrival>
        <arrival publicID="quakeml:uw.anss.org/AssocArO/UW/3854998">
          <pickID>quakeml:uw.anss.org/Arrival/UW/3854998</pickID>
          <phase>S</phase>
          <azimuth>175.0</azimuth>
          <distance>0.4126</distance>
          <timeResidual>1.43</timeResidual>
          <creationInfo>
            <agencyID>UW</agencyID>
            <creationTime>2012-02-27T16:45:57.000000Z</creationTime>
          </creationInfo>
        </arrival>
        <arrival publicID="quakeml:uw.anss.org/AssocArO/UW/3855003">
          <pickID>quakeml:uw.anss.org/Arrival/UW/3855003</pickID>
          <phase>P</phase>
          <azimuth>171.0</azimuth>
          <timeResidual>0.48</timeResidual>
          <creationInfo>
            <agencyID>UW</agencyID>
            <creationTime>2012-02-27T16:45:57.000000Z</creationTime>
          </creationInfo>
        </arrival>
        <arrival publicID="quakeml:uw.anss.org/AssocArO/UW/3855008">
          <pickID>quakeml:uw.anss.org/Arrival/UW/3855008</pickID>
          <phase>P</phase>
          <azimuth>175.9</azimuth>
          <distance>1.896</distance>
          <timeResidual>-0.56</timeResidual>
          <creationInfo>
            <agencyID>UW</agencyID>
            <creationTime>2012-02-27T16:45:57.000000Z</creationTime>
          </creationInfo>
        </arrival>
        <arrival publicID="quakeml:uw.anss.org/AssocArO/UW/3855013">
          <pickID>quakeml:uw.anss.org/Arrival/UW/3855013</pickID>
          <phase>P</phase>
          <azimuth>173.1</azimuth>
          <distance>2.099</distance>
          <timeResidual>0.33</timeResidual>
          <creationInfo>
            <agencyID>UW</agencyID>
            <creationTime>2012-02-27T16:45:57.000000Z</creationTime>
          </creationInfo>
        </arrival>
        <arrival publicID="quakeml:uw.anss.org/AssocArO/UW/3855018">
          <pickID>quakeml:uw.anss.org/Arrival/UW/3855018</pickID>
          <phase>P</phase>
          <timeResidual>0.3</timeResidual>
          <creationInfo>
            <agencyID>UW</agencyID>
            <creationTime>2012-02-27T16:45:57.000000Z</creationTime>
          </creationInfo>
        </arrival>
        <arrival publicID="quakeml:uw.anss.org/AssocArO/UW/3855023">
          <pickID>quakeml:uw.anss.org/Arrival/UW/3855023</pickID>
          <phase>P</phase>
          <azimuth>131.3</azimuth>
          <distance>0.5838</distance>
          <timeResidual>-0.12</timeResidual>
          <creationInfo>
            <agencyID>UW</agencyID>
            <creationTime>2012-02-27T16:45:57.000000Z</creationTime>
          </creationInfo>
        </arrival>
        <arrival publicID="quakeml:uw.anss.org/AssocArO/UW/3855028">
          <pickID>quakeml:uw.anss.org/Arrival/UW/3855028</pickID>
          <phase>S</phase>
          <azimuth>131.3</azimuth>
          <distance>0.5838</distance>
          <timeResidual>0.46</timeResidual>
          <creationInfo>
            <agencyID>UW</agencyID>
            <creationTime>2012-02-27T16:45:57.000000Z</creationTime>
          </creationInfo>
        </arrival>
        <arrival publicID="quakeml:uw.anss.org/AssocArO/UW/3855033">
          <pickID>quakeml:uw.anss.org/Arrival/UW/3855033</pickID>
          <phase>P</phase>
          <azimuth>308.3</azimuth>
          <timeResidual>-0.52</timeResidual>
          <creationInfo>
            <agencyID>UW</agencyID>
            <creationTime>2012-02-27T16:45:57.000000Z</creationTime>
          </creationInfo>
        </arrival>
        <arrival publicID="quakeml:uw.anss.org/AssocArO/UW/3855038">
          <pickID>quakeml:uw.anss.org/Arrival/UW/3855038</pickID>
          <phase>P</phase>
          <azimuth>205.0</azimuth>
          <distance>0.5641</distance>
          <timeResidual>0.92</timeResidual>
          <creationInfo>
            <agencyID>UW</agencyID>
            <creationTime>2012-02-27T16:45:57.000000Z</creationTime>
          </creationInfo>
        </arrival>
        <arrival publicID="quakeml:uw.anss.org/AssocArO/UW/3855043">
          <pickID>quakeml:uw.anss.org/Arrival/UW/3855043</pickID>
          <phase>P</phase>
          <azimuth>225.6</azimuth>
          <distance>1.442</distance>
          <timeResidual>0.26</timeResidual>
          <creationInfo>
            <agencyID>UW</agencyID>
            <creationTime>2012-02-27T16:45:57.000000Z</creationTime>
          </creationInfo>
        </arrival>
        <arrival publicID="quakeml:uw.anss.org/AssocArO/UW/3855048">
          <pickID>quakeml:uw.anss.org/Arrival/UW/3855048</pickID>
          <phase>P</phase>
          <azimuth>320.7</azimuth>
          <timeResidual>-0.25</timeResidual>
          <creationInfo>
            <agencyID>UW</agencyID>
            <creationTime>2012-02-27T16:45:57.000000Z</creationTime>
          </creationInfo>
        </arrival>
        <arrival publicID="quakeml:uw.anss.org/AssocArO/UW/3855053">
          <pickID>quakeml:uw.anss.org/Arrival/UW/3855053</pickID>
          <phase>S</phase>
          <azimuth>320.7</azimuth>
          <timeResidual>-1.24</timeResidual>
          <creationInfo>
            <agencyID>UW</agencyID>
            <creationTime>2012-02-27T16:45:57.000000Z</creationTime>
          </creationInfo>
        </arrival>
        <arrival publicID="quakeml:uw.anss.org/AssocArO/UW/3855058">
          <pickID>quakeml:uw.anss.org/Arrival/UW/3855058</pickID>
          <phase>P</phase>
          <azimuth>165.5</azimuth>
          <timeResidual>0.16</timeResidual>
          <creationInfo>
            <agencyID>UW</agencyID>
            <creationTime>2012-02-27T16:45:57.000000Z</creationTime>
          </creationInfo>
        </arrival>
        <arrival publicID="quakeml:uw.anss.org/AssocArO/UW/3855063">
          <pickID>quakeml:uw.anss.org/Arrival/UW/3855063</pickID>
          <phase>S</phase>
          <azimuth>165.5</azimuth>
          <timeResidual>2.08</timeResidual>
          <creationInfo>
            <agencyID>UW</agencyID>
            <creationTime>2012-02-27T16:45:57.000000Z</creationTime>
          </creationInfo>
        </arrival>
        <arrival publicID="quakeml:uw.anss.org/AssocArO/UW/3855068">
          <pickID>quakeml:uw.anss.org/Arrival/UW/3855068</pickID>
          <phase>P</phase>
          <azimuth>150.1</azimuth>
          <distance>2.209</distance>
          <timeResidual>1.42</timeResidual>
          <creationInfo>
            <agencyID>UW</agencyID>
            <creationTime>2012-02-27T16:45:57.000000Z</creationTime>
          </creationInfo>
        </arrival>
        <arrival publicID="quakeml:uw.anss.org/AssocArO/UW/3855073">
          <pickID>quakeml:uw.anss.org/Arrival/UW/3855073</pickID>
          <phase>P</phase>
          <azimuth>169.7</azimuth>
          <timeResidual>0.31</timeResidual>
          <creationInfo>
            <agencyID>UW</agencyID>
            <creationTime>2012-02-27T16:45:57.000000Z</creationTime>
          </creationInfo>
        </arrival>
        <arrival publicID="quakeml:uw.anss.org/AssocArO/UW/3855078">
          <pickID>quakeml:uw.anss.org/Arrival/UW/3855078</pickID>
          <phase>P</phase>
          <timeResidual>0.13</timeResidual>
          <creationInfo>
            <agencyID>UW</agencyID>
            <creationTime>2012-02-27T16:45:57.000000Z</creationTime>
          </creationInfo>
        </arrival>
        <arrival publicID="quakeml:uw.anss.org/AssocArO/UW/3855083">
          <pickID>quakeml:uw.anss.org/Arrival/UW/3855083</pickID>
          <phase>P</phase>
          <azimuth>236.0</azimuth>
          <timeResidual>0.01</timeResidual>
          <creationInfo>
            <agencyID>UW</agencyID>
            <creationTime>2012-02-27T16:45:57.000000Z</creationTime>
          </creationInfo>
        </arrival>
        <arrival publicID="quakeml:uw.anss.org/AssocArO/UW/3855088">
          <pickID>quakeml:uw.anss.org/Arrival/UW/3855088</pickID>
          <phase>P</phase>
          <azimuth>126.7</azimuth>
          <distance>1.868</distance>
          <timeResidual>1.5</timeResidual>
          <creationInfo>
            <agencyID>UW</agencyID>
            <creationTime>2012-02-27T16:45:57.000000Z</creationTime>
          </creationInfo>
        </arrival>
        <arrival publicID="quakeml:uw.anss.org/AssocArO/UW/3855093">
          <pickID>quakeml:uw.anss.org/Arrival/UW/3855093</pickID>
          <phase>P</phase>
          <azimuth>197.8</azimuth>
          <distance>1.351</distance>
          <timeResidual>0.14</timeResidual>
          <creationInfo>
            <agencyID>UW</agencyID>
            <creationTime>2012-02-27T16:45:57.000000Z</creationTime>
          </creationInfo>
        </arrival>
        <arrival publicID="quakeml:uw.anss.org/AssocArO/UW/3855098">
          <pickID>quakeml:uw.anss.org/Arrival/UW/3855098</pickID>
          <phase>P</phase>
          <azimuth>169.7</azimuth>
          <distance>1.398</distance>
          <timeResidual>0.22</timeResidual>
          <creationInfo>
            <agencyID>UW</agencyID>
            <creationTime>2012-02-27T16:45:57.000000Z</creationTime>
          </creationInfo>
        </arrival>
        <arrival publicID="quakeml:uw.anss.org/AssocArO/UW/3855103">
          <pickID>quakeml:uw.anss.org/Arrival/UW/3855103</pickID>
          <phase>P</phase>
          <timeResidual>-0.75</timeResidual>
          <creationInfo>
            <agencyID>UW</agencyID>
            <creationTime>2012-02-27T16:45:58.000000Z</creationTime>
          </creationInfo>
        </arrival>
        <arrival publicID="quakeml:uw.anss.org/AssocArO/UW/3855108">
          <pickID>quakeml:uw.anss.org/Arrival/UW/3855108</pickID>
          <phase>P</phase>
          <azimuth>105.5</azimuth>
          <distance>0.188</distance>
          <timeResidual>-0.01</timeResidual>
          <creationInfo>
            <agencyID>UW</agencyID>
            <creationTime>2012-02-27T16:45:58.000000Z</creationTime>
          </creationInfo>
        </arrival>
        <arrival publicID="quakeml:uw.anss.org/AssocArO/UW/3855113">
          <pickID>quakeml:uw.anss.org/Arrival/UW/3855113</pickID>
          <phase>P</phase>
          <timeResidual>0.25</timeResidual>
          <creationInfo>
            <agencyID>UW</agencyID>
            <creationTime>2012-02-27T16:45:58.000000Z</creationTime>
          </creationInfo>
        </arrival>
        <arrival publicID="quakeml:uw.anss.org/AssocArO/UW/3855118">
          <pickID>quakeml:uw.anss.org/Arrival/UW/3855118</pickID>
          <phase>P</phase>
          <azimuth>180.7</azimuth>
          <distance>2.485</distance>
          <timeResidual>2.09</timeResidual>
          <creationInfo>
            <agencyID>UW</agencyID>
            <creationTime>2012-02-27T16:45:58.000000Z</creationTime>
          </creationInfo>
        </arrival>
        <arrival publicID="quakeml:uw.anss.org/AssocArO/UW/3855123">
          <pickID>quakeml:uw.anss.org/Arrival/UW/3855123</pickID>
          <phase>P</phase>
          <azimuth>182.1</azimuth>
          <distance>2.169</distance>
          <timeResidual>-0.68</timeResidual>
          <creationInfo>
            <agencyID>UW</agencyID>
            <creationTime>2012-02-27T16:45:58.000000Z</creationTime>
          </creationInfo>
        </arrival>
        <arrival publicID="quakeml:uw.anss.org/AssocArO/UW/3855128">
          <pickID>quakeml:uw.anss.org/Arrival/UW/3855128</pickID>
          <phase>P</phase>
          <azimuth>165.2</azimuth>
          <distance>1.066</distance>
          <timeResidual>0.62</timeResidual>
          <creationInfo>
            <agencyID>UW</agencyID>
            <creationTime>2012-02-27T16:45:58.000000Z</creationTime>
          </creationInfo>
        </arrival>
        <arrival publicID="quakeml:uw.anss.org/AssocArO/UW/3855133">
          <pickID>quakeml:uw.anss.org/Arrival/UW/3855133</pickID>
          <phase>P</phase>
          <azimuth>125.2</azimuth>
          <distance>1.757</distance>
          <timeResidual>1.23</timeResidual>
          <creationInfo>
            <agencyID>UW</agencyID>
            <creationTime>2012-02-27T16:45:58.000000Z</creationTime>
          </creationInfo>
        </arrival>
        <arrival publicID="quakeml:uw.anss.org/AssocArO/UW/3855138">
          <pickID>quakeml:uw.anss.org/Arrival/UW/3855138</pickID>
          <phase>P</phase>
          <azimuth>231.4</azimuth>
          <distance>1.737</distance>
          <timeResidual>1.24</timeResidual>
          <creationInfo>
            <agencyID>UW</agencyID>
            <creationTime>2012-02-27T16:45:58.000000Z</creationTime>
          </creationInfo>
        </arrival>
        <arrival publicID="quakeml:uw.anss.org/AssocArO/UW/3855143">
          <pickID>quakeml:uw.anss.org/Arrival/UW/3855143</pickID>
          <phase>P</phase>
          <azimuth>212.9</azimuth>
          <distance>0.984</distance>
          <timeResidual>0.7</timeResidual>
          <creationInfo>
            <agencyID>UW</agencyID>
            <creationTime>2012-02-27T16:45:58.000000Z</creationTime>
          </creationInfo>
        </arrival>
        <arrival publicID="quakeml:uw.anss.org/AssocArO/UW/3855148">
          <pickID>quakeml:uw.anss.org/Arrival/UW/3855148</pickID>
          <phase>P</phase>
          <azimuth>250.6</azimuth>
          <distance>0.4622</distance>
          <timeResidual>0.13</timeResidual>
          <creationInfo>
            <agencyID>UW</agencyID>
            <creationTime>2012-02-27T16:45:58.000000Z</creationTime>
          </creationInfo>
        </arrival>
        <arrival publicID="quakeml:uw.anss.org/AssocArO/UW/3855153">
          <pickID>quakeml:uw.anss.org/Arrival/UW/3855153</pickID>
          <phase>P</phase>
          <azimuth>174.6</azimuth>
          <distance>1.003</distance>
