<?xml version='1.0' encoding='utf-8'?>
<q:quakeml xmlns="http://quakeml.org/xmlns/bed/1.2" xmlns:q="http://quakeml.org/xmlns/quakeml/1.2" xmlns:ns0="http://anss.org/xmlns/catalog/0.1">
  <eventParameters publicID="smi:local/5c97423c-2211-46ca-916f-102befbedc0f">
    <event publicID="quakeml:uw.anss.org/Event/UW/10272938" ns0:datasource="uw" ns0:dataid="uw10272938" ns0:eventsource="uw" ns0:eventid="10272938">
      <preferredOriginID>quakeml:uw.anss.org/Origin/UW/549883</preferredOriginID>
      <preferredMagnitudeID>quakeml:uw.anss.org/Netmag/UW/460868</preferredMagnitudeID>
      <type>earthquake</type>
      <creationInfo>
        <agencyID>UW</agencyID>
        <creationTime>2012-02-27T17:15:51.000000Z</creationTime>
        <version>3</version>
      </creationInfo>
      <origin publicID="quakeml:uw.anss.org/Origin/UW/549883" ns0:datasource="uw" ns0:dataid="uw10272938" ns0:eventsource="uw" ns0:eventid="10272938">
        <time>
          <value>1990-12-27T14:33:46.480000Z</value>
          <uncertainty>0.03</uncertainty>
        </time>
        <latitude>
          <value>48.7866667</value>
          <uncertainty>0.05</uncertainty>
        </latitude>
        <longitude>
          <value>-122.2783333</value>
          <uncertainty>0.07</uncertainty>
        </longitude>
        <depth>
          <value>-661.0</value>
          <uncertainty>250.0</uncertainty>
        </depth>
        <depthType>operator assigned</depthType>
        <timeFixed>false</timeFixed>
        <epicenterFixed>false</epicenterFixed>
        <methodID>smi:uw.anss.org/origin/spong</methodID>
        <quality>
          <associatedPhaseCount>50</associatedPhaseCount>
          <usedPhaseCount>26</usedPhaseCount>
          <associatedStationCount>35</associatedStationCount>
          <usedStationCount>0</usedStationCount>
          <standardError>0.28</standardError>
          <azimuthalGap>64.0</azimuthalGap>
        </quality>
        <type>hypocenter</type>
        <evaluationMode>manual</evaluationMode>
        <evaluationStatus>final</evaluationStatus>
        <creationInfo>
          <agencyID>UW</agencyID>
          <creationTime>2012-02-27T17:15:51.000000Z</creationTime>
        </creationInfo>
        <originUncertainty>
          <preferredDescription>horizontal uncertainty</preferredDescription>
          <horizontalUncertainty>86.0</horizontalUncertainty>
        </originUncertainty>
        <arrival publicID="quakeml:uw.anss.org/AssocArO/UW/4101538">
          <pickID>quakeml:uw.anss.org/Arrival/UW/4101538</pickID>
          <phase>P</phase>
          <azimuth>291.7</azimuth>
          <timeResidual>-0.52</timeResidual>
          <creationInfo>
            <agencyID>UW</agencyID>
            <creationTime>2012-02-27T17:15:51.000000Z</creationTime>
          </creationInfo>
        </arrival>
        <arrival publicID="quakeml:uw.anss.org/AssocArO/UW/4101543">
          <pickID>quakeml:uw.anss.org/Arrival/UW/4101543</pickID>
          <phase>S</phase>
          <azimuth>291.7</azimuth>
          <timeResidual>-1.46</timeResidual>
          <creationInfo>
            <agencyID>UW</agencyID>
            <creationTime>2012-02-27T17:15:51.000000Z</creationTime>
          </creationInfo>
        </arrival>
        <arrival publicID="quakeml:uw.anss.org/AssocArO/UW/4101548">
          <pickID>quakeml:uw.anss.org/Arrival/UW/4101548</pickID>
          <phase>P</phase>
          <azimuth>204.8</azimuth>
          <distance>1.252</distance>
          <timeResidual>-0.45</timeResidual>
          <creationInfo>
            <agencyID>UW</agencyID>
            <creationTime>2012-02-27T17:15:51.000000Z</creationTime>
          </creationInfo>
        </arrival>
        <arrival publicID="quakeml:uw.anss.org/AssocArO/UW/4101553">
          <pickID>quakeml:uw.anss.org/Arrival/UW/4101553</pickID>
          <phase>S</phase>
          <azimuth>204.8</azimuth>
          <distance>1.252</distance>
          <timeResidual>-0.31</timeResidual>
          <creationInfo>
            <agencyID>UW</agencyID>
            <creationTime>2012-02-27T17:15:51.000000Z</creationTime>
          </creationInfo>
        </arrival>
        <arrival publicID="quakeml:uw.anss.org/AssocArO/UW/4101558">
          <pickID>quakeml:uw.anss.org/Arrival/UW/4101558</pickID>
          <phase>P</phase>
          <azimuth>118.4</azimuth>
          <distance>1.476</distance>
          <timeResidual>0.88</timeResidual>
          <creationInfo>
            <agencyID>UW</agencyID>
            <creationTime>2012-02-27T17:15:51.000000Z</creationTime>
          </creationInfo>
        </arrival>
        <arrival publicID="quakeml:uw.anss.org/AssocArO/UW/4101563">
          <pickID>quakeml:uw.anss.org/Arrival/UW/4101563</pickID>
          <phase>S</phase>
          <azimuth>118.4</azimuth>
          <distance>1.476</distance>
          <timeResidual>0.07</timeResidual>
          <creationInfo>
            <agencyID>UW</agencyID>
            <creationTime>2012-02-27T17:15:51.000000Z</creationTime>
          </creationInfo>
        </arrival>
        <arrival publicID="quakeml:uw.anss.org/AssocArO/UW/4101568">
          <pickID>quakeml:uw.anss.org/Arrival/UW/4101568</pickID>
          <phase>P</phase>
          <azimuth>338.1</azimuth>
          <timeResidual>0.16</timeResidual>
          <creationInfo>
            <agencyID>UW</agencyID>
            <creationTime>2012-02-27T17:15:51.000000Z</creationTime>
          </creationInfo>
        </arrival>
        <arrival publicID="quakeml:uw.anss.org/AssocArO/UW/4101573">
          <pickID>quakeml:uw.anss.org/Arrival/UW/4101573</pickID>
          <phase>S</phase>
          <azimuth>338.1</azimuth>
          <timeResidual>0.1</timeResidual>
          <creationInfo>
            <agencyID>UW</agencyID>
            <creationTime>2012-02-27T17:15:51.000000Z</creationTime>
          </creationInfo>
        </arrival>
        <arrival publicID="quakeml:uw.anss.org/AssocArO/UW/4101578">
          <pickID>quakeml:uw.anss.org/Arrival/UW/4101578</pickID>
          <phase>P</phase>
          <azimuth>131.6</azimuth>
          <distance>1.759</distance>
          <timeResidual>0.95</timeResidual>
          <creationInfo>
            <agencyID>UW</agencyID>
            <creationTime>2012-02-27T17:15:51.000000Z</creationTime>
          </creationInfo>
        </arrival>
        <arrival publicID="quakeml:uw.anss.org/AssocArO/UW/4101583">
          <pickID>quakeml:uw.anss.org/Arrival/UW/4101583</pickID>
          <phase>S</phase>
          <azimuth>131.6</azimuth>
          <distance>1.759</distance>
          <timeResidual>1.0</timeResidual>
          <creationInfo>
            <agencyID>UW</agencyID>
            <creationTime>2012-02-27T17:15:51.000000Z</creationTime>
          </creationInfo>
        </arrival>
        <arrival publicID="quakeml:uw.anss.org/AssocArO/UW/4101588">
          <pickID>quakeml:uw.anss.org/Arrival/UW/4101588</pickID>
          <phase>P</phase>
          <azimuth>171.4</azimuth>
          <timeResidual>-0.12</timeResidual>
          <creationInfo>
            <agencyID>UW</agencyID>
            <creationTime>2012-02-27T17:15:51.000000Z</creationTime>
          </creationInfo>
        </arrival>
        <arrival publicID="quakeml:uw.anss.org/AssocArO/UW/4101593">
          <pickID>quakeml:uw.anss.org/Arrival/UW/4101593</pickID>
          <phase>P</phase>
          <azimuth>169.0</azimuth>
          <distance>1.952</distance>
          <timeResidual>0.02</timeResidual>
          <creationInfo>
            <agencyID>UW</agencyID>
            <creationTime>2012-02-27T17:15:51.000000Z</creationTime>
          </creationInfo>
        </arrival>
        <arrival publicID="quakeml:uw.anss.org/AssocArO/UW/4101598">
          <pickID>quakeml:uw.anss.org/Arrival/UW/4101598</pickID>
          <phase>P</phase>
          <timeResidual>0.66</timeResidual>
          <creationInfo>
            <agencyID>UW</agencyID>
            <creationTime>2012-02-27T17:15:51.000000Z</creationTime>
          </creationInfo>
        </arrival>
        <arrival publicID="quakeml:uw.anss.org/AssocArO/UW/4101603">
          <pickID>quakeml:uw.anss.org/Arrival/UW/4101603</pickID>
          <phase>P</phase>
          <azimuth>149.7</azimuth>
          <distance>1.902</distance>
          <timeResidual>1.48</timeResidual>
          <creationInfo>
            <agencyID>UW</agencyID>
            <creationTime>2012-02-27T17:15:51.000000Z</creationTime>
          </creationInfo>
        </arrival>
        <arrival publicID="quakeml:uw.anss.org/AssocArO/UW/4101608">
          <pickID>quakeml:uw.anss.org/Arrival/UW/4101608</pickID>
          <phase>P</phase>
          <azimuth>168.3</azimuth>
          <timeResidual>0.44</timeResidual>
          <creationInfo>
            <agencyID>UW</agencyID>
            <creationTime>2012-02-27T17:15:51.000000Z</creationTime>
          </creationInfo>
        </arrival>
        <arrival publicID="quakeml:uw.anss.org/AssocArO/UW/4101613">
          <pickID>quakeml:uw.anss.org/Arrival/UW/4101613</pickID>
          <phase>P</phase>
          <azimuth>198.0</azimuth>
          <distance>1.904</distance>
          <timeResidual>-0.7</timeResidual>
          <creationInfo>
            <agencyID>UW</agencyID>
            <creationTime>2012-02-27T17:15:51.000000Z</creationTime>
          </creationInfo>
        </arrival>
        <arrival publicID="quakeml:uw.anss.org/AssocArO/UW/4101618">
          <pickID>quakeml:uw.anss.org/Arrival/UW/4101618</pickID>
          <phase>S</phase>
          <azimuth>198.0</azimuth>
          <distance>1.904</distance>
          <timeResidual>-1.34</timeResidual>
          <creationInfo>
            <agencyID>UW</agencyID>
            <creationTime>2012-02-27T17:15:51.000000Z</creationTime>
          </creationInfo>
        </arrival>
        <arrival publicID="quakeml:uw.anss.org/AssocArO/UW/4101623">
          <pickID>quakeml:uw.anss.org/Arrival/UW/4101623</pickID>
          <phase>P</phase>
          <azimuth>173.6</azimuth>
          <distance>1.855</distance>
          <timeResidual>-0.24</timeResidual>
          <creationInfo>
            <agencyID>UW</agencyID>
            <creationTime>2012-02-27T17:15:51.000000Z</creationTime>
          </creationInfo>
        </arrival>
        <arrival publicID="quakeml:uw.anss.org/AssocArO/UW/4101628">
          <pickID>quakeml:uw.anss.org/Arrival/UW/4101628</pickID>
          <phase>S</phase>
          <azimuth>173.6</azimuth>
          <distance>1.855</distance>
          <timeResidual>-1.04</timeResidual>
          <creationInfo>
            <agencyID>UW</agencyID>
            <creationTime>2012-02-27T17:15:51.000000Z</creationTime>
          </creationInfo>
        </arrival>
        <arrival publicID="quakeml:uw.anss.org/AssocArO/UW/4101633">
          <pickID>quakeml:uw.anss.org/Arrival/UW/4101633</pickID>
          <phase>P</phase>
          <timeResidual>0.18</timeResidual>
          <creationInfo>
            <agencyID>UW</agencyID>
            <creationTime>2012-02-27T17:15:51.000000Z</creationTime>
          </creationInfo>
        </arrival>
        <arrival publicID="quakeml:uw.anss.org/AssocArO/UW/4101638">
          <pickID>quakeml:uw.anss.org/Arrival/UW/4101638</pickID>
          <phase>P</phase>
          <azimuth>123.6</azimuth>
          <distance>0.6095</distance>
          <timeResidual>-0.26</timeResidual>
          <creationInfo>
            <agencyID>UW</agencyID>
            <creationTime>2012-02-27T17:15:51.000000Z</creationTime>
          </creationInfo>
        </arrival>
        <arrival publicID="quakeml:uw.anss.org/AssocArO/UW/4101643">
          <pickID>quakeml:uw.anss.org/Arrival/UW/4101643</pickID>
          <phase>S</phase>
          <azimuth>123.6</azimuth>
          <distance>0.6095</distance>
          <timeResidual>0.1</timeResidual>
          <creationInfo>
            <agencyID>UW</agencyID>
            <creationTime>2012-02-27T17:15:51.000000Z</creationTime>
          </creationInfo>
        </arrival>
        <arrival publicID="quakeml:uw.anss.org/AssocArO/UW/4101648">
          <pickID>quakeml:uw.anss.org/Arrival/UW/4101648</pickID>
          <phase>P</phase>
          <azimuth>313.2</azimuth>
          <timeResidual>-0.28</timeResidual>
          <creationInfo>
            <agencyID>UW</agencyID>
            <creationTime>2012-02-27T17:15:51.000000Z</creationTime>
          </creationInfo>
        </arrival>
        <arrival publicID="quakeml:uw.anss.org/AssocArO/UW/4101653">
          <pickID>quakeml:uw.anss.org/Arrival/UW/4101653</pickID>
          <phase>P</phase>
          <azimuth>179.0</azimuth>
          <distance>1.234</distance>
          <timeResidual>0.33</timeResidual>
          <creationInfo>
            <agencyID>UW</agencyID>
            <creationTime>2012-02-27T17:15:51.000000Z</creationTime>
          </creationInfo>
        </arrival>
        <arrival publicID="quakeml:uw.anss.org/AssocArO/UW/4101658">
          <pickID>quakeml:uw.anss.org/Arrival/UW/4101658</pickID>
          <phase>S</phase>
          <azimuth>192.6</azimuth>
          <distance>0.9894</distance>
          <timeResidual>0.35</timeResidual>
          <creationInfo>
            <agencyID>UW</agencyID>
            <creationTime>2012-02-27T17:15:51.000000Z</creationTime>
          </creationInfo>
        </arrival>
        <arrival publicID="quakeml:uw.anss.org/AssocArO/UW/4101663">
          <pickID>quakeml:uw.anss.org/Arrival/UW/4101663</pickID>
          <phase>P</phase>
          <azimuth>200.1</azimuth>
          <distance>0.4938</distance>
          <timeResidual>0.43</timeResidual>
          <creationInfo>
            <agencyID>UW</agencyID>
            <creationTime>2012-02-27T17:15:51.000000Z</creationTime>
          </creationInfo>
        </arrival>
        <arrival publicID="quakeml:uw.anss.org/AssocArO/UW/4101668">
          <pickID>quakeml:uw.anss.org/Arrival/UW/4101668</pickID>
          <phase>P</phase>
          <azimuth>224.9</azimuth>
          <distance>1.36</distance>
          <timeResidual>0.1</timeResidual>
          <creationInfo>
            <agencyID>UW</agencyID>
            <creationTime>2012-02-27T17:15:51.000000Z</creationTime>
          </creationInfo>
        </arrival>
        <arrival publicID="quakeml:uw.anss.org/AssocArO/UW/4101673">
          <pickID>quakeml:uw.anss.org/Arrival/UW/4101673</pickID>
          <phase>P</phase>
          <azimuth>158.4</azimuth>
          <timeResidual>-0.1</timeResidual>
          <creationInfo>
            <agencyID>UW</agencyID>
            <creationTime>2012-02-27T17:15:51.000000Z</creationTime>
          </creationInfo>
        </arrival>
        <arrival publicID="quakeml:uw.anss.org/AssocArO/UW/4101678">
          <pickID>quakeml:uw.anss.org/Arrival/UW/4101678</pickID>
          <phase>S</phase>
          <azimuth>158.4</azimuth>
          <timeResidual>0.78</timeResidual>
          <creationInfo>
            <agencyID>UW</agencyID>
            <creationTime>2012-02-27T17:15:51.000000Z</creationTime>
          </creationInfo>
        </arrival>
        <arrival publicID="quakeml:uw.anss.org/AssocArO/UW/4101683">
          <pickID>quakeml:uw.anss.org/Arrival/UW/4101683</pickID>
          <phase>P</phase>
          <timeResidual>0.15</timeResidual>
          <creationInfo>
            <agencyID>UW</agencyID>
            <creationTime>2012-02-27T17:15:51.000000Z</creationTime>
          </creationInfo>
        </arrival>
        <arrival publicID="quakeml:uw.anss.org/AssocArO/UW/4101688">
          <pickID>quakeml:uw.anss.org/Arrival/UW/4101688</pickID>
          <phase>S</phase>
          <timeResidual>-0.34</timeResidual>
          <creationInfo>
            <agencyID>UW</agencyID>
            <creationTime>2012-02-27T17:15:51.000000Z</creationTime>
          </creationInfo>
        </arrival>
        <arrival publicID="quakeml:uw.anss.org/AssocArO/UW/4101693">
          <pickID>quakeml:uw.anss.org/Arrival/UW/4101693</pickID>
          <phase>P</phase>
          <azimuth>236.0</azimuth>
          <timeResidual>-0.24</timeResidual>
          <creationInfo>
            <agencyID>UW</agencyID>
            <creationTime>2012-02-27T17:15:51.000000Z</creationTime>
          </creationInfo>
        </arrival>
        <arrival publicID="quakeml:uw.anss.org/AssocArO/UW/4101698">
          <pickID>quakeml:uw.anss.org/Arrival/UW/4101698</pickID>
          <phase>P</phase>
          <timeResidual>0.13</timeResidual>
          <creationInfo>
            <agencyID>UW</agencyID>
            <creationTime>2012-02-27T17:15:51.000000Z</creationTime>
          </creationInfo>
        </arrival>
        <arrival publicID="quakeml:uw.anss.org/AssocArO/UW/4101703">
          <pickID>quakeml:uw.anss.org/Arrival/UW/4101703</pickID>
          <phase>P</phase>
          <azimuth>195.5</azimuth>
          <distance>1.286</distance>
          <timeResidual>-0.41</timeResidual>
          <creationInfo>
            <agencyID>UW</agencyID>
            <creationTime>2012-02-27T17:15:52.000000Z</creationTime>
          </creationInfo>
        </arrival>
        <arrival publicID="quakeml:uw.anss.org/AssocArO/UW/4101708">
          <pickID>quakeml:uw.anss.org/Arrival/UW/4101708</pickID>
          <phase>S</phase>
          <azimuth>195.5</azimuth>
          <distance>1.286</distance>
          <timeResidual>-1.28</timeResidual>
          <creationInfo>
            <agencyID>UW</agencyID>
            <creationTime>2012-02-27T17:15:52.000000Z</creationTime>
          </creationInfo>
        </arrival>
        <arrival publicID="quakeml:uw.anss.org/AssocArO/UW/4101713">
          <pickID>quakeml:uw.anss.org/Arrival/UW/4101713</pickID>
          <phase>P</phase>
          <azimuth>166.5</azimuth>
          <distance>1.365</distance>
          <timeResidual>0.14</timeResidual>
          <creationInfo>
            <agencyID>UW</agencyID>
            <creationTime>2012-02-27T17:15:52.000000Z</creationTime>
          </creationInfo>
        </arrival>
        <arrival publicID="quakeml:uw.anss.org/AssocArO/UW/4101718">
          <pickID>quakeml:uw.anss.org/Arrival/UW/4101718</pickID>
          <phase>S</phase>
          <azimuth>166.5</azimuth>
          <distance>1.365</distance>
          <timeResidual>0.41</timeResidual>
          <creationInfo>
            <agencyID>UW</agencyID>
            <creationTime>2012-02-27T17:15:52.000000Z</creationTime>
          </creationInfo>
        </arrival>
        <arrival publicID="quakeml:uw.anss.org/AssocArO/UW/4101723">
          <pickID>quakeml:uw.anss.org/Arrival/UW/4101723</pickID>
          <phase>P</phase>
          <timeResidual>-0.74</timeResidual>
          <creationInfo>
            <agencyID>UW</agencyID>
            <creationTime>2012-02-27T17:15:52.000000Z</creationTime>
          </creationInfo>
        </arrival>
        <arrival publicID="quakeml:uw.anss.org/AssocArO/UW/4101728">
          <pickID>quakeml:uw.anss.org/Arrival/UW/4101728</pickID>
          <phase>P</phase>
          <azimuth>90.5</azimuth>
          <distance>0.2496</distance>
          <timeResidual>0.05</timeResidual>
          <creationInfo>
            <agencyID>UW</agencyID>
            <creationTime>2012-02-27T17:15:52.000000Z</creationTime>
          </creationInfo>
        </arrival>
        <arrival publicID="quakeml:uw.anss.org/AssocArO/UW/4101733">
          <pickID>quakeml:uw.anss.org/Arrival/UW/4101733</pickID>
          <phase>S</phase>
          <azimuth>90.5</azimuth>
          <distance>0.2496</distance>
          <timeResidual>1.4</timeResidual>
          <creationInfo>
            <agencyID>UW</agencyID>
            <creationTime>2012-02-27T17:15:52.000000Z</creationTime>
          </creationInfo>
        </arrival>
        <arrival publicID="quakeml:uw.anss.org/AssocArO/UW/4101738">
          <pickID>quakeml:uw.anss.org/Arrival/UW/4101738</pickID>
          <phase>P</phase>
          <timeResidual>0.24</timeResidual>
          <creationInfo>
