<?xml version='1.0' encoding='utf-8'?>
<q:quakeml xmlns="http://quakeml.org/xmlns/bed/1.2" xmlns:q="http://quakeml.org/xmlns/quakeml/1.2" xmlns:ns0="http://anss.org/xmlns/catalog/0.1">
  <eventParameters publicID="smi:local/dc022d04-5585-44b2-8c27-4b9e0088461e">
    <event publicID="quakeml:uw.anss.org/Event/UW/10257873" ns0:datasource="uw" ns0:dataid="uw10257873" ns0:eventsource="uw" ns0:eventid="10257873">
      <preferredOriginID>quakeml:uw.anss.org/Origin/UW/534818</preferredOriginID>
      <preferredMagnitudeID>quakeml:uw.anss.org/Netmag/UW/447438</preferredMagnitudeID>
      <type>earthquake</type>
      <creationInfo>
        <agencyID>UW</agencyID>
        <creationTime>2012-02-27T16:41:56.000000Z</creationTime>
        <version>3</version>
      </creationInfo>
      <origin publicID="quakeml:uw.anss.org/Origin/UW/534818" ns0:datasource="uw" ns0:dataid="uw10257873" ns0:eventsource="uw" ns0:eventid="10257873">
        <time>
          <value>1990-04-14T06:02:49.530000Z</value>
          <uncertainty>0.75</uncertainty>
        </time>
        <latitude>
          <value>48.8298333</value>
          <uncertainty>0.61</uncertainty>
        </latitude>
        <longitude>
          <value>-122.1786667</value>
          <uncertainty>0.78</uncertainty>
        </longitude>
        <depth>
          <value>2341.0</value>
          <uncertainty>7220.0</uncertainty>
        </depth>
        <depthType>from location</depthType>
        <timeFixed>false</timeFixed>
        <epicenterFixed>false</epicenterFixed>
        <methodID>smi:uw.anss.org/origin/spong</methodID>
        <quality>
          <associatedPhaseCount>72</associatedPhaseCount>
          <usedPhaseCount>27</usedPhaseCount>
          <associatedStationCount>62</associatedStationCount>
          <usedStationCount>0</usedStationCount>
          <standardError>0.32</standardError>
          <azimuthalGap>89.0</azimuthalGap>
        </quality>
        <type>hypocenter</type>
        <evaluationMode>manual</evaluationMode>
        <evaluationStatus>final</evaluationStatus>
        <creationInfo>
          <agencyID>UW</agencyID>
          <creationTime>2012-02-27T16:41:56.000000Z</creationTime>
        </creationInfo>
        <originUncertainty>
          <preferredDescription>horizontal uncertainty</preferredDescription>
          <horizontalUncertainty>990.0</horizontalUncertainty>
        </originUncertainty>
        <arrival publicID="quakeml:uw.anss.org/AssocArO/UW/3824048">
          <pickID>quakeml:uw.anss.org/Arrival/UW/3824048</pickID>
          <phase>P</phase>
          <azimuth>288.9</azimuth>
          <timeResidual>-0.55</timeResidual>
          <creationInfo>
            <agencyID>UW</agencyID>
            <creationTime>2012-02-27T16:41:56.000000Z</creationTime>
          </creationInfo>
        </arrival>
        <arrival publicID="quakeml:uw.anss.org/AssocArO/UW/3824053">
          <pickID>quakeml:uw.anss.org/Arrival/UW/3824053</pickID>
          <phase>S</phase>
          <azimuth>288.9</azimuth>
          <timeResidual>-1.27</timeResidual>
          <creationInfo>
            <agencyID>UW</agencyID>
            <creationTime>2012-02-27T16:41:56.000000Z</creationTime>
          </creationInfo>
        </arrival>
        <arrival publicID="quakeml:uw.anss.org/AssocArO/UW/3824063">
          <pickID>quakeml:uw.anss.org/Arrival/UW/3824063</pickID>
          <phase>P</phase>
          <azimuth>206.6</azimuth>
          <distance>1.32</distance>
          <timeResidual>-0.09</timeResidual>
          <creationInfo>
            <agencyID>UW</agencyID>
            <creationTime>2012-02-27T16:41:56.000000Z</creationTime>
          </creationInfo>
        </arrival>
        <arrival publicID="quakeml:uw.anss.org/AssocArO/UW/3824073">
          <pickID>quakeml:uw.anss.org/Arrival/UW/3824073</pickID>
          <phase>P</phase>
          <azimuth>121.3</azimuth>
          <distance>1.44</distance>
          <timeResidual>0.94</timeResidual>
          <creationInfo>
            <agencyID>UW</agencyID>
            <creationTime>2012-02-27T16:41:56.000000Z</creationTime>
          </creationInfo>
        </arrival>
        <arrival publicID="quakeml:uw.anss.org/AssocArO/UW/3824083">
          <pickID>quakeml:uw.anss.org/Arrival/UW/3824083</pickID>
          <phase>P</phase>
          <azimuth>329.6</azimuth>
          <timeResidual>-0.11</timeResidual>
          <creationInfo>
            <agencyID>UW</agencyID>
            <creationTime>2012-02-27T16:41:56.000000Z</creationTime>
          </creationInfo>
        </arrival>
        <arrival publicID="quakeml:uw.anss.org/AssocArO/UW/3824093">
          <pickID>quakeml:uw.anss.org/Arrival/UW/3824093</pickID>
          <phase>P</phase>
          <azimuth>134.2</azimuth>
          <distance>1.74</distance>
          <timeResidual>0.98</timeResidual>
          <creationInfo>
            <agencyID>UW</agencyID>
            <creationTime>2012-02-27T16:41:56.000000Z</creationTime>
          </creationInfo>
        </arrival>
        <arrival publicID="quakeml:uw.anss.org/AssocArO/UW/3824103">
          <pickID>quakeml:uw.anss.org/Arrival/UW/3824103</pickID>
          <phase>P</phase>
          <azimuth>156.0</azimuth>
          <distance>2.288</distance>
          <timeResidual>-0.04</timeResidual>
          <creationInfo>
            <agencyID>UW</agencyID>
            <creationTime>2012-02-27T16:41:56.000000Z</creationTime>
          </creationInfo>
        </arrival>
        <arrival publicID="quakeml:uw.anss.org/AssocArO/UW/3824128">
          <pickID>quakeml:uw.anss.org/Arrival/UW/3824128</pickID>
          <phase>P</phase>
          <azimuth>207.7</azimuth>
          <distance>1.702</distance>
          <timeResidual>0.94</timeResidual>
          <creationInfo>
            <agencyID>UW</agencyID>
            <creationTime>2012-02-27T16:41:56.000000Z</creationTime>
          </creationInfo>
        </arrival>
        <arrival publicID="quakeml:uw.anss.org/AssocArO/UW/3824133">
          <pickID>quakeml:uw.anss.org/Arrival/UW/3824133</pickID>
          <phase>P</phase>
          <azimuth>185.4</azimuth>
          <distance>2.406</distance>
          <timeResidual>-0.13</timeResidual>
          <creationInfo>
            <agencyID>UW</agencyID>
            <creationTime>2012-02-27T16:41:56.000000Z</creationTime>
          </creationInfo>
        </arrival>
        <arrival publicID="quakeml:uw.anss.org/AssocArO/UW/3824138">
          <pickID>quakeml:uw.anss.org/Arrival/UW/3824138</pickID>
          <phase>P</phase>
          <azimuth>171.1</azimuth>
          <distance>1.983</distance>
          <timeResidual>0.43</timeResidual>
          <creationInfo>
            <agencyID>UW</agencyID>
            <creationTime>2012-02-27T16:41:56.000000Z</creationTime>
          </creationInfo>
        </arrival>
        <arrival publicID="quakeml:uw.anss.org/AssocArO/UW/3824143">
          <pickID>quakeml:uw.anss.org/Arrival/UW/3824143</pickID>
          <phase>P</phase>
          <timeResidual>0.49</timeResidual>
          <creationInfo>
            <agencyID>UW</agencyID>
            <creationTime>2012-02-27T16:41:56.000000Z</creationTime>
          </creationInfo>
        </arrival>
        <arrival publicID="quakeml:uw.anss.org/AssocArO/UW/3824153">
          <pickID>quakeml:uw.anss.org/Arrival/UW/3824153</pickID>
          <phase>S</phase>
          <timeResidual>1.46</timeResidual>
          <creationInfo>
            <agencyID>UW</agencyID>
            <creationTime>2012-02-27T16:41:56.000000Z</creationTime>
          </creationInfo>
        </arrival>
        <arrival publicID="quakeml:uw.anss.org/AssocArO/UW/3824158">
          <pickID>quakeml:uw.anss.org/Arrival/UW/3824158</pickID>
          <phase>P</phase>
          <azimuth>152.1</azimuth>
          <distance>1.908</distance>
          <timeResidual>1.17</timeResidual>
          <creationInfo>
            <agencyID>UW</agencyID>
            <creationTime>2012-02-27T16:41:56.000000Z</creationTime>
          </creationInfo>
        </arrival>
        <arrival publicID="quakeml:uw.anss.org/AssocArO/UW/3824163">
          <pickID>quakeml:uw.anss.org/Arrival/UW/3824163</pickID>
          <phase>P</phase>
          <azimuth>129.6</azimuth>
          <distance>2.273</distance>
          <timeResidual>2.38</timeResidual>
          <creationInfo>
            <agencyID>UW</agencyID>
            <creationTime>2012-02-27T16:41:56.000000Z</creationTime>
          </creationInfo>
        </arrival>
        <arrival publicID="quakeml:uw.anss.org/AssocArO/UW/3824168">
          <pickID>quakeml:uw.anss.org/Arrival/UW/3824168</pickID>
          <phase>P</phase>
          <azimuth>174.6</azimuth>
          <distance>0.4085</distance>
          <timeResidual>-0.49</timeResidual>
          <creationInfo>
            <agencyID>UW</agencyID>
            <creationTime>2012-02-27T16:41:56.000000Z</creationTime>
          </creationInfo>
        </arrival>
        <arrival publicID="quakeml:uw.anss.org/AssocArO/UW/3824173">
          <pickID>quakeml:uw.anss.org/Arrival/UW/3824173</pickID>
          <phase>P</phase>
          <azimuth>170.9</azimuth>
          <timeResidual>0.09</timeResidual>
          <creationInfo>
            <agencyID>UW</agencyID>
            <creationTime>2012-02-27T16:41:56.000000Z</creationTime>
          </creationInfo>
        </arrival>
        <arrival publicID="quakeml:uw.anss.org/AssocArO/UW/3824178">
          <pickID>quakeml:uw.anss.org/Arrival/UW/3824178</pickID>
          <phase>P</phase>
          <timeResidual>-0.81</timeResidual>
          <creationInfo>
            <agencyID>UW</agencyID>
            <creationTime>2012-02-27T16:41:56.000000Z</creationTime>
          </creationInfo>
        </arrival>
        <arrival publicID="quakeml:uw.anss.org/AssocArO/UW/3824183">
          <pickID>quakeml:uw.anss.org/Arrival/UW/3824183</pickID>
          <phase>S</phase>
          <timeResidual>-1.02</timeResidual>
          <creationInfo>
            <agencyID>UW</agencyID>
            <creationTime>2012-02-27T16:41:56.000000Z</creationTime>
          </creationInfo>
        </arrival>
        <arrival publicID="quakeml:uw.anss.org/AssocArO/UW/3824188">
          <pickID>quakeml:uw.anss.org/Arrival/UW/3824188</pickID>
          <phase>P</phase>
          <azimuth>175.8</azimuth>
          <distance>1.892</distance>
          <timeResidual>0.32</timeResidual>
          <creationInfo>
            <agencyID>UW</agencyID>
            <creationTime>2012-02-27T16:41:56.000000Z</creationTime>
          </creationInfo>
        </arrival>
        <arrival publicID="quakeml:uw.anss.org/AssocArO/UW/3824193">
          <pickID>quakeml:uw.anss.org/Arrival/UW/3824193</pickID>
          <phase>P</phase>
          <azimuth>173.1</azimuth>
          <distance>2.095</distance>
          <timeResidual>-0.07</timeResidual>
          <creationInfo>
            <agencyID>UW</agencyID>
            <creationTime>2012-02-27T16:41:56.000000Z</creationTime>
          </creationInfo>
        </arrival>
        <arrival publicID="quakeml:uw.anss.org/AssocArO/UW/3824198">
          <pickID>quakeml:uw.anss.org/Arrival/UW/3824198</pickID>
          <phase>P</phase>
          <timeResidual>-0.03</timeResidual>
          <creationInfo>
            <agencyID>UW</agencyID>
            <creationTime>2012-02-27T16:41:56.000000Z</creationTime>
          </creationInfo>
        </arrival>
        <arrival publicID="quakeml:uw.anss.org/AssocArO/UW/3824203">
          <pickID>quakeml:uw.anss.org/Arrival/UW/3824203</pickID>
          <phase>P</phase>
          <azimuth>130.8</azimuth>
          <distance>0.5829</distance>
          <timeResidual>-0.07</timeResidual>
          <creationInfo>
            <agencyID>UW</agencyID>
            <creationTime>2012-02-27T16:41:56.000000Z</creationTime>
          </creationInfo>
        </arrival>
        <arrival publicID="quakeml:uw.anss.org/AssocArO/UW/3824208">
          <pickID>quakeml:uw.anss.org/Arrival/UW/3824208</pickID>
          <phase>P</phase>
          <azimuth>170.2</azimuth>
          <distance>2.306</distance>
          <timeResidual>0.25</timeResidual>
          <creationInfo>
            <agencyID>UW</agencyID>
            <creationTime>2012-02-27T16:41:56.000000Z</creationTime>
          </creationInfo>
        </arrival>
        <arrival publicID="quakeml:uw.anss.org/AssocArO/UW/3824213">
          <pickID>quakeml:uw.anss.org/Arrival/UW/3824213</pickID>
          <phase>P</phase>
          <azimuth>252.1</azimuth>
          <distance>1.693</distance>
          <timeResidual>0.64</timeResidual>
          <creationInfo>
            <agencyID>UW</agencyID>
            <creationTime>2012-02-27T16:41:56.000000Z</creationTime>
          </creationInfo>
        </arrival>
        <arrival publicID="quakeml:uw.anss.org/AssocArO/UW/3824218">
          <pickID>quakeml:uw.anss.org/Arrival/UW/3824218</pickID>
          <phase>P</phase>
          <azimuth>168.3</azimuth>
          <distance>2.176</distance>
          <timeResidual>0.24</timeResidual>
          <creationInfo>
            <agencyID>UW</agencyID>
            <creationTime>2012-02-27T16:41:56.000000Z</creationTime>
          </creationInfo>
        </arrival>
        <arrival publicID="quakeml:uw.anss.org/AssocArO/UW/3824223">
          <pickID>quakeml:uw.anss.org/Arrival/UW/3824223</pickID>
          <phase>P</phase>
          <azimuth>308.6</azimuth>
          <timeResidual>-0.32</timeResidual>
          <creationInfo>
            <agencyID>UW</agencyID>
            <creationTime>2012-02-27T16:41:56.000000Z</creationTime>
          </creationInfo>
        </arrival>
        <arrival publicID="quakeml:uw.anss.org/AssocArO/UW/3824228">
          <pickID>quakeml:uw.anss.org/Arrival/UW/3824228</pickID>
          <phase>P</phase>
          <azimuth>231.4</azimuth>
          <distance>1.733</distance>
          <timeResidual>0.67</timeResidual>
          <creationInfo>
            <agencyID>UW</agencyID>
            <creationTime>2012-02-27T16:41:56.000000Z</creationTime>
          </creationInfo>
        </arrival>
        <arrival publicID="quakeml:uw.anss.org/AssocArO/UW/3824233">
          <pickID>quakeml:uw.anss.org/Arrival/UW/3824233</pickID>
          <phase>P</phase>
          <azimuth>182.1</azimuth>
          <distance>1.278</distance>
          <timeResidual>0.5</timeResidual>
          <creationInfo>
            <agencyID>UW</agencyID>
            <creationTime>2012-02-27T16:41:56.000000Z</creationTime>
          </creationInfo>
        </arrival>
        <arrival publicID="quakeml:uw.anss.org/AssocArO/UW/3824238">
          <pickID>quakeml:uw.anss.org/Arrival/UW/3824238</pickID>
          <phase>P</phase>
          <azimuth>195.7</azimuth>
          <distance>1.047</distance>
          <timeResidual>0.47</timeResidual>
          <creationInfo>
            <agencyID>UW</agencyID>
            <creationTime>2012-02-27T16:41:56.000000Z</creationTime>
          </creationInfo>
        </arrival>
        <arrival publicID="quakeml:uw.anss.org/AssocArO/UW/3824243">
          <pickID>quakeml:uw.anss.org/Arrival/UW/3824243</pickID>
          <phase>P</phase>
          <azimuth>150.0</azimuth>
          <distance>2.206</distance>
          <timeResidual>-0.24</timeResidual>
          <creationInfo>
            <agencyID>UW</agencyID>
            <creationTime>2012-02-27T16:41:56.000000Z</creationTime>
          </creationInfo>
        </arrival>
        <arrival publicID="quakeml:uw.anss.org/AssocArO/UW/3824248">
          <pickID>quakeml:uw.anss.org/Arrival/UW/3824248</pickID>
          <phase>S</phase>
          <azimuth>184.3</azimuth>
          <timeResidual>3.45</timeResidual>
          <creationInfo>
            <agencyID>UW</agencyID>
            <creationTime>2012-02-27T16:41:56.000000Z</creationTime>
          </creationInfo>
        </arrival>
        <arrival publicID="quakeml:uw.anss.org/AssocArO/UW/3824253">
          <pickID>quakeml:uw.anss.org/Arrival/UW/3824253</pickID>
          <phase>S</phase>
          <azimuth>184.3</azimuth>
          <timeResidual>11.1</timeResidual>
          <creationInfo>
            <agencyID>UW</agencyID>
            <creationTime>2012-02-27T16:41:56.000000Z</creationTime>
          </creationInfo>
        </arrival>
        <arrival publicID="quakeml:uw.anss.org/AssocArO/UW/3824258">
          <pickID>quakeml:uw.anss.org/Arrival/UW/3824258</pickID>
          <phase>P</phase>
          <azimuth>184.3</azimuth>
          <timeResidual>2.0</timeResidual>
          <creationInfo>
            <agencyID>UW</agencyID>
            <creationTime>2012-02-27T16:41:56.000000Z</creationTime>
          </creationInfo>
        </arrival>
        <arrival publicID="quakeml:uw.anss.org/AssocArO/UW/3824263">
          <pickID>quakeml:uw.anss.org/Arrival/UW/3824263</pickID>
          <phase>P</phase>
          <azimuth>169.6</azimuth>
          <timeResidual>0.13</timeResidual>
          <creationInfo>
            <agencyID>UW</agencyID>
            <creationTime>2012-02-27T16:41:56.000000Z</creationTime>
          </creationInfo>
        </arrival>
        <arrival publicID="quakeml:uw.anss.org/AssocArO/UW/3824268">
          <pickID>quakeml:uw.anss.org/Arrival/UW/3824268</pickID>
          <phase>P</phase>
          <azimuth>209.3</azimuth>
          <distance>2.229</distance>
          <timeResidual>-0.39</timeResidual>
          <creationInfo>
            <agencyID>UW</agencyID>
            <creationTime>2012-02-27T16:41:56.000000Z</creationTime>
          </creationInfo>
        </arrival>
        <arrival publicID="quakeml:uw.anss.org/AssocArO/UW/3824273">
          <pickID>quakeml:uw.anss.org/Arrival/UW/3824273</pickID>
          <phase>P</phase>
          <azimuth>205.0</azimuth>
          <distance>0.5591</distance>
          <timeResidual>0.31</timeResidual>
          <creationInfo>
            <agencyID>UW</agencyID>
            <creationTime>2012-02-27T16:41:56.000000Z</creationTime>
          </creationInfo>
        </arrival>
        <arrival publicID="quakeml:uw.anss.org/AssocArO/UW/3824278">
          <pickID>quakeml:uw.anss.org/Arrival/UW/3824278</pickID>
          <phase>P</phase>
          <azimuth>225.6</azimuth>
          <distance>1.438</distance>
          <timeResidual>0.11</timeResidual>
          <creationInfo>
            <agencyID>UW</agencyID>
            <creationTime>2012-02-27T16:41:56.000000Z</creationTime>
          </creationInfo>
        </arrival>
        <arrival publicID="quakeml:uw.anss.org/AssocArO/UW/3824283">
          <pickID>quakeml:uw.anss.org/Arrival/UW/3824283</pickID>
          <phase>P</phase>
          <azimuth>321.0</azimuth>
          <timeResidual>-0.16</timeResidual>
          <creationInfo>
            <agencyID>UW</agencyID>
            <creationTime>2012-02-27T16:41:56.000000Z</creationTime>
          </creationInfo>
        </arrival>
        <arrival publicID="quakeml:uw.anss.org/AssocArO/UW/3824288">
          <pickID>quakeml:uw.anss.org/Arrival/UW/3824288</pickID>
          <phase>S</phase>
          <azimuth>321.0</azimuth>
          <timeResidual>-0.92</timeResidual>
          <creationInfo>
            <agencyID>UW</agencyID>
            <creationTime>2012-02-27T16:41:56.000000Z</creationTime>
          </creationInfo>
        </arrival>
        <arrival publicID="quakeml:uw.anss.org/AssocArO/UW/3824293">
          <pickID>quakeml:uw.anss.org/Arrival/UW/3824293</pickID>
          <phase>P</phase>
          <azimuth>182.6</azimuth>
          <distance>2.528</distance>
          <timeResidual>0.47</timeResidual>
          <creationInfo>
            <agencyID>UW</agencyID>
            <creationTime>2012-02-27T16:41:56.000000Z</creationTime>
          </creationInfo>
        </arrival>
        <arrival publicID="quakeml:uw.anss.org/AssocArO/UW/3824298">
          <pickID>quakeml:uw.anss.org/Arrival/UW/3824298</pickID>
          <phase>P</phase>
          <azimuth>165.2</azimuth>
