<?xml version='1.0' encoding='utf-8'?>
<q:quakeml xmlns="http://quakeml.org/xmlns/bed/1.2" xmlns:q="http://quakeml.org/xmlns/quakeml/1.2" xmlns:ns0="http://anss.org/xmlns/catalog/0.1">
  <eventParameters publicID="smi:local/b399e6e2-d9ad-4735-9257-e6b563e91e49">
    <event publicID="quakeml:uw.anss.org/Event/UW/10257663" ns0:datasource="uw" ns0:dataid="uw10257663" ns0:eventsource="uw" ns0:eventid="10257663">
      <preferredOriginID>quakeml:uw.anss.org/Origin/UW/534608</preferredOriginID>
      <preferredMagnitudeID>quakeml:uw.anss.org/Netmag/UW/447233</preferredMagnitudeID>
      <type>earthquake</type>
      <creationInfo>
        <agencyID>UW</agencyID>
        <creationTime>2012-02-27T16:41:31.000000Z</creationTime>
        <version>3</version>
      </creationInfo>
      <origin publicID="quakeml:uw.anss.org/Origin/UW/534608" ns0:datasource="uw" ns0:dataid="uw10257663" ns0:eventsource="uw" ns0:eventid="10257663">
        <time>
          <value>1990-04-14T05:33:26.600000Z</value>
          <uncertainty>0.01</uncertainty>
        </time>
        <latitude>
          <value>48.845</value>
          <uncertainty>0.05</uncertainty>
        </latitude>
        <longitude>
          <value>-122.1605</value>
          <uncertainty>0.05</uncertainty>
        </longitude>
        <depth>
          <value>11861.0</value>
          <uncertainty>210.0</uncertainty>
        </depth>
        <depthType>operator assigned</depthType>
        <timeFixed>false</timeFixed>
        <epicenterFixed>false</epicenterFixed>
        <methodID>smi:uw.anss.org/origin/spong</methodID>
        <quality>
          <associatedPhaseCount>128</associatedPhaseCount>
          <usedPhaseCount>37</usedPhaseCount>
          <associatedStationCount>116</associatedStationCount>
          <usedStationCount>0</usedStationCount>
          <standardError>0.21</standardError>
          <azimuthalGap>97.0</azimuthalGap>
        </quality>
        <type>hypocenter</type>
        <evaluationMode>manual</evaluationMode>
        <evaluationStatus>final</evaluationStatus>
        <creationInfo>
          <agencyID>UW</agencyID>
          <creationTime>2012-02-27T16:41:31.000000Z</creationTime>
        </creationInfo>
        <originUncertainty>
          <preferredDescription>horizontal uncertainty</preferredDescription>
          <horizontalUncertainty>71.0</horizontalUncertainty>
        </originUncertainty>
        <arrival publicID="quakeml:uw.anss.org/AssocArO/UW/3818918">
          <pickID>quakeml:uw.anss.org/Arrival/UW/3818918</pickID>
          <phase>P</phase>
          <azimuth>288.0</azimuth>
          <timeResidual>-0.33</timeResidual>
          <creationInfo>
            <agencyID>UW</agencyID>
            <creationTime>2012-02-27T16:41:31.000000Z</creationTime>
          </creationInfo>
        </arrival>
        <arrival publicID="quakeml:uw.anss.org/AssocArO/UW/3818923">
          <pickID>quakeml:uw.anss.org/Arrival/UW/3818923</pickID>
          <phase>S</phase>
          <azimuth>288.0</azimuth>
          <timeResidual>-0.76</timeResidual>
          <creationInfo>
            <agencyID>UW</agencyID>
            <creationTime>2012-02-27T16:41:31.000000Z</creationTime>
          </creationInfo>
        </arrival>
        <arrival publicID="quakeml:uw.anss.org/AssocArO/UW/3818928">
          <pickID>quakeml:uw.anss.org/Arrival/UW/3818928</pickID>
          <phase>P</phase>
          <azimuth>156.5</azimuth>
          <distance>2.297</distance>
          <timeResidual>0.67</timeResidual>
          <creationInfo>
            <agencyID>UW</agencyID>
            <creationTime>2012-02-27T16:41:31.000000Z</creationTime>
          </creationInfo>
        </arrival>
        <arrival publicID="quakeml:uw.anss.org/AssocArO/UW/3818933">
          <pickID>quakeml:uw.anss.org/Arrival/UW/3818933</pickID>
          <phase>P</phase>
          <azimuth>150.3</azimuth>
          <distance>3.386</distance>
          <timeResidual>0.53</timeResidual>
          <creationInfo>
            <agencyID>UW</agencyID>
            <creationTime>2012-02-27T16:41:31.000000Z</creationTime>
          </creationInfo>
        </arrival>
        <arrival publicID="quakeml:uw.anss.org/AssocArO/UW/3818938">
          <pickID>quakeml:uw.anss.org/Arrival/UW/3818938</pickID>
          <phase>P</phase>
          <azimuth>197.3</azimuth>
          <distance>2.479</distance>
          <timeResidual>0.62</timeResidual>
          <creationInfo>
            <agencyID>UW</agencyID>
            <creationTime>2012-02-27T16:41:31.000000Z</creationTime>
          </creationInfo>
        </arrival>
        <arrival publicID="quakeml:uw.anss.org/AssocArO/UW/3818943">
          <pickID>quakeml:uw.anss.org/Arrival/UW/3818943</pickID>
          <phase>P</phase>
          <azimuth>170.6</azimuth>
          <distance>2.319</distance>
          <timeResidual>1.23</timeResidual>
          <creationInfo>
            <agencyID>UW</agencyID>
            <creationTime>2012-02-27T16:41:31.000000Z</creationTime>
          </creationInfo>
        </arrival>
        <arrival publicID="quakeml:uw.anss.org/AssocArO/UW/3818948">
          <pickID>quakeml:uw.anss.org/Arrival/UW/3818948</pickID>
          <phase>P</phase>
          <azimuth>130.1</azimuth>
          <distance>2.274</distance>
          <timeResidual>0.16</timeResidual>
          <creationInfo>
            <agencyID>UW</agencyID>
            <creationTime>2012-02-27T16:41:31.000000Z</creationTime>
          </creationInfo>
        </arrival>
        <arrival publicID="quakeml:uw.anss.org/AssocArO/UW/3818953">
          <pickID>quakeml:uw.anss.org/Arrival/UW/3818953</pickID>
          <phase>P</phase>
          <azimuth>171.4</azimuth>
          <timeResidual>0.46</timeResidual>
          <creationInfo>
            <agencyID>UW</agencyID>
            <creationTime>2012-02-27T16:41:31.000000Z</creationTime>
          </creationInfo>
        </arrival>
        <arrival publicID="quakeml:uw.anss.org/AssocArO/UW/3818958">
          <pickID>quakeml:uw.anss.org/Arrival/UW/3818958</pickID>
          <phase>P</phase>
          <azimuth>196.2</azimuth>
          <distance>3.337</distance>
          <timeResidual>-0.34</timeResidual>
          <creationInfo>
            <agencyID>UW</agencyID>
            <creationTime>2012-02-27T16:41:31.000000Z</creationTime>
          </creationInfo>
        </arrival>
        <arrival publicID="quakeml:uw.anss.org/AssocArO/UW/3818963">
          <pickID>quakeml:uw.anss.org/Arrival/UW/3818963</pickID>
          <phase>P</phase>
          <azimuth>199.7</azimuth>
          <distance>1.985</distance>
          <timeResidual>-0.03</timeResidual>
          <creationInfo>
            <agencyID>UW</agencyID>
            <creationTime>2012-02-27T16:41:31.000000Z</creationTime>
          </creationInfo>
        </arrival>
        <arrival publicID="quakeml:uw.anss.org/AssocArO/UW/3818968">
          <pickID>quakeml:uw.anss.org/Arrival/UW/3818968</pickID>
          <phase>P</phase>
          <azimuth>217.5</azimuth>
          <distance>1.902</distance>
          <timeResidual>0.42</timeResidual>
          <creationInfo>
            <agencyID>UW</agencyID>
            <creationTime>2012-02-27T16:41:31.000000Z</creationTime>
          </creationInfo>
        </arrival>
        <arrival publicID="quakeml:uw.anss.org/AssocArO/UW/3818973">
          <pickID>quakeml:uw.anss.org/Arrival/UW/3818973</pickID>
          <phase>P</phase>
          <azimuth>146.7</azimuth>
          <distance>3.122</distance>
          <timeResidual>0.66</timeResidual>
          <creationInfo>
            <agencyID>UW</agencyID>
            <creationTime>2012-02-27T16:41:31.000000Z</creationTime>
          </creationInfo>
        </arrival>
        <arrival publicID="quakeml:uw.anss.org/AssocArO/UW/3818978">
          <pickID>quakeml:uw.anss.org/Arrival/UW/3818978</pickID>
          <phase>P</phase>
          <azimuth>182.6</azimuth>
          <distance>1.294</distance>
          <timeResidual>0.72</timeResidual>
          <creationInfo>
            <agencyID>UW</agencyID>
            <creationTime>2012-02-27T16:41:31.000000Z</creationTime>
          </creationInfo>
        </arrival>
        <arrival publicID="quakeml:uw.anss.org/AssocArO/UW/3818983">
          <pickID>quakeml:uw.anss.org/Arrival/UW/3818983</pickID>
          <phase>P</phase>
          <azimuth>180.3</azimuth>
          <distance>2.672</distance>
          <timeResidual>1.38</timeResidual>
          <creationInfo>
            <agencyID>UW</agencyID>
            <creationTime>2012-02-27T16:41:31.000000Z</creationTime>
          </creationInfo>
        </arrival>
        <arrival publicID="quakeml:uw.anss.org/AssocArO/UW/3818988">
          <pickID>quakeml:uw.anss.org/Arrival/UW/3818988</pickID>
          <phase>P</phase>
          <azimuth>173.9</azimuth>
          <timeResidual>0.62</timeResidual>
          <creationInfo>
            <agencyID>UW</agencyID>
            <creationTime>2012-02-27T16:41:31.000000Z</creationTime>
          </creationInfo>
        </arrival>
        <arrival publicID="quakeml:uw.anss.org/AssocArO/UW/3818993">
          <pickID>quakeml:uw.anss.org/Arrival/UW/3818993</pickID>
          <phase>S</phase>
          <azimuth>173.9</azimuth>
          <timeResidual>0.63</timeResidual>
          <creationInfo>
            <agencyID>UW</agencyID>
            <creationTime>2012-02-27T16:41:31.000000Z</creationTime>
          </creationInfo>
        </arrival>
        <arrival publicID="quakeml:uw.anss.org/AssocArO/UW/3818998">
          <pickID>quakeml:uw.anss.org/Arrival/UW/3818998</pickID>
          <phase>P</phase>
          <azimuth>188.5</azimuth>
          <distance>2.726</distance>
          <timeResidual>1.13</timeResidual>
          <creationInfo>
            <agencyID>UW</agencyID>
            <creationTime>2012-02-27T16:41:31.000000Z</creationTime>
          </creationInfo>
        </arrival>
        <arrival publicID="quakeml:uw.anss.org/AssocArO/UW/3819003">
          <pickID>quakeml:uw.anss.org/Arrival/UW/3819003</pickID>
          <phase>P</phase>
          <azimuth>139.5</azimuth>
          <distance>2.969</distance>
          <timeResidual>0.02</timeResidual>
          <creationInfo>
            <agencyID>UW</agencyID>
            <creationTime>2012-02-27T16:41:31.000000Z</creationTime>
          </creationInfo>
        </arrival>
        <arrival publicID="quakeml:uw.anss.org/AssocArO/UW/3819008">
          <pickID>quakeml:uw.anss.org/Arrival/UW/3819008</pickID>
          <phase>P</phase>
          <azimuth>205.4</azimuth>
          <distance>0.5779</distance>
          <timeResidual>-0.13</timeResidual>
          <creationInfo>
            <agencyID>UW</agencyID>
            <creationTime>2012-02-27T16:41:31.000000Z</creationTime>
          </creationInfo>
        </arrival>
        <arrival publicID="quakeml:uw.anss.org/AssocArO/UW/3819013">
          <pickID>quakeml:uw.anss.org/Arrival/UW/3819013</pickID>
          <phase>P</phase>
          <azimuth>120.9</azimuth>
          <distance>2.169</distance>
          <timeResidual>0.67</timeResidual>
          <creationInfo>
            <agencyID>UW</agencyID>
            <creationTime>2012-02-27T16:41:31.000000Z</creationTime>
          </creationInfo>
        </arrival>
        <arrival publicID="quakeml:uw.anss.org/AssocArO/UW/3819018">
          <pickID>quakeml:uw.anss.org/Arrival/UW/3819018</pickID>
          <phase>P</phase>
          <timeResidual>1.67</timeResidual>
          <creationInfo>
            <agencyID>UW</agencyID>
            <creationTime>2012-02-27T16:41:31.000000Z</creationTime>
          </creationInfo>
        </arrival>
        <arrival publicID="quakeml:uw.anss.org/AssocArO/UW/3819023">
          <pickID>quakeml:uw.anss.org/Arrival/UW/3819023</pickID>
          <phase>P</phase>
          <azimuth>239.3</azimuth>
          <distance>1.717</distance>
          <timeResidual>0.18</timeResidual>
          <creationInfo>
            <agencyID>UW</agencyID>
            <creationTime>2012-02-27T16:41:31.000000Z</creationTime>
          </creationInfo>
        </arrival>
        <arrival publicID="quakeml:uw.anss.org/AssocArO/UW/3819028">
          <pickID>quakeml:uw.anss.org/Arrival/UW/3819028</pickID>
          <phase>P</phase>
          <azimuth>178.3</azimuth>
          <distance>2.731</distance>
          <timeResidual>1.24</timeResidual>
          <creationInfo>
            <agencyID>UW</agencyID>
            <creationTime>2012-02-27T16:41:31.000000Z</creationTime>
          </creationInfo>
        </arrival>
        <arrival publicID="quakeml:uw.anss.org/AssocArO/UW/3819033">
          <pickID>quakeml:uw.anss.org/Arrival/UW/3819033</pickID>
          <phase>P</phase>
          <azimuth>142.2</azimuth>
          <distance>2.549</distance>
          <timeResidual>0.42</timeResidual>
          <creationInfo>
            <agencyID>UW</agencyID>
            <creationTime>2012-02-27T16:41:31.000000Z</creationTime>
          </creationInfo>
        </arrival>
        <arrival publicID="quakeml:uw.anss.org/AssocArO/UW/3819038">
          <pickID>quakeml:uw.anss.org/Arrival/UW/3819038</pickID>
          <phase>P</phase>
          <timeResidual>0.1</timeResidual>
          <creationInfo>
            <agencyID>UW</agencyID>
            <creationTime>2012-02-27T16:41:31.000000Z</creationTime>
          </creationInfo>
        </arrival>
        <arrival publicID="quakeml:uw.anss.org/AssocArO/UW/3819043">
          <pickID>quakeml:uw.anss.org/Arrival/UW/3819043</pickID>
          <phase>P</phase>
          <azimuth>180.4</azimuth>
          <distance>2.637</distance>
          <timeResidual>0.98</timeResidual>
          <creationInfo>
            <agencyID>UW</agencyID>
            <creationTime>2012-02-27T16:41:31.000000Z</creationTime>
          </creationInfo>
        </arrival>
        <arrival publicID="quakeml:uw.anss.org/AssocArO/UW/3819048">
          <pickID>quakeml:uw.anss.org/Arrival/UW/3819048</pickID>
          <phase>P</phase>
          <timeResidual>-0.29</timeResidual>
          <creationInfo>
            <agencyID>UW</agencyID>
            <creationTime>2012-02-27T16:41:31.000000Z</creationTime>
          </creationInfo>
        </arrival>
        <arrival publicID="quakeml:uw.anss.org/AssocArO/UW/3819053">
          <pickID>quakeml:uw.anss.org/Arrival/UW/3819053</pickID>
          <phase>P</phase>
          <azimuth>188.9</azimuth>
          <distance>2.214</distance>
          <timeResidual>0.1</timeResidual>
          <creationInfo>
            <agencyID>UW</agencyID>
            <creationTime>2012-02-27T16:41:31.000000Z</creationTime>
          </creationInfo>
        </arrival>
        <arrival publicID="quakeml:uw.anss.org/AssocArO/UW/3819058">
          <pickID>quakeml:uw.anss.org/Arrival/UW/3819058</pickID>
          <phase>P</phase>
          <azimuth>206.8</azimuth>
          <distance>1.339</distance>
          <timeResidual>-0.02</timeResidual>
          <creationInfo>
            <agencyID>UW</agencyID>
            <creationTime>2012-02-27T16:41:31.000000Z</creationTime>
          </creationInfo>
        </arrival>
        <arrival publicID="quakeml:uw.anss.org/AssocArO/UW/3819063">
          <pickID>quakeml:uw.anss.org/Arrival/UW/3819063</pickID>
          <phase>P</phase>
          <azimuth>185.7</azimuth>
          <distance>2.423</distance>
          <timeResidual>0.83</timeResidual>
          <creationInfo>
            <agencyID>UW</agencyID>
            <creationTime>2012-02-27T16:41:31.000000Z</creationTime>
          </creationInfo>
        </arrival>
        <arrival publicID="quakeml:uw.anss.org/AssocArO/UW/3819068">
          <pickID>quakeml:uw.anss.org/Arrival/UW/3819068</pickID>
          <phase>P</phase>
          <azimuth>173.9</azimuth>
          <distance>3.128</distance>
          <timeResidual>1.25</timeResidual>
          <creationInfo>
            <agencyID>UW</agencyID>
            <creationTime>2012-02-27T16:41:31.000000Z</creationTime>
          </creationInfo>
        </arrival>
        <arrival publicID="quakeml:uw.anss.org/AssocArO/UW/3819073">
          <pickID>quakeml:uw.anss.org/Arrival/UW/3819073</pickID>
          <phase>P</phase>
          <azimuth>140.0</azimuth>
          <distance>2.894</distance>
          <timeResidual>-0.24</timeResidual>
          <creationInfo>
            <agencyID>UW</agencyID>
            <creationTime>2012-02-27T16:41:31.000000Z</creationTime>
          </creationInfo>
        </arrival>
        <arrival publicID="quakeml:uw.anss.org/AssocArO/UW/3819078">
          <pickID>quakeml:uw.anss.org/Arrival/UW/3819078</pickID>
          <phase>P</phase>
          <azimuth>172.3</azimuth>
          <distance>2.948</distance>
          <timeResidual>1.54</timeResidual>
          <creationInfo>
            <agencyID>UW</agencyID>
            <creationTime>2012-02-27T16:41:31.000000Z</creationTime>
          </creationInfo>
        </arrival>
        <arrival publicID="quakeml:uw.anss.org/AssocArO/UW/3819083">
          <pickID>quakeml:uw.anss.org/Arrival/UW/3819083</pickID>
          <phase>P</phase>
          <timeResidual>0.24</timeResidual>
          <creationInfo>
            <agencyID>UW</agencyID>
            <creationTime>2012-02-27T16:41:31.000000Z</creationTime>
          </creationInfo>
        </arrival>
        <arrival publicID="quakeml:uw.anss.org/AssocArO/UW/3819088">
          <pickID>quakeml:uw.anss.org/Arrival/UW/3819088</pickID>
          <phase>P</phase>
          <azimuth>136.3</azimuth>
          <distance>2.752</distance>
          <timeResidual>-0.06</timeResidual>
          <creationInfo>
            <agencyID>UW</agencyID>
            <creationTime>2012-02-27T16:41:31.000000Z</creationTime>
          </creationInfo>
        </arrival>
        <arrival publicID="quakeml:uw.anss.org/AssocArO/UW/3819093">
          <pickID>quakeml:uw.anss.org/Arrival/UW/3819093</pickID>
          <phase>P</phase>
          <azimuth>176.4</azimuth>
          <distance>0.4227</distance>
          <timeResidual>-0.72</timeResidual>
          <creationInfo>
            <agencyID>UW</agencyID>
            <creationTime>2012-02-27T16:41:31.000000Z</creationTime>
          </creationInfo>
        </arrival>
        <arrival publicID="quakeml:uw.anss.org/AssocArO/UW/3819098">
          <pickID>quakeml:uw.anss.org/Arrival/UW/3819098</pickID>
          <phase>P</phase>
          <azimuth>182.4</azimuth>
          <distance>2.18</distance>
          <timeResidual>0.47</timeResidual>
          <creationInfo>
            <agencyID>UW</agencyID>
            <creationTime>2012-02-27T16:41:31.000000Z</creationTime>
          </creationInfo>
        </arrival>
        <arrival publicID="quakeml:uw.anss.org/AssocArO/UW/3819103">
          <pickID>quakeml:uw.anss.org/Arrival/UW/3819103</pickID>
          <phase>P</phase>
          <azimuth>178.5</azimuth>
          <distance>3.309</distance>
          <timeResidual>0.9</timeResidual>
          <creationInfo>
            <agencyID>UW</agencyID>
            <creationTime>2012-02-27T16:41:31.000000Z</creationTime>
          </creationInfo>
        </arrival>
        <arrival publicID="quakeml:uw.anss.org/AssocArO/UW/3819108">
          <pickID>quakeml:uw.anss.org/Arrival/UW/3819108</pickID>
          <phase>P</phase>
          <azimuth>174.3</azimuth>
          <distance>3.399</distance>
          <timeResidual>1.46</timeResidual>
          <creationInfo>
            <agencyID>UW</agencyID>
            <creationTime>2012-02-27T16:41:31.000000Z</creationTime>
          </creationInfo>
        </arrival>
        <arrival publicID="quakeml:uw.anss.org/AssocArO/UW/3819113">
          <pickID>quakeml:uw.anss.org/Arrival/UW/3819113</pickID>
          <phase>P</phase>
          <azimuth>251.7</azimuth>
          <distance>1.709</distance>
          <timeResidual>-0.69</timeResidual>
          <creationInfo>
            <agencyID>UW</agencyID>
