<?xml version='1.0' encoding='utf-8'?>
<q:quakeml xmlns="http://quakeml.org/xmlns/bed/1.2" xmlns:q="http://quakeml.org/xmlns/quakeml/1.2" xmlns:ns0="http://anss.org/xmlns/catalog/0.1">
  <eventParameters publicID="smi:local/2e08cda1-c9d2-4fbd-a2e1-25e50d75d76a">
    <event publicID="quakeml:uw.anss.org/Event/UW/10268273" ns0:datasource="uw" ns0:dataid="uw10268273" ns0:eventsource="uw" ns0:eventid="10268273">
      <preferredOriginID>quakeml:uw.anss.org/Origin/UW/545218</preferredOriginID>
      <preferredMagnitudeID>quakeml:uw.anss.org/Netmag/UW/456878</preferredMagnitudeID>
      <type>earthquake</type>
      <creationInfo>
        <agencyID>UW</agencyID>
        <creationTime>2012-02-27T17:05:20.000000Z</creationTime>
        <version>3</version>
      </creationInfo>
      <origin publicID="quakeml:uw.anss.org/Origin/UW/545218" ns0:datasource="uw" ns0:dataid="uw10268273" ns0:eventsource="uw" ns0:eventid="10268273">
        <time>
          <value>1990-11-22T14:44:58.800000Z</value>
          <uncertainty>0.03</uncertainty>
        </time>
        <latitude>
          <value>48.6835</value>
          <uncertainty>0.08</uncertainty>
        </latitude>
        <longitude>
          <value>-121.9183333</value>
          <uncertainty>0.14</uncertainty>
        </longitude>
        <depth>
          <value>-872.0</value>
          <uncertainty>400.0</uncertainty>
        </depth>
        <depthType>operator assigned</depthType>
        <timeFixed>false</timeFixed>
        <epicenterFixed>false</epicenterFixed>
        <methodID>smi:uw.anss.org/origin/spong</methodID>
        <quality>
          <associatedPhaseCount>64</associatedPhaseCount>
          <usedPhaseCount>16</usedPhaseCount>
          <associatedStationCount>46</associatedStationCount>
          <usedStationCount>0</usedStationCount>
          <standardError>0.31</standardError>
          <azimuthalGap>124.0</azimuthalGap>
        </quality>
        <type>hypocenter</type>
        <evaluationMode>manual</evaluationMode>
        <evaluationStatus>final</evaluationStatus>
        <creationInfo>
          <agencyID>UW</agencyID>
          <creationTime>2012-02-27T17:05:20.000000Z</creationTime>
        </creationInfo>
        <originUncertainty>
          <preferredDescription>horizontal uncertainty</preferredDescription>
          <horizontalUncertainty>161.0</horizontalUncertainty>
        </originUncertainty>
        <arrival publicID="quakeml:uw.anss.org/AssocArO/UW/4021298">
          <pickID>quakeml:uw.anss.org/Arrival/UW/4021298</pickID>
          <phase>P</phase>
          <azimuth>216.7</azimuth>
          <distance>1.286</distance>
          <timeResidual>-0.18</timeResidual>
          <creationInfo>
            <agencyID>UW</agencyID>
            <creationTime>2012-02-27T17:05:20.000000Z</creationTime>
          </creationInfo>
        </arrival>
        <arrival publicID="quakeml:uw.anss.org/AssocArO/UW/4021303">
          <pickID>quakeml:uw.anss.org/Arrival/UW/4021303</pickID>
          <phase>S</phase>
          <azimuth>216.7</azimuth>
          <distance>1.286</distance>
          <timeResidual>-0.01</timeResidual>
          <creationInfo>
            <agencyID>UW</agencyID>
            <creationTime>2012-02-27T17:05:20.000000Z</creationTime>
          </creationInfo>
        </arrival>
        <arrival publicID="quakeml:uw.anss.org/AssocArO/UW/4021308">
          <pickID>quakeml:uw.anss.org/Arrival/UW/4021308</pickID>
          <phase>P</phase>
          <azimuth>158.9</azimuth>
          <distance>2.087</distance>
          <timeResidual>0.9</timeResidual>
          <creationInfo>
            <agencyID>UW</agencyID>
            <creationTime>2012-02-27T17:05:20.000000Z</creationTime>
          </creationInfo>
        </arrival>
        <arrival publicID="quakeml:uw.anss.org/AssocArO/UW/4021313">
          <pickID>quakeml:uw.anss.org/Arrival/UW/4021313</pickID>
          <phase>P</phase>
          <azimuth>119.8</azimuth>
          <distance>1.217</distance>
          <timeResidual>0.89</timeResidual>
          <creationInfo>
            <agencyID>UW</agencyID>
            <creationTime>2012-02-27T17:05:20.000000Z</creationTime>
          </creationInfo>
        </arrival>
        <arrival publicID="quakeml:uw.anss.org/AssocArO/UW/4021318">
          <pickID>quakeml:uw.anss.org/Arrival/UW/4021318</pickID>
          <phase>S</phase>
          <azimuth>119.8</azimuth>
          <distance>1.217</distance>
          <timeResidual>0.29</timeResidual>
          <creationInfo>
            <agencyID>UW</agencyID>
            <creationTime>2012-02-27T17:05:20.000000Z</creationTime>
          </creationInfo>
        </arrival>
        <arrival publicID="quakeml:uw.anss.org/AssocArO/UW/4021323">
          <pickID>quakeml:uw.anss.org/Arrival/UW/4021323</pickID>
          <phase>P</phase>
          <azimuth>174.3</azimuth>
          <distance>2.137</distance>
          <timeResidual>0.48</timeResidual>
          <creationInfo>
            <agencyID>UW</agencyID>
            <creationTime>2012-02-27T17:05:20.000000Z</creationTime>
          </creationInfo>
        </arrival>
        <arrival publicID="quakeml:uw.anss.org/AssocArO/UW/4021328">
          <pickID>quakeml:uw.anss.org/Arrival/UW/4021328</pickID>
          <phase>P</phase>
          <azimuth>135.0</azimuth>
          <distance>1.515</distance>
          <timeResidual>1.12</timeResidual>
          <creationInfo>
            <agencyID>UW</agencyID>
            <creationTime>2012-02-27T17:05:20.000000Z</creationTime>
          </creationInfo>
        </arrival>
        <arrival publicID="quakeml:uw.anss.org/AssocArO/UW/4021333">
          <pickID>quakeml:uw.anss.org/Arrival/UW/4021333</pickID>
          <phase>S</phase>
          <azimuth>135.0</azimuth>
          <distance>1.515</distance>
          <timeResidual>1.33</timeResidual>
          <creationInfo>
            <agencyID>UW</agencyID>
            <creationTime>2012-02-27T17:05:20.000000Z</creationTime>
          </creationInfo>
        </arrival>
        <arrival publicID="quakeml:uw.anss.org/AssocArO/UW/4021338">
          <pickID>quakeml:uw.anss.org/Arrival/UW/4021338</pickID>
          <phase>P</phase>
          <azimuth>178.4</azimuth>
          <timeResidual>0.54</timeResidual>
          <creationInfo>
            <agencyID>UW</agencyID>
            <creationTime>2012-02-27T17:05:20.000000Z</creationTime>
          </creationInfo>
        </arrival>
        <arrival publicID="quakeml:uw.anss.org/AssocArO/UW/4021343">
          <pickID>quakeml:uw.anss.org/Arrival/UW/4021343</pickID>
          <phase>S</phase>
          <azimuth>178.4</azimuth>
          <timeResidual>-0.34</timeResidual>
          <creationInfo>
            <agencyID>UW</agencyID>
            <creationTime>2012-02-27T17:05:20.000000Z</creationTime>
          </creationInfo>
        </arrival>
        <arrival publicID="quakeml:uw.anss.org/AssocArO/UW/4021348">
          <pickID>quakeml:uw.anss.org/Arrival/UW/4021348</pickID>
          <phase>P</phase>
          <azimuth>190.2</azimuth>
          <distance>2.285</distance>
          <timeResidual>0.03</timeResidual>
          <creationInfo>
            <agencyID>UW</agencyID>
            <creationTime>2012-02-27T17:05:20.000000Z</creationTime>
          </creationInfo>
        </arrival>
        <arrival publicID="quakeml:uw.anss.org/AssocArO/UW/4021353">
          <pickID>quakeml:uw.anss.org/Arrival/UW/4021353</pickID>
          <phase>S</phase>
          <azimuth>190.2</azimuth>
          <distance>2.285</distance>
          <timeResidual>0.15</timeResidual>
          <creationInfo>
            <agencyID>UW</agencyID>
            <creationTime>2012-02-27T17:05:20.000000Z</creationTime>
          </creationInfo>
        </arrival>
        <arrival publicID="quakeml:uw.anss.org/AssocArO/UW/4021358">
          <pickID>quakeml:uw.anss.org/Arrival/UW/4021358</pickID>
          <phase>P</phase>
          <azimuth>135.4</azimuth>
          <distance>2.409</distance>
          <timeResidual>3.17</timeResidual>
          <creationInfo>
            <agencyID>UW</agencyID>
            <creationTime>2012-02-27T17:05:20.000000Z</creationTime>
          </creationInfo>
        </arrival>
        <arrival publicID="quakeml:uw.anss.org/AssocArO/UW/4021363">
          <pickID>quakeml:uw.anss.org/Arrival/UW/4021363</pickID>
          <phase>P</phase>
          <azimuth>136.6</azimuth>
          <distance>2.524</distance>
          <timeResidual>3.64</timeResidual>
          <creationInfo>
            <agencyID>UW</agencyID>
            <creationTime>2012-02-27T17:05:20.000000Z</creationTime>
          </creationInfo>
        </arrival>
        <arrival publicID="quakeml:uw.anss.org/AssocArO/UW/4021368">
          <pickID>quakeml:uw.anss.org/Arrival/UW/4021368</pickID>
          <phase>P</phase>
          <azimuth>207.3</azimuth>
          <distance>0.2927</distance>
          <timeResidual>-0.72</timeResidual>
          <creationInfo>
            <agencyID>UW</agencyID>
            <creationTime>2012-02-27T17:05:20.000000Z</creationTime>
          </creationInfo>
        </arrival>
        <arrival publicID="quakeml:uw.anss.org/AssocArO/UW/4021373">
          <pickID>quakeml:uw.anss.org/Arrival/UW/4021373</pickID>
          <phase>S</phase>
          <azimuth>207.3</azimuth>
          <distance>0.2927</distance>
          <timeResidual>-1.55</timeResidual>
          <creationInfo>
            <agencyID>UW</agencyID>
            <creationTime>2012-02-27T17:05:20.000000Z</creationTime>
          </creationInfo>
        </arrival>
        <arrival publicID="quakeml:uw.anss.org/AssocArO/UW/4021378">
          <pickID>quakeml:uw.anss.org/Arrival/UW/4021378</pickID>
          <phase>P</phase>
          <azimuth>184.9</azimuth>
          <distance>2.23</distance>
          <timeResidual>0.37</timeResidual>
          <creationInfo>
            <agencyID>UW</agencyID>
            <creationTime>2012-02-27T17:05:20.000000Z</creationTime>
          </creationInfo>
        </arrival>
        <arrival publicID="quakeml:uw.anss.org/AssocArO/UW/4021383">
          <pickID>quakeml:uw.anss.org/Arrival/UW/4021383</pickID>
          <phase>P</phase>
          <azimuth>176.8</azimuth>
          <timeResidual>0.29</timeResidual>
          <creationInfo>
            <agencyID>UW</agencyID>
            <creationTime>2012-02-27T17:05:20.000000Z</creationTime>
          </creationInfo>
        </arrival>
        <arrival publicID="quakeml:uw.anss.org/AssocArO/UW/4021388">
          <pickID>quakeml:uw.anss.org/Arrival/UW/4021388</pickID>
          <phase>P</phase>
          <azimuth>177.8</azimuth>
          <distance>1.935</distance>
          <timeResidual>0.12</timeResidual>
          <creationInfo>
            <agencyID>UW</agencyID>
            <creationTime>2012-02-27T17:05:20.000000Z</creationTime>
          </creationInfo>
        </arrival>
        <arrival publicID="quakeml:uw.anss.org/AssocArO/UW/4021393">
          <pickID>quakeml:uw.anss.org/Arrival/UW/4021393</pickID>
          <phase>S</phase>
          <azimuth>177.8</azimuth>
          <distance>1.935</distance>
          <timeResidual>-0.66</timeResidual>
          <creationInfo>
            <agencyID>UW</agencyID>
            <creationTime>2012-02-27T17:05:20.000000Z</creationTime>
          </creationInfo>
        </arrival>
        <arrival publicID="quakeml:uw.anss.org/AssocArO/UW/4021398">
          <pickID>quakeml:uw.anss.org/Arrival/UW/4021398</pickID>
          <phase>P</phase>
          <azimuth>176.5</azimuth>
          <distance>1.227</distance>
          <timeResidual>0.49</timeResidual>
          <creationInfo>
            <agencyID>UW</agencyID>
            <creationTime>2012-02-27T17:05:20.000000Z</creationTime>
          </creationInfo>
        </arrival>
        <arrival publicID="quakeml:uw.anss.org/AssocArO/UW/4021403">
          <pickID>quakeml:uw.anss.org/Arrival/UW/4021403</pickID>
          <phase>P</phase>
          <azimuth>131.2</azimuth>
          <distance>0.3568</distance>
          <timeResidual>-0.08</timeResidual>
          <creationInfo>
            <agencyID>UW</agencyID>
            <creationTime>2012-02-27T17:05:20.000000Z</creationTime>
          </creationInfo>
        </arrival>
        <arrival publicID="quakeml:uw.anss.org/AssocArO/UW/4021408">
          <pickID>quakeml:uw.anss.org/Arrival/UW/4021408</pickID>
          <phase>S</phase>
          <azimuth>131.2</azimuth>
          <distance>0.3568</distance>
          <timeResidual>0.08</timeResidual>
          <creationInfo>
            <agencyID>UW</agencyID>
            <creationTime>2012-02-27T17:05:20.000000Z</creationTime>
          </creationInfo>
        </arrival>
        <arrival publicID="quakeml:uw.anss.org/AssocArO/UW/4021413">
          <pickID>quakeml:uw.anss.org/Arrival/UW/4021413</pickID>
          <phase>P</phase>
          <azimuth>172.5</azimuth>
          <distance>2.003</distance>
          <timeResidual>0.68</timeResidual>
          <creationInfo>
            <agencyID>UW</agencyID>
            <creationTime>2012-02-27T17:05:20.000000Z</creationTime>
          </creationInfo>
        </arrival>
        <arrival publicID="quakeml:uw.anss.org/AssocArO/UW/4021418">
          <pickID>quakeml:uw.anss.org/Arrival/UW/4021418</pickID>
          <phase>P</phase>
          <azimuth>191.1</azimuth>
          <distance>1.152</distance>
          <timeResidual>0.61</timeResidual>
          <creationInfo>
            <agencyID>UW</agencyID>
            <creationTime>2012-02-27T17:05:20.000000Z</creationTime>
          </creationInfo>
        </arrival>
        <arrival publicID="quakeml:uw.anss.org/AssocArO/UW/4021423">
          <pickID>quakeml:uw.anss.org/Arrival/UW/4021423</pickID>
          <phase>P</phase>
          <azimuth>208.1</azimuth>
          <distance>0.9755</distance>
          <timeResidual>0.37</timeResidual>
          <creationInfo>
            <agencyID>UW</agencyID>
            <creationTime>2012-02-27T17:05:20.000000Z</creationTime>
          </creationInfo>
        </arrival>
        <arrival publicID="quakeml:uw.anss.org/AssocArO/UW/4021428">
          <pickID>quakeml:uw.anss.org/Arrival/UW/4021428</pickID>
          <phase>S</phase>
          <azimuth>208.1</azimuth>
          <distance>0.9755</distance>
          <timeResidual>0.38</timeResidual>
          <creationInfo>
            <agencyID>UW</agencyID>
            <creationTime>2012-02-27T17:05:20.000000Z</creationTime>
          </creationInfo>
        </arrival>
        <arrival publicID="quakeml:uw.anss.org/AssocArO/UW/4021433">
          <pickID>quakeml:uw.anss.org/Arrival/UW/4021433</pickID>
          <phase>P</phase>
          <azimuth>183.6</azimuth>
          <distance>2.446</distance>
          <timeResidual>0.98</timeResidual>
          <creationInfo>
            <agencyID>UW</agencyID>
            <creationTime>2012-02-27T17:05:20.000000Z</creationTime>
          </creationInfo>
        </arrival>
        <arrival publicID="quakeml:uw.anss.org/AssocArO/UW/4021438">
          <pickID>quakeml:uw.anss.org/Arrival/UW/4021438</pickID>
          <phase>P</phase>
          <azimuth>228.7</azimuth>
          <distance>0.5452</distance>
          <timeResidual>0.3</timeResidual>
          <creationInfo>
            <agencyID>UW</agencyID>
            <creationTime>2012-02-27T17:05:20.000000Z</creationTime>
          </creationInfo>
        </arrival>
        <arrival publicID="quakeml:uw.anss.org/AssocArO/UW/4021443">
          <pickID>quakeml:uw.anss.org/Arrival/UW/4021443</pickID>
          <phase>P</phase>
          <azimuth>119.4</azimuth>
          <distance>1.95</distance>
          <timeResidual>2.35</timeResidual>
          <creationInfo>
            <agencyID>UW</agencyID>
            <creationTime>2012-02-27T17:05:20.000000Z</creationTime>
          </creationInfo>
        </arrival>
        <arrival publicID="quakeml:uw.anss.org/AssocArO/UW/4021448">
          <pickID>quakeml:uw.anss.org/Arrival/UW/4021448</pickID>
          <phase>S</phase>
          <azimuth>119.4</azimuth>
          <distance>1.95</distance>
          <timeResidual>2.69</timeResidual>
          <creationInfo>
            <agencyID>UW</agencyID>
            <creationTime>2012-02-27T17:05:20.000000Z</creationTime>
          </creationInfo>
        </arrival>
        <arrival publicID="quakeml:uw.anss.org/AssocArO/UW/4021453">
          <pickID>quakeml:uw.anss.org/Arrival/UW/4021453</pickID>
          <phase>P</phase>
          <azimuth>234.6</azimuth>
          <distance>1.476</distance>
          <timeResidual>0.24</timeResidual>
          <creationInfo>
            <agencyID>UW</agencyID>
            <creationTime>2012-02-27T17:05:20.000000Z</creationTime>
          </creationInfo>
        </arrival>
        <arrival publicID="quakeml:uw.anss.org/AssocArO/UW/4021458">
          <pickID>quakeml:uw.anss.org/Arrival/UW/4021458</pickID>
          <phase>P</phase>
          <azimuth>187.0</azimuth>
          <distance>2.396</distance>
          <timeResidual>0.65</timeResidual>
          <creationInfo>
            <agencyID>UW</agencyID>
            <creationTime>2012-02-27T17:05:20.000000Z</creationTime>
          </creationInfo>
        </arrival>
        <arrival publicID="quakeml:uw.anss.org/AssocArO/UW/4021463">
          <pickID>quakeml:uw.anss.org/Arrival/UW/4021463</pickID>
          <phase>P</phase>
          <azimuth>180.7</azimuth>
          <timeResidual>-0.13</timeResidual>
          <creationInfo>
            <agencyID>UW</agencyID>
            <creationTime>2012-02-27T17:05:20.000000Z</creationTime>
          </creationInfo>
        </arrival>
        <arrival publicID="quakeml:uw.anss.org/AssocArO/UW/4021468">
          <pickID>quakeml:uw.anss.org/Arrival/UW/4021468</pickID>
          <phase>S</phase>
          <azimuth>180.7</azimuth>
          <timeResidual>0.02</timeResidual>
          <creationInfo>
            <agencyID>UW</agencyID>
            <creationTime>2012-02-27T17:05:20.000000Z</creationTime>
          </creationInfo>
        </arrival>
        <arrival publicID="quakeml:uw.anss.org/AssocArO/UW/4021473">
          <pickID>quakeml:uw.anss.org/Arrival/UW/4021473</pickID>
          <phase>P</phase>
          <azimuth>187.3</azimuth>
          <distance>2.639</distance>
          <timeResidual>1.73</timeResidual>
          <creationInfo>
            <agencyID>UW</agencyID>
            <creationTime>2012-02-27T17:05:20.000000Z</creationTime>
          </creationInfo>
        </arrival>
        <arrival publicID="quakeml:uw.anss.org/AssocArO/UW/4021478">
          <pickID>quakeml:uw.anss.org/Arrival/UW/4021478</pickID>
          <phase>P</phase>
          <azimuth>152.4</azimuth>
          <distance>1.995</distance>
          <timeResidual>0.74</timeResidual>
          <creationInfo>
            <agencyID>UW</agencyID>
            <creationTime>2012-02-27T17:05:20.000000Z</creationTime>
          </creationInfo>
        </arrival>
        <arrival publicID="quakeml:uw.anss.org/AssocArO/UW/4021483">
          <pickID>quakeml:uw.anss.org/Arrival/UW/4021483</pickID>
          <phase>P</phase>
          <azimuth>175.0</azimuth>
          <distance>2.541</distance>
          <timeResidual>1.37</timeResidual>
          <creationInfo>
            <agencyID>UW</agencyID>
            <creationTime>2012-02-27T17:05:20.000000Z</creationTime>
          </creationInfo>
        </arrival>
        <arrival publicID="quakeml:uw.anss.org/AssocArO/UW/4021488">
          <pickID>quakeml:uw.anss.org/Arrival/UW/4021488</pickID>
          <phase>P</phase>
          <azimuth>174.5</azimuth>
          <timeResidual>0.35</timeResidual>
          <creationInfo>
            <agencyID>UW</agencyID>
            <creationTime>2012-02-27T17:05:20.000000Z</creationTime>
          </creationInfo>
        </arrival>
        <arrival publicID="quakeml:uw.anss.org/AssocArO/UW/4021493">
