<?xml version='1.0' encoding='utf-8'?>
<q:quakeml xmlns="http://quakeml.org/xmlns/bed/1.2" xmlns:q="http://quakeml.org/xmlns/quakeml/1.2" xmlns:ns0="http://anss.org/xmlns/catalog/0.1">
  <eventParameters publicID="smi:local/aecc09ac-aca2-4b22-aede-188f9d4f59b8">
    <event publicID="quakeml:uw.anss.org/Event/UW/10257583" ns0:datasource="uw" ns0:dataid="uw10257583" ns0:eventsource="uw" ns0:eventid="10257583">
      <preferredOriginID>quakeml:uw.anss.org/Origin/UW/534528</preferredOriginID>
      <preferredMagnitudeID>quakeml:uw.anss.org/Netmag/UW/447158</preferredMagnitudeID>
      <type>earthquake</type>
      <creationInfo>
        <agencyID>UW</agencyID>
        <creationTime>2012-02-27T16:41:21.000000Z</creationTime>
        <version>3</version>
      </creationInfo>
      <origin publicID="quakeml:uw.anss.org/Origin/UW/534528" ns0:datasource="uw" ns0:dataid="uw10257583" ns0:eventsource="uw" ns0:eventid="10257583">
        <time>
          <value>1990-04-13T23:21:46.000000Z</value>
          <uncertainty>0.25</uncertainty>
        </time>
        <latitude>
          <value>48.8261667</value>
          <uncertainty>1.12</uncertainty>
        </latitude>
        <longitude>
          <value>-122.1818333</value>
          <uncertainty>1.07</uncertainty>
        </longitude>
        <depth>
          <value>241.0</value>
          <uncertainty>3280.0</uncertainty>
        </depth>
        <depthType>from location</depthType>
        <timeFixed>false</timeFixed>
        <epicenterFixed>false</epicenterFixed>
        <methodID>smi:uw.anss.org/origin/spong</methodID>
        <quality>
          <associatedPhaseCount>42</associatedPhaseCount>
          <usedPhaseCount>25</usedPhaseCount>
          <associatedStationCount>36</associatedStationCount>
          <usedStationCount>0</usedStationCount>
          <standardError>0.43</standardError>
          <azimuthalGap>88.0</azimuthalGap>
        </quality>
        <type>hypocenter</type>
        <evaluationMode>manual</evaluationMode>
        <evaluationStatus>final</evaluationStatus>
        <creationInfo>
          <agencyID>UW</agencyID>
          <creationTime>2012-02-27T16:41:21.000000Z</creationTime>
        </creationInfo>
        <originUncertainty>
          <preferredDescription>horizontal uncertainty</preferredDescription>
          <horizontalUncertainty>1549.0</horizontalUncertainty>
        </originUncertainty>
        <arrival publicID="quakeml:uw.anss.org/AssocArO/UW/3817468">
          <pickID>quakeml:uw.anss.org/Arrival/UW/3817468</pickID>
          <phase>P</phase>
          <azimuth>289.0</azimuth>
          <timeResidual>-0.55</timeResidual>
          <creationInfo>
            <agencyID>UW</agencyID>
            <creationTime>2012-02-27T16:41:21.000000Z</creationTime>
          </creationInfo>
        </arrival>
        <arrival publicID="quakeml:uw.anss.org/AssocArO/UW/3817473">
          <pickID>quakeml:uw.anss.org/Arrival/UW/3817473</pickID>
          <phase>P</phase>
          <azimuth>206.6</azimuth>
          <distance>1.315</distance>
          <timeResidual>-0.06</timeResidual>
          <creationInfo>
            <agencyID>UW</agencyID>
            <creationTime>2012-02-27T16:41:21.000000Z</creationTime>
          </creationInfo>
        </arrival>
        <arrival publicID="quakeml:uw.anss.org/AssocArO/UW/3817478">
          <pickID>quakeml:uw.anss.org/Arrival/UW/3817478</pickID>
          <phase>P</phase>
          <azimuth>121.1</azimuth>
          <distance>1.44</distance>
          <timeResidual>0.88</timeResidual>
          <creationInfo>
            <agencyID>UW</agencyID>
            <creationTime>2012-02-27T16:41:21.000000Z</creationTime>
          </creationInfo>
        </arrival>
        <arrival publicID="quakeml:uw.anss.org/AssocArO/UW/3817483">
          <pickID>quakeml:uw.anss.org/Arrival/UW/3817483</pickID>
          <phase>P</phase>
          <azimuth>330.0</azimuth>
          <timeResidual>-0.41</timeResidual>
          <creationInfo>
            <agencyID>UW</agencyID>
            <creationTime>2012-02-27T16:41:21.000000Z</creationTime>
          </creationInfo>
        </arrival>
        <arrival publicID="quakeml:uw.anss.org/AssocArO/UW/3817488">
          <pickID>quakeml:uw.anss.org/Arrival/UW/3817488</pickID>
          <phase>P</phase>
          <azimuth>134.1</azimuth>
          <distance>1.739</distance>
          <timeResidual>0.95</timeResidual>
          <creationInfo>
            <agencyID>UW</agencyID>
            <creationTime>2012-02-27T16:41:21.000000Z</creationTime>
          </creationInfo>
        </arrival>
        <arrival publicID="quakeml:uw.anss.org/AssocArO/UW/3817493">
          <pickID>quakeml:uw.anss.org/Arrival/UW/3817493</pickID>
          <phase>P</phase>
          <timeResidual>0.15</timeResidual>
          <creationInfo>
            <agencyID>UW</agencyID>
            <creationTime>2012-02-27T16:41:21.000000Z</creationTime>
          </creationInfo>
        </arrival>
        <arrival publicID="quakeml:uw.anss.org/AssocArO/UW/3817498">
          <pickID>quakeml:uw.anss.org/Arrival/UW/3817498</pickID>
          <phase>S</phase>
          <timeResidual>0.73</timeResidual>
          <creationInfo>
            <agencyID>UW</agencyID>
            <creationTime>2012-02-27T16:41:21.000000Z</creationTime>
          </creationInfo>
        </arrival>
        <arrival publicID="quakeml:uw.anss.org/AssocArO/UW/3817503">
          <pickID>quakeml:uw.anss.org/Arrival/UW/3817503</pickID>
          <phase>P</phase>
          <azimuth>174.2</azimuth>
          <distance>0.405</distance>
          <timeResidual>-0.56</timeResidual>
          <creationInfo>
            <agencyID>UW</agencyID>
            <creationTime>2012-02-27T16:41:21.000000Z</creationTime>
          </creationInfo>
        </arrival>
        <arrival publicID="quakeml:uw.anss.org/AssocArO/UW/3817508">
          <pickID>quakeml:uw.anss.org/Arrival/UW/3817508</pickID>
          <phase>S</phase>
          <azimuth>174.2</azimuth>
          <distance>0.405</distance>
          <timeResidual>0.87</timeResidual>
          <creationInfo>
            <agencyID>UW</agencyID>
            <creationTime>2012-02-27T16:41:21.000000Z</creationTime>
          </creationInfo>
        </arrival>
        <arrival publicID="quakeml:uw.anss.org/AssocArO/UW/3817513">
          <pickID>quakeml:uw.anss.org/Arrival/UW/3817513</pickID>
          <phase>P</phase>
          <azimuth>170.8</azimuth>
          <timeResidual>0.66</timeResidual>
          <creationInfo>
            <agencyID>UW</agencyID>
            <creationTime>2012-02-27T16:41:21.000000Z</creationTime>
          </creationInfo>
        </arrival>
        <arrival publicID="quakeml:uw.anss.org/AssocArO/UW/3817518">
          <pickID>quakeml:uw.anss.org/Arrival/UW/3817518</pickID>
          <phase>P</phase>
          <timeResidual>-0.69</timeResidual>
          <creationInfo>
            <agencyID>UW</agencyID>
            <creationTime>2012-02-27T16:41:21.000000Z</creationTime>
          </creationInfo>
        </arrival>
        <arrival publicID="quakeml:uw.anss.org/AssocArO/UW/3817523">
          <pickID>quakeml:uw.anss.org/Arrival/UW/3817523</pickID>
          <phase>P</phase>
          <azimuth>175.7</azimuth>
          <distance>1.888</distance>
          <timeResidual>0.29</timeResidual>
          <creationInfo>
            <agencyID>UW</agencyID>
            <creationTime>2012-02-27T16:41:21.000000Z</creationTime>
          </creationInfo>
        </arrival>
        <arrival publicID="quakeml:uw.anss.org/AssocArO/UW/3817528">
          <pickID>quakeml:uw.anss.org/Arrival/UW/3817528</pickID>
          <phase>P</phase>
          <azimuth>173.0</azimuth>
          <distance>2.092</distance>
          <timeResidual>0.14</timeResidual>
          <creationInfo>
            <agencyID>UW</agencyID>
            <creationTime>2012-02-27T16:41:21.000000Z</creationTime>
          </creationInfo>
        </arrival>
        <arrival publicID="quakeml:uw.anss.org/AssocArO/UW/3817533">
          <pickID>quakeml:uw.anss.org/Arrival/UW/3817533</pickID>
          <phase>P</phase>
          <timeResidual>0.13</timeResidual>
          <creationInfo>
            <agencyID>UW</agencyID>
            <creationTime>2012-02-27T16:41:21.000000Z</creationTime>
          </creationInfo>
        </arrival>
        <arrival publicID="quakeml:uw.anss.org/AssocArO/UW/3817538">
          <pickID>quakeml:uw.anss.org/Arrival/UW/3817538</pickID>
          <phase>P</phase>
          <azimuth>130.4</azimuth>
          <distance>0.5821</distance>
          <timeResidual>-0.32</timeResidual>
          <creationInfo>
            <agencyID>UW</agencyID>
            <creationTime>2012-02-27T16:41:21.000000Z</creationTime>
          </creationInfo>
        </arrival>
        <arrival publicID="quakeml:uw.anss.org/AssocArO/UW/3817543">
          <pickID>quakeml:uw.anss.org/Arrival/UW/3817543</pickID>
          <phase>S</phase>
          <azimuth>130.4</azimuth>
          <distance>0.5821</distance>
          <timeResidual>0.2</timeResidual>
          <creationInfo>
            <agencyID>UW</agencyID>
            <creationTime>2012-02-27T16:41:21.000000Z</creationTime>
          </creationInfo>
        </arrival>
        <arrival publicID="quakeml:uw.anss.org/AssocArO/UW/3817548">
          <pickID>quakeml:uw.anss.org/Arrival/UW/3817548</pickID>
          <phase>P</phase>
          <azimuth>308.8</azimuth>
          <timeResidual>-0.7</timeResidual>
          <creationInfo>
            <agencyID>UW</agencyID>
            <creationTime>2012-02-27T16:41:21.000000Z</creationTime>
          </creationInfo>
        </arrival>
        <arrival publicID="quakeml:uw.anss.org/AssocArO/UW/3817553">
          <pickID>quakeml:uw.anss.org/Arrival/UW/3817553</pickID>
          <phase>P</phase>
          <azimuth>204.9</azimuth>
          <distance>0.5548</distance>
          <timeResidual>0.79</timeResidual>
          <creationInfo>
            <agencyID>UW</agencyID>
            <creationTime>2012-02-27T16:41:21.000000Z</creationTime>
          </creationInfo>
        </arrival>
        <arrival publicID="quakeml:uw.anss.org/AssocArO/UW/3817558">
          <pickID>quakeml:uw.anss.org/Arrival/UW/3817558</pickID>
          <phase>P</phase>
          <azimuth>120.2</azimuth>
          <distance>2.172</distance>
          <timeResidual>2.55</timeResidual>
          <creationInfo>
            <agencyID>UW</agencyID>
            <creationTime>2012-02-27T16:41:21.000000Z</creationTime>
          </creationInfo>
        </arrival>
        <arrival publicID="quakeml:uw.anss.org/AssocArO/UW/3817563">
          <pickID>quakeml:uw.anss.org/Arrival/UW/3817563</pickID>
          <phase>P</phase>
          <azimuth>225.7</azimuth>
          <distance>1.434</distance>
          <timeResidual>0.32</timeResidual>
          <creationInfo>
            <agencyID>UW</agencyID>
            <creationTime>2012-02-27T16:41:21.000000Z</creationTime>
          </creationInfo>
        </arrival>
        <arrival publicID="quakeml:uw.anss.org/AssocArO/UW/3817568">
          <pickID>quakeml:uw.anss.org/Arrival/UW/3817568</pickID>
          <phase>P</phase>
          <azimuth>164.9</azimuth>
          <timeResidual>0.0</timeResidual>
          <creationInfo>
            <agencyID>UW</agencyID>
            <creationTime>2012-02-27T16:41:21.000000Z</creationTime>
          </creationInfo>
        </arrival>
        <arrival publicID="quakeml:uw.anss.org/AssocArO/UW/3817573">
          <pickID>quakeml:uw.anss.org/Arrival/UW/3817573</pickID>
          <phase>S</phase>
          <azimuth>164.9</azimuth>
          <timeResidual>1.74</timeResidual>
          <creationInfo>
            <agencyID>UW</agencyID>
            <creationTime>2012-02-27T16:41:21.000000Z</creationTime>
          </creationInfo>
        </arrival>
        <arrival publicID="quakeml:uw.anss.org/AssocArO/UW/3817578">
          <pickID>quakeml:uw.anss.org/Arrival/UW/3817578</pickID>
          <phase>P</phase>
          <azimuth>169.5</azimuth>
          <timeResidual>0.27</timeResidual>
          <creationInfo>
            <agencyID>UW</agencyID>
            <creationTime>2012-02-27T16:41:21.000000Z</creationTime>
          </creationInfo>
        </arrival>
        <arrival publicID="quakeml:uw.anss.org/AssocArO/UW/3817583">
          <pickID>quakeml:uw.anss.org/Arrival/UW/3817583</pickID>
          <phase>P</phase>
          <azimuth>116.8</azimuth>
          <distance>1.812</distance>
          <timeResidual>2.3</timeResidual>
          <creationInfo>
            <agencyID>UW</agencyID>
            <creationTime>2012-02-27T16:41:21.000000Z</creationTime>
          </creationInfo>
        </arrival>
        <arrival publicID="quakeml:uw.anss.org/AssocArO/UW/3817588">
          <pickID>quakeml:uw.anss.org/Arrival/UW/3817588</pickID>
          <phase>P</phase>
          <timeResidual>-0.11</timeResidual>
          <creationInfo>
            <agencyID>UW</agencyID>
            <creationTime>2012-02-27T16:41:21.000000Z</creationTime>
          </creationInfo>
        </arrival>
        <arrival publicID="quakeml:uw.anss.org/AssocArO/UW/3817593">
          <pickID>quakeml:uw.anss.org/Arrival/UW/3817593</pickID>
          <phase>P</phase>
          <azimuth>236.2</azimuth>
          <timeResidual>-0.11</timeResidual>
          <creationInfo>
            <agencyID>UW</agencyID>
            <creationTime>2012-02-27T16:41:21.000000Z</creationTime>
          </creationInfo>
        </arrival>
        <arrival publicID="quakeml:uw.anss.org/AssocArO/UW/3817598">
          <pickID>quakeml:uw.anss.org/Arrival/UW/3817598</pickID>
          <phase>P</phase>
          <timeResidual>0.2</timeResidual>
          <creationInfo>
            <agencyID>UW</agencyID>
            <creationTime>2012-02-27T16:41:21.000000Z</creationTime>
          </creationInfo>
        </arrival>
        <arrival publicID="quakeml:uw.anss.org/AssocArO/UW/3817603">
          <pickID>quakeml:uw.anss.org/Arrival/UW/3817603</pickID>
          <phase>S</phase>
          <timeResidual>0.07</timeResidual>
          <creationInfo>
            <agencyID>UW</agencyID>
            <creationTime>2012-02-27T16:41:21.000000Z</creationTime>
          </creationInfo>
        </arrival>
        <arrival publicID="quakeml:uw.anss.org/AssocArO/UW/3817608">
          <pickID>quakeml:uw.anss.org/Arrival/UW/3817608</pickID>
          <phase>P</phase>
          <azimuth>126.4</azimuth>
          <distance>1.867</distance>
          <timeResidual>1.36</timeResidual>
          <creationInfo>
            <agencyID>UW</agencyID>
            <creationTime>2012-02-27T16:41:21.000000Z</creationTime>
          </creationInfo>
        </arrival>
        <arrival publicID="quakeml:uw.anss.org/AssocArO/UW/3817613">
          <pickID>quakeml:uw.anss.org/Arrival/UW/3817613</pickID>
          <phase>P</phase>
          <azimuth>197.8</azimuth>
          <distance>1.342</distance>
          <timeResidual>-0.19</timeResidual>
          <creationInfo>
            <agencyID>UW</agencyID>
            <creationTime>2012-02-27T16:41:21.000000Z</creationTime>
          </creationInfo>
        </arrival>
        <arrival publicID="quakeml:uw.anss.org/AssocArO/UW/3817618">
          <pickID>quakeml:uw.anss.org/Arrival/UW/3817618</pickID>
          <phase>P</phase>
          <azimuth>169.5</azimuth>
          <distance>1.391</distance>
          <timeResidual>0.53</timeResidual>
          <creationInfo>
            <agencyID>UW</agencyID>
            <creationTime>2012-02-27T16:41:21.000000Z</creationTime>
          </creationInfo>
        </arrival>
        <arrival publicID="quakeml:uw.anss.org/AssocArO/UW/3817623">
          <pickID>quakeml:uw.anss.org/Arrival/UW/3817623</pickID>
          <phase>P</phase>
          <timeResidual>-0.76</timeResidual>
          <creationInfo>
            <agencyID>UW</agencyID>
            <creationTime>2012-02-27T16:41:21.000000Z</creationTime>
          </creationInfo>
        </arrival>
        <arrival publicID="quakeml:uw.anss.org/AssocArO/UW/3817628">
          <pickID>quakeml:uw.anss.org/Arrival/UW/3817628</pickID>
          <phase>P</phase>
          <azimuth>102.8</azimuth>
          <distance>0.1905</distance>
          <timeResidual>-0.08</timeResidual>
          <creationInfo>
            <agencyID>UW</agencyID>
            <creationTime>2012-02-27T16:41:21.000000Z</creationTime>
          </creationInfo>
        </arrival>
        <arrival publicID="quakeml:uw.anss.org/AssocArO/UW/3817633">
          <pickID>quakeml:uw.anss.org/Arrival/UW/3817633</pickID>
          <phase>P</phase>
          <timeResidual>0.13</timeResidual>
          <creationInfo>
            <agencyID>UW</agencyID>
            <creationTime>2012-02-27T16:41:21.000000Z</creationTime>
          </creationInfo>
        </arrival>
        <arrival publicID="quakeml:uw.anss.org/AssocArO/UW/3817638">
          <pickID>quakeml:uw.anss.org/Arrival/UW/3817638</pickID>
          <phase>P</phase>
          <azimuth>199.4</azimuth>
          <distance>1.962</distance>
          <timeResidual>1.34</timeResidual>
          <creationInfo>
            <agencyID>UW</agencyID>
            <creationTime>2012-02-27T16:41:21.000000Z</creationTime>
          </creationInfo>
        </arrival>
        <arrival publicID="quakeml:uw.anss.org/AssocArO/UW/3817643">
          <pickID>quakeml:uw.anss.org/Arrival/UW/3817643</pickID>
          <phase>P</phase>
          <azimuth>164.8</azimuth>
          <distance>1.06</distance>
          <timeResidual>0.48</timeResidual>
          <creationInfo>
            <agencyID>UW</agencyID>
            <creationTime>2012-02-27T16:41:21.000000Z</creationTime>
          </creationInfo>
        </arrival>
        <arrival publicID="quakeml:uw.anss.org/AssocArO/UW/3817648">
          <pickID>quakeml:uw.anss.org/Arrival/UW/3817648</pickID>
          <phase>S</phase>
          <azimuth>164.8</azimuth>
          <distance>1.06</distance>
          <timeResidual>0.6</timeResidual>
          <creationInfo>
            <agencyID>UW</agencyID>
            <creationTime>2012-02-27T16:41:21.000000Z</creationTime>
          </creationInfo>
        </arrival>
        <arrival publicID="quakeml:uw.anss.org/AssocArO/UW/3817653">
          <pickID>quakeml:uw.anss.org/Arrival/UW/3817653</pickID>
          <phase>P</phase>
          <azimuth>124.9</azimuth>
          <distance>1.756</distance>
          <timeResidual>1.05</timeResidual>
          <creationInfo>
            <agencyID>UW</agencyID>
            <creationTime>2012-02-27T16:41:21.000000Z</creationTime>
          </creationInfo>
        </arrival>
        <arrival publicID="quakeml:uw.anss.org/AssocArO/UW/3817658">
          <pickID>quakeml:uw.anss.org/Arrival/UW/3817658</pickID>
          <phase>P</phase>
          <azimuth>213.0</azimuth>
          <distance>0.9748</distance>
          <timeResidual>0.76</timeResidual>
          <creationInfo>
            <agencyID>UW</agencyID>
            <creationTime>2012-02-27T16:41:22.000000Z</creationTime>
          </creationInfo>
        </arrival>
        <arrival publicID="quakeml:uw.anss.org/AssocArO/UW/3817663">
          <pickID>quakeml:uw.anss.org/Arrival/UW/3817663</pickID>
          <phase>P</phase>
          <azimuth>146.8</azimuth>
          <distance>1.969</distance>
          <timeResidual>1.37</timeResidual>
          <creationInfo>
            <agencyID>UW</agencyID>
            <creationTime>2012-02-27T16:41:22.000000Z</creationTime>
          </creationInfo>
        </arrival>
        <arrival publicID="quakeml:uw.anss.org/AssocArO/UW/3817668">
          <pickID>quakeml:uw.anss.org/Arrival/UW/3817668</pickID>
          <phase>P</phase>
          <timeResidual>-0.66</timeResidual>
          <creationInfo>
            <agencyID>UW</agencyID>
            <creationTime>2012-02-27T16:41:22.000000Z</creationTime>
          </creationInfo>
        </arrival>
