<?xml version='1.0' encoding='utf-8'?>
<q:quakeml xmlns="http://quakeml.org/xmlns/bed/1.2" xmlns:q="http://quakeml.org/xmlns/quakeml/1.2" xmlns:ns0="http://anss.org/xmlns/catalog/0.1">
  <eventParameters publicID="smi:local/7324aaa7-2b7a-409d-94dd-fa78892931fa">
    <event publicID="quakeml:uw.anss.org/Event/UW/10257838" ns0:datasource="uw" ns0:dataid="uw10257838" ns0:eventsource="uw" ns0:eventid="10257838">
      <preferredOriginID>quakeml:uw.anss.org/Origin/UW/534783</preferredOriginID>
      <preferredMagnitudeID>quakeml:uw.anss.org/Netmag/UW/447403</preferredMagnitudeID>
      <type>earthquake</type>
      <creationInfo>
        <agencyID>UW</agencyID>
        <creationTime>2012-02-27T16:41:52.000000Z</creationTime>
        <version>3</version>
      </creationInfo>
      <origin publicID="quakeml:uw.anss.org/Origin/UW/534783" ns0:datasource="uw" ns0:dataid="uw10257838" ns0:eventsource="uw" ns0:eventid="10257838">
        <time>
          <value>1990-04-14T06:02:16.870000Z</value>
          <uncertainty>0.3</uncertainty>
        </time>
        <latitude>
          <value>48.824</value>
          <uncertainty>1.26</uncertainty>
        </latitude>
        <longitude>
          <value>-122.1833333</value>
          <uncertainty>1.04</uncertainty>
        </longitude>
        <depth>
          <value>471.0</value>
          <uncertainty>3820.0</uncertainty>
        </depth>
        <depthType>operator assigned</depthType>
        <timeFixed>false</timeFixed>
        <epicenterFixed>true</epicenterFixed>
        <methodID>smi:uw.anss.org/origin/spong</methodID>
        <quality>
          <associatedPhaseCount>37</associatedPhaseCount>
          <usedPhaseCount>25</usedPhaseCount>
          <associatedStationCount>33</associatedStationCount>
          <usedStationCount>0</usedStationCount>
          <standardError>0.47</standardError>
          <azimuthalGap>87.0</azimuthalGap>
        </quality>
        <type>hypocenter</type>
        <evaluationMode>manual</evaluationMode>
        <evaluationStatus>final</evaluationStatus>
        <creationInfo>
          <agencyID>UW</agencyID>
          <creationTime>2012-02-27T16:41:51.000000Z</creationTime>
        </creationInfo>
        <originUncertainty>
          <preferredDescription>horizontal uncertainty</preferredDescription>
          <horizontalUncertainty>1634.0</horizontalUncertainty>
        </originUncertainty>
        <arrival publicID="quakeml:uw.anss.org/AssocArO/UW/3823228">
          <pickID>quakeml:uw.anss.org/Arrival/UW/3823228</pickID>
          <phase>P</phase>
          <azimuth>289.1</azimuth>
          <timeResidual>-0.42</timeResidual>
          <creationInfo>
            <agencyID>UW</agencyID>
            <creationTime>2012-02-27T16:41:52.000000Z</creationTime>
          </creationInfo>
        </arrival>
        <arrival publicID="quakeml:uw.anss.org/AssocArO/UW/3823233">
          <pickID>quakeml:uw.anss.org/Arrival/UW/3823233</pickID>
          <phase>S</phase>
          <azimuth>289.1</azimuth>
          <timeResidual>-1.32</timeResidual>
          <creationInfo>
            <agencyID>UW</agencyID>
            <creationTime>2012-02-27T16:41:52.000000Z</creationTime>
          </creationInfo>
        </arrival>
        <arrival publicID="quakeml:uw.anss.org/AssocArO/UW/3823238">
          <pickID>quakeml:uw.anss.org/Arrival/UW/3823238</pickID>
          <phase>P</phase>
          <azimuth>206.6</azimuth>
          <distance>1.313</distance>
          <timeResidual>0.06</timeResidual>
          <creationInfo>
            <agencyID>UW</agencyID>
            <creationTime>2012-02-27T16:41:52.000000Z</creationTime>
          </creationInfo>
        </arrival>
        <arrival publicID="quakeml:uw.anss.org/AssocArO/UW/3823243">
          <pickID>quakeml:uw.anss.org/Arrival/UW/3823243</pickID>
          <phase>P</phase>
          <azimuth>121.0</azimuth>
          <distance>1.44</distance>
          <timeResidual>0.85</timeResidual>
          <creationInfo>
            <agencyID>UW</agencyID>
            <creationTime>2012-02-27T16:41:52.000000Z</creationTime>
          </creationInfo>
        </arrival>
        <arrival publicID="quakeml:uw.anss.org/AssocArO/UW/3823248">
          <pickID>quakeml:uw.anss.org/Arrival/UW/3823248</pickID>
          <phase>P</phase>
          <azimuth>330.2</azimuth>
          <timeResidual>-0.22</timeResidual>
          <creationInfo>
            <agencyID>UW</agencyID>
            <creationTime>2012-02-27T16:41:52.000000Z</creationTime>
          </creationInfo>
        </arrival>
        <arrival publicID="quakeml:uw.anss.org/AssocArO/UW/3823253">
          <pickID>quakeml:uw.anss.org/Arrival/UW/3823253</pickID>
          <phase>P</phase>
          <azimuth>134.0</azimuth>
          <distance>1.738</distance>
          <timeResidual>2.34</timeResidual>
          <creationInfo>
            <agencyID>UW</agencyID>
            <creationTime>2012-02-27T16:41:52.000000Z</creationTime>
          </creationInfo>
        </arrival>
        <arrival publicID="quakeml:uw.anss.org/AssocArO/UW/3823258">
          <pickID>quakeml:uw.anss.org/Arrival/UW/3823258</pickID>
          <phase>P</phase>
          <azimuth>155.9</azimuth>
          <distance>2.284</distance>
          <timeResidual>1.49</timeResidual>
          <creationInfo>
            <agencyID>UW</agencyID>
            <creationTime>2012-02-27T16:41:52.000000Z</creationTime>
          </creationInfo>
        </arrival>
        <arrival publicID="quakeml:uw.anss.org/AssocArO/UW/3823263">
          <pickID>quakeml:uw.anss.org/Arrival/UW/3823263</pickID>
          <phase>P</phase>
          <timeResidual>0.29</timeResidual>
          <creationInfo>
            <agencyID>UW</agencyID>
            <creationTime>2012-02-27T16:41:52.000000Z</creationTime>
          </creationInfo>
        </arrival>
        <arrival publicID="quakeml:uw.anss.org/AssocArO/UW/3823268">
          <pickID>quakeml:uw.anss.org/Arrival/UW/3823268</pickID>
          <phase>S</phase>
          <timeResidual>1.0</timeResidual>
          <creationInfo>
            <agencyID>UW</agencyID>
            <creationTime>2012-02-27T16:41:52.000000Z</creationTime>
          </creationInfo>
        </arrival>
        <arrival publicID="quakeml:uw.anss.org/AssocArO/UW/3823273">
          <pickID>quakeml:uw.anss.org/Arrival/UW/3823273</pickID>
          <phase>P</phase>
          <azimuth>152.0</azimuth>
          <distance>1.904</distance>
          <timeResidual>2.29</timeResidual>
          <creationInfo>
            <agencyID>UW</agencyID>
            <creationTime>2012-02-27T16:41:52.000000Z</creationTime>
          </creationInfo>
        </arrival>
        <arrival publicID="quakeml:uw.anss.org/AssocArO/UW/3823278">
          <pickID>quakeml:uw.anss.org/Arrival/UW/3823278</pickID>
          <phase>P</phase>
          <azimuth>174.0</azimuth>
          <distance>0.403</distance>
          <timeResidual>-0.47</timeResidual>
          <creationInfo>
            <agencyID>UW</agencyID>
            <creationTime>2012-02-27T16:41:52.000000Z</creationTime>
          </creationInfo>
        </arrival>
        <arrival publicID="quakeml:uw.anss.org/AssocArO/UW/3823283">
          <pickID>quakeml:uw.anss.org/Arrival/UW/3823283</pickID>
          <phase>S</phase>
          <azimuth>174.0</azimuth>
          <distance>0.403</distance>
          <timeResidual>1.36</timeResidual>
          <creationInfo>
            <agencyID>UW</agencyID>
            <creationTime>2012-02-27T16:41:52.000000Z</creationTime>
          </creationInfo>
        </arrival>
        <arrival publicID="quakeml:uw.anss.org/AssocArO/UW/3823288">
          <pickID>quakeml:uw.anss.org/Arrival/UW/3823288</pickID>
          <phase>P</phase>
          <azimuth>170.8</azimuth>
          <timeResidual>1.48</timeResidual>
          <creationInfo>
            <agencyID>UW</agencyID>
            <creationTime>2012-02-27T16:41:52.000000Z</creationTime>
          </creationInfo>
        </arrival>
        <arrival publicID="quakeml:uw.anss.org/AssocArO/UW/3823293">
          <pickID>quakeml:uw.anss.org/Arrival/UW/3823293</pickID>
          <phase>P</phase>
          <azimuth>175.7</azimuth>
          <distance>1.886</distance>
          <timeResidual>0.67</timeResidual>
          <creationInfo>
            <agencyID>UW</agencyID>
            <creationTime>2012-02-27T16:41:52.000000Z</creationTime>
          </creationInfo>
        </arrival>
        <arrival publicID="quakeml:uw.anss.org/AssocArO/UW/3823298">
          <pickID>quakeml:uw.anss.org/Arrival/UW/3823298</pickID>
          <phase>P</phase>
          <timeResidual>0.29</timeResidual>
          <creationInfo>
            <agencyID>UW</agencyID>
            <creationTime>2012-02-27T16:41:52.000000Z</creationTime>
          </creationInfo>
        </arrival>
        <arrival publicID="quakeml:uw.anss.org/AssocArO/UW/3823303">
          <pickID>quakeml:uw.anss.org/Arrival/UW/3823303</pickID>
          <phase>P</phase>
          <azimuth>130.1</azimuth>
          <distance>0.5815</distance>
          <timeResidual>-0.04</timeResidual>
          <creationInfo>
            <agencyID>UW</agencyID>
            <creationTime>2012-02-27T16:41:52.000000Z</creationTime>
          </creationInfo>
        </arrival>
        <arrival publicID="quakeml:uw.anss.org/AssocArO/UW/3823308">
          <pickID>quakeml:uw.anss.org/Arrival/UW/3823308</pickID>
          <phase>P</phase>
          <azimuth>309.0</azimuth>
          <timeResidual>-0.48</timeResidual>
          <creationInfo>
            <agencyID>UW</agencyID>
            <creationTime>2012-02-27T16:41:52.000000Z</creationTime>
          </creationInfo>
        </arrival>
        <arrival publicID="quakeml:uw.anss.org/AssocArO/UW/3823313">
          <pickID>quakeml:uw.anss.org/Arrival/UW/3823313</pickID>
          <phase>P</phase>
          <azimuth>204.9</azimuth>
          <distance>0.5525</distance>
          <timeResidual>0.83</timeResidual>
          <creationInfo>
            <agencyID>UW</agencyID>
            <creationTime>2012-02-27T16:41:52.000000Z</creationTime>
          </creationInfo>
        </arrival>
        <arrival publicID="quakeml:uw.anss.org/AssocArO/UW/3823318">
          <pickID>quakeml:uw.anss.org/Arrival/UW/3823318</pickID>
          <phase>P</phase>
          <azimuth>225.7</azimuth>
          <distance>1.431</distance>
          <timeResidual>0.09</timeResidual>
          <creationInfo>
            <agencyID>UW</agencyID>
            <creationTime>2012-02-27T16:41:52.000000Z</creationTime>
          </creationInfo>
        </arrival>
        <arrival publicID="quakeml:uw.anss.org/AssocArO/UW/3823323">
          <pickID>quakeml:uw.anss.org/Arrival/UW/3823323</pickID>
          <phase>P</phase>
          <azimuth>321.3</azimuth>
          <timeResidual>-0.35</timeResidual>
          <creationInfo>
            <agencyID>UW</agencyID>
            <creationTime>2012-02-27T16:41:52.000000Z</creationTime>
          </creationInfo>
        </arrival>
        <arrival publicID="quakeml:uw.anss.org/AssocArO/UW/3823328">
          <pickID>quakeml:uw.anss.org/Arrival/UW/3823328</pickID>
          <phase>P</phase>
          <azimuth>182.5</azimuth>
          <distance>2.522</distance>
          <timeResidual>0.94</timeResidual>
          <creationInfo>
            <agencyID>UW</agencyID>
            <creationTime>2012-02-27T16:41:52.000000Z</creationTime>
          </creationInfo>
        </arrival>
        <arrival publicID="quakeml:uw.anss.org/AssocArO/UW/3823333">
          <pickID>quakeml:uw.anss.org/Arrival/UW/3823333</pickID>
          <phase>P</phase>
          <azimuth>164.8</azimuth>
          <timeResidual>0.08</timeResidual>
          <creationInfo>
            <agencyID>UW</agencyID>
            <creationTime>2012-02-27T16:41:52.000000Z</creationTime>
          </creationInfo>
        </arrival>
        <arrival publicID="quakeml:uw.anss.org/AssocArO/UW/3823338">
          <pickID>quakeml:uw.anss.org/Arrival/UW/3823338</pickID>
          <phase>S</phase>
          <azimuth>164.8</azimuth>
          <timeResidual>1.85</timeResidual>
          <creationInfo>
            <agencyID>UW</agencyID>
            <creationTime>2012-02-27T16:41:52.000000Z</creationTime>
          </creationInfo>
        </arrival>
        <arrival publicID="quakeml:uw.anss.org/AssocArO/UW/3823343">
          <pickID>quakeml:uw.anss.org/Arrival/UW/3823343</pickID>
          <phase>P</phase>
          <azimuth>116.8</azimuth>
          <distance>1.812</distance>
          <timeResidual>2.67</timeResidual>
          <creationInfo>
            <agencyID>UW</agencyID>
            <creationTime>2012-02-27T16:41:52.000000Z</creationTime>
          </creationInfo>
        </arrival>
        <arrival publicID="quakeml:uw.anss.org/AssocArO/UW/3823348">
          <pickID>quakeml:uw.anss.org/Arrival/UW/3823348</pickID>
          <phase>P</phase>
          <timeResidual>-0.02</timeResidual>
          <creationInfo>
            <agencyID>UW</agencyID>
            <creationTime>2012-02-27T16:41:52.000000Z</creationTime>
          </creationInfo>
        </arrival>
        <arrival publicID="quakeml:uw.anss.org/AssocArO/UW/3823353">
          <pickID>quakeml:uw.anss.org/Arrival/UW/3823353</pickID>
          <phase>P</phase>
          <azimuth>236.2</azimuth>
          <timeResidual>-0.16</timeResidual>
          <creationInfo>
            <agencyID>UW</agencyID>
            <creationTime>2012-02-27T16:41:52.000000Z</creationTime>
          </creationInfo>
        </arrival>
        <arrival publicID="quakeml:uw.anss.org/AssocArO/UW/3823358">
          <pickID>quakeml:uw.anss.org/Arrival/UW/3823358</pickID>
          <phase>P</phase>
          <timeResidual>0.34</timeResidual>
          <creationInfo>
            <agencyID>UW</agencyID>
            <creationTime>2012-02-27T16:41:52.000000Z</creationTime>
          </creationInfo>
        </arrival>
        <arrival publicID="quakeml:uw.anss.org/AssocArO/UW/3823363">
          <pickID>quakeml:uw.anss.org/Arrival/UW/3823363</pickID>
          <phase>P</phase>
          <azimuth>126.4</azimuth>
          <distance>1.867</distance>
          <timeResidual>1.52</timeResidual>
          <creationInfo>
            <agencyID>UW</agencyID>
            <creationTime>2012-02-27T16:41:52.000000Z</creationTime>
          </creationInfo>
        </arrival>
        <arrival publicID="quakeml:uw.anss.org/AssocArO/UW/3823368">
          <pickID>quakeml:uw.anss.org/Arrival/UW/3823368</pickID>
          <phase>P</phase>
          <azimuth>197.7</azimuth>
          <distance>1.34</distance>
          <timeResidual>0.08</timeResidual>
          <creationInfo>
            <agencyID>UW</agencyID>
            <creationTime>2012-02-27T16:41:52.000000Z</creationTime>
          </creationInfo>
        </arrival>
        <arrival publicID="quakeml:uw.anss.org/AssocArO/UW/3823373">
          <pickID>quakeml:uw.anss.org/Arrival/UW/3823373</pickID>
          <phase>P</phase>
          <azimuth>169.4</azimuth>
          <distance>1.389</distance>
          <timeResidual>0.86</timeResidual>
          <creationInfo>
            <agencyID>UW</agencyID>
            <creationTime>2012-02-27T16:41:52.000000Z</creationTime>
          </creationInfo>
        </arrival>
        <arrival publicID="quakeml:uw.anss.org/AssocArO/UW/3823378">
          <pickID>quakeml:uw.anss.org/Arrival/UW/3823378</pickID>
          <phase>P</phase>
          <azimuth>102.1</azimuth>
          <distance>0.191</distance>
          <timeResidual>-0.24</timeResidual>
          <creationInfo>
            <agencyID>UW</agencyID>
            <creationTime>2012-02-27T16:41:52.000000Z</creationTime>
          </creationInfo>
        </arrival>
        <arrival publicID="quakeml:uw.anss.org/AssocArO/UW/3823383">
          <pickID>quakeml:uw.anss.org/Arrival/UW/3823383</pickID>
          <phase>P</phase>
          <timeResidual>0.39</timeResidual>
          <creationInfo>
            <agencyID>UW</agencyID>
            <creationTime>2012-02-27T16:41:52.000000Z</creationTime>
          </creationInfo>
        </arrival>
        <arrival publicID="quakeml:uw.anss.org/AssocArO/UW/3823388">
          <pickID>quakeml:uw.anss.org/Arrival/UW/3823388</pickID>
          <phase>P</phase>
          <azimuth>164.7</azimuth>
          <distance>1.058</distance>
          <timeResidual>0.7</timeResidual>
          <creationInfo>
            <agencyID>UW</agencyID>
            <creationTime>2012-02-27T16:41:52.000000Z</creationTime>
          </creationInfo>
        </arrival>
        <arrival publicID="quakeml:uw.anss.org/AssocArO/UW/3823393">
          <pickID>quakeml:uw.anss.org/Arrival/UW/3823393</pickID>
          <phase>P</phase>
          <azimuth>124.8</azimuth>
          <distance>1.755</distance>
          <timeResidual>1.68</timeResidual>
          <creationInfo>
            <agencyID>UW</agencyID>
            <creationTime>2012-02-27T16:41:52.000000Z</creationTime>
          </creationInfo>
        </arrival>
        <arrival publicID="quakeml:uw.anss.org/AssocArO/UW/3823398">
          <pickID>quakeml:uw.anss.org/Arrival/UW/3823398</pickID>
          <phase>P</phase>
          <azimuth>213.0</azimuth>
          <distance>0.9724</distance>
          <timeResidual>0.71</timeResidual>
          <creationInfo>
            <agencyID>UW</agencyID>
            <creationTime>2012-02-27T16:41:52.000000Z</creationTime>
          </creationInfo>
        </arrival>
        <arrival publicID="quakeml:uw.anss.org/AssocArO/UW/3823403">
          <pickID>quakeml:uw.anss.org/Arrival/UW/3823403</pickID>
          <phase>P</phase>
          <azimuth>251.5</azimuth>
          <distance>0.4535</distance>
          <timeResidual>0.11</timeResidual>
          <creationInfo>
            <agencyID>UW</agencyID>
            <creationTime>2012-02-27T16:41:52.000000Z</creationTime>
          </creationInfo>
        </arrival>
        <arrival publicID="quakeml:uw.anss.org/AssocArO/UW/3823408">
          <pickID>quakeml:uw.anss.org/Arrival/UW/3823408</pickID>
          <phase>P</phase>
          <azimuth>174.2</azimuth>
          <distance>0.9937</distance>
          <timeResidual>0.33</timeResidual>
          <creationInfo>
            <agencyID>UW</agencyID>
            <creationTime>2012-02-27T16:41:52.000000Z</creationTime>
          </creationInfo>
        </arrival>
      </origin>
      <magnitude publicID="quakeml:uw.anss.org/Netmag/UW/447403">
        <mag>
          <value>2.1</value>
          <uncertainty>0.11</uncertainty>
        </mag>
        <type>Md</type>
        <originID>quakeml:uw.anss.org/Origin/UW/534783</originID>
        <methodID>smi:uw.anss.org/magnitude/Crosson</methodID>
        <stationCount>4</stationCount>
        <evaluationMode>manual</evaluationMode>
        <evaluationStatus>final</evaluationStatus>
        <stationMagnitudeContribution>
          <stationMagnitudeID>quakeml:uw.anss.org/AssocCoM/UW/1097118</stationMagnitudeID>
          <weight>1.0</weight>
          <residual>0.05</residual>
        </stationMagnitudeContribution>
        <stationMagnitudeContribution>
          <stationMagnitudeID>quakeml:uw.anss.org/AssocCoM/UW/1097123</stationMagnitudeID>
          <weight>1.0</weight>
          <residual>0.07</residual>
        </stationMagnitudeContribution>
        <stationMagnitudeContribution>
          <stationMagnitudeID>quakeml:uw.anss.org/AssocCoM/UW/1097128</stationMagnitudeID>
          <weight>1.0</weight>
          <residual>0.1</residual>
        </stationMagnitudeContribution>
        <stationMagnitudeContribution>
          <stationMagnitudeID>quakeml:uw.anss.org/AssocCoM/UW/1097133</stationMagnitudeID>
          <weight>1.0</weight>
          <residual>-0.48</residual>
        </stationMagnitudeContribution>
        <creationInfo>
          <agencyID>UW</agencyID>
          <creationTime>2012-02-27T16:41:52.000000Z</creationTime>
        </creationInfo>
