<?xml version='1.0' encoding='utf-8'?>
<q:quakeml xmlns="http://quakeml.org/xmlns/bed/1.2" xmlns:q="http://quakeml.org/xmlns/quakeml/1.2" xmlns:ns0="http://anss.org/xmlns/catalog/0.1">
  <eventParameters publicID="smi:local/3e42105c-90e3-407d-8608-9891b48dd4ac">
    <event publicID="quakeml:uw.anss.org/Event/UW/10253158" ns0:datasource="uw" ns0:dataid="uw10253158" ns0:eventsource="uw" ns0:eventid="10253158">
      <preferredOriginID>quakeml:uw.anss.org/Origin/UW/530108</preferredOriginID>
      <preferredMagnitudeID>quakeml:uw.anss.org/Netmag/UW/443018</preferredMagnitudeID>
      <type>earthquake</type>
      <creationInfo>
        <agencyID>UW</agencyID>
        <creationTime>2012-02-27T16:32:29.000000Z</creationTime>
        <version>3</version>
      </creationInfo>
      <origin publicID="quakeml:uw.anss.org/Origin/UW/530108" ns0:datasource="uw" ns0:dataid="uw10253158" ns0:eventsource="uw" ns0:eventid="10253158">
        <time>
          <value>1990-04-02T11:37:14.430000Z</value>
          <uncertainty>0.03</uncertainty>
        </time>
        <latitude>
          <value>48.8186667</value>
          <uncertainty>0.11</uncertainty>
        </latitude>
        <longitude>
          <value>-122.189</value>
          <uncertainty>0.12</uncertainty>
        </longitude>
        <depth>
          <value>-729.0</value>
          <uncertainty>360.0</uncertainty>
        </depth>
        <depthType>operator assigned</depthType>
        <timeFixed>false</timeFixed>
        <epicenterFixed>false</epicenterFixed>
        <methodID>smi:uw.anss.org/origin/spong</methodID>
        <quality>
          <associatedPhaseCount>64</associatedPhaseCount>
          <usedPhaseCount>22</usedPhaseCount>
          <associatedStationCount>51</associatedStationCount>
          <usedStationCount>0</usedStationCount>
          <standardError>0.3</standardError>
          <azimuthalGap>84.0</azimuthalGap>
        </quality>
        <type>hypocenter</type>
        <evaluationMode>manual</evaluationMode>
        <evaluationStatus>final</evaluationStatus>
        <creationInfo>
          <agencyID>UW</agencyID>
          <creationTime>2012-02-27T16:32:29.000000Z</creationTime>
        </creationInfo>
        <originUncertainty>
          <preferredDescription>horizontal uncertainty</preferredDescription>
          <horizontalUncertainty>163.0</horizontalUncertainty>
        </originUncertainty>
        <arrival publicID="quakeml:uw.anss.org/AssocArO/UW/3735383">
          <pickID>quakeml:uw.anss.org/Arrival/UW/3735383</pickID>
          <phase>P</phase>
          <azimuth>289.4</azimuth>
          <timeResidual>-0.45</timeResidual>
          <creationInfo>
            <agencyID>UW</agencyID>
            <creationTime>2012-02-27T16:32:29.000000Z</creationTime>
          </creationInfo>
        </arrival>
        <arrival publicID="quakeml:uw.anss.org/AssocArO/UW/3735388">
          <pickID>quakeml:uw.anss.org/Arrival/UW/3735388</pickID>
          <phase>S</phase>
          <azimuth>289.4</azimuth>
          <timeResidual>-1.54</timeResidual>
          <creationInfo>
            <agencyID>UW</agencyID>
            <creationTime>2012-02-27T16:32:29.000000Z</creationTime>
          </creationInfo>
        </arrival>
        <arrival publicID="quakeml:uw.anss.org/AssocArO/UW/3735393">
          <pickID>quakeml:uw.anss.org/Arrival/UW/3735393</pickID>
          <phase>P</phase>
          <azimuth>206.6</azimuth>
          <distance>1.307</distance>
          <timeResidual>0.11</timeResidual>
          <creationInfo>
            <agencyID>UW</agencyID>
            <creationTime>2012-02-27T16:32:29.000000Z</creationTime>
          </creationInfo>
        </arrival>
        <arrival publicID="quakeml:uw.anss.org/AssocArO/UW/3735398">
          <pickID>quakeml:uw.anss.org/Arrival/UW/3735398</pickID>
          <phase>P</phase>
          <azimuth>120.7</azimuth>
          <distance>1.44</distance>
          <timeResidual>1.14</timeResidual>
          <creationInfo>
            <agencyID>UW</agencyID>
            <creationTime>2012-02-27T16:32:29.000000Z</creationTime>
          </creationInfo>
        </arrival>
        <arrival publicID="quakeml:uw.anss.org/AssocArO/UW/3735403">
          <pickID>quakeml:uw.anss.org/Arrival/UW/3735403</pickID>
          <phase>P</phase>
          <azimuth>330.8</azimuth>
          <timeResidual>-0.28</timeResidual>
          <creationInfo>
            <agencyID>UW</agencyID>
            <creationTime>2012-02-27T16:32:29.000000Z</creationTime>
          </creationInfo>
        </arrival>
        <arrival publicID="quakeml:uw.anss.org/AssocArO/UW/3735428">
          <pickID>quakeml:uw.anss.org/Arrival/UW/3735428</pickID>
          <phase>P</phase>
          <azimuth>133.8</azimuth>
          <distance>1.737</distance>
          <timeResidual>1.02</timeResidual>
          <creationInfo>
            <agencyID>UW</agencyID>
            <creationTime>2012-02-27T16:32:29.000000Z</creationTime>
          </creationInfo>
        </arrival>
        <arrival publicID="quakeml:uw.anss.org/AssocArO/UW/3735438">
          <pickID>quakeml:uw.anss.org/Arrival/UW/3735438</pickID>
          <phase>P</phase>
          <azimuth>185.3</azimuth>
          <distance>2.395</distance>
          <timeResidual>0.75</timeResidual>
          <creationInfo>
            <agencyID>UW</agencyID>
            <creationTime>2012-02-27T16:32:29.000000Z</creationTime>
          </creationInfo>
        </arrival>
        <arrival publicID="quakeml:uw.anss.org/AssocArO/UW/3735448">
          <pickID>quakeml:uw.anss.org/Arrival/UW/3735448</pickID>
          <phase>P</phase>
          <timeResidual>0.28</timeResidual>
          <creationInfo>
            <agencyID>UW</agencyID>
            <creationTime>2012-02-27T16:32:29.000000Z</creationTime>
          </creationInfo>
        </arrival>
        <arrival publicID="quakeml:uw.anss.org/AssocArO/UW/3735453">
          <pickID>quakeml:uw.anss.org/Arrival/UW/3735453</pickID>
          <phase>S</phase>
          <timeResidual>0.92</timeResidual>
          <creationInfo>
            <agencyID>UW</agencyID>
            <creationTime>2012-02-27T16:32:29.000000Z</creationTime>
          </creationInfo>
        </arrival>
        <arrival publicID="quakeml:uw.anss.org/AssocArO/UW/3735463">
          <pickID>quakeml:uw.anss.org/Arrival/UW/3735463</pickID>
          <phase>P</phase>
          <azimuth>129.2</azimuth>
          <distance>2.272</distance>
          <timeResidual>2.69</timeResidual>
          <creationInfo>
            <agencyID>UW</agencyID>
            <creationTime>2012-02-27T16:32:29.000000Z</creationTime>
          </creationInfo>
        </arrival>
        <arrival publicID="quakeml:uw.anss.org/AssocArO/UW/3735473">
          <pickID>quakeml:uw.anss.org/Arrival/UW/3735473</pickID>
          <phase>P</phase>
          <azimuth>173.4</azimuth>
          <distance>0.3981</distance>
          <timeResidual>-0.38</timeResidual>
          <creationInfo>
            <agencyID>UW</agencyID>
            <creationTime>2012-02-27T16:32:29.000000Z</creationTime>
          </creationInfo>
        </arrival>
        <arrival publicID="quakeml:uw.anss.org/AssocArO/UW/3735478">
          <pickID>quakeml:uw.anss.org/Arrival/UW/3735478</pickID>
          <phase>S</phase>
          <azimuth>173.4</azimuth>
          <distance>0.3981</distance>
          <timeResidual>1.5</timeResidual>
          <creationInfo>
            <agencyID>UW</agencyID>
            <creationTime>2012-02-27T16:32:29.000000Z</creationTime>
          </creationInfo>
        </arrival>
        <arrival publicID="quakeml:uw.anss.org/AssocArO/UW/3735498">
          <pickID>quakeml:uw.anss.org/Arrival/UW/3735498</pickID>
          <phase>P</phase>
          <azimuth>180.1</azimuth>
          <distance>2.357</distance>
          <timeResidual>0.06</timeResidual>
          <creationInfo>
            <agencyID>UW</agencyID>
            <creationTime>2012-02-27T16:32:29.000000Z</creationTime>
          </creationInfo>
        </arrival>
        <arrival publicID="quakeml:uw.anss.org/AssocArO/UW/3735503">
          <pickID>quakeml:uw.anss.org/Arrival/UW/3735503</pickID>
          <phase>P</phase>
          <azimuth>170.6</azimuth>
          <timeResidual>0.44</timeResidual>
          <creationInfo>
            <agencyID>UW</agencyID>
            <creationTime>2012-02-27T16:32:29.000000Z</creationTime>
          </creationInfo>
        </arrival>
        <arrival publicID="quakeml:uw.anss.org/AssocArO/UW/3735543">
          <pickID>quakeml:uw.anss.org/Arrival/UW/3735543</pickID>
          <phase>S</phase>
          <azimuth>170.6</azimuth>
          <timeResidual>-0.12</timeResidual>
          <creationInfo>
            <agencyID>UW</agencyID>
            <creationTime>2012-02-27T16:32:29.000000Z</creationTime>
          </creationInfo>
        </arrival>
        <arrival publicID="quakeml:uw.anss.org/AssocArO/UW/3735548">
          <pickID>quakeml:uw.anss.org/Arrival/UW/3735548</pickID>
          <phase>P</phase>
          <timeResidual>-1.02</timeResidual>
          <creationInfo>
            <agencyID>UW</agencyID>
            <creationTime>2012-02-27T16:32:29.000000Z</creationTime>
          </creationInfo>
        </arrival>
        <arrival publicID="quakeml:uw.anss.org/AssocArO/UW/3735553">
          <pickID>quakeml:uw.anss.org/Arrival/UW/3735553</pickID>
          <phase>P</phase>
          <azimuth>175.5</azimuth>
          <distance>1.881</distance>
          <timeResidual>0.38</timeResidual>
          <creationInfo>
            <agencyID>UW</agencyID>
            <creationTime>2012-02-27T16:32:29.000000Z</creationTime>
          </creationInfo>
        </arrival>
        <arrival publicID="quakeml:uw.anss.org/AssocArO/UW/3735563">
          <pickID>quakeml:uw.anss.org/Arrival/UW/3735563</pickID>
          <phase>S</phase>
          <azimuth>175.5</azimuth>
          <distance>1.881</distance>
          <timeResidual>1.08</timeResidual>
          <creationInfo>
            <agencyID>UW</agencyID>
            <creationTime>2012-02-27T16:32:29.000000Z</creationTime>
          </creationInfo>
        </arrival>
        <arrival publicID="quakeml:uw.anss.org/AssocArO/UW/3735568">
          <pickID>quakeml:uw.anss.org/Arrival/UW/3735568</pickID>
          <phase>P</phase>
          <azimuth>172.8</azimuth>
          <distance>2.085</distance>
          <timeResidual>0.3</timeResidual>
          <creationInfo>
            <agencyID>UW</agencyID>
            <creationTime>2012-02-27T16:32:29.000000Z</creationTime>
          </creationInfo>
        </arrival>
        <arrival publicID="quakeml:uw.anss.org/AssocArO/UW/3735578">
          <pickID>quakeml:uw.anss.org/Arrival/UW/3735578</pickID>
          <phase>P</phase>
          <timeResidual>0.15</timeResidual>
          <creationInfo>
            <agencyID>UW</agencyID>
            <creationTime>2012-02-27T16:32:29.000000Z</creationTime>
          </creationInfo>
        </arrival>
        <arrival publicID="quakeml:uw.anss.org/AssocArO/UW/3735593">
          <pickID>quakeml:uw.anss.org/Arrival/UW/3735593</pickID>
          <phase>P</phase>
          <azimuth>129.5</azimuth>
          <distance>0.5809</distance>
          <timeResidual>-0.11</timeResidual>
          <creationInfo>
            <agencyID>UW</agencyID>
            <creationTime>2012-02-27T16:32:29.000000Z</creationTime>
          </creationInfo>
        </arrival>
        <arrival publicID="quakeml:uw.anss.org/AssocArO/UW/3735598">
          <pickID>quakeml:uw.anss.org/Arrival/UW/3735598</pickID>
          <phase>S</phase>
          <azimuth>129.5</azimuth>
          <distance>0.5809</distance>
          <timeResidual>1.22</timeResidual>
          <creationInfo>
            <agencyID>UW</agencyID>
            <creationTime>2012-02-27T16:32:29.000000Z</creationTime>
          </creationInfo>
        </arrival>
        <arrival publicID="quakeml:uw.anss.org/AssocArO/UW/3735608">
          <pickID>quakeml:uw.anss.org/Arrival/UW/3735608</pickID>
          <phase>P</phase>
          <azimuth>170.0</azimuth>
          <distance>2.296</distance>
          <timeResidual>1.01</timeResidual>
          <creationInfo>
            <agencyID>UW</agencyID>
            <creationTime>2012-02-27T16:32:29.000000Z</creationTime>
          </creationInfo>
        </arrival>
        <arrival publicID="quakeml:uw.anss.org/AssocArO/UW/3735613">
          <pickID>quakeml:uw.anss.org/Arrival/UW/3735613</pickID>
          <phase>P</phase>
          <azimuth>309.4</azimuth>
          <timeResidual>-0.51</timeResidual>
          <creationInfo>
            <agencyID>UW</agencyID>
            <creationTime>2012-02-27T16:32:29.000000Z</creationTime>
          </creationInfo>
        </arrival>
        <arrival publicID="quakeml:uw.anss.org/AssocArO/UW/3735618">
          <pickID>quakeml:uw.anss.org/Arrival/UW/3735618</pickID>
          <phase>P</phase>
          <azimuth>204.8</azimuth>
          <distance>0.546</distance>
          <timeResidual>0.89</timeResidual>
          <creationInfo>
            <agencyID>UW</agencyID>
            <creationTime>2012-02-27T16:32:29.000000Z</creationTime>
          </creationInfo>
        </arrival>
        <arrival publicID="quakeml:uw.anss.org/AssocArO/UW/3735623">
          <pickID>quakeml:uw.anss.org/Arrival/UW/3735623</pickID>
          <phase>S</phase>
          <azimuth>204.8</azimuth>
          <distance>0.546</distance>
          <timeResidual>2.22</timeResidual>
          <creationInfo>
            <agencyID>UW</agencyID>
            <creationTime>2012-02-27T16:32:29.000000Z</creationTime>
          </creationInfo>
        </arrival>
        <arrival publicID="quakeml:uw.anss.org/AssocArO/UW/3735628">
          <pickID>quakeml:uw.anss.org/Arrival/UW/3735628</pickID>
          <phase>P</phase>
          <azimuth>120.0</azimuth>
          <distance>2.172</distance>
          <timeResidual>2.67</timeResidual>
          <creationInfo>
            <agencyID>UW</agencyID>
            <creationTime>2012-02-27T16:32:29.000000Z</creationTime>
          </creationInfo>
        </arrival>
        <arrival publicID="quakeml:uw.anss.org/AssocArO/UW/3735638">
          <pickID>quakeml:uw.anss.org/Arrival/UW/3735638</pickID>
          <phase>P</phase>
          <azimuth>225.7</azimuth>
          <distance>1.425</distance>
          <timeResidual>0.27</timeResidual>
          <creationInfo>
            <agencyID>UW</agencyID>
            <creationTime>2012-02-27T16:32:29.000000Z</creationTime>
          </creationInfo>
        </arrival>
        <arrival publicID="quakeml:uw.anss.org/AssocArO/UW/3735643">
          <pickID>quakeml:uw.anss.org/Arrival/UW/3735643</pickID>
          <phase>P</phase>
          <azimuth>321.6</azimuth>
          <timeResidual>-0.34</timeResidual>
          <creationInfo>
            <agencyID>UW</agencyID>
            <creationTime>2012-02-27T16:32:29.000000Z</creationTime>
          </creationInfo>
        </arrival>
        <arrival publicID="quakeml:uw.anss.org/AssocArO/UW/3735653">
          <pickID>quakeml:uw.anss.org/Arrival/UW/3735653</pickID>
          <phase>S</phase>
          <azimuth>321.6</azimuth>
          <timeResidual>-1.5</timeResidual>
          <creationInfo>
            <agencyID>UW</agencyID>
            <creationTime>2012-02-27T16:32:29.000000Z</creationTime>
          </creationInfo>
        </arrival>
        <arrival publicID="quakeml:uw.anss.org/AssocArO/UW/3735663">
          <pickID>quakeml:uw.anss.org/Arrival/UW/3735663</pickID>
          <phase>P</phase>
          <azimuth>182.4</azimuth>
          <distance>2.516</distance>
          <timeResidual>0.67</timeResidual>
          <creationInfo>
            <agencyID>UW</agencyID>
            <creationTime>2012-02-27T16:32:29.000000Z</creationTime>
          </creationInfo>
        </arrival>
        <arrival publicID="quakeml:uw.anss.org/AssocArO/UW/3735668">
          <pickID>quakeml:uw.anss.org/Arrival/UW/3735668</pickID>
          <phase>P</phase>
          <azimuth>164.4</azimuth>
          <timeResidual>0.21</timeResidual>
          <creationInfo>
            <agencyID>UW</agencyID>
            <creationTime>2012-02-27T16:32:29.000000Z</creationTime>
          </creationInfo>
        </arrival>
        <arrival publicID="quakeml:uw.anss.org/AssocArO/UW/3735678">
          <pickID>quakeml:uw.anss.org/Arrival/UW/3735678</pickID>
          <phase>S</phase>
          <azimuth>164.4</azimuth>
          <timeResidual>2.1</timeResidual>
          <creationInfo>
            <agencyID>UW</agencyID>
            <creationTime>2012-02-27T16:32:29.000000Z</creationTime>
          </creationInfo>
        </arrival>
        <arrival publicID="quakeml:uw.anss.org/AssocArO/UW/3735693">
          <pickID>quakeml:uw.anss.org/Arrival/UW/3735693</pickID>
          <phase>P</phase>
          <azimuth>149.7</azimuth>
          <distance>2.2</distance>
          <timeResidual>1.23</timeResidual>
          <creationInfo>
            <agencyID>UW</agencyID>
            <creationTime>2012-02-27T16:32:29.000000Z</creationTime>
          </creationInfo>
        </arrival>
        <arrival publicID="quakeml:uw.anss.org/AssocArO/UW/3735703">
          <pickID>quakeml:uw.anss.org/Arrival/UW/3735703</pickID>
          <phase>P</phase>
          <azimuth>171.3</azimuth>
          <distance>2.697</distance>
          <timeResidual>2.1</timeResidual>
          <creationInfo>
            <agencyID>UW</agencyID>
            <creationTime>2012-02-27T16:32:29.000000Z</creationTime>
          </creationInfo>
        </arrival>
        <arrival publicID="quakeml:uw.anss.org/AssocArO/UW/3735733">
          <pickID>quakeml:uw.anss.org/Arrival/UW/3735733</pickID>
          <phase>P</phase>
          <azimuth>169.3</azimuth>
          <timeResidual>0.31</timeResidual>
          <creationInfo>
            <agencyID>UW</agencyID>
            <creationTime>2012-02-27T16:32:29.000000Z</creationTime>
          </creationInfo>
        </arrival>
        <arrival publicID="quakeml:uw.anss.org/AssocArO/UW/3735738">
          <pickID>quakeml:uw.anss.org/Arrival/UW/3735738</pickID>
          <phase>S</phase>
          <azimuth>169.3</azimuth>
          <timeResidual>-0.12</timeResidual>
          <creationInfo>
            <agencyID>UW</agencyID>
            <creationTime>2012-02-27T16:32:29.000000Z</creationTime>
          </creationInfo>
        </arrival>
        <arrival publicID="quakeml:uw.anss.org/AssocArO/UW/3735753">
          <pickID>quakeml:uw.anss.org/Arrival/UW/3735753</pickID>
          <phase>P</phase>
          <azimuth>116.5</azimuth>
          <distance>1.813</distance>
          <timeResidual>2.53</timeResidual>
          <creationInfo>
            <agencyID>UW</agencyID>
            <creationTime>2012-02-27T16:32:29.000000Z</creationTime>
          </creationInfo>
        </arrival>
        <arrival publicID="quakeml:uw.anss.org/AssocArO/UW/3735763">
          <pickID>quakeml:uw.anss.org/Arrival/UW/3735763</pickID>
          <phase>P</phase>
          <timeResidual>0.01</timeResidual>
          <creationInfo>
            <agencyID>UW</agencyID>
            <creationTime>2012-02-27T16:32:29.000000Z</creationTime>
          </creationInfo>
        </arrival>
        <arrival publicID="quakeml:uw.anss.org/AssocArO/UW/3735768">
          <pickID>quakeml:uw.anss.org/Arrival/UW/3735768</pickID>
          <phase>P</phase>
          <azimuth>236.3</azimuth>
          <timeResidual>-0.08</timeResidual>
          <creationInfo>
            <agencyID>UW</agencyID>
            <creationTime>2012-02-27T16:32:29.000000Z</creationTime>
          </creationInfo>
        </arrival>
        <arrival publicID="quakeml:uw.anss.org/AssocArO/UW/3735778">
          <pickID>quakeml:uw.anss.org/Arrival/UW/3735778</pickID>
          <phase>P</phase>
          <timeResidual>0.24</timeResidual>
          <creationInfo>
            <agencyID>UW</agencyID>
