<?xml version='1.0' encoding='utf-8'?>
<q:quakeml xmlns="http://quakeml.org/xmlns/bed/1.2" xmlns:q="http://quakeml.org/xmlns/quakeml/1.2" xmlns:ns0="http://anss.org/xmlns/catalog/0.1">
  <eventParameters publicID="smi:local/91f46321-fda9-4b34-9c5c-f55acd00dfea">
    <event publicID="quakeml:uw.anss.org/Event/UW/10257948" ns0:datasource="uw" ns0:dataid="uw10257948" ns0:eventsource="uw" ns0:eventid="10257948">
      <preferredOriginID>quakeml:uw.anss.org/Origin/UW/534893</preferredOriginID>
      <preferredMagnitudeID>quakeml:uw.anss.org/Netmag/UW/447508</preferredMagnitudeID>
      <type>earthquake</type>
      <creationInfo>
        <agencyID>UW</agencyID>
        <creationTime>2012-02-27T16:42:05.000000Z</creationTime>
        <version>3</version>
      </creationInfo>
      <origin publicID="quakeml:uw.anss.org/Origin/UW/534893" ns0:datasource="uw" ns0:dataid="uw10257948" ns0:eventsource="uw" ns0:eventid="10257948">
        <time>
          <value>1990-04-14T06:14:59.910000Z</value>
          <uncertainty>0.17</uncertainty>
        </time>
        <latitude>
          <value>48.8255</value>
          <uncertainty>1.02</uncertainty>
        </latitude>
        <longitude>
          <value>-122.1916667</value>
          <uncertainty>0.97</uncertainty>
        </longitude>
        <depth>
          <value>861.0</value>
          <uncertainty>2610.0</uncertainty>
        </depth>
        <depthType>operator assigned</depthType>
        <timeFixed>false</timeFixed>
        <epicenterFixed>true</epicenterFixed>
        <methodID>smi:uw.anss.org/origin/spong</methodID>
        <quality>
          <associatedPhaseCount>56</associatedPhaseCount>
          <usedPhaseCount>32</usedPhaseCount>
          <associatedStationCount>49</associatedStationCount>
          <usedStationCount>0</usedStationCount>
          <standardError>0.45</standardError>
          <azimuthalGap>85.0</azimuthalGap>
        </quality>
        <type>hypocenter</type>
        <evaluationMode>manual</evaluationMode>
        <evaluationStatus>final</evaluationStatus>
        <creationInfo>
          <agencyID>UW</agencyID>
          <creationTime>2012-02-27T16:42:05.000000Z</creationTime>
        </creationInfo>
        <originUncertainty>
          <preferredDescription>horizontal uncertainty</preferredDescription>
          <horizontalUncertainty>1408.0</horizontalUncertainty>
        </originUncertainty>
        <arrival publicID="quakeml:uw.anss.org/AssocArO/UW/3825858">
          <pickID>quakeml:uw.anss.org/Arrival/UW/3825858</pickID>
          <phase>P</phase>
          <azimuth>289.2</azimuth>
          <timeResidual>-0.33</timeResidual>
          <creationInfo>
            <agencyID>UW</agencyID>
            <creationTime>2012-02-27T16:42:05.000000Z</creationTime>
          </creationInfo>
        </arrival>
        <arrival publicID="quakeml:uw.anss.org/AssocArO/UW/3825863">
          <pickID>quakeml:uw.anss.org/Arrival/UW/3825863</pickID>
          <phase>S</phase>
          <azimuth>289.2</azimuth>
          <timeResidual>-1.29</timeResidual>
          <creationInfo>
            <agencyID>UW</agencyID>
            <creationTime>2012-02-27T16:42:05.000000Z</creationTime>
          </creationInfo>
        </arrival>
        <arrival publicID="quakeml:uw.anss.org/AssocArO/UW/3825868">
          <pickID>quakeml:uw.anss.org/Arrival/UW/3825868</pickID>
          <phase>P</phase>
          <azimuth>206.4</azimuth>
          <distance>1.312</distance>
          <timeResidual>0.05</timeResidual>
          <creationInfo>
            <agencyID>UW</agencyID>
            <creationTime>2012-02-27T16:42:05.000000Z</creationTime>
          </creationInfo>
        </arrival>
        <arrival publicID="quakeml:uw.anss.org/AssocArO/UW/3825873">
          <pickID>quakeml:uw.anss.org/Arrival/UW/3825873</pickID>
          <phase>P</phase>
          <azimuth>120.9</azimuth>
          <distance>1.445</distance>
          <timeResidual>0.95</timeResidual>
          <creationInfo>
            <agencyID>UW</agencyID>
            <creationTime>2012-02-27T16:42:05.000000Z</creationTime>
          </creationInfo>
        </arrival>
        <arrival publicID="quakeml:uw.anss.org/AssocArO/UW/3825878">
          <pickID>quakeml:uw.anss.org/Arrival/UW/3825878</pickID>
          <phase>P</phase>
          <azimuth>330.6</azimuth>
          <timeResidual>-0.17</timeResidual>
          <creationInfo>
            <agencyID>UW</agencyID>
            <creationTime>2012-02-27T16:42:05.000000Z</creationTime>
          </creationInfo>
        </arrival>
        <arrival publicID="quakeml:uw.anss.org/AssocArO/UW/3825883">
          <pickID>quakeml:uw.anss.org/Arrival/UW/3825883</pickID>
          <phase>S</phase>
          <azimuth>330.6</azimuth>
          <timeResidual>-0.22</timeResidual>
          <creationInfo>
            <agencyID>UW</agencyID>
            <creationTime>2012-02-27T16:42:06.000000Z</creationTime>
          </creationInfo>
        </arrival>
        <arrival publicID="quakeml:uw.anss.org/AssocArO/UW/3825888">
          <pickID>quakeml:uw.anss.org/Arrival/UW/3825888</pickID>
          <phase>P</phase>
          <azimuth>133.9</azimuth>
          <distance>1.743</distance>
          <timeResidual>0.86</timeResidual>
          <creationInfo>
            <agencyID>UW</agencyID>
            <creationTime>2012-02-27T16:42:06.000000Z</creationTime>
          </creationInfo>
        </arrival>
        <arrival publicID="quakeml:uw.anss.org/AssocArO/UW/3825893">
          <pickID>quakeml:uw.anss.org/Arrival/UW/3825893</pickID>
          <phase>P</phase>
          <azimuth>173.2</azimuth>
          <timeResidual>0.65</timeResidual>
          <creationInfo>
            <agencyID>UW</agencyID>
            <creationTime>2012-02-27T16:42:06.000000Z</creationTime>
          </creationInfo>
        </arrival>
        <arrival publicID="quakeml:uw.anss.org/AssocArO/UW/3825898">
          <pickID>quakeml:uw.anss.org/Arrival/UW/3825898</pickID>
          <phase>P</phase>
          <azimuth>185.2</azimuth>
          <distance>2.401</distance>
          <timeResidual>0.81</timeResidual>
          <creationInfo>
            <agencyID>UW</agencyID>
            <creationTime>2012-02-27T16:42:06.000000Z</creationTime>
          </creationInfo>
        </arrival>
        <arrival publicID="quakeml:uw.anss.org/AssocArO/UW/3825903">
          <pickID>quakeml:uw.anss.org/Arrival/UW/3825903</pickID>
          <phase>P</phase>
          <timeResidual>0.38</timeResidual>
          <creationInfo>
            <agencyID>UW</agencyID>
            <creationTime>2012-02-27T16:42:06.000000Z</creationTime>
          </creationInfo>
        </arrival>
        <arrival publicID="quakeml:uw.anss.org/AssocArO/UW/3825908">
          <pickID>quakeml:uw.anss.org/Arrival/UW/3825908</pickID>
          <phase>S</phase>
          <timeResidual>1.07</timeResidual>
          <creationInfo>
            <agencyID>UW</agencyID>
            <creationTime>2012-02-27T16:42:06.000000Z</creationTime>
          </creationInfo>
        </arrival>
        <arrival publicID="quakeml:uw.anss.org/AssocArO/UW/3825913">
          <pickID>quakeml:uw.anss.org/Arrival/UW/3825913</pickID>
          <phase>P</phase>
          <azimuth>173.3</azimuth>
          <distance>0.4051</distance>
          <timeResidual>-0.37</timeResidual>
          <creationInfo>
            <agencyID>UW</agencyID>
            <creationTime>2012-02-27T16:42:06.000000Z</creationTime>
          </creationInfo>
        </arrival>
        <arrival publicID="quakeml:uw.anss.org/AssocArO/UW/3825918">
          <pickID>quakeml:uw.anss.org/Arrival/UW/3825918</pickID>
          <phase>P</phase>
          <azimuth>170.6</azimuth>
          <timeResidual>0.49</timeResidual>
          <creationInfo>
            <agencyID>UW</agencyID>
            <creationTime>2012-02-27T16:42:06.000000Z</creationTime>
          </creationInfo>
        </arrival>
        <arrival publicID="quakeml:uw.anss.org/AssocArO/UW/3825923">
          <pickID>quakeml:uw.anss.org/Arrival/UW/3825923</pickID>
          <phase>P</phase>
          <timeResidual>-0.8</timeResidual>
          <creationInfo>
            <agencyID>UW</agencyID>
            <creationTime>2012-02-27T16:42:06.000000Z</creationTime>
          </creationInfo>
        </arrival>
        <arrival publicID="quakeml:uw.anss.org/AssocArO/UW/3825928">
          <pickID>quakeml:uw.anss.org/Arrival/UW/3825928</pickID>
          <phase>P</phase>
          <azimuth>175.5</azimuth>
          <distance>1.888</distance>
          <timeResidual>0.6</timeResidual>
          <creationInfo>
            <agencyID>UW</agencyID>
            <creationTime>2012-02-27T16:42:06.000000Z</creationTime>
          </creationInfo>
        </arrival>
        <arrival publicID="quakeml:uw.anss.org/AssocArO/UW/3825933">
          <pickID>quakeml:uw.anss.org/Arrival/UW/3825933</pickID>
          <phase>P</phase>
          <azimuth>172.8</azimuth>
          <distance>2.092</distance>
          <timeResidual>0.48</timeResidual>
          <creationInfo>
            <agencyID>UW</agencyID>
            <creationTime>2012-02-27T16:42:06.000000Z</creationTime>
          </creationInfo>
        </arrival>
        <arrival publicID="quakeml:uw.anss.org/AssocArO/UW/3825938">
          <pickID>quakeml:uw.anss.org/Arrival/UW/3825938</pickID>
          <phase>P</phase>
          <timeResidual>0.23</timeResidual>
          <creationInfo>
            <agencyID>UW</agencyID>
            <creationTime>2012-02-27T16:42:06.000000Z</creationTime>
          </creationInfo>
        </arrival>
        <arrival publicID="quakeml:uw.anss.org/AssocArO/UW/3825943">
          <pickID>quakeml:uw.anss.org/Arrival/UW/3825943</pickID>
          <phase>P</phase>
          <azimuth>129.9</azimuth>
          <distance>0.5867</distance>
          <timeResidual>-0.09</timeResidual>
          <creationInfo>
            <agencyID>UW</agencyID>
            <creationTime>2012-02-27T16:42:06.000000Z</creationTime>
          </creationInfo>
        </arrival>
        <arrival publicID="quakeml:uw.anss.org/AssocArO/UW/3825948">
          <pickID>quakeml:uw.anss.org/Arrival/UW/3825948</pickID>
          <phase>S</phase>
          <azimuth>129.9</azimuth>
          <distance>0.5867</distance>
          <timeResidual>0.43</timeResidual>
          <creationInfo>
            <agencyID>UW</agencyID>
            <creationTime>2012-02-27T16:42:06.000000Z</creationTime>
          </creationInfo>
        </arrival>
        <arrival publicID="quakeml:uw.anss.org/AssocArO/UW/3825953">
          <pickID>quakeml:uw.anss.org/Arrival/UW/3825953</pickID>
          <phase>P</phase>
          <azimuth>168.1</azimuth>
          <distance>2.173</distance>
          <timeResidual>0.95</timeResidual>
          <creationInfo>
            <agencyID>UW</agencyID>
            <creationTime>2012-02-27T16:42:06.000000Z</creationTime>
          </creationInfo>
        </arrival>
        <arrival publicID="quakeml:uw.anss.org/AssocArO/UW/3825958">
          <pickID>quakeml:uw.anss.org/Arrival/UW/3825958</pickID>
          <phase>P</phase>
          <azimuth>309.1</azimuth>
          <timeResidual>-0.45</timeResidual>
          <creationInfo>
            <agencyID>UW</agencyID>
            <creationTime>2012-02-27T16:42:06.000000Z</creationTime>
          </creationInfo>
        </arrival>
        <arrival publicID="quakeml:uw.anss.org/AssocArO/UW/3825963">
          <pickID>quakeml:uw.anss.org/Arrival/UW/3825963</pickID>
          <phase>P</phase>
          <azimuth>181.7</azimuth>
          <distance>1.273</distance>
          <timeResidual>1.2</timeResidual>
          <creationInfo>
            <agencyID>UW</agencyID>
            <creationTime>2012-02-27T16:42:06.000000Z</creationTime>
          </creationInfo>
        </arrival>
        <arrival publicID="quakeml:uw.anss.org/AssocArO/UW/3825968">
          <pickID>quakeml:uw.anss.org/Arrival/UW/3825968</pickID>
          <phase>P</phase>
          <azimuth>195.3</azimuth>
          <distance>1.041</distance>
          <timeResidual>0.7</timeResidual>
          <creationInfo>
            <agencyID>UW</agencyID>
            <creationTime>2012-02-27T16:42:06.000000Z</creationTime>
          </creationInfo>
        </arrival>
        <arrival publicID="quakeml:uw.anss.org/AssocArO/UW/3825973">
          <pickID>quakeml:uw.anss.org/Arrival/UW/3825973</pickID>
          <phase>P</phase>
          <azimuth>169.3</azimuth>
          <timeResidual>0.52</timeResidual>
          <creationInfo>
            <agencyID>UW</agencyID>
            <creationTime>2012-02-27T16:42:06.000000Z</creationTime>
          </creationInfo>
        </arrival>
        <arrival publicID="quakeml:uw.anss.org/AssocArO/UW/3825978">
          <pickID>quakeml:uw.anss.org/Arrival/UW/3825978</pickID>
          <phase>P</phase>
          <azimuth>204.3</azimuth>
          <distance>0.5515</distance>
          <timeResidual>0.48</timeResidual>
          <creationInfo>
            <agencyID>UW</agencyID>
            <creationTime>2012-02-27T16:42:06.000000Z</creationTime>
          </creationInfo>
        </arrival>
        <arrival publicID="quakeml:uw.anss.org/AssocArO/UW/3825983">
          <pickID>quakeml:uw.anss.org/Arrival/UW/3825983</pickID>
          <phase>P</phase>
          <azimuth>120.1</azimuth>
          <distance>2.177</distance>
          <timeResidual>2.74</timeResidual>
          <creationInfo>
            <agencyID>UW</agencyID>
            <creationTime>2012-02-27T16:42:06.000000Z</creationTime>
          </creationInfo>
        </arrival>
        <arrival publicID="quakeml:uw.anss.org/AssocArO/UW/3825988">
          <pickID>quakeml:uw.anss.org/Arrival/UW/3825988</pickID>
          <phase>P</phase>
          <azimuth>225.5</azimuth>
          <distance>1.428</distance>
          <timeResidual>0.27</timeResidual>
          <creationInfo>
            <agencyID>UW</agencyID>
            <creationTime>2012-02-27T16:42:06.000000Z</creationTime>
          </creationInfo>
        </arrival>
        <arrival publicID="quakeml:uw.anss.org/AssocArO/UW/3825993">
          <pickID>quakeml:uw.anss.org/Arrival/UW/3825993</pickID>
          <phase>P</phase>
          <azimuth>321.5</azimuth>
          <timeResidual>-0.25</timeResidual>
          <creationInfo>
            <agencyID>UW</agencyID>
            <creationTime>2012-02-27T16:42:06.000000Z</creationTime>
          </creationInfo>
        </arrival>
        <arrival publicID="quakeml:uw.anss.org/AssocArO/UW/3825998">
          <pickID>quakeml:uw.anss.org/Arrival/UW/3825998</pickID>
          <phase>P</phase>
          <azimuth>182.4</azimuth>
          <distance>2.523</distance>
          <timeResidual>0.92</timeResidual>
          <creationInfo>
            <agencyID>UW</agencyID>
            <creationTime>2012-02-27T16:42:06.000000Z</creationTime>
          </creationInfo>
        </arrival>
        <arrival publicID="quakeml:uw.anss.org/AssocArO/UW/3826003">
          <pickID>quakeml:uw.anss.org/Arrival/UW/3826003</pickID>
          <phase>P</phase>
          <azimuth>164.4</azimuth>
          <timeResidual>0.09</timeResidual>
          <creationInfo>
            <agencyID>UW</agencyID>
            <creationTime>2012-02-27T16:42:06.000000Z</creationTime>
          </creationInfo>
        </arrival>
        <arrival publicID="quakeml:uw.anss.org/AssocArO/UW/3826008">
          <pickID>quakeml:uw.anss.org/Arrival/UW/3826008</pickID>
          <phase>S</phase>
          <azimuth>164.4</azimuth>
          <timeResidual>2.2</timeResidual>
          <creationInfo>
            <agencyID>UW</agencyID>
            <creationTime>2012-02-27T16:42:06.000000Z</creationTime>
          </creationInfo>
        </arrival>
        <arrival publicID="quakeml:uw.anss.org/AssocArO/UW/3826013">
          <pickID>quakeml:uw.anss.org/Arrival/UW/3826013</pickID>
          <phase>P</phase>
          <azimuth>217.4</azimuth>
          <distance>1.874</distance>
          <timeResidual>0.64</timeResidual>
          <creationInfo>
            <agencyID>UW</agencyID>
            <creationTime>2012-02-27T16:42:06.000000Z</creationTime>
          </creationInfo>
        </arrival>
        <arrival publicID="quakeml:uw.anss.org/AssocArO/UW/3826018">
          <pickID>quakeml:uw.anss.org/Arrival/UW/3826018</pickID>
          <phase>P</phase>
          <azimuth>239.5</azimuth>
          <distance>1.69</distance>
          <timeResidual>1.0</timeResidual>
          <creationInfo>
            <agencyID>UW</agencyID>
            <creationTime>2012-02-27T16:42:06.000000Z</creationTime>
          </creationInfo>
        </arrival>
        <arrival publicID="quakeml:uw.anss.org/AssocArO/UW/3826023">
          <pickID>quakeml:uw.anss.org/Arrival/UW/3826023</pickID>
          <phase>P</phase>
          <azimuth>120.4</azimuth>
          <distance>2.741</distance>
          <timeResidual>4.54</timeResidual>
          <creationInfo>
            <agencyID>UW</agencyID>
            <creationTime>2012-02-27T16:42:06.000000Z</creationTime>
          </creationInfo>
        </arrival>
        <arrival publicID="quakeml:uw.anss.org/AssocArO/UW/3826028">
          <pickID>quakeml:uw.anss.org/Arrival/UW/3826028</pickID>
          <phase>P</phase>
          <azimuth>116.7</azimuth>
          <distance>1.818</distance>
          <timeResidual>2.03</timeResidual>
          <creationInfo>
            <agencyID>UW</agencyID>
            <creationTime>2012-02-27T16:42:06.000000Z</creationTime>
          </creationInfo>
        </arrival>
        <arrival publicID="quakeml:uw.anss.org/AssocArO/UW/3826033">
          <pickID>quakeml:uw.anss.org/Arrival/UW/3826033</pickID>
          <phase>P</phase>
          <timeResidual>0.1</timeResidual>
          <creationInfo>
            <agencyID>UW</agencyID>
            <creationTime>2012-02-27T16:42:06.000000Z</creationTime>
          </creationInfo>
        </arrival>
        <arrival publicID="quakeml:uw.anss.org/AssocArO/UW/3826038">
          <pickID>quakeml:uw.anss.org/Arrival/UW/3826038</pickID>
          <phase>P</phase>
          <azimuth>236.0</azimuth>
          <timeResidual>-0.03</timeResidual>
          <creationInfo>
            <agencyID>UW</agencyID>
            <creationTime>2012-02-27T16:42:06.000000Z</creationTime>
          </creationInfo>
        </arrival>
        <arrival publicID="quakeml:uw.anss.org/AssocArO/UW/3826043">
          <pickID>quakeml:uw.anss.org/Arrival/UW/3826043</pickID>
          <phase>P</phase>
          <timeResidual>0.26</timeResidual>
          <creationInfo>
            <agencyID>UW</agencyID>
            <creationTime>2012-02-27T16:42:06.000000Z</creationTime>
          </creationInfo>
        </arrival>
        <arrival publicID="quakeml:uw.anss.org/AssocArO/UW/3826048">
          <pickID>quakeml:uw.anss.org/Arrival/UW/3826048</pickID>
          <phase>S</phase>
          <timeResidual>0.24</timeResidual>
          <creationInfo>
            <agencyID>UW</agencyID>
            <creationTime>2012-02-27T16:42:06.000000Z</creationTime>
          </creationInfo>
        </arrival>
        <arrival publicID="quakeml:uw.anss.org/AssocArO/UW/3826053">
          <pickID>quakeml:uw.anss.org/Arrival/UW/3826053</pickID>
          <phase>P</phase>
          <azimuth>126.3</azimuth>
          <distance>1.872</distance>
          <timeResidual>0.71</timeResidual>
          <creationInfo>
            <agencyID>UW</agencyID>
            <creationTime>2012-02-27T16:42:06.000000Z</creationTime>
          </creationInfo>
        </arrival>
        <arrival publicID="quakeml:uw.anss.org/AssocArO/UW/3826058">
          <pickID>quakeml:uw.anss.org/Arrival/UW/3826058</pickID>
          <phase>P</phase>
          <azimuth>197.5</azimuth>
          <distance>1.339</distance>
          <timeResidual>0.16</timeResidual>
          <creationInfo>
            <agencyID>UW</agencyID>
            <creationTime>2012-02-27T16:42:06.000000Z</creationTime>
