<?xml version='1.0' encoding='utf-8'?>
<q:quakeml xmlns="http://quakeml.org/xmlns/bed/1.2" xmlns:q="http://quakeml.org/xmlns/quakeml/1.2" xmlns:ns0="http://anss.org/xmlns/catalog/0.1">
  <eventParameters publicID="smi:local/3e4c298a-3f13-4a8a-a9cb-b5aa589ae6c5">
    <event publicID="quakeml:uw.anss.org/Event/UW/10258938" ns0:datasource="uw" ns0:dataid="uw10258938" ns0:eventsource="uw" ns0:eventid="10258938">
      <preferredOriginID>quakeml:uw.anss.org/Origin/UW/535883</preferredOriginID>
      <preferredMagnitudeID>quakeml:uw.anss.org/Netmag/UW/448383</preferredMagnitudeID>
      <type>earthquake</type>
      <creationInfo>
        <agencyID>UW</agencyID>
        <creationTime>2012-02-27T16:44:11.000000Z</creationTime>
        <version>3</version>
      </creationInfo>
      <origin publicID="quakeml:uw.anss.org/Origin/UW/535883" ns0:datasource="uw" ns0:dataid="uw10258938" ns0:eventsource="uw" ns0:eventid="10258938">
        <time>
          <value>1990-04-15T11:07:31.600000Z</value>
          <uncertainty>1.29</uncertainty>
        </time>
        <latitude>
          <value>48.8471667</value>
          <uncertainty>0.72</uncertainty>
        </latitude>
        <longitude>
          <value>-122.1778333</value>
          <uncertainty>1.65</uncertainty>
        </longitude>
        <depth>
          <value>651.0</value>
          <uncertainty>10690.0</uncertainty>
        </depth>
        <depthType>operator assigned</depthType>
        <timeFixed>false</timeFixed>
        <epicenterFixed>true</epicenterFixed>
        <methodID>smi:uw.anss.org/origin/spong</methodID>
        <quality>
          <associatedPhaseCount>112</associatedPhaseCount>
          <usedPhaseCount>33</usedPhaseCount>
          <associatedStationCount>91</associatedStationCount>
          <usedStationCount>0</usedStationCount>
          <standardError>0.46</standardError>
          <azimuthalGap>93.0</azimuthalGap>
        </quality>
        <type>hypocenter</type>
        <evaluationMode>manual</evaluationMode>
        <evaluationStatus>final</evaluationStatus>
        <creationInfo>
          <agencyID>UW</agencyID>
          <creationTime>2012-02-27T16:44:11.000000Z</creationTime>
        </creationInfo>
        <originUncertainty>
          <preferredDescription>horizontal uncertainty</preferredDescription>
          <horizontalUncertainty>1800.0</horizontalUncertainty>
        </originUncertainty>
        <arrival publicID="quakeml:uw.anss.org/AssocArO/UW/3843423">
          <pickID>quakeml:uw.anss.org/Arrival/UW/3843423</pickID>
          <phase>P</phase>
          <azimuth>288.1</azimuth>
          <timeResidual>-0.25</timeResidual>
          <creationInfo>
            <agencyID>UW</agencyID>
            <creationTime>2012-02-27T16:44:11.000000Z</creationTime>
          </creationInfo>
        </arrival>
        <arrival publicID="quakeml:uw.anss.org/AssocArO/UW/3843433">
          <pickID>quakeml:uw.anss.org/Arrival/UW/3843433</pickID>
          <phase>S</phase>
          <azimuth>288.1</azimuth>
          <timeResidual>-1.03</timeResidual>
          <creationInfo>
            <agencyID>UW</agencyID>
            <creationTime>2012-02-27T16:44:11.000000Z</creationTime>
          </creationInfo>
        </arrival>
        <arrival publicID="quakeml:uw.anss.org/AssocArO/UW/3843443">
          <pickID>quakeml:uw.anss.org/Arrival/UW/3843443</pickID>
          <phase>P</phase>
          <azimuth>156.2</azimuth>
          <distance>2.304</distance>
          <timeResidual>0.11</timeResidual>
          <creationInfo>
            <agencyID>UW</agencyID>
            <creationTime>2012-02-27T16:44:11.000000Z</creationTime>
          </creationInfo>
        </arrival>
        <arrival publicID="quakeml:uw.anss.org/AssocArO/UW/3843453">
          <pickID>quakeml:uw.anss.org/Arrival/UW/3843453</pickID>
          <phase>P</phase>
          <azimuth>182.1</azimuth>
          <distance>1.808</distance>
          <timeResidual>0.14</timeResidual>
          <creationInfo>
            <agencyID>UW</agencyID>
            <creationTime>2012-02-27T16:44:11.000000Z</creationTime>
          </creationInfo>
        </arrival>
        <arrival publicID="quakeml:uw.anss.org/AssocArO/UW/3843463">
          <pickID>quakeml:uw.anss.org/Arrival/UW/3843463</pickID>
          <phase>P</phase>
          <azimuth>197.0</azimuth>
          <distance>2.478</distance>
          <timeResidual>0.56</timeResidual>
          <creationInfo>
            <agencyID>UW</agencyID>
            <creationTime>2012-02-27T16:44:11.000000Z</creationTime>
          </creationInfo>
        </arrival>
        <arrival publicID="quakeml:uw.anss.org/AssocArO/UW/3843473">
          <pickID>quakeml:uw.anss.org/Arrival/UW/3843473</pickID>
          <phase>P</phase>
          <azimuth>170.3</azimuth>
          <distance>2.323</distance>
          <timeResidual>0.7</timeResidual>
          <creationInfo>
            <agencyID>UW</agencyID>
            <creationTime>2012-02-27T16:44:11.000000Z</creationTime>
          </creationInfo>
        </arrival>
        <arrival publicID="quakeml:uw.anss.org/AssocArO/UW/3843478">
          <pickID>quakeml:uw.anss.org/Arrival/UW/3843478</pickID>
          <phase>P</phase>
          <azimuth>129.9</azimuth>
          <distance>2.284</distance>
          <timeResidual>2.62</timeResidual>
          <creationInfo>
            <agencyID>UW</agencyID>
            <creationTime>2012-02-27T16:44:11.000000Z</creationTime>
          </creationInfo>
        </arrival>
        <arrival publicID="quakeml:uw.anss.org/AssocArO/UW/3843488">
          <pickID>quakeml:uw.anss.org/Arrival/UW/3843488</pickID>
          <phase>P</phase>
          <azimuth>171.0</azimuth>
          <timeResidual>0.26</timeResidual>
          <creationInfo>
            <agencyID>UW</agencyID>
            <creationTime>2012-02-27T16:44:11.000000Z</creationTime>
          </creationInfo>
        </arrival>
        <arrival publicID="quakeml:uw.anss.org/AssocArO/UW/3843498">
          <pickID>quakeml:uw.anss.org/Arrival/UW/3843498</pickID>
          <phase>S</phase>
          <azimuth>171.0</azimuth>
          <timeResidual>0.3</timeResidual>
          <creationInfo>
            <agencyID>UW</agencyID>
            <creationTime>2012-02-27T16:44:11.000000Z</creationTime>
          </creationInfo>
        </arrival>
        <arrival publicID="quakeml:uw.anss.org/AssocArO/UW/3843508">
          <pickID>quakeml:uw.anss.org/Arrival/UW/3843508</pickID>
          <phase>P</phase>
          <azimuth>199.3</azimuth>
          <distance>1.983</distance>
          <timeResidual>-0.14</timeResidual>
          <creationInfo>
            <agencyID>UW</agencyID>
            <creationTime>2012-02-27T16:44:11.000000Z</creationTime>
          </creationInfo>
        </arrival>
        <arrival publicID="quakeml:uw.anss.org/AssocArO/UW/3843513">
          <pickID>quakeml:uw.anss.org/Arrival/UW/3843513</pickID>
          <phase>P</phase>
          <azimuth>175.8</azimuth>
          <distance>1.909</distance>
          <timeResidual>0.18</timeResidual>
          <creationInfo>
            <agencyID>UW</agencyID>
            <creationTime>2012-02-27T16:44:11.000000Z</creationTime>
          </creationInfo>
        </arrival>
        <arrival publicID="quakeml:uw.anss.org/AssocArO/UW/3843518">
          <pickID>quakeml:uw.anss.org/Arrival/UW/3843518</pickID>
          <phase>S</phase>
          <azimuth>175.8</azimuth>
          <distance>1.909</distance>
          <timeResidual>0.11</timeResidual>
          <creationInfo>
            <agencyID>UW</agencyID>
            <creationTime>2012-02-27T16:44:11.000000Z</creationTime>
          </creationInfo>
        </arrival>
        <arrival publicID="quakeml:uw.anss.org/AssocArO/UW/3843528">
          <pickID>quakeml:uw.anss.org/Arrival/UW/3843528</pickID>
          <phase>P</phase>
          <azimuth>217.2</azimuth>
          <distance>1.897</distance>
          <timeResidual>0.54</timeResidual>
          <creationInfo>
            <agencyID>UW</agencyID>
            <creationTime>2012-02-27T16:44:11.000000Z</creationTime>
          </creationInfo>
        </arrival>
        <arrival publicID="quakeml:uw.anss.org/AssocArO/UW/3843538">
          <pickID>quakeml:uw.anss.org/Arrival/UW/3843538</pickID>
          <phase>P</phase>
          <azimuth>146.5</azimuth>
          <distance>3.13</distance>
          <timeResidual>0.39</timeResidual>
          <creationInfo>
            <agencyID>UW</agencyID>
            <creationTime>2012-02-27T16:44:11.000000Z</creationTime>
          </creationInfo>
        </arrival>
        <arrival publicID="quakeml:uw.anss.org/AssocArO/UW/3843548">
          <pickID>quakeml:uw.anss.org/Arrival/UW/3843548</pickID>
          <phase>P</phase>
          <azimuth>182.1</azimuth>
          <distance>1.295</distance>
          <timeResidual>0.63</timeResidual>
          <creationInfo>
            <agencyID>UW</agencyID>
            <creationTime>2012-02-27T16:44:11.000000Z</creationTime>
          </creationInfo>
        </arrival>
        <arrival publicID="quakeml:uw.anss.org/AssocArO/UW/3843558">
          <pickID>quakeml:uw.anss.org/Arrival/UW/3843558</pickID>
          <phase>P</phase>
          <azimuth>180.0</azimuth>
          <distance>2.674</distance>
          <timeResidual>1.55</timeResidual>
          <creationInfo>
            <agencyID>UW</agencyID>
            <creationTime>2012-02-27T16:44:11.000000Z</creationTime>
          </creationInfo>
        </arrival>
        <arrival publicID="quakeml:uw.anss.org/AssocArO/UW/3843568">
          <pickID>quakeml:uw.anss.org/Arrival/UW/3843568</pickID>
          <phase>P</phase>
          <azimuth>173.5</azimuth>
          <timeResidual>0.55</timeResidual>
          <creationInfo>
            <agencyID>UW</agencyID>
            <creationTime>2012-02-27T16:44:11.000000Z</creationTime>
          </creationInfo>
        </arrival>
        <arrival publicID="quakeml:uw.anss.org/AssocArO/UW/3843573">
          <pickID>quakeml:uw.anss.org/Arrival/UW/3843573</pickID>
          <phase>S</phase>
          <azimuth>173.5</azimuth>
          <timeResidual>-0.1</timeResidual>
          <creationInfo>
            <agencyID>UW</agencyID>
            <creationTime>2012-02-27T16:44:11.000000Z</creationTime>
          </creationInfo>
        </arrival>
        <arrival publicID="quakeml:uw.anss.org/AssocArO/UW/3843588">
          <pickID>quakeml:uw.anss.org/Arrival/UW/3843588</pickID>
          <phase>P</phase>
          <azimuth>188.3</azimuth>
          <distance>2.726</distance>
          <timeResidual>1.41</timeResidual>
          <creationInfo>
            <agencyID>UW</agencyID>
            <creationTime>2012-02-27T16:44:11.000000Z</creationTime>
          </creationInfo>
        </arrival>
        <arrival publicID="quakeml:uw.anss.org/AssocArO/UW/3843593">
          <pickID>quakeml:uw.anss.org/Arrival/UW/3843593</pickID>
          <phase>P</phase>
          <azimuth>204.3</azimuth>
          <distance>0.575</distance>
          <timeResidual>0.71</timeResidual>
          <creationInfo>
            <agencyID>UW</agencyID>
            <creationTime>2012-02-27T16:44:11.000000Z</creationTime>
          </creationInfo>
        </arrival>
        <arrival publicID="quakeml:uw.anss.org/AssocArO/UW/3843598">
          <pickID>quakeml:uw.anss.org/Arrival/UW/3843598</pickID>
          <phase>P</phase>
          <azimuth>120.8</azimuth>
          <distance>2.18</distance>
          <timeResidual>2.76</timeResidual>
          <creationInfo>
            <agencyID>UW</agencyID>
            <creationTime>2012-02-27T16:44:11.000000Z</creationTime>
          </creationInfo>
        </arrival>
        <arrival publicID="quakeml:uw.anss.org/AssocArO/UW/3843603">
          <pickID>quakeml:uw.anss.org/Arrival/UW/3843603</pickID>
          <phase>P</phase>
          <azimuth>239.0</azimuth>
          <distance>1.709</distance>
          <timeResidual>0.74</timeResidual>
          <creationInfo>
            <agencyID>UW</agencyID>
            <creationTime>2012-02-27T16:44:11.000000Z</creationTime>
          </creationInfo>
        </arrival>
        <arrival publicID="quakeml:uw.anss.org/AssocArO/UW/3843618">
          <pickID>quakeml:uw.anss.org/Arrival/UW/3843618</pickID>
          <phase>P</phase>
          <timeResidual>0.38</timeResidual>
          <creationInfo>
            <agencyID>UW</agencyID>
            <creationTime>2012-02-27T16:44:11.000000Z</creationTime>
          </creationInfo>
        </arrival>
        <arrival publicID="quakeml:uw.anss.org/AssocArO/UW/3843623">
          <pickID>quakeml:uw.anss.org/Arrival/UW/3843623</pickID>
          <phase>P</phase>
          <azimuth>142.0</azimuth>
          <distance>2.557</distance>
          <timeResidual>3.19</timeResidual>
          <creationInfo>
            <agencyID>UW</agencyID>
            <creationTime>2012-02-27T16:44:11.000000Z</creationTime>
          </creationInfo>
        </arrival>
        <arrival publicID="quakeml:uw.anss.org/AssocArO/UW/3843628">
          <pickID>quakeml:uw.anss.org/Arrival/UW/3843628</pickID>
          <phase>P</phase>
          <azimuth>180.2</azimuth>
          <distance>2.639</distance>
          <timeResidual>1.0</timeResidual>
          <creationInfo>
            <agencyID>UW</agencyID>
            <creationTime>2012-02-27T16:44:11.000000Z</creationTime>
          </creationInfo>
        </arrival>
        <arrival publicID="quakeml:uw.anss.org/AssocArO/UW/3843633">
          <pickID>quakeml:uw.anss.org/Arrival/UW/3843633</pickID>
          <phase>P</phase>
          <azimuth>188.6</azimuth>
          <distance>2.215</distance>
          <timeResidual>0.01</timeResidual>
          <creationInfo>
            <agencyID>UW</agencyID>
            <creationTime>2012-02-27T16:44:11.000000Z</creationTime>
          </creationInfo>
        </arrival>
        <arrival publicID="quakeml:uw.anss.org/AssocArO/UW/3843638">
          <pickID>quakeml:uw.anss.org/Arrival/UW/3843638</pickID>
          <phase>P</phase>
          <azimuth>206.3</azimuth>
          <distance>1.335</distance>
          <timeResidual>0.32</timeResidual>
          <creationInfo>
            <agencyID>UW</agencyID>
            <creationTime>2012-02-27T16:44:11.000000Z</creationTime>
          </creationInfo>
        </arrival>
        <arrival publicID="quakeml:uw.anss.org/AssocArO/UW/3843643">
          <pickID>quakeml:uw.anss.org/Arrival/UW/3843643</pickID>
          <phase>S</phase>
          <azimuth>206.3</azimuth>
          <distance>1.335</distance>
          <timeResidual>0.39</timeResidual>
          <creationInfo>
            <agencyID>UW</agencyID>
            <creationTime>2012-02-27T16:44:11.000000Z</creationTime>
          </creationInfo>
        </arrival>
        <arrival publicID="quakeml:uw.anss.org/AssocArO/UW/3843648">
          <pickID>quakeml:uw.anss.org/Arrival/UW/3843648</pickID>
          <phase>P</phase>
          <azimuth>185.4</azimuth>
          <distance>2.424</distance>
          <timeResidual>0.51</timeResidual>
          <creationInfo>
            <agencyID>UW</agencyID>
            <creationTime>2012-02-27T16:44:11.000000Z</creationTime>
          </creationInfo>
        </arrival>
        <arrival publicID="quakeml:uw.anss.org/AssocArO/UW/3843653">
          <pickID>quakeml:uw.anss.org/Arrival/UW/3843653</pickID>
          <phase>P</phase>
          <azimuth>139.9</azimuth>
          <distance>2.903</distance>
          <timeResidual>4.66</timeResidual>
          <creationInfo>
            <agencyID>UW</agencyID>
            <creationTime>2012-02-27T16:44:11.000000Z</creationTime>
          </creationInfo>
        </arrival>
        <arrival publicID="quakeml:uw.anss.org/AssocArO/UW/3843658">
          <pickID>quakeml:uw.anss.org/Arrival/UW/3843658</pickID>
          <phase>P</phase>
          <azimuth>172.1</azimuth>
          <distance>2.951</distance>
          <timeResidual>2.58</timeResidual>
          <creationInfo>
            <agencyID>UW</agencyID>
            <creationTime>2012-02-27T16:44:11.000000Z</creationTime>
          </creationInfo>
        </arrival>
        <arrival publicID="quakeml:uw.anss.org/AssocArO/UW/3843663">
          <pickID>quakeml:uw.anss.org/Arrival/UW/3843663</pickID>
          <phase>P</phase>
          <timeResidual>0.21</timeResidual>
          <creationInfo>
            <agencyID>UW</agencyID>
            <creationTime>2012-02-27T16:44:11.000000Z</creationTime>
          </creationInfo>
        </arrival>
        <arrival publicID="quakeml:uw.anss.org/AssocArO/UW/3843668">
          <pickID>quakeml:uw.anss.org/Arrival/UW/3843668</pickID>
          <phase>S</phase>
          <timeResidual>1.43</timeResidual>
          <creationInfo>
            <agencyID>UW</agencyID>
            <creationTime>2012-02-27T16:44:11.000000Z</creationTime>
          </creationInfo>
        </arrival>
        <arrival publicID="quakeml:uw.anss.org/AssocArO/UW/3843673">
          <pickID>quakeml:uw.anss.org/Arrival/UW/3843673</pickID>
          <phase>P</phase>
          <azimuth>136.2</azimuth>
          <distance>2.761</distance>
          <timeResidual>3.41</timeResidual>
          <creationInfo>
            <agencyID>UW</agencyID>
            <creationTime>2012-02-27T16:44:11.000000Z</creationTime>
          </creationInfo>
        </arrival>
        <arrival publicID="quakeml:uw.anss.org/AssocArO/UW/3843678">
          <pickID>quakeml:uw.anss.org/Arrival/UW/3843678</pickID>
          <phase>P</phase>
          <azimuth>174.8</azimuth>
          <distance>0.4257</distance>
          <timeResidual>-0.44</timeResidual>
          <creationInfo>
            <agencyID>UW</agencyID>
            <creationTime>2012-02-27T16:44:12.000000Z</creationTime>
          </creationInfo>
        </arrival>
        <arrival publicID="quakeml:uw.anss.org/AssocArO/UW/3843683">
          <pickID>quakeml:uw.anss.org/Arrival/UW/3843683</pickID>
          <phase>P</phase>
          <azimuth>182.1</azimuth>
          <distance>2.182</distance>
          <timeResidual>-0.06</timeResidual>
          <creationInfo>
            <agencyID>UW</agencyID>
            <creationTime>2012-02-27T16:44:12.000000Z</creationTime>
          </creationInfo>
        </arrival>
        <arrival publicID="quakeml:uw.anss.org/AssocArO/UW/3843688">
          <pickID>quakeml:uw.anss.org/Arrival/UW/3843688</pickID>
          <phase>P</phase>
          <azimuth>179.6</azimuth>
          <distance>2.702</distance>
          <timeResidual>1.75</timeResidual>
          <creationInfo>
            <agencyID>UW</agencyID>
            <creationTime>2012-02-27T16:44:12.000000Z</creationTime>
          </creationInfo>
        </arrival>
        <arrival publicID="quakeml:uw.anss.org/AssocArO/UW/3843693">
          <pickID>quakeml:uw.anss.org/Arrival/UW/3843693</pickID>
          <phase>P</phase>
          <azimuth>225.1</azimuth>
          <distance>1.45</distance>
          <timeResidual>0.28</timeResidual>
          <creationInfo>
            <agencyID>UW</agencyID>
            <creationTime>2012-02-27T16:44:12.000000Z</creationTime>
          </creationInfo>
        </arrival>
        <arrival publicID="quakeml:uw.anss.org/AssocArO/UW/3843698">
          <pickID>quakeml:uw.anss.org/Arrival/UW/3843698</pickID>
          <phase>P</phase>
          <timeResidual>-0.07</timeResidual>
          <creationInfo>
            <agencyID>UW</agencyID>
            <creationTime>2012-02-27T16:44:12.000000Z</creationTime>
          </creationInfo>
        </arrival>
        <arrival publicID="quakeml:uw.anss.org/AssocArO/UW/3843703">
          <pickID>quakeml:uw.anss.org/Arrival/UW/3843703</pickID>
          <phase>S</phase>
          <timeResidual>0.15</timeResidual>
          <creationInfo>
            <agencyID>UW</agencyID>
            <creationTime>2012-02-27T16:44:12.000000Z</creationTime>
          </creationInfo>
        </arrival>
