<?xml version='1.0' encoding='utf-8'?>
<q:quakeml xmlns="http://quakeml.org/xmlns/bed/1.2" xmlns:q="http://quakeml.org/xmlns/quakeml/1.2" xmlns:ns0="http://anss.org/xmlns/catalog/0.1">
  <eventParameters publicID="smi:local/aa01bca9-fd16-4e50-901c-31e5315c3a1c">
    <event publicID="quakeml:uw.anss.org/Event/UW/10258823" ns0:datasource="uw" ns0:dataid="uw10258823" ns0:eventsource="uw" ns0:eventid="10258823">
      <preferredOriginID>quakeml:uw.anss.org/Origin/UW/535768</preferredOriginID>
      <preferredMagnitudeID>quakeml:uw.anss.org/Netmag/UW/448268</preferredMagnitudeID>
      <type>earthquake</type>
      <creationInfo>
        <agencyID>UW</agencyID>
        <creationTime>2012-02-27T16:43:52.000000Z</creationTime>
        <version>3</version>
      </creationInfo>
      <origin publicID="quakeml:uw.anss.org/Origin/UW/535768" ns0:datasource="uw" ns0:dataid="uw10258823" ns0:eventsource="uw" ns0:eventid="10258823">
        <time>
          <value>1990-04-15T02:05:27.450000Z</value>
          <uncertainty>0.44</uncertainty>
        </time>
        <latitude>
          <value>48.8261667</value>
          <uncertainty>0.96</uncertainty>
        </latitude>
        <longitude>
          <value>-122.2068333</value>
          <uncertainty>0.78</uncertainty>
        </longitude>
        <depth>
          <value>666.0</value>
          <uncertainty>3730.0</uncertainty>
        </depth>
        <depthType>operator assigned</depthType>
        <timeFixed>false</timeFixed>
        <epicenterFixed>true</epicenterFixed>
        <methodID>smi:uw.anss.org/origin/spong</methodID>
        <quality>
          <associatedPhaseCount>64</associatedPhaseCount>
          <usedPhaseCount>30</usedPhaseCount>
          <associatedStationCount>50</associatedStationCount>
          <usedStationCount>0</usedStationCount>
          <standardError>0.47</standardError>
          <azimuthalGap>102.0</azimuthalGap>
        </quality>
        <type>hypocenter</type>
        <evaluationMode>manual</evaluationMode>
        <evaluationStatus>final</evaluationStatus>
        <creationInfo>
          <agencyID>UW</agencyID>
          <creationTime>2012-02-27T16:43:52.000000Z</creationTime>
        </creationInfo>
        <originUncertainty>
          <preferredDescription>horizontal uncertainty</preferredDescription>
          <horizontalUncertainty>1237.0</horizontalUncertainty>
        </originUncertainty>
        <arrival publicID="quakeml:uw.anss.org/AssocArO/UW/3841013">
          <pickID>quakeml:uw.anss.org/Arrival/UW/3841013</pickID>
          <phase>P</phase>
          <azimuth>289.3</azimuth>
          <timeResidual>-0.19</timeResidual>
          <creationInfo>
            <agencyID>UW</agencyID>
            <creationTime>2012-02-27T16:43:52.000000Z</creationTime>
          </creationInfo>
        </arrival>
        <arrival publicID="quakeml:uw.anss.org/AssocArO/UW/3841018">
          <pickID>quakeml:uw.anss.org/Arrival/UW/3841018</pickID>
          <phase>S</phase>
          <azimuth>289.3</azimuth>
          <timeResidual>-1.19</timeResidual>
          <creationInfo>
            <agencyID>UW</agencyID>
            <creationTime>2012-02-27T16:43:52.000000Z</creationTime>
          </creationInfo>
        </arrival>
        <arrival publicID="quakeml:uw.anss.org/AssocArO/UW/3841023">
          <pickID>quakeml:uw.anss.org/Arrival/UW/3841023</pickID>
          <phase>P</phase>
          <azimuth>206.0</azimuth>
          <distance>1.308</distance>
          <timeResidual>-0.09</timeResidual>
          <creationInfo>
            <agencyID>UW</agencyID>
            <creationTime>2012-02-27T16:43:52.000000Z</creationTime>
          </creationInfo>
        </arrival>
        <arrival publicID="quakeml:uw.anss.org/AssocArO/UW/3841028">
          <pickID>quakeml:uw.anss.org/Arrival/UW/3841028</pickID>
          <phase>S</phase>
          <azimuth>206.0</azimuth>
          <distance>1.308</distance>
          <timeResidual>0.37</timeResidual>
          <creationInfo>
            <agencyID>UW</agencyID>
            <creationTime>2012-02-27T16:43:52.000000Z</creationTime>
          </creationInfo>
        </arrival>
        <arrival publicID="quakeml:uw.anss.org/AssocArO/UW/3841033">
          <pickID>quakeml:uw.anss.org/Arrival/UW/3841033</pickID>
          <phase>P</phase>
          <azimuth>120.7</azimuth>
          <distance>1.454</distance>
          <timeResidual>0.94</timeResidual>
          <creationInfo>
            <agencyID>UW</agencyID>
            <creationTime>2012-02-27T16:43:52.000000Z</creationTime>
          </creationInfo>
        </arrival>
        <arrival publicID="quakeml:uw.anss.org/AssocArO/UW/3841038">
          <pickID>quakeml:uw.anss.org/Arrival/UW/3841038</pickID>
          <phase>S</phase>
          <azimuth>120.7</azimuth>
          <distance>1.454</distance>
          <timeResidual>0.4</timeResidual>
          <creationInfo>
            <agencyID>UW</agencyID>
            <creationTime>2012-02-27T16:43:52.000000Z</creationTime>
          </creationInfo>
        </arrival>
        <arrival publicID="quakeml:uw.anss.org/AssocArO/UW/3841043">
          <pickID>quakeml:uw.anss.org/Arrival/UW/3841043</pickID>
          <phase>P</phase>
          <azimuth>331.6</azimuth>
          <timeResidual>0.0</timeResidual>
          <creationInfo>
            <agencyID>UW</agencyID>
            <creationTime>2012-02-27T16:43:52.000000Z</creationTime>
          </creationInfo>
        </arrival>
        <arrival publicID="quakeml:uw.anss.org/AssocArO/UW/3841048">
          <pickID>quakeml:uw.anss.org/Arrival/UW/3841048</pickID>
          <phase>P</phase>
          <azimuth>133.7</azimuth>
          <distance>1.751</distance>
          <timeResidual>0.63</timeResidual>
          <creationInfo>
            <agencyID>UW</agencyID>
            <creationTime>2012-02-27T16:43:52.000000Z</creationTime>
          </creationInfo>
        </arrival>
        <arrival publicID="quakeml:uw.anss.org/AssocArO/UW/3841053">
          <pickID>quakeml:uw.anss.org/Arrival/UW/3841053</pickID>
          <phase>S</phase>
          <azimuth>133.7</azimuth>
          <distance>1.751</distance>
          <timeResidual>2.93</timeResidual>
          <creationInfo>
            <agencyID>UW</agencyID>
            <creationTime>2012-02-27T16:43:52.000000Z</creationTime>
          </creationInfo>
        </arrival>
        <arrival publicID="quakeml:uw.anss.org/AssocArO/UW/3841058">
          <pickID>quakeml:uw.anss.org/Arrival/UW/3841058</pickID>
          <phase>P</phase>
          <azimuth>155.6</azimuth>
          <distance>2.292</distance>
          <timeResidual>0.3</timeResidual>
          <creationInfo>
            <agencyID>UW</agencyID>
            <creationTime>2012-02-27T16:43:52.000000Z</creationTime>
          </creationInfo>
        </arrival>
        <arrival publicID="quakeml:uw.anss.org/AssocArO/UW/3841063">
          <pickID>quakeml:uw.anss.org/Arrival/UW/3841063</pickID>
          <phase>P</phase>
          <azimuth>207.2</azimuth>
          <distance>1.69</distance>
          <timeResidual>1.94</timeResidual>
          <creationInfo>
            <agencyID>UW</agencyID>
            <creationTime>2012-02-27T16:43:52.000000Z</creationTime>
          </creationInfo>
        </arrival>
        <arrival publicID="quakeml:uw.anss.org/AssocArO/UW/3841068">
          <pickID>quakeml:uw.anss.org/Arrival/UW/3841068</pickID>
          <phase>P</phase>
          <azimuth>184.9</azimuth>
          <distance>2.401</distance>
          <timeResidual>0.35</timeResidual>
          <creationInfo>
            <agencyID>UW</agencyID>
            <creationTime>2012-02-27T16:43:52.000000Z</creationTime>
          </creationInfo>
        </arrival>
        <arrival publicID="quakeml:uw.anss.org/AssocArO/UW/3841073">
          <pickID>quakeml:uw.anss.org/Arrival/UW/3841073</pickID>
          <phase>P</phase>
          <timeResidual>0.47</timeResidual>
          <creationInfo>
            <agencyID>UW</agencyID>
            <creationTime>2012-02-27T16:43:52.000000Z</creationTime>
          </creationInfo>
        </arrival>
        <arrival publicID="quakeml:uw.anss.org/AssocArO/UW/3841078">
          <pickID>quakeml:uw.anss.org/Arrival/UW/3841078</pickID>
          <phase>S</phase>
          <timeResidual>1.23</timeResidual>
          <creationInfo>
            <agencyID>UW</agencyID>
            <creationTime>2012-02-27T16:43:52.000000Z</creationTime>
          </creationInfo>
        </arrival>
        <arrival publicID="quakeml:uw.anss.org/AssocArO/UW/3841083">
          <pickID>quakeml:uw.anss.org/Arrival/UW/3841083</pickID>
          <phase>P</phase>
          <azimuth>171.9</azimuth>
          <distance>0.4071</distance>
          <timeResidual>-0.57</timeResidual>
          <creationInfo>
            <agencyID>UW</agencyID>
            <creationTime>2012-02-27T16:43:52.000000Z</creationTime>
          </creationInfo>
        </arrival>
        <arrival publicID="quakeml:uw.anss.org/AssocArO/UW/3841088">
          <pickID>quakeml:uw.anss.org/Arrival/UW/3841088</pickID>
          <phase>S</phase>
          <azimuth>171.9</azimuth>
          <distance>0.4071</distance>
          <timeResidual>0.94</timeResidual>
          <creationInfo>
            <agencyID>UW</agencyID>
            <creationTime>2012-02-27T16:43:52.000000Z</creationTime>
          </creationInfo>
        </arrival>
        <arrival publicID="quakeml:uw.anss.org/AssocArO/UW/3841093">
          <pickID>quakeml:uw.anss.org/Arrival/UW/3841093</pickID>
          <phase>P</phase>
          <azimuth>170.2</azimuth>
          <timeResidual>0.06</timeResidual>
          <creationInfo>
            <agencyID>UW</agencyID>
            <creationTime>2012-02-27T16:43:52.000000Z</creationTime>
          </creationInfo>
        </arrival>
        <arrival publicID="quakeml:uw.anss.org/AssocArO/UW/3841098">
          <pickID>quakeml:uw.anss.org/Arrival/UW/3841098</pickID>
          <phase>S</phase>
          <azimuth>170.2</azimuth>
          <timeResidual>0.0</timeResidual>
          <creationInfo>
            <agencyID>UW</agencyID>
            <creationTime>2012-02-27T16:43:52.000000Z</creationTime>
          </creationInfo>
        </arrival>
        <arrival publicID="quakeml:uw.anss.org/AssocArO/UW/3841103">
          <pickID>quakeml:uw.anss.org/Arrival/UW/3841103</pickID>
          <phase>P</phase>
          <azimuth>199.0</azimuth>
          <distance>1.957</distance>
          <timeResidual>-0.05</timeResidual>
          <creationInfo>
            <agencyID>UW</agencyID>
            <creationTime>2012-02-27T16:43:52.000000Z</creationTime>
          </creationInfo>
        </arrival>
        <arrival publicID="quakeml:uw.anss.org/AssocArO/UW/3841108">
          <pickID>quakeml:uw.anss.org/Arrival/UW/3841108</pickID>
          <phase>P</phase>
          <azimuth>175.2</azimuth>
          <distance>1.89</distance>
          <timeResidual>0.3</timeResidual>
          <creationInfo>
            <agencyID>UW</agencyID>
            <creationTime>2012-02-27T16:43:52.000000Z</creationTime>
          </creationInfo>
        </arrival>
        <arrival publicID="quakeml:uw.anss.org/AssocArO/UW/3841113">
          <pickID>quakeml:uw.anss.org/Arrival/UW/3841113</pickID>
          <phase>S</phase>
          <azimuth>175.2</azimuth>
          <distance>1.89</distance>
          <timeResidual>-0.23</timeResidual>
          <creationInfo>
            <agencyID>UW</agencyID>
            <creationTime>2012-02-27T16:43:52.000000Z</creationTime>
          </creationInfo>
        </arrival>
        <arrival publicID="quakeml:uw.anss.org/AssocArO/UW/3841118">
          <pickID>quakeml:uw.anss.org/Arrival/UW/3841118</pickID>
          <phase>P</phase>
          <azimuth>171.1</azimuth>
          <distance>2.706</distance>
          <timeResidual>1.87</timeResidual>
          <creationInfo>
            <agencyID>UW</agencyID>
            <creationTime>2012-02-27T16:43:52.000000Z</creationTime>
          </creationInfo>
        </arrival>
        <arrival publicID="quakeml:uw.anss.org/AssocArO/UW/3841123">
          <pickID>quakeml:uw.anss.org/Arrival/UW/3841123</pickID>
          <phase>P</phase>
          <timeResidual>0.28</timeResidual>
          <creationInfo>
            <agencyID>UW</agencyID>
            <creationTime>2012-02-27T16:43:52.000000Z</creationTime>
          </creationInfo>
        </arrival>
        <arrival publicID="quakeml:uw.anss.org/AssocArO/UW/3841128">
          <pickID>quakeml:uw.anss.org/Arrival/UW/3841128</pickID>
          <phase>P</phase>
          <azimuth>129.3</azimuth>
          <distance>0.5948</distance>
          <timeResidual>-0.23</timeResidual>
          <creationInfo>
            <agencyID>UW</agencyID>
            <creationTime>2012-02-27T16:43:52.000000Z</creationTime>
          </creationInfo>
        </arrival>
        <arrival publicID="quakeml:uw.anss.org/AssocArO/UW/3841133">
          <pickID>quakeml:uw.anss.org/Arrival/UW/3841133</pickID>
          <phase>S</phase>
          <azimuth>129.3</azimuth>
          <distance>0.5948</distance>
          <timeResidual>0.47</timeResidual>
          <creationInfo>
            <agencyID>UW</agencyID>
            <creationTime>2012-02-27T16:43:52.000000Z</creationTime>
          </creationInfo>
        </arrival>
        <arrival publicID="quakeml:uw.anss.org/AssocArO/UW/3841138">
          <pickID>quakeml:uw.anss.org/Arrival/UW/3841138</pickID>
          <phase>S</phase>
          <azimuth>167.8</azimuth>
          <distance>2.176</distance>
          <timeResidual>-0.55</timeResidual>
          <creationInfo>
            <agencyID>UW</agencyID>
            <creationTime>2012-02-27T16:43:52.000000Z</creationTime>
          </creationInfo>
        </arrival>
        <arrival publicID="quakeml:uw.anss.org/AssocArO/UW/3841143">
          <pickID>quakeml:uw.anss.org/Arrival/UW/3841143</pickID>
          <phase>P</phase>
          <azimuth>309.4</azimuth>
          <timeResidual>-0.25</timeResidual>
          <creationInfo>
            <agencyID>UW</agencyID>
            <creationTime>2012-02-27T16:43:52.000000Z</creationTime>
          </creationInfo>
        </arrival>
        <arrival publicID="quakeml:uw.anss.org/AssocArO/UW/3841148">
          <pickID>quakeml:uw.anss.org/Arrival/UW/3841148</pickID>
          <phase>P</phase>
          <azimuth>194.8</azimuth>
          <distance>1.039</distance>
          <timeResidual>0.52</timeResidual>
          <creationInfo>
            <agencyID>UW</agencyID>
            <creationTime>2012-02-27T16:43:52.000000Z</creationTime>
          </creationInfo>
        </arrival>
        <arrival publicID="quakeml:uw.anss.org/AssocArO/UW/3841153">
          <pickID>quakeml:uw.anss.org/Arrival/UW/3841153</pickID>
          <phase>P</phase>
          <azimuth>178.9</azimuth>
          <distance>2.584</distance>
          <timeResidual>1.3</timeResidual>
          <creationInfo>
            <agencyID>UW</agencyID>
            <creationTime>2012-02-27T16:43:52.000000Z</creationTime>
          </creationInfo>
        </arrival>
        <arrival publicID="quakeml:uw.anss.org/AssocArO/UW/3841158">
          <pickID>quakeml:uw.anss.org/Arrival/UW/3841158</pickID>
          <phase>P</phase>
          <azimuth>203.4</azimuth>
          <distance>0.5481</distance>
          <timeResidual>0.73</timeResidual>
          <creationInfo>
            <agencyID>UW</agencyID>
            <creationTime>2012-02-27T16:43:52.000000Z</creationTime>
          </creationInfo>
        </arrival>
        <arrival publicID="quakeml:uw.anss.org/AssocArO/UW/3841163">
          <pickID>quakeml:uw.anss.org/Arrival/UW/3841163</pickID>
          <phase>P</phase>
          <azimuth>225.2</azimuth>
          <distance>1.422</distance>
          <timeResidual>0.29</timeResidual>
          <creationInfo>
            <agencyID>UW</agencyID>
            <creationTime>2012-02-27T16:43:52.000000Z</creationTime>
          </creationInfo>
        </arrival>
        <arrival publicID="quakeml:uw.anss.org/AssocArO/UW/3841168">
          <pickID>quakeml:uw.anss.org/Arrival/UW/3841168</pickID>
          <phase>P</phase>
          <azimuth>321.9</azimuth>
          <timeResidual>-0.17</timeResidual>
          <creationInfo>
            <agencyID>UW</agencyID>
            <creationTime>2012-02-27T16:43:52.000000Z</creationTime>
          </creationInfo>
        </arrival>
        <arrival publicID="quakeml:uw.anss.org/AssocArO/UW/3841173">
          <pickID>quakeml:uw.anss.org/Arrival/UW/3841173</pickID>
          <phase>S</phase>
          <azimuth>321.9</azimuth>
          <timeResidual>-0.91</timeResidual>
          <creationInfo>
            <agencyID>UW</agencyID>
            <creationTime>2012-02-27T16:43:52.000000Z</creationTime>
          </creationInfo>
        </arrival>
        <arrival publicID="quakeml:uw.anss.org/AssocArO/UW/3841178">
          <pickID>quakeml:uw.anss.org/Arrival/UW/3841178</pickID>
          <phase>P</phase>
          <azimuth>180.3</azimuth>
          <distance>2.59</distance>
          <timeResidual>1.13</timeResidual>
          <creationInfo>
            <agencyID>UW</agencyID>
            <creationTime>2012-02-27T16:43:52.000000Z</creationTime>
          </creationInfo>
        </arrival>
        <arrival publicID="quakeml:uw.anss.org/AssocArO/UW/3841183">
          <pickID>quakeml:uw.anss.org/Arrival/UW/3841183</pickID>
          <phase>P</phase>
          <azimuth>182.1</azimuth>
          <distance>2.523</distance>
          <timeResidual>0.61</timeResidual>
          <creationInfo>
            <agencyID>UW</agencyID>
            <creationTime>2012-02-27T16:43:52.000000Z</creationTime>
          </creationInfo>
        </arrival>
        <arrival publicID="quakeml:uw.anss.org/AssocArO/UW/3841188">
          <pickID>quakeml:uw.anss.org/Arrival/UW/3841188</pickID>
          <phase>P</phase>
          <azimuth>163.5</azimuth>
          <timeResidual>-0.02</timeResidual>
          <creationInfo>
            <agencyID>UW</agencyID>
            <creationTime>2012-02-27T16:43:52.000000Z</creationTime>
          </creationInfo>
        </arrival>
        <arrival publicID="quakeml:uw.anss.org/AssocArO/UW/3841193">
          <pickID>quakeml:uw.anss.org/Arrival/UW/3841193</pickID>
          <phase>S</phase>
          <azimuth>163.5</azimuth>
          <timeResidual>1.82</timeResidual>
          <creationInfo>
            <agencyID>UW</agencyID>
            <creationTime>2012-02-27T16:43:52.000000Z</creationTime>
          </creationInfo>
        </arrival>
        <arrival publicID="quakeml:uw.anss.org/AssocArO/UW/3841198">
          <pickID>quakeml:uw.anss.org/Arrival/UW/3841198</pickID>
          <phase>P</phase>
          <azimuth>182.8</azimuth>
          <distance>2.765</distance>
          <timeResidual>1.08</timeResidual>
          <creationInfo>
            <agencyID>UW</agencyID>
            <creationTime>2012-02-27T16:43:52.000000Z</creationTime>
          </creationInfo>
        </arrival>
        <arrival publicID="quakeml:uw.anss.org/AssocArO/UW/3841203">
          <pickID>quakeml:uw.anss.org/Arrival/UW/3841203</pickID>
          <phase>P</phase>
          <azimuth>149.5</azimuth>
          <distance>2.213</distance>
          <timeResidual>1.04</timeResidual>
          <creationInfo>
            <agencyID>UW</agencyID>
            <creationTime>2012-02-27T16:43:52.000000Z</creationTime>
          </creationInfo>
        </arrival>
        <arrival publicID="quakeml:uw.anss.org/AssocArO/UW/3841208">
          <pickID>quakeml:uw.anss.org/Arrival/UW/3841208</pickID>
          <phase>S</phase>
          <azimuth>169.0</azimuth>
          <timeResidual>-0.28</timeResidual>
          <creationInfo>
            <agencyID>UW</agencyID>
            <creationTime>2012-02-27T16:43:52.000000Z</creationTime>
          </creationInfo>
        </arrival>
        <arrival publicID="quakeml:uw.anss.org/AssocArO/UW/3841213">
