<?xml version='1.0' encoding='utf-8'?>
<q:quakeml xmlns="http://quakeml.org/xmlns/bed/1.2" xmlns:q="http://quakeml.org/xmlns/quakeml/1.2" xmlns:ns0="http://anss.org/xmlns/catalog/0.1">
  <eventParameters publicID="smi:local/080cc1be-a8ca-4514-892b-146a9e82ae74">
    <event publicID="quakeml:uw.anss.org/Event/UW/10228978" ns0:datasource="uw" ns0:dataid="uw10228978" ns0:eventsource="uw" ns0:eventid="10228978">
      <preferredOriginID>quakeml:uw.anss.org/Origin/UW/505923</preferredOriginID>
      <preferredMagnitudeID>quakeml:uw.anss.org/Netmag/UW/420168</preferredMagnitudeID>
      <type>earthquake</type>
      <creationInfo>
        <agencyID>UW</agencyID>
        <creationTime>2012-02-27T15:39:44.000000Z</creationTime>
        <version>2</version>
      </creationInfo>
      <origin publicID="quakeml:uw.anss.org/Origin/UW/505923" ns0:datasource="uw" ns0:dataid="uw10228978" ns0:eventsource="uw" ns0:eventid="10228978">
        <time>
          <value>1988-05-01T19:19:53.910000Z</value>
          <uncertainty>0.01</uncertainty>
        </time>
        <latitude>
          <value>48.8843333</value>
          <uncertainty>0.07</uncertainty>
        </latitude>
        <longitude>
          <value>-121.995</value>
          <uncertainty>0.06</uncertainty>
        </longitude>
        <depth>
          <value>1742.0</value>
          <uncertainty>90.0</uncertainty>
        </depth>
        <depthType>operator assigned</depthType>
        <timeFixed>false</timeFixed>
        <epicenterFixed>false</epicenterFixed>
        <methodID>smi:uw.anss.org/origin/spong</methodID>
        <quality>
          <associatedPhaseCount>22</associatedPhaseCount>
          <usedPhaseCount>14</usedPhaseCount>
          <associatedStationCount>16</associatedStationCount>
          <usedStationCount>0</usedStationCount>
          <standardError>0.16</standardError>
          <azimuthalGap>170.0</azimuthalGap>
        </quality>
        <type>hypocenter</type>
        <evaluationMode>manual</evaluationMode>
        <evaluationStatus>final</evaluationStatus>
        <creationInfo>
          <agencyID>UW</agencyID>
          <creationTime>2012-02-27T15:39:44.000000Z</creationTime>
        </creationInfo>
        <originUncertainty>
          <preferredDescription>horizontal uncertainty</preferredDescription>
          <horizontalUncertainty>92.0</horizontalUncertainty>
        </originUncertainty>
        <arrival publicID="quakeml:uw.anss.org/AssocArO/UW/3198498">
          <pickID>quakeml:uw.anss.org/Arrival/UW/3198498</pickID>
          <phase>P</phase>
          <azimuth>285.2</azimuth>
          <timeResidual>-0.13</timeResidual>
          <creationInfo>
            <agencyID>UW</agencyID>
            <creationTime>2012-02-27T15:39:44.000000Z</creationTime>
          </creationInfo>
        </arrival>
        <arrival publicID="quakeml:uw.anss.org/AssocArO/UW/3198503">
          <pickID>quakeml:uw.anss.org/Arrival/UW/3198503</pickID>
          <phase>P</phase>
          <azimuth>210.1</azimuth>
          <distance>1.425</distance>
          <timeResidual>-0.02</timeResidual>
          <creationInfo>
            <agencyID>UW</agencyID>
            <creationTime>2012-02-27T15:39:44.000000Z</creationTime>
          </creationInfo>
        </arrival>
        <arrival publicID="quakeml:uw.anss.org/AssocArO/UW/3198508">
          <pickID>quakeml:uw.anss.org/Arrival/UW/3198508</pickID>
          <phase>P</phase>
          <azimuth>315.8</azimuth>
          <timeResidual>-0.13</timeResidual>
          <creationInfo>
            <agencyID>UW</agencyID>
            <creationTime>2012-02-27T15:39:44.000000Z</creationTime>
          </creationInfo>
        </arrival>
        <arrival publicID="quakeml:uw.anss.org/AssocArO/UW/3198513">
          <pickID>quakeml:uw.anss.org/Arrival/UW/3198513</pickID>
          <phase>S</phase>
          <azimuth>315.8</azimuth>
          <timeResidual>-0.61</timeResidual>
          <creationInfo>
            <agencyID>UW</agencyID>
            <creationTime>2012-02-27T15:39:44.000000Z</creationTime>
          </creationInfo>
        </arrival>
        <arrival publicID="quakeml:uw.anss.org/AssocArO/UW/3198518">
          <pickID>quakeml:uw.anss.org/Arrival/UW/3198518</pickID>
          <phase>P</phase>
          <timeResidual>0.07</timeResidual>
          <creationInfo>
            <agencyID>UW</agencyID>
            <creationTime>2012-02-27T15:39:44.000000Z</creationTime>
          </creationInfo>
        </arrival>
        <arrival publicID="quakeml:uw.anss.org/AssocArO/UW/3198523">
          <pickID>quakeml:uw.anss.org/Arrival/UW/3198523</pickID>
          <phase>P</phase>
          <timeResidual>0.22</timeResidual>
          <creationInfo>
            <agencyID>UW</agencyID>
            <creationTime>2012-02-27T15:39:44.000000Z</creationTime>
          </creationInfo>
        </arrival>
        <arrival publicID="quakeml:uw.anss.org/AssocArO/UW/3198528">
          <pickID>quakeml:uw.anss.org/Arrival/UW/3198528</pickID>
          <phase>P</phase>
          <azimuth>143.8</azimuth>
          <distance>0.5403</distance>
          <timeResidual>-0.13</timeResidual>
          <creationInfo>
            <agencyID>UW</agencyID>
            <creationTime>2012-02-27T15:39:44.000000Z</creationTime>
          </creationInfo>
        </arrival>
        <arrival publicID="quakeml:uw.anss.org/AssocArO/UW/3198533">
          <pickID>quakeml:uw.anss.org/Arrival/UW/3198533</pickID>
          <phase>S</phase>
          <azimuth>143.8</azimuth>
          <distance>0.5403</distance>
          <timeResidual>-0.53</timeResidual>
          <creationInfo>
            <agencyID>UW</agencyID>
            <creationTime>2012-02-27T15:39:44.000000Z</creationTime>
          </creationInfo>
        </arrival>
        <arrival publicID="quakeml:uw.anss.org/AssocArO/UW/3198538">
          <pickID>quakeml:uw.anss.org/Arrival/UW/3198538</pickID>
          <phase>P</phase>
          <azimuth>237.2</azimuth>
          <timeResidual>-0.16</timeResidual>
          <creationInfo>
            <agencyID>UW</agencyID>
            <creationTime>2012-02-27T15:39:44.000000Z</creationTime>
          </creationInfo>
        </arrival>
        <arrival publicID="quakeml:uw.anss.org/AssocArO/UW/3198543">
          <pickID>quakeml:uw.anss.org/Arrival/UW/3198543</pickID>
          <phase>P</phase>
          <azimuth>302.0</azimuth>
          <timeResidual>-0.22</timeResidual>
          <creationInfo>
            <agencyID>UW</agencyID>
            <creationTime>2012-02-27T15:39:44.000000Z</creationTime>
          </creationInfo>
        </arrival>
        <arrival publicID="quakeml:uw.anss.org/AssocArO/UW/3198548">
          <pickID>quakeml:uw.anss.org/Arrival/UW/3198548</pickID>
          <phase>P</phase>
          <azimuth>176.3</azimuth>
          <timeResidual>0.18</timeResidual>
          <creationInfo>
            <agencyID>UW</agencyID>
            <creationTime>2012-02-27T15:39:44.000000Z</creationTime>
          </creationInfo>
        </arrival>
        <arrival publicID="quakeml:uw.anss.org/AssocArO/UW/3198553">
          <pickID>quakeml:uw.anss.org/Arrival/UW/3198553</pickID>
          <phase>S</phase>
          <azimuth>176.3</azimuth>
          <timeResidual>-0.21</timeResidual>
          <creationInfo>
            <agencyID>UW</agencyID>
            <creationTime>2012-02-27T15:39:44.000000Z</creationTime>
          </creationInfo>
        </arrival>
        <arrival publicID="quakeml:uw.anss.org/AssocArO/UW/3198558">
          <pickID>quakeml:uw.anss.org/Arrival/UW/3198558</pickID>
          <phase>P</phase>
          <azimuth>249.9</azimuth>
          <distance>0.5909</distance>
          <timeResidual>-0.07</timeResidual>
          <creationInfo>
            <agencyID>UW</agencyID>
            <creationTime>2012-02-27T15:39:44.000000Z</creationTime>
          </creationInfo>
        </arrival>
        <arrival publicID="quakeml:uw.anss.org/AssocArO/UW/3198563">
          <pickID>quakeml:uw.anss.org/Arrival/UW/3198563</pickID>
          <phase>P</phase>
          <timeResidual>0.2</timeResidual>
          <creationInfo>
            <agencyID>UW</agencyID>
            <creationTime>2012-02-27T15:39:44.000000Z</creationTime>
          </creationInfo>
        </arrival>
        <arrival publicID="quakeml:uw.anss.org/AssocArO/UW/3198568">
          <pickID>quakeml:uw.anss.org/Arrival/UW/3198568</pickID>
          <phase>S</phase>
          <timeResidual>-0.67</timeResidual>
          <creationInfo>
            <agencyID>UW</agencyID>
            <creationTime>2012-02-27T15:39:44.000000Z</creationTime>
          </creationInfo>
        </arrival>
        <arrival publicID="quakeml:uw.anss.org/AssocArO/UW/3198573">
          <pickID>quakeml:uw.anss.org/Arrival/UW/3198573</pickID>
          <phase>P</phase>
          <timeResidual>0.33</timeResidual>
          <creationInfo>
            <agencyID>UW</agencyID>
            <creationTime>2012-02-27T15:39:44.000000Z</creationTime>
          </creationInfo>
        </arrival>
        <arrival publicID="quakeml:uw.anss.org/AssocArO/UW/3198578">
          <pickID>quakeml:uw.anss.org/Arrival/UW/3198578</pickID>
          <phase>S</phase>
          <timeResidual>0.73</timeResidual>
          <creationInfo>
            <agencyID>UW</agencyID>
            <creationTime>2012-02-27T15:39:44.000000Z</creationTime>
          </creationInfo>
        </arrival>
        <arrival publicID="quakeml:uw.anss.org/AssocArO/UW/3198583">
          <pickID>quakeml:uw.anss.org/Arrival/UW/3198583</pickID>
          <phase>P</phase>
          <timeResidual>0.15</timeResidual>
          <creationInfo>
            <agencyID>UW</agencyID>
            <creationTime>2012-02-27T15:39:44.000000Z</creationTime>
          </creationInfo>
        </arrival>
        <arrival publicID="quakeml:uw.anss.org/AssocArO/UW/3198588">
          <pickID>quakeml:uw.anss.org/Arrival/UW/3198588</pickID>
          <phase>P</phase>
          <azimuth>190.2</azimuth>
          <distance>0.4686</distance>
          <timeResidual>-0.14</timeResidual>
          <creationInfo>
            <agencyID>UW</agencyID>
            <creationTime>2012-02-27T15:39:45.000000Z</creationTime>
          </creationInfo>
        </arrival>
        <arrival publicID="quakeml:uw.anss.org/AssocArO/UW/3198593">
          <pickID>quakeml:uw.anss.org/Arrival/UW/3198593</pickID>
          <phase>P</phase>
          <azimuth>148.3</azimuth>
          <distance>0.1183</distance>
          <timeResidual>-0.04</timeResidual>
          <creationInfo>
            <agencyID>UW</agencyID>
            <creationTime>2012-02-27T15:39:45.000000Z</creationTime>
          </creationInfo>
        </arrival>
        <arrival publicID="quakeml:uw.anss.org/AssocArO/UW/3198598">
          <pickID>quakeml:uw.anss.org/Arrival/UW/3198598</pickID>
          <phase>S</phase>
          <azimuth>148.3</azimuth>
          <distance>0.1183</distance>
          <timeResidual>0.02</timeResidual>
          <creationInfo>
            <agencyID>UW</agencyID>
            <creationTime>2012-02-27T15:39:45.000000Z</creationTime>
          </creationInfo>
        </arrival>
        <arrival publicID="quakeml:uw.anss.org/AssocArO/UW/3198603">
          <pickID>quakeml:uw.anss.org/Arrival/UW/3198603</pickID>
          <phase>P</phase>
          <azimuth>174.9</azimuth>
          <distance>1.431</distance>
          <timeResidual>0.94</timeResidual>
          <creationInfo>
            <agencyID>UW</agencyID>
            <creationTime>2012-02-27T15:39:45.000000Z</creationTime>
          </creationInfo>
        </arrival>
      </origin>
      <magnitude publicID="quakeml:uw.anss.org/Netmag/UW/420168">
        <mag>
          <value>1.3</value>
          <uncertainty>0.07</uncertainty>
        </mag>
        <type>Md</type>
        <originID>quakeml:uw.anss.org/Origin/UW/505923</originID>
        <methodID>smi:uw.anss.org/magnitude/Crosson</methodID>
        <stationCount>5</stationCount>
        <evaluationMode>manual</evaluationMode>
        <evaluationStatus>final</evaluationStatus>
        <stationMagnitudeContribution>
          <stationMagnitudeID>quakeml:uw.anss.org/AssocCoM/UW/980683</stationMagnitudeID>
          <weight>1.0</weight>
          <residual>0.03</residual>
        </stationMagnitudeContribution>
        <stationMagnitudeContribution>
          <stationMagnitudeID>quakeml:uw.anss.org/AssocCoM/UW/980698</stationMagnitudeID>
          <weight>1.0</weight>
          <residual>0.03</residual>
        </stationMagnitudeContribution>
        <stationMagnitudeContribution>
          <stationMagnitudeID>quakeml:uw.anss.org/AssocCoM/UW/980678</stationMagnitudeID>
          <weight>1.0</weight>
          <residual>0.03</residual>
        </stationMagnitudeContribution>
        <stationMagnitudeContribution>
          <stationMagnitudeID>quakeml:uw.anss.org/AssocCoM/UW/980688</stationMagnitudeID>
          <weight>1.0</weight>
          <residual>-0.03</residual>
        </stationMagnitudeContribution>
        <stationMagnitudeContribution>
          <stationMagnitudeID>quakeml:uw.anss.org/AssocCoM/UW/980693</stationMagnitudeID>
          <weight>1.0</weight>
          <residual>0.13</residual>
        </stationMagnitudeContribution>
        <creationInfo>
          <agencyID>UW</agencyID>
          <creationTime>2012-02-27T15:39:44.000000Z</creationTime>
        </creationInfo>
      </magnitude>
      <stationMagnitude publicID="quakeml:uw.anss.org/AssocCoM/UW/980678">
        <originID>quakeml:uw.anss.org/Origin/UW/505923</originID>
        <mag>
          <value>1.33</value>
        </mag>
        <type>MD</type>
        <amplitudeID>quakeml:uw.anss.org/Coda/UW/980678</amplitudeID>
        <waveformID networkCode="UW" stationCode="RPW" locationCode="" channelCode="EHZ"></waveformID>
      </stationMagnitude>
      <stationMagnitude publicID="quakeml:uw.anss.org/AssocCoM/UW/980683">
        <originID>quakeml:uw.anss.org/Origin/UW/505923</originID>
        <mag>
          <value>1.33</value>
        </mag>
        <type>MD</type>
        <amplitudeID>quakeml:uw.anss.org/Coda/UW/980683</amplitudeID>
        <waveformID networkCode="UW" stationCode="JCW" locationCode="" channelCode="EHZ"></waveformID>
      </stationMagnitude>
      <stationMagnitude publicID="quakeml:uw.anss.org/AssocCoM/UW/980688">
        <originID>quakeml:uw.anss.org/Origin/UW/505923</originID>
        <mag>
          <value>1.27</value>
        </mag>
        <type>MD</type>
        <amplitudeID>quakeml:uw.anss.org/Coda/UW/980688</amplitudeID>
        <waveformID networkCode="UW" stationCode="MCW" locationCode="" channelCode="EHZ"></waveformID>
      </stationMagnitude>
      <stationMagnitude publicID="quakeml:uw.anss.org/AssocCoM/UW/980693">
        <originID>quakeml:uw.anss.org/Origin/UW/505923</originID>
        <mag>
          <value>1.43</value>
        </mag>
        <type>MD</type>
        <amplitudeID>quakeml:uw.anss.org/Coda/UW/980693</amplitudeID>
        <waveformID networkCode="UW" stationCode="CMW" locationCode="" channelCode="EHZ"></waveformID>
      </stationMagnitude>
      <stationMagnitude publicID="quakeml:uw.anss.org/AssocCoM/UW/980698">
        <originID>quakeml:uw.anss.org/Origin/UW/505923</originID>
        <mag>
          <value>1.33</value>
        </mag>
        <type>MD</type>
        <amplitudeID>quakeml:uw.anss.org/Coda/UW/980698</amplitudeID>
        <waveformID networkCode="UW" stationCode="MBW" locationCode="" channelCode="EHZ"></waveformID>
      </stationMagnitude>
      <pick publicID="quakeml:uw.anss.org/Arrival/UW/3198498">
        <time>
          <value>1988-05-01T19:20:17.740000Z</value>
          <uncertainty>0.1</uncertainty>
        </time>
        <waveformID networkCode="CN" stationCode="NAB" locationCode="" channelCode="EHZ"></waveformID>
        <polarity>undecidable</polarity>
        <evaluationMode>manual</evaluationMode>
        <evaluationStatus>final</evaluationStatus>
        <creationInfo>
          <agencyID>UW</agencyID>
          <creationTime>2012-02-27T15:39:44.000000Z</creationTime>
        </creationInfo>
      </pick>
      <pick publicID="quakeml:uw.anss.org/Arrival/UW/3198503">
        <time>
          <value>1988-05-01T19:20:18.770000Z</value>
          <uncertainty>0.1</uncertainty>
        </time>
        <waveformID networkCode="UW" stationCode="HDW" locationCode="" channelCode="EHZ"></waveformID>
        <polarity>undecidable</polarity>
        <evaluationMode>manual</evaluationMode>
        <evaluationStatus>final</evaluationStatus>
        <creationInfo>
          <agencyID>UW</agencyID>
          <creationTime>2012-02-27T15:39:44.000000Z</creationTime>
        </creationInfo>
      </pick>
      <pick publicID="quakeml:uw.anss.org/Arrival/UW/3198508">
        <time>
          <value>1988-05-01T19:20:03.720000Z</value>
          <uncertainty>0.1</uncertainty>
        </time>
        <waveformID networkCode="CN" stationCode="HNB" locationCode="" channelCode="EHZ"></waveformID>
        <polarity>negative</polarity>
        <evaluationMode>manual</evaluationMode>
        <evaluationStatus>final</evaluationStatus>
        <creationInfo>
          <agencyID>UW</agencyID>
          <creationTime>2012-02-27T15:39:44.000000Z</creationTime>
        </creationInfo>
      </pick>
      <pick publicID="quakeml:uw.anss.org/Arrival/UW/3198513">
        <time>
          <value>1988-05-01T19:20:10.990000Z</value>
          <uncertainty>0.1</uncertainty>
        </time>
        <waveformID networkCode="CN" stationCode="HNB" locationCode="" channelCode="EHZ"></waveformID>
        <polarity>undecidable</polarity>
        <evaluationMode>manual</evaluationMode>
        <evaluationStatus>final</evaluationStatus>
        <creationInfo>
          <agencyID>UW</agencyID>
          <creationTime>2012-02-27T15:39:44.000000Z</creationTime>
        </creationInfo>
      </pick>
      <pick publicID="quakeml:uw.anss.org/Arrival/UW/3198518">
        <time>
          <value>1988-05-01T19:20:08.220000Z</value>
          <uncertainty>0.1</uncertainty>
        </time>
        <waveformID networkCode="CN" stationCode="SNB" locationCode="" channelCode="EHZ"></waveformID>
        <polarity>undecidable</polarity>
        <evaluationMode>manual</evaluationMode>
        <evaluationStatus>final</evaluationStatus>
        <creationInfo>
          <agencyID>UW</agencyID>
          <creationTime>2012-02-27T15:39:44.000000Z</creationTime>
        </creationInfo>
      </pick>
      <pick publicID="quakeml:uw.anss.org/Arrival/UW/3198523">
        <time>
          <value>1988-05-01T19:20:11.240000Z</value>
          <uncertainty>0.1</uncertainty>
        </time>
        <waveformID networkCode="CN" stationCode="PGC" locationCode="" channelCode="EHZ"></waveformID>
        <polarity>undecidable</polarity>
        <evaluationMode>manual</evaluationMode>
        <evaluationStatus>final</evaluationStatus>
        <creationInfo>
          <agencyID>UW</agencyID>
          <creationTime>2012-02-27T15:39:44.000000Z</creationTime>
        </creationInfo>
      </pick>
      <pick publicID="quakeml:uw.anss.org/Arrival/UW/3198528">
        <time>
          <value>1988-05-01T19:20:03.920000Z</value>
          <uncertainty>0.03</uncertainty>
        </time>
        <waveformID networkCode="UW" stationCode="RPW" locationCode="" channelCode="EHZ"></waveformID>
        <polarity>undecidable</polarity>
        <evaluationMode>manual</evaluationMode>
        <evaluationStatus>final</evaluationStatus>
        <creationInfo>
          <agencyID>UW</agencyID>
          <creationTime>2012-02-27T15:39:44.000000Z</creationTime>
        </creationInfo>
      </pick>
      <pick publicID="quakeml:uw.anss.org/Arrival/UW/3198533">
        <time>
          <value>1988-05-01T19:20:11.420000Z</value>
          <uncertainty>0.07</uncertainty>
        </time>
