<?xml version='1.0' encoding='utf-8'?>
<q:quakeml xmlns="http://quakeml.org/xmlns/bed/1.2" xmlns:q="http://quakeml.org/xmlns/quakeml/1.2" xmlns:ns0="http://anss.org/xmlns/catalog/0.1">
  <eventParameters publicID="smi:local/619df884-e1e5-43d8-8e35-18fe415564ed">
    <event publicID="quakeml:uw.anss.org/Event/UW/10230653" ns0:datasource="uw" ns0:dataid="uw10230653" ns0:eventsource="uw" ns0:eventid="10230653">
      <preferredOriginID>quakeml:uw.anss.org/Origin/UW/507598</preferredOriginID>
      <preferredMagnitudeID>quakeml:uw.anss.org/Netmag/UW/421758</preferredMagnitudeID>
      <type>earthquake</type>
      <creationInfo>
        <agencyID>UW</agencyID>
        <creationTime>2012-02-27T15:43:01.000000Z</creationTime>
        <version>2</version>
      </creationInfo>
      <origin publicID="quakeml:uw.anss.org/Origin/UW/507598" ns0:datasource="uw" ns0:dataid="uw10230653" ns0:eventsource="uw" ns0:eventid="10230653">
        <time>
          <value>1988-03-25T17:06:46.360000Z</value>
          <uncertainty>0.01</uncertainty>
        </time>
        <latitude>
          <value>48.9155</value>
          <uncertainty>0.08</uncertainty>
        </latitude>
        <longitude>
          <value>-121.9215</value>
          <uncertainty>0.06</uncertainty>
        </longitude>
        <depth>
          <value>-888.0</value>
          <uncertainty>90.0</uncertainty>
        </depth>
        <depthType>operator assigned</depthType>
        <timeFixed>false</timeFixed>
        <epicenterFixed>false</epicenterFixed>
        <methodID>smi:uw.anss.org/origin/spong</methodID>
        <quality>
          <associatedPhaseCount>37</associatedPhaseCount>
          <usedPhaseCount>14</usedPhaseCount>
          <associatedStationCount>25</associatedStationCount>
          <usedStationCount>0</usedStationCount>
          <standardError>0.17</standardError>
          <azimuthalGap>197.0</azimuthalGap>
        </quality>
        <type>hypocenter</type>
        <evaluationMode>manual</evaluationMode>
        <evaluationStatus>final</evaluationStatus>
        <creationInfo>
          <agencyID>UW</agencyID>
          <creationTime>2012-02-27T15:43:01.000000Z</creationTime>
        </creationInfo>
        <originUncertainty>
          <preferredDescription>horizontal uncertainty</preferredDescription>
          <horizontalUncertainty>100.0</horizontalUncertainty>
        </originUncertainty>
        <arrival publicID="quakeml:uw.anss.org/AssocArO/UW/3235873">
          <pickID>quakeml:uw.anss.org/Arrival/UW/3235873</pickID>
          <phase>P</phase>
          <azimuth>283.5</azimuth>
          <timeResidual>-0.32</timeResidual>
          <creationInfo>
            <agencyID>UW</agencyID>
            <creationTime>2012-02-27T15:43:01.000000Z</creationTime>
          </creationInfo>
        </arrival>
        <arrival publicID="quakeml:uw.anss.org/AssocArO/UW/3235878">
          <pickID>quakeml:uw.anss.org/Arrival/UW/3235878</pickID>
          <phase>S</phase>
          <azimuth>283.5</azimuth>
          <timeResidual>-2.37</timeResidual>
          <creationInfo>
            <agencyID>UW</agencyID>
            <creationTime>2012-02-27T15:43:01.000000Z</creationTime>
          </creationInfo>
        </arrival>
        <arrival publicID="quakeml:uw.anss.org/AssocArO/UW/3235883">
          <pickID>quakeml:uw.anss.org/Arrival/UW/3235883</pickID>
          <phase>P</phase>
          <azimuth>211.2</azimuth>
          <distance>1.477</distance>
          <timeResidual>0.29</timeResidual>
          <creationInfo>
            <agencyID>UW</agencyID>
            <creationTime>2012-02-27T15:43:01.000000Z</creationTime>
          </creationInfo>
        </arrival>
        <arrival publicID="quakeml:uw.anss.org/AssocArO/UW/3235888">
          <pickID>quakeml:uw.anss.org/Arrival/UW/3235888</pickID>
          <phase>S</phase>
          <azimuth>211.2</azimuth>
          <distance>1.477</distance>
          <timeResidual>0.22</timeResidual>
          <creationInfo>
            <agencyID>UW</agencyID>
            <creationTime>2012-02-27T15:43:01.000000Z</creationTime>
          </creationInfo>
        </arrival>
        <arrival publicID="quakeml:uw.anss.org/AssocArO/UW/3235893">
          <pickID>quakeml:uw.anss.org/Arrival/UW/3235893</pickID>
          <phase>P</phase>
          <azimuth>128.3</azimuth>
          <distance>1.349</distance>
          <timeResidual>1.88</timeResidual>
          <creationInfo>
            <agencyID>UW</agencyID>
            <creationTime>2012-02-27T15:43:01.000000Z</creationTime>
          </creationInfo>
        </arrival>
        <arrival publicID="quakeml:uw.anss.org/AssocArO/UW/3235898">
          <pickID>quakeml:uw.anss.org/Arrival/UW/3235898</pickID>
          <phase>P</phase>
          <azimuth>310.1</azimuth>
          <timeResidual>-0.22</timeResidual>
          <creationInfo>
            <agencyID>UW</agencyID>
            <creationTime>2012-02-27T15:43:01.000000Z</creationTime>
          </creationInfo>
        </arrival>
        <arrival publicID="quakeml:uw.anss.org/AssocArO/UW/3235903">
          <pickID>quakeml:uw.anss.org/Arrival/UW/3235903</pickID>
          <phase>S</phase>
          <azimuth>310.1</azimuth>
          <timeResidual>-1.3</timeResidual>
          <creationInfo>
            <agencyID>UW</agencyID>
            <creationTime>2012-02-27T15:43:01.000000Z</creationTime>
          </creationInfo>
        </arrival>
        <arrival publicID="quakeml:uw.anss.org/AssocArO/UW/3235908">
          <pickID>quakeml:uw.anss.org/Arrival/UW/3235908</pickID>
          <phase>P</phase>
          <azimuth>160.9</azimuth>
          <distance>2.305</distance>
          <timeResidual>1.81</timeResidual>
          <creationInfo>
            <agencyID>UW</agencyID>
            <creationTime>2012-02-27T15:43:01.000000Z</creationTime>
          </creationInfo>
        </arrival>
        <arrival publicID="quakeml:uw.anss.org/AssocArO/UW/3235913">
          <pickID>quakeml:uw.anss.org/Arrival/UW/3235913</pickID>
          <phase>P</phase>
          <timeResidual>0.08</timeResidual>
          <creationInfo>
            <agencyID>UW</agencyID>
            <creationTime>2012-02-27T15:43:01.000000Z</creationTime>
          </creationInfo>
        </arrival>
        <arrival publicID="quakeml:uw.anss.org/AssocArO/UW/3235918">
          <pickID>quakeml:uw.anss.org/Arrival/UW/3235918</pickID>
          <phase>S</phase>
          <timeResidual>0.01</timeResidual>
          <creationInfo>
            <agencyID>UW</agencyID>
            <creationTime>2012-02-27T15:43:01.000000Z</creationTime>
          </creationInfo>
        </arrival>
        <arrival publicID="quakeml:uw.anss.org/AssocArO/UW/3235923">
          <pickID>quakeml:uw.anss.org/Arrival/UW/3235923</pickID>
          <phase>P</phase>
          <azimuth>195.0</azimuth>
          <distance>0.5097</distance>
          <timeResidual>-0.09</timeResidual>
          <creationInfo>
            <agencyID>UW</agencyID>
            <creationTime>2012-02-27T15:43:01.000000Z</creationTime>
          </creationInfo>
        </arrival>
        <arrival publicID="quakeml:uw.anss.org/AssocArO/UW/3235928">
          <pickID>quakeml:uw.anss.org/Arrival/UW/3235928</pickID>
          <phase>S</phase>
          <azimuth>195.0</azimuth>
          <distance>0.5097</distance>
          <timeResidual>-0.43</timeResidual>
          <creationInfo>
            <agencyID>UW</agencyID>
            <creationTime>2012-02-27T15:43:01.000000Z</creationTime>
          </creationInfo>
        </arrival>
        <arrival publicID="quakeml:uw.anss.org/AssocArO/UW/3235933">
          <pickID>quakeml:uw.anss.org/Arrival/UW/3235933</pickID>
          <phase>P</phase>
          <timeResidual>0.12</timeResidual>
          <creationInfo>
            <agencyID>UW</agencyID>
            <creationTime>2012-02-27T15:43:01.000000Z</creationTime>
          </creationInfo>
        </arrival>
        <arrival publicID="quakeml:uw.anss.org/AssocArO/UW/3235938">
          <pickID>quakeml:uw.anss.org/Arrival/UW/3235938</pickID>
          <phase>P</phase>
          <azimuth>150.0</azimuth>
          <distance>0.5398</distance>
          <timeResidual>0.01</timeResidual>
          <creationInfo>
            <agencyID>UW</agencyID>
            <creationTime>2012-02-27T15:43:01.000000Z</creationTime>
          </creationInfo>
        </arrival>
        <arrival publicID="quakeml:uw.anss.org/AssocArO/UW/3235943">
          <pickID>quakeml:uw.anss.org/Arrival/UW/3235943</pickID>
          <phase>S</phase>
          <azimuth>150.0</azimuth>
          <distance>0.5398</distance>
          <timeResidual>-0.42</timeResidual>
          <creationInfo>
            <agencyID>UW</agencyID>
            <creationTime>2012-02-27T15:43:01.000000Z</creationTime>
          </creationInfo>
        </arrival>
        <arrival publicID="quakeml:uw.anss.org/AssocArO/UW/3235948">
          <pickID>quakeml:uw.anss.org/Arrival/UW/3235948</pickID>
          <phase>P</phase>
          <azimuth>214.5</azimuth>
          <distance>0.7184</distance>
          <timeResidual>1.18</timeResidual>
          <creationInfo>
            <agencyID>UW</agencyID>
            <creationTime>2012-02-27T15:43:01.000000Z</creationTime>
          </creationInfo>
        </arrival>
        <arrival publicID="quakeml:uw.anss.org/AssocArO/UW/3235953">
          <pickID>quakeml:uw.anss.org/Arrival/UW/3235953</pickID>
          <phase>P</phase>
          <azimuth>311.6</azimuth>
          <timeResidual>-0.06</timeResidual>
          <creationInfo>
            <agencyID>UW</agencyID>
            <creationTime>2012-02-27T15:43:01.000000Z</creationTime>
          </creationInfo>
        </arrival>
        <arrival publicID="quakeml:uw.anss.org/AssocArO/UW/3235958">
          <pickID>quakeml:uw.anss.org/Arrival/UW/3235958</pickID>
          <phase>S</phase>
          <azimuth>311.6</azimuth>
          <timeResidual>-1.56</timeResidual>
          <creationInfo>
            <agencyID>UW</agencyID>
            <creationTime>2012-02-27T15:43:01.000000Z</creationTime>
          </creationInfo>
        </arrival>
        <arrival publicID="quakeml:uw.anss.org/AssocArO/UW/3235963">
          <pickID>quakeml:uw.anss.org/Arrival/UW/3235963</pickID>
          <phase>P</phase>
          <azimuth>180.3</azimuth>
          <timeResidual>0.3</timeResidual>
          <creationInfo>
            <agencyID>UW</agencyID>
            <creationTime>2012-02-27T15:43:01.000000Z</creationTime>
          </creationInfo>
        </arrival>
        <arrival publicID="quakeml:uw.anss.org/AssocArO/UW/3235968">
          <pickID>quakeml:uw.anss.org/Arrival/UW/3235968</pickID>
          <phase>S</phase>
          <azimuth>180.3</azimuth>
          <timeResidual>-0.14</timeResidual>
          <creationInfo>
            <agencyID>UW</agencyID>
            <creationTime>2012-02-27T15:43:01.000000Z</creationTime>
          </creationInfo>
        </arrival>
        <arrival publicID="quakeml:uw.anss.org/AssocArO/UW/3235973">
          <pickID>quakeml:uw.anss.org/Arrival/UW/3235973</pickID>
          <phase>P</phase>
          <azimuth>175.0</azimuth>
          <timeResidual>0.91</timeResidual>
          <creationInfo>
            <agencyID>UW</agencyID>
            <creationTime>2012-02-27T15:43:01.000000Z</creationTime>
          </creationInfo>
        </arrival>
        <arrival publicID="quakeml:uw.anss.org/AssocArO/UW/3235978">
          <pickID>quakeml:uw.anss.org/Arrival/UW/3235978</pickID>
          <phase>P</phase>
          <azimuth>122.3</azimuth>
          <distance>1.707</distance>
          <timeResidual>2.69</timeResidual>
          <creationInfo>
            <agencyID>UW</agencyID>
            <creationTime>2012-02-27T15:43:01.000000Z</creationTime>
          </creationInfo>
        </arrival>
        <arrival publicID="quakeml:uw.anss.org/AssocArO/UW/3235983">
          <pickID>quakeml:uw.anss.org/Arrival/UW/3235983</pickID>
          <phase>P</phase>
          <timeResidual>-0.06</timeResidual>
          <creationInfo>
            <agencyID>UW</agencyID>
            <creationTime>2012-02-27T15:43:01.000000Z</creationTime>
          </creationInfo>
        </arrival>
        <arrival publicID="quakeml:uw.anss.org/AssocArO/UW/3235988">
          <pickID>quakeml:uw.anss.org/Arrival/UW/3235988</pickID>
          <phase>S</phase>
          <timeResidual>-1.33</timeResidual>
          <creationInfo>
            <agencyID>UW</agencyID>
            <creationTime>2012-02-27T15:43:01.000000Z</creationTime>
          </creationInfo>
        </arrival>
        <arrival publicID="quakeml:uw.anss.org/AssocArO/UW/3235993">
          <pickID>quakeml:uw.anss.org/Arrival/UW/3235993</pickID>
          <phase>P</phase>
          <azimuth>237.2</azimuth>
          <timeResidual>-0.18</timeResidual>
          <creationInfo>
            <agencyID>UW</agencyID>
            <creationTime>2012-02-27T15:43:01.000000Z</creationTime>
          </creationInfo>
        </arrival>
        <arrival publicID="quakeml:uw.anss.org/AssocArO/UW/3235998">
          <pickID>quakeml:uw.anss.org/Arrival/UW/3235998</pickID>
          <phase>P</phase>
          <timeResidual>0.4</timeResidual>
          <creationInfo>
            <agencyID>UW</agencyID>
            <creationTime>2012-02-27T15:43:01.000000Z</creationTime>
          </creationInfo>
        </arrival>
        <arrival publicID="quakeml:uw.anss.org/AssocArO/UW/3236003">
          <pickID>quakeml:uw.anss.org/Arrival/UW/3236003</pickID>
          <phase>P</phase>
          <azimuth>132.2</azimuth>
          <distance>1.791</distance>
          <timeResidual>1.97</timeResidual>
          <creationInfo>
            <agencyID>UW</agencyID>
            <creationTime>2012-02-27T15:43:01.000000Z</creationTime>
          </creationInfo>
        </arrival>
        <arrival publicID="quakeml:uw.anss.org/AssocArO/UW/3236008">
          <pickID>quakeml:uw.anss.org/Arrival/UW/3236008</pickID>
          <phase>P</phase>
          <azimuth>176.9</azimuth>
          <distance>1.459</distance>
          <timeResidual>0.71</timeResidual>
          <creationInfo>
            <agencyID>UW</agencyID>
            <creationTime>2012-02-27T15:43:01.000000Z</creationTime>
          </creationInfo>
        </arrival>
        <arrival publicID="quakeml:uw.anss.org/AssocArO/UW/3236013">
          <pickID>quakeml:uw.anss.org/Arrival/UW/3236013</pickID>
          <phase>S</phase>
          <azimuth>176.9</azimuth>
          <distance>1.459</distance>
          <timeResidual>0.42</timeResidual>
          <creationInfo>
            <agencyID>UW</agencyID>
            <creationTime>2012-02-27T15:43:01.000000Z</creationTime>
          </creationInfo>
        </arrival>
        <arrival publicID="quakeml:uw.anss.org/AssocArO/UW/3236018">
          <pickID>quakeml:uw.anss.org/Arrival/UW/3236018</pickID>
          <phase>P</phase>
          <azimuth>174.1</azimuth>
          <distance>0.1325</distance>
          <timeResidual>0.0</timeResidual>
          <creationInfo>
            <agencyID>UW</agencyID>
            <creationTime>2012-02-27T15:43:01.000000Z</creationTime>
          </creationInfo>
        </arrival>
        <arrival publicID="quakeml:uw.anss.org/AssocArO/UW/3236023">
          <pickID>quakeml:uw.anss.org/Arrival/UW/3236023</pickID>
          <phase>S</phase>
          <azimuth>174.1</azimuth>
          <distance>0.1325</distance>
          <timeResidual>-0.26</timeResidual>
          <creationInfo>
            <agencyID>UW</agencyID>
            <creationTime>2012-02-27T15:43:01.000000Z</creationTime>
          </creationInfo>
        </arrival>
        <arrival publicID="quakeml:uw.anss.org/AssocArO/UW/3236028">
          <pickID>quakeml:uw.anss.org/Arrival/UW/3236028</pickID>
          <phase>P</phase>
          <timeResidual>0.08</timeResidual>
          <creationInfo>
            <agencyID>UW</agencyID>
            <creationTime>2012-02-27T15:43:01.000000Z</creationTime>
          </creationInfo>
        </arrival>
        <arrival publicID="quakeml:uw.anss.org/AssocArO/UW/3236033">
          <pickID>quakeml:uw.anss.org/Arrival/UW/3236033</pickID>
          <phase>P</phase>
          <azimuth>186.5</azimuth>
          <distance>2.263</distance>
          <timeResidual>1.31</timeResidual>
          <creationInfo>
            <agencyID>UW</agencyID>
            <creationTime>2012-02-27T15:43:01.000000Z</creationTime>
          </creationInfo>
        </arrival>
        <arrival publicID="quakeml:uw.anss.org/AssocArO/UW/3236038">
          <pickID>quakeml:uw.anss.org/Arrival/UW/3236038</pickID>
          <phase>P</phase>
          <azimuth>174.7</azimuth>
          <distance>1.117</distance>
          <timeResidual>1.44</timeResidual>
          <creationInfo>
            <agencyID>UW</agencyID>
            <creationTime>2012-02-27T15:43:01.000000Z</creationTime>
          </creationInfo>
        </arrival>
        <arrival publicID="quakeml:uw.anss.org/AssocArO/UW/3236043">
          <pickID>quakeml:uw.anss.org/Arrival/UW/3236043</pickID>
          <phase>P</phase>
          <azimuth>217.9</azimuth>
          <distance>1.148</distance>
          <timeResidual>0.92</timeResidual>
          <creationInfo>
            <agencyID>UW</agencyID>
            <creationTime>2012-02-27T15:43:01.000000Z</creationTime>
          </creationInfo>
        </arrival>
        <arrival publicID="quakeml:uw.anss.org/AssocArO/UW/3236048">
          <pickID>quakeml:uw.anss.org/Arrival/UW/3236048</pickID>
          <phase>S</phase>
          <azimuth>217.9</azimuth>
          <distance>1.148</distance>
          <timeResidual>1.21</timeResidual>
          <creationInfo>
            <agencyID>UW</agencyID>
            <creationTime>2012-02-27T15:43:01.000000Z</creationTime>
          </creationInfo>
        </arrival>
        <arrival publicID="quakeml:uw.anss.org/AssocArO/UW/3236053">
          <pickID>quakeml:uw.anss.org/Arrival/UW/3236053</pickID>
          <phase>P</phase>
          <azimuth>248.8</azimuth>
          <distance>0.6473</distance>
          <timeResidual>0.02</timeResidual>
          <creationInfo>
            <agencyID>UW</agencyID>
            <creationTime>2012-02-27T15:43:01.000000Z</creationTime>
          </creationInfo>
        </arrival>
      </origin>
      <magnitude publicID="quakeml:uw.anss.org/Netmag/UW/421758">
        <mag>
          <value>2.0</value>
          <uncertainty>0.07</uncertainty>
        </mag>
        <type>Md</type>
        <originID>quakeml:uw.anss.org/Origin/UW/507598</originID>
        <methodID>smi:uw.anss.org/magnitude/Crosson</methodID>
        <stationCount>7</stationCount>
        <evaluationMode>manual</evaluationMode>
        <evaluationStatus>final</evaluationStatus>
        <stationMagnitudeContribution>
          <stationMagnitudeID>quakeml:uw.anss.org/AssocCoM/UW/987833</stationMagnitudeID>
          <weight>1.0</weight>
          <residual>-0.14</residual>
        </stationMagnitudeContribution>
        <stationMagnitudeContribution>
          <stationMagnitudeID>quakeml:uw.anss.org/AssocCoM/UW/987828</stationMagnitudeID>
          <weight>1.0</weight>
          <residual>0.17</residual>
        </stationMagnitudeContribution>
        <stationMagnitudeContribution>
          <stationMagnitudeID>quakeml:uw.anss.org/AssocCoM/UW/987853</stationMagnitudeID>
          <weight>1.0</weight>
          <residual>0.12</residual>
        </stationMagnitudeContribution>
        <stationMagnitudeContribution>
          <stationMagnitudeID>quakeml:uw.anss.org/AssocCoM/UW/987843</stationMagnitudeID>
          <weight>1.0</weight>
          <residual>-0.04</residual>
        </stationMagnitudeContribution>
        <stationMagnitudeContribution>
          <stationMagnitudeID>quakeml:uw.anss.org/AssocCoM/UW/987858</stationMagnitudeID>
          <weight>1.0</weight>
          <residual>-0.14</residual>
        </stationMagnitudeContribution>
