<?xml version='1.0' encoding='utf-8'?>
<q:quakeml xmlns="http://quakeml.org/xmlns/bed/1.2" xmlns:q="http://quakeml.org/xmlns/quakeml/1.2" xmlns:ns0="http://anss.org/xmlns/catalog/0.1">
  <eventParameters publicID="smi:local/bf92762b-164a-4bb6-9999-4e4dcf0cf219">
    <event publicID="quakeml:uw.anss.org/Event/UW/10553833" ns0:datasource="uw" ns0:dataid="uw10553833" ns0:eventsource="uw" ns0:eventid="10553833">
      <preferredOriginID>quakeml:uw.anss.org/Origin/UW/836068</preferredOriginID>
      <preferredMagnitudeID>quakeml:uw.anss.org/Netmag/UW/664793</preferredMagnitudeID>
      <type>earthquake</type>
      <creationInfo>
        <agencyID>UW</agencyID>
        <creationTime>2012-03-05T12:41:34.000000Z</creationTime>
        <version>3</version>
      </creationInfo>
      <origin publicID="quakeml:uw.anss.org/Origin/UW/836068" ns0:datasource="uw" ns0:dataid="uw10553833" ns0:eventsource="uw" ns0:eventid="10553833">
        <time>
          <value>2002-04-16T13:38:57.850000Z</value>
          <uncertainty>0.01</uncertainty>
        </time>
        <latitude>
          <value>48.4815</value>
          <uncertainty>0.03</uncertainty>
        </latitude>
        <longitude>
          <value>-121.8328333</value>
          <uncertainty>0.03</uncertainty>
        </longitude>
        <depth>
          <value>-885.0</value>
          <uncertainty>80.0</uncertainty>
        </depth>
        <depthType>operator assigned</depthType>
        <timeFixed>false</timeFixed>
        <epicenterFixed>false</epicenterFixed>
        <methodID>smi:uw.anss.org/origin/spong</methodID>
        <quality>
          <associatedPhaseCount>37</associatedPhaseCount>
          <usedPhaseCount>21</usedPhaseCount>
          <associatedStationCount>29</associatedStationCount>
          <usedStationCount>0</usedStationCount>
          <standardError>0.25</standardError>
          <azimuthalGap>107.0</azimuthalGap>
        </quality>
        <type>hypocenter</type>
        <evaluationMode>manual</evaluationMode>
        <evaluationStatus>final</evaluationStatus>
        <creationInfo>
          <agencyID>UW</agencyID>
          <creationTime>2012-03-05T12:41:34.000000Z</creationTime>
        </creationInfo>
        <originUncertainty>
          <preferredDescription>horizontal uncertainty</preferredDescription>
          <horizontalUncertainty>42.0</horizontalUncertainty>
        </originUncertainty>
        <arrival publicID="quakeml:uw.anss.org/AssocArO/UW/7682218">
          <pickID>quakeml:uw.anss.org/Arrival/UW/7682218</pickID>
          <phase>P</phase>
          <azimuth>224.9</azimuth>
          <distance>1.169</distance>
          <timeResidual>-0.28</timeResidual>
          <creationInfo>
            <agencyID>UW</agencyID>
            <creationTime>2012-03-05T12:41:34.000000Z</creationTime>
          </creationInfo>
        </arrival>
        <arrival publicID="quakeml:uw.anss.org/AssocArO/UW/7682223">
          <pickID>quakeml:uw.anss.org/Arrival/UW/7682223</pickID>
          <phase>P</phase>
          <azimuth>158.4</azimuth>
          <distance>1.878</distance>
          <timeResidual>0.24</timeResidual>
          <creationInfo>
            <agencyID>UW</agencyID>
            <creationTime>2012-03-05T12:41:34.000000Z</creationTime>
          </creationInfo>
        </arrival>
        <arrival publicID="quakeml:uw.anss.org/AssocArO/UW/7682228">
          <pickID>quakeml:uw.anss.org/Arrival/UW/7682228</pickID>
          <phase>P</phase>
          <azimuth>112.0</azimuth>
          <distance>1.078</distance>
          <timeResidual>0.4</timeResidual>
          <creationInfo>
            <agencyID>UW</agencyID>
            <creationTime>2012-03-05T12:41:34.000000Z</creationTime>
          </creationInfo>
        </arrival>
        <arrival publicID="quakeml:uw.anss.org/AssocArO/UW/7682233">
          <pickID>quakeml:uw.anss.org/Arrival/UW/7682233</pickID>
          <phase>P</phase>
          <azimuth>175.5</azimuth>
          <distance>1.931</distance>
          <timeResidual>-0.21</timeResidual>
          <creationInfo>
            <agencyID>UW</agencyID>
            <creationTime>2012-03-05T12:41:34.000000Z</creationTime>
          </creationInfo>
        </arrival>
        <arrival publicID="quakeml:uw.anss.org/AssocArO/UW/7682238">
          <pickID>quakeml:uw.anss.org/Arrival/UW/7682238</pickID>
          <phase>P</phase>
          <azimuth>216.2</azimuth>
          <distance>1.134</distance>
          <timeResidual>0.05</timeResidual>
          <creationInfo>
            <agencyID>UW</agencyID>
            <creationTime>2012-03-05T12:41:34.000000Z</creationTime>
          </creationInfo>
        </arrival>
        <arrival publicID="quakeml:uw.anss.org/AssocArO/UW/7682243">
          <pickID>quakeml:uw.anss.org/Arrival/UW/7682243</pickID>
          <phase>S</phase>
          <azimuth>216.2</azimuth>
          <distance>1.134</distance>
          <timeResidual>-0.72</timeResidual>
          <creationInfo>
            <agencyID>UW</agencyID>
            <creationTime>2012-03-05T12:41:34.000000Z</creationTime>
          </creationInfo>
        </arrival>
        <arrival publicID="quakeml:uw.anss.org/AssocArO/UW/7682248">
          <pickID>quakeml:uw.anss.org/Arrival/UW/7682248</pickID>
          <phase>P</phase>
          <azimuth>180.2</azimuth>
          <timeResidual>0.0</timeResidual>
          <creationInfo>
            <agencyID>UW</agencyID>
            <creationTime>2012-03-05T12:41:34.000000Z</creationTime>
          </creationInfo>
        </arrival>
        <arrival publicID="quakeml:uw.anss.org/AssocArO/UW/7682253">
          <pickID>quakeml:uw.anss.org/Arrival/UW/7682253</pickID>
          <phase>S</phase>
          <azimuth>219.4</azimuth>
          <distance>0.6077</distance>
          <timeResidual>1.26</timeResidual>
          <creationInfo>
            <agencyID>UW</agencyID>
            <creationTime>2012-03-05T12:41:34.000000Z</creationTime>
          </creationInfo>
        </arrival>
        <arrival publicID="quakeml:uw.anss.org/AssocArO/UW/7682258">
          <pickID>quakeml:uw.anss.org/Arrival/UW/7682258</pickID>
          <phase>P</phase>
          <azimuth>306.8</azimuth>
          <distance>0.4818</distance>
          <timeResidual>1.05</timeResidual>
          <creationInfo>
            <agencyID>UW</agencyID>
            <creationTime>2012-03-05T12:41:34.000000Z</creationTime>
          </creationInfo>
        </arrival>
        <arrival publicID="quakeml:uw.anss.org/AssocArO/UW/7682263">
          <pickID>quakeml:uw.anss.org/Arrival/UW/7682263</pickID>
          <phase>S</phase>
          <azimuth>306.8</azimuth>
          <distance>0.4818</distance>
          <timeResidual>2.06</timeResidual>
          <creationInfo>
            <agencyID>UW</agencyID>
            <creationTime>2012-03-05T12:41:34.000000Z</creationTime>
          </creationInfo>
        </arrival>
        <arrival publicID="quakeml:uw.anss.org/AssocArO/UW/7682268">
          <pickID>quakeml:uw.anss.org/Arrival/UW/7682268</pickID>
          <phase>S</phase>
          <azimuth>179.5</azimuth>
          <timeResidual>-1.96</timeResidual>
          <creationInfo>
            <agencyID>UW</agencyID>
            <creationTime>2012-03-05T12:41:34.000000Z</creationTime>
          </creationInfo>
        </arrival>
        <arrival publicID="quakeml:uw.anss.org/AssocArO/UW/7682273">
          <pickID>quakeml:uw.anss.org/Arrival/UW/7682273</pickID>
          <phase>P</phase>
          <distance>0.5736</distance>
          <timeResidual>-0.02</timeResidual>
          <creationInfo>
            <agencyID>UW</agencyID>
            <creationTime>2012-03-05T12:41:34.000000Z</creationTime>
          </creationInfo>
        </arrival>
        <arrival publicID="quakeml:uw.anss.org/AssocArO/UW/7682278">
          <pickID>quakeml:uw.anss.org/Arrival/UW/7682278</pickID>
          <phase>S</phase>
          <distance>0.5736</distance>
          <timeResidual>-0.42</timeResidual>
          <creationInfo>
            <agencyID>UW</agencyID>
            <creationTime>2012-03-05T12:41:34.000000Z</creationTime>
          </creationInfo>
        </arrival>
        <arrival publicID="quakeml:uw.anss.org/AssocArO/UW/7682283">
          <pickID>quakeml:uw.anss.org/Arrival/UW/7682283</pickID>
          <phase>P</phase>
          <azimuth>253.2</azimuth>
          <distance>0.2</distance>
          <timeResidual>0.07</timeResidual>
          <creationInfo>
            <agencyID>UW</agencyID>
            <creationTime>2012-03-05T12:41:34.000000Z</creationTime>
          </creationInfo>
        </arrival>
        <arrival publicID="quakeml:uw.anss.org/AssocArO/UW/7682288">
          <pickID>quakeml:uw.anss.org/Arrival/UW/7682288</pickID>
          <phase>S</phase>
          <azimuth>253.2</azimuth>
          <distance>0.2</distance>
          <timeResidual>0.01</timeResidual>
          <creationInfo>
            <agencyID>UW</agencyID>
            <creationTime>2012-03-05T12:41:34.000000Z</creationTime>
          </creationInfo>
        </arrival>
        <arrival publicID="quakeml:uw.anss.org/AssocArO/UW/7682293">
          <pickID>quakeml:uw.anss.org/Arrival/UW/7682293</pickID>
          <phase>P</phase>
          <azimuth>178.9</azimuth>
          <timeResidual>-0.2</timeResidual>
          <creationInfo>
            <agencyID>UW</agencyID>
            <creationTime>2012-03-05T12:41:34.000000Z</creationTime>
          </creationInfo>
        </arrival>
        <arrival publicID="quakeml:uw.anss.org/AssocArO/UW/7682298">
          <pickID>quakeml:uw.anss.org/Arrival/UW/7682298</pickID>
          <phase>S</phase>
          <azimuth>178.9</azimuth>
          <timeResidual>-1.58</timeResidual>
          <creationInfo>
            <agencyID>UW</agencyID>
            <creationTime>2012-03-05T12:41:34.000000Z</creationTime>
          </creationInfo>
        </arrival>
        <arrival publicID="quakeml:uw.anss.org/AssocArO/UW/7682303">
          <pickID>quakeml:uw.anss.org/Arrival/UW/7682303</pickID>
          <phase>P</phase>
          <azimuth>130.6</azimuth>
          <distance>1.336</distance>
          <timeResidual>0.25</timeResidual>
          <creationInfo>
            <agencyID>UW</agencyID>
            <creationTime>2012-03-05T12:41:34.000000Z</creationTime>
          </creationInfo>
        </arrival>
        <arrival publicID="quakeml:uw.anss.org/AssocArO/UW/7682308">
          <pickID>quakeml:uw.anss.org/Arrival/UW/7682308</pickID>
          <phase>P</phase>
          <azimuth>183.6</azimuth>
          <distance>1.541</distance>
          <timeResidual>-0.4</timeResidual>
          <creationInfo>
            <agencyID>UW</agencyID>
            <creationTime>2012-03-05T12:41:34.000000Z</creationTime>
          </creationInfo>
        </arrival>
        <arrival publicID="quakeml:uw.anss.org/AssocArO/UW/7682313">
          <pickID>quakeml:uw.anss.org/Arrival/UW/7682313</pickID>
          <phase>P</phase>
          <azimuth>179.5</azimuth>
          <distance>1.732</distance>
          <timeResidual>-0.54</timeResidual>
          <creationInfo>
            <agencyID>UW</agencyID>
            <creationTime>2012-03-05T12:41:34.000000Z</creationTime>
          </creationInfo>
        </arrival>
        <arrival publicID="quakeml:uw.anss.org/AssocArO/UW/7682318">
          <pickID>quakeml:uw.anss.org/Arrival/UW/7682318</pickID>
          <phase>P</phase>
          <azimuth>121.3</azimuth>
          <distance>1.483</distance>
          <timeResidual>0.88</timeResidual>
          <creationInfo>
            <agencyID>UW</agencyID>
            <creationTime>2012-03-05T12:41:34.000000Z</creationTime>
          </creationInfo>
        </arrival>
        <arrival publicID="quakeml:uw.anss.org/AssocArO/UW/7682323">
          <pickID>quakeml:uw.anss.org/Arrival/UW/7682323</pickID>
          <phase>S</phase>
          <azimuth>121.3</azimuth>
          <distance>1.483</distance>
          <timeResidual>-0.08</timeResidual>
          <creationInfo>
            <agencyID>UW</agencyID>
            <creationTime>2012-03-05T12:41:34.000000Z</creationTime>
          </creationInfo>
        </arrival>
        <arrival publicID="quakeml:uw.anss.org/AssocArO/UW/7682328">
          <pickID>quakeml:uw.anss.org/Arrival/UW/7682328</pickID>
          <phase>P</phase>
          <azimuth>98.9</azimuth>
          <distance>0.2143</distance>
          <timeResidual>0.12</timeResidual>
          <creationInfo>
            <agencyID>UW</agencyID>
            <creationTime>2012-03-05T12:41:34.000000Z</creationTime>
          </creationInfo>
        </arrival>
        <arrival publicID="quakeml:uw.anss.org/AssocArO/UW/7682333">
          <pickID>quakeml:uw.anss.org/Arrival/UW/7682333</pickID>
          <phase>S</phase>
          <azimuth>173.0</azimuth>
          <distance>0.7934</distance>
          <timeResidual>-1.19</timeResidual>
          <creationInfo>
            <agencyID>UW</agencyID>
            <creationTime>2012-03-05T12:41:34.000000Z</creationTime>
          </creationInfo>
        </arrival>
        <arrival publicID="quakeml:uw.anss.org/AssocArO/UW/7682338">
          <pickID>quakeml:uw.anss.org/Arrival/UW/7682338</pickID>
          <phase>P</phase>
          <azimuth>173.0</azimuth>
          <distance>0.7934</distance>
          <timeResidual>-0.2</timeResidual>
          <creationInfo>
            <agencyID>UW</agencyID>
            <creationTime>2012-03-05T12:41:34.000000Z</creationTime>
          </creationInfo>
        </arrival>
        <arrival publicID="quakeml:uw.anss.org/AssocArO/UW/7682343">
          <pickID>quakeml:uw.anss.org/Arrival/UW/7682343</pickID>
          <phase>P</phase>
          <azimuth>351.6</azimuth>
          <distance>0.3059</distance>
          <timeResidual>-0.15</timeResidual>
          <creationInfo>
            <agencyID>UW</agencyID>
            <creationTime>2012-03-05T12:41:34.000000Z</creationTime>
          </creationInfo>
        </arrival>
        <arrival publicID="quakeml:uw.anss.org/AssocArO/UW/7682348">
          <pickID>quakeml:uw.anss.org/Arrival/UW/7682348</pickID>
          <phase>P</phase>
          <azimuth>142.4</azimuth>
          <distance>2.337</distance>
          <timeResidual>2.28</timeResidual>
          <creationInfo>
            <agencyID>UW</agencyID>
            <creationTime>2012-03-05T12:41:34.000000Z</creationTime>
          </creationInfo>
        </arrival>
        <arrival publicID="quakeml:uw.anss.org/AssocArO/UW/7682353">
          <pickID>quakeml:uw.anss.org/Arrival/UW/7682353</pickID>
          <phase>P</phase>
          <azimuth>189.2</azimuth>
          <distance>2.204</distance>
          <timeResidual>-0.15</timeResidual>
          <creationInfo>
            <agencyID>UW</agencyID>
            <creationTime>2012-03-05T12:41:34.000000Z</creationTime>
          </creationInfo>
        </arrival>
        <arrival publicID="quakeml:uw.anss.org/AssocArO/UW/7682358">
          <pickID>quakeml:uw.anss.org/Arrival/UW/7682358</pickID>
          <phase>P</phase>
          <azimuth>192.4</azimuth>
          <timeResidual>0.04</timeResidual>
          <creationInfo>
            <agencyID>UW</agencyID>
            <creationTime>2012-03-05T12:41:34.000000Z</creationTime>
          </creationInfo>
        </arrival>
        <arrival publicID="quakeml:uw.anss.org/AssocArO/UW/7682363">
          <pickID>quakeml:uw.anss.org/Arrival/UW/7682363</pickID>
          <phase>P</phase>
          <azimuth>151.1</azimuth>
          <distance>1.79</distance>
          <timeResidual>0.04</timeResidual>
          <creationInfo>
            <agencyID>UW</agencyID>
            <creationTime>2012-03-05T12:41:34.000000Z</creationTime>
          </creationInfo>
        </arrival>
        <arrival publicID="quakeml:uw.anss.org/AssocArO/UW/7682368">
          <pickID>quakeml:uw.anss.org/Arrival/UW/7682368</pickID>
          <phase>P</phase>
          <azimuth>109.1</azimuth>
          <distance>1.464</distance>
          <timeResidual>0.72</timeResidual>
          <creationInfo>
            <agencyID>UW</agencyID>
            <creationTime>2012-03-05T12:41:34.000000Z</creationTime>
          </creationInfo>
        </arrival>
        <arrival publicID="quakeml:uw.anss.org/AssocArO/UW/7682373">
          <pickID>quakeml:uw.anss.org/Arrival/UW/7682373</pickID>
          <phase>P</phase>
          <azimuth>127.9</azimuth>
          <distance>0.5897</distance>
          <timeResidual>0.12</timeResidual>
          <creationInfo>
            <agencyID>UW</agencyID>
            <creationTime>2012-03-05T12:41:34.000000Z</creationTime>
          </creationInfo>
        </arrival>
        <arrival publicID="quakeml:uw.anss.org/AssocArO/UW/7682378">
          <pickID>quakeml:uw.anss.org/Arrival/UW/7682378</pickID>
          <phase>S</phase>
          <azimuth>127.9</azimuth>
          <distance>0.5897</distance>
          <timeResidual>-0.6</timeResidual>
          <creationInfo>
            <agencyID>UW</agencyID>
            <creationTime>2012-03-05T12:41:34.000000Z</creationTime>
          </creationInfo>
        </arrival>
        <arrival publicID="quakeml:uw.anss.org/AssocArO/UW/7682383">
          <pickID>quakeml:uw.anss.org/Arrival/UW/7682383</pickID>
          <phase>P</phase>
          <azimuth>176.4</azimuth>
          <distance>0.6796</distance>
          <timeResidual>-0.09</timeResidual>
          <creationInfo>
            <agencyID>UW</agencyID>
            <creationTime>2012-03-05T12:41:34.000000Z</creationTime>
          </creationInfo>
        </arrival>
        <arrival publicID="quakeml:uw.anss.org/AssocArO/UW/7682388">
          <pickID>quakeml:uw.anss.org/Arrival/UW/7682388</pickID>
          <phase>P</phase>
          <azimuth>147.3</azimuth>
          <distance>1.554</distance>
          <timeResidual>-0.16</timeResidual>
          <creationInfo>
            <agencyID>UW</agencyID>
            <creationTime>2012-03-05T12:41:34.000000Z</creationTime>
          </creationInfo>
        </arrival>
        <arrival publicID="quakeml:uw.anss.org/AssocArO/UW/7682393">
          <pickID>quakeml:uw.anss.org/Arrival/UW/7682393</pickID>
          <phase>P</phase>
          <azimuth>287.0</azimuth>
          <distance>0.6927</distance>
          <timeResidual>0.1</timeResidual>
          <creationInfo>
            <agencyID>UW</agencyID>
            <creationTime>2012-03-05T12:41:34.000000Z</creationTime>
          </creationInfo>
        </arrival>
        <arrival publicID="quakeml:uw.anss.org/AssocArO/UW/7682398">
          <pickID>quakeml:uw.anss.org/Arrival/UW/7682398</pickID>
          <phase>P</phase>
          <azimuth>191.8</azimuth>
          <distance>0.6596</distance>
          <timeResidual>0.01</timeResidual>
          <creationInfo>
            <agencyID>UW</agencyID>
            <creationTime>2012-03-05T12:41:34.000000Z</creationTime>
          </creationInfo>
        </arrival>
      </origin>
      <magnitude publicID="quakeml:uw.anss.org/Netmag/UW/664793">
        <mag>
          <value>2.2</value>
          <uncertainty>0.04</uncertainty>
        </mag>
        <type>Md</type>
        <originID>quakeml:uw.anss.org/Origin/UW/836068</originID>
        <methodID>smi:uw.anss.org/magnitude/Crosson</methodID>
        <stationCount>6</stationCount>
        <evaluationMode>manual</evaluationMode>
        <evaluationStatus>final</evaluationStatus>
        <stationMagnitudeContribution>
          <stationMagnitudeID>quakeml:uw.anss.org/AssocCoM/UW/1797388</stationMagnitudeID>
          <weight>1.0</weight>
          <residual>-0.08</residual>
        </stationMagnitudeContribution>
        <stationMagnitudeContribution>
          <stationMagnitudeID>quakeml:uw.anss.org/AssocCoM/UW/1797378</stationMagnitudeID>
          <weight>1.0</weight>
          <residual>0.06</residual>
        </stationMagnitudeContribution>
        <stationMagnitudeContribution>
