<?xml version='1.0' encoding='utf-8'?>
<q:quakeml xmlns="http://quakeml.org/xmlns/bed/1.2" xmlns:q="http://quakeml.org/xmlns/quakeml/1.2" xmlns:ns0="http://anss.org/xmlns/catalog/0.1">
  <eventParameters publicID="smi:local/85ef7214-1141-4fe9-bd49-348b3f1c5186">
    <event publicID="quakeml:uw.anss.org/Event/UW/10563018" ns0:datasource="uw" ns0:dataid="uw10563018" ns0:eventsource="uw" ns0:eventid="10563018">
      <preferredOriginID>quakeml:uw.anss.org/Origin/UW/845253</preferredOriginID>
      <preferredMagnitudeID>quakeml:uw.anss.org/Netmag/UW/669953</preferredMagnitudeID>
      <type>earthquake</type>
      <creationInfo>
        <agencyID>UW</agencyID>
        <creationTime>2012-03-05T13:09:23.000000Z</creationTime>
        <version>3</version>
      </creationInfo>
      <origin publicID="quakeml:uw.anss.org/Origin/UW/845253" ns0:datasource="uw" ns0:dataid="uw10563018" ns0:eventsource="uw" ns0:eventid="10563018">
        <time>
          <value>2002-09-13T14:59:54.050000Z</value>
          <uncertainty>0.01</uncertainty>
        </time>
        <latitude>
          <value>48.6025</value>
          <uncertainty>0.04</uncertainty>
        </latitude>
        <longitude>
          <value>-121.9733333</value>
          <uncertainty>0.03</uncertainty>
        </longitude>
        <depth>
          <value>-939.0</value>
          <uncertainty>80.0</uncertainty>
        </depth>
        <depthType>operator assigned</depthType>
        <timeFixed>false</timeFixed>
        <epicenterFixed>false</epicenterFixed>
        <methodID>smi:uw.anss.org/origin/spong</methodID>
        <quality>
          <associatedPhaseCount>58</associatedPhaseCount>
          <usedPhaseCount>24</usedPhaseCount>
          <associatedStationCount>49</associatedStationCount>
          <usedStationCount>0</usedStationCount>
          <standardError>0.27</standardError>
          <azimuthalGap>100.0</azimuthalGap>
        </quality>
        <type>hypocenter</type>
        <evaluationMode>manual</evaluationMode>
        <evaluationStatus>final</evaluationStatus>
        <creationInfo>
          <agencyID>UW</agencyID>
          <creationTime>2012-03-05T13:09:23.000000Z</creationTime>
        </creationInfo>
        <originUncertainty>
          <preferredDescription>horizontal uncertainty</preferredDescription>
          <horizontalUncertainty>50.0</horizontalUncertainty>
        </originUncertainty>
        <arrival publicID="quakeml:uw.anss.org/AssocArO/UW/7758603">
          <pickID>quakeml:uw.anss.org/Arrival/UW/7758603</pickID>
          <phase>P</phase>
          <azimuth>104.8</azimuth>
          <distance>2.624</distance>
          <timeResidual>4.07</timeResidual>
          <creationInfo>
            <agencyID>UW</agencyID>
            <creationTime>2012-03-05T13:09:23.000000Z</creationTime>
          </creationInfo>
        </arrival>
        <arrival publicID="quakeml:uw.anss.org/AssocArO/UW/7758608">
          <pickID>quakeml:uw.anss.org/Arrival/UW/7758608</pickID>
          <phase>P</phase>
          <azimuth>157.1</azimuth>
          <distance>2.025</distance>
          <timeResidual>0.1</timeResidual>
          <creationInfo>
            <agencyID>UW</agencyID>
            <creationTime>2012-03-05T13:09:23.000000Z</creationTime>
          </creationInfo>
        </arrival>
        <arrival publicID="quakeml:uw.anss.org/AssocArO/UW/7758613">
          <pickID>quakeml:uw.anss.org/Arrival/UW/7758613</pickID>
          <phase>P</phase>
          <azimuth>115.5</azimuth>
          <distance>1.212</distance>
          <timeResidual>0.59</timeResidual>
          <creationInfo>
            <agencyID>UW</agencyID>
            <creationTime>2012-03-05T13:09:23.000000Z</creationTime>
          </creationInfo>
        </arrival>
        <arrival publicID="quakeml:uw.anss.org/AssocArO/UW/7758618">
          <pickID>quakeml:uw.anss.org/Arrival/UW/7758618</pickID>
          <phase>P</phase>
          <azimuth>173.0</azimuth>
          <distance>2.061</distance>
          <timeResidual>0.19</timeResidual>
          <creationInfo>
            <agencyID>UW</agencyID>
            <creationTime>2012-03-05T13:09:23.000000Z</creationTime>
          </creationInfo>
        </arrival>
        <arrival publicID="quakeml:uw.anss.org/AssocArO/UW/7758623">
          <pickID>quakeml:uw.anss.org/Arrival/UW/7758623</pickID>
          <phase>P</phase>
          <azimuth>209.0</azimuth>
          <distance>1.186</distance>
          <timeResidual>-0.03</timeResidual>
          <creationInfo>
            <agencyID>UW</agencyID>
            <creationTime>2012-03-05T13:09:23.000000Z</creationTime>
          </creationInfo>
        </arrival>
        <arrival publicID="quakeml:uw.anss.org/AssocArO/UW/7758628">
          <pickID>quakeml:uw.anss.org/Arrival/UW/7758628</pickID>
          <phase>S</phase>
          <azimuth>209.0</azimuth>
          <distance>1.186</distance>
          <timeResidual>-0.29</timeResidual>
          <creationInfo>
            <agencyID>UW</agencyID>
            <creationTime>2012-03-05T13:09:23.000000Z</creationTime>
          </creationInfo>
        </arrival>
        <arrival publicID="quakeml:uw.anss.org/AssocArO/UW/7758633">
          <pickID>quakeml:uw.anss.org/Arrival/UW/7758633</pickID>
          <phase>P</phase>
          <azimuth>182.9</azimuth>
          <distance>2.46</distance>
          <timeResidual>0.63</timeResidual>
          <creationInfo>
            <agencyID>UW</agencyID>
            <creationTime>2012-03-05T13:09:23.000000Z</creationTime>
          </creationInfo>
        </arrival>
        <arrival publicID="quakeml:uw.anss.org/AssocArO/UW/7758638">
          <pickID>quakeml:uw.anss.org/Arrival/UW/7758638</pickID>
          <phase>P</phase>
          <azimuth>299.7</azimuth>
          <distance>0.3371</distance>
          <timeResidual>0.33</timeResidual>
          <creationInfo>
            <agencyID>UW</agencyID>
            <creationTime>2012-03-05T13:09:23.000000Z</creationTime>
          </creationInfo>
        </arrival>
        <arrival publicID="quakeml:uw.anss.org/AssocArO/UW/7758643">
          <pickID>quakeml:uw.anss.org/Arrival/UW/7758643</pickID>
          <phase>S</phase>
          <azimuth>299.7</azimuth>
          <distance>0.3371</distance>
          <timeResidual>1.27</timeResidual>
          <creationInfo>
            <agencyID>UW</agencyID>
            <creationTime>2012-03-05T13:09:23.000000Z</creationTime>
          </creationInfo>
        </arrival>
        <arrival publicID="quakeml:uw.anss.org/AssocArO/UW/7758648">
          <pickID>quakeml:uw.anss.org/Arrival/UW/7758648</pickID>
          <phase>S</phase>
          <azimuth>176.5</azimuth>
          <timeResidual>-0.73</timeResidual>
          <creationInfo>
            <agencyID>UW</agencyID>
            <creationTime>2012-03-05T13:09:23.000000Z</creationTime>
          </creationInfo>
        </arrival>
        <arrival publicID="quakeml:uw.anss.org/AssocArO/UW/7758653">
          <pickID>quakeml:uw.anss.org/Arrival/UW/7758653</pickID>
          <phase>P</phase>
          <azimuth>189.6</azimuth>
          <distance>2.199</distance>
          <timeResidual>-0.1</timeResidual>
          <creationInfo>
            <agencyID>UW</agencyID>
            <creationTime>2012-03-05T13:09:23.000000Z</creationTime>
          </creationInfo>
        </arrival>
        <arrival publicID="quakeml:uw.anss.org/AssocArO/UW/7758658">
          <pickID>quakeml:uw.anss.org/Arrival/UW/7758658</pickID>
          <phase>P</phase>
          <azimuth>174.7</azimuth>
          <timeResidual>0.38</timeResidual>
          <creationInfo>
            <agencyID>UW</agencyID>
            <creationTime>2012-03-05T13:09:23.000000Z</creationTime>
          </creationInfo>
        </arrival>
        <arrival publicID="quakeml:uw.anss.org/AssocArO/UW/7758663">
          <pickID>quakeml:uw.anss.org/Arrival/UW/7758663</pickID>
          <phase>P</phase>
          <distance>0.4325</distance>
          <timeResidual>-0.17</timeResidual>
          <creationInfo>
            <agencyID>UW</agencyID>
            <creationTime>2012-03-05T13:09:23.000000Z</creationTime>
          </creationInfo>
        </arrival>
        <arrival publicID="quakeml:uw.anss.org/AssocArO/UW/7758668">
          <pickID>quakeml:uw.anss.org/Arrival/UW/7758668</pickID>
          <phase>S</phase>
          <distance>0.4325</distance>
          <timeResidual>-0.55</timeResidual>
          <creationInfo>
            <agencyID>UW</agencyID>
            <creationTime>2012-03-05T13:09:23.000000Z</creationTime>
          </creationInfo>
        </arrival>
        <arrival publicID="quakeml:uw.anss.org/AssocArO/UW/7758673">
          <pickID>quakeml:uw.anss.org/Arrival/UW/7758673</pickID>
          <phase>P</phase>
          <azimuth>152.8</azimuth>
          <distance>1.643</distance>
          <timeResidual>1.07</timeResidual>
          <creationInfo>
            <agencyID>UW</agencyID>
            <creationTime>2012-03-05T13:09:23.000000Z</creationTime>
          </creationInfo>
        </arrival>
        <arrival publicID="quakeml:uw.anss.org/AssocArO/UW/7758678">
          <pickID>quakeml:uw.anss.org/Arrival/UW/7758678</pickID>
          <phase>P</phase>
          <azimuth>208.6</azimuth>
          <distance>0.204</distance>
          <timeResidual>-0.28</timeResidual>
          <creationInfo>
            <agencyID>UW</agencyID>
            <creationTime>2012-03-05T13:09:23.000000Z</creationTime>
          </creationInfo>
        </arrival>
        <arrival publicID="quakeml:uw.anss.org/AssocArO/UW/7758683">
          <pickID>quakeml:uw.anss.org/Arrival/UW/7758683</pickID>
          <phase>P</phase>
          <azimuth>175.1</azimuth>
          <timeResidual>0.1</timeResidual>
          <creationInfo>
            <agencyID>UW</agencyID>
            <creationTime>2012-03-05T13:09:23.000000Z</creationTime>
          </creationInfo>
        </arrival>
        <arrival publicID="quakeml:uw.anss.org/AssocArO/UW/7758688">
          <pickID>quakeml:uw.anss.org/Arrival/UW/7758688</pickID>
          <phase>P</phase>
          <azimuth>131.7</azimuth>
          <distance>1.486</distance>
          <timeResidual>0.31</timeResidual>
          <creationInfo>
            <agencyID>UW</agencyID>
            <creationTime>2012-03-05T13:09:23.000000Z</creationTime>
          </creationInfo>
        </arrival>
        <arrival publicID="quakeml:uw.anss.org/AssocArO/UW/7758693">
          <pickID>quakeml:uw.anss.org/Arrival/UW/7758693</pickID>
          <phase>P</phase>
          <azimuth>180.0</azimuth>
          <distance>1.659</distance>
          <timeResidual>0.19</timeResidual>
          <creationInfo>
            <agencyID>UW</agencyID>
            <creationTime>2012-03-05T13:09:23.000000Z</creationTime>
          </creationInfo>
        </arrival>
        <arrival publicID="quakeml:uw.anss.org/AssocArO/UW/7758698">
          <pickID>quakeml:uw.anss.org/Arrival/UW/7758698</pickID>
          <phase>P</phase>
          <azimuth>174.0</azimuth>
          <distance>2.464</distance>
          <timeResidual>1.15</timeResidual>
          <creationInfo>
            <agencyID>UW</agencyID>
            <creationTime>2012-03-05T13:09:23.000000Z</creationTime>
          </creationInfo>
        </arrival>
        <arrival publicID="quakeml:uw.anss.org/AssocArO/UW/7758703">
          <pickID>quakeml:uw.anss.org/Arrival/UW/7758703</pickID>
          <phase>P</phase>
          <azimuth>174.4</azimuth>
          <distance>1.149</distance>
          <timeResidual>0.36</timeResidual>
          <creationInfo>
            <agencyID>UW</agencyID>
            <creationTime>2012-03-05T13:09:23.000000Z</creationTime>
          </creationInfo>
        </arrival>
        <arrival publicID="quakeml:uw.anss.org/AssocArO/UW/7758708">
          <pickID>quakeml:uw.anss.org/Arrival/UW/7758708</pickID>
          <phase>P</phase>
          <azimuth>116.8</azimuth>
          <distance>0.3417</distance>
          <timeResidual>-0.02</timeResidual>
          <creationInfo>
            <agencyID>UW</agencyID>
            <creationTime>2012-03-05T13:09:23.000000Z</creationTime>
          </creationInfo>
        </arrival>
        <arrival publicID="quakeml:uw.anss.org/AssocArO/UW/7758713">
          <pickID>quakeml:uw.anss.org/Arrival/UW/7758713</pickID>
          <phase>S</phase>
          <azimuth>116.8</azimuth>
          <distance>0.3417</distance>
          <timeResidual>-0.31</timeResidual>
          <creationInfo>
            <agencyID>UW</agencyID>
            <creationTime>2012-03-05T13:09:23.000000Z</creationTime>
          </creationInfo>
        </arrival>
        <arrival publicID="quakeml:uw.anss.org/AssocArO/UW/7758718">
          <pickID>quakeml:uw.anss.org/Arrival/UW/7758718</pickID>
          <phase>P</phase>
          <azimuth>171.1</azimuth>
          <distance>1.928</distance>
          <timeResidual>0.06</timeResidual>
          <creationInfo>
            <agencyID>UW</agencyID>
            <creationTime>2012-03-05T13:09:23.000000Z</creationTime>
          </creationInfo>
        </arrival>
        <arrival publicID="quakeml:uw.anss.org/AssocArO/UW/7758723">
          <pickID>quakeml:uw.anss.org/Arrival/UW/7758723</pickID>
          <phase>P</phase>
          <azimuth>168.1</azimuth>
          <distance>0.9283</distance>
          <timeResidual>0.53</timeResidual>
          <creationInfo>
            <agencyID>UW</agencyID>
            <creationTime>2012-03-05T13:09:23.000000Z</creationTime>
          </creationInfo>
        </arrival>
        <arrival publicID="quakeml:uw.anss.org/AssocArO/UW/7758728">
          <pickID>quakeml:uw.anss.org/Arrival/UW/7758728</pickID>
          <phase>P</phase>
          <azimuth>340.7</azimuth>
          <distance>0.3333</distance>
          <timeResidual>0.32</timeResidual>
          <creationInfo>
            <agencyID>UW</agencyID>
            <creationTime>2012-03-05T13:09:23.000000Z</creationTime>
          </creationInfo>
        </arrival>
        <arrival publicID="quakeml:uw.anss.org/AssocArO/UW/7758733">
          <pickID>quakeml:uw.anss.org/Arrival/UW/7758733</pickID>
          <phase>S</phase>
          <azimuth>340.7</azimuth>
          <distance>0.3333</distance>
          <timeResidual>0.41</timeResidual>
          <creationInfo>
            <agencyID>UW</agencyID>
            <creationTime>2012-03-05T13:09:23.000000Z</creationTime>
          </creationInfo>
        </arrival>
        <arrival publicID="quakeml:uw.anss.org/AssocArO/UW/7758738">
          <pickID>quakeml:uw.anss.org/Arrival/UW/7758738</pickID>
          <phase>P</phase>
          <azimuth>154.4</azimuth>
          <distance>2.295</distance>
          <timeResidual>2.14</timeResidual>
          <creationInfo>
            <agencyID>UW</agencyID>
            <creationTime>2012-03-05T13:09:23.000000Z</creationTime>
          </creationInfo>
        </arrival>
        <arrival publicID="quakeml:uw.anss.org/AssocArO/UW/7758743">
          <pickID>quakeml:uw.anss.org/Arrival/UW/7758743</pickID>
          <phase>P</phase>
          <azimuth>14.7</azimuth>
          <distance>0.1877</distance>
          <timeResidual>-0.02</timeResidual>
          <creationInfo>
            <agencyID>UW</agencyID>
            <creationTime>2012-03-05T13:09:23.000000Z</creationTime>
          </creationInfo>
        </arrival>
        <arrival publicID="quakeml:uw.anss.org/AssocArO/UW/7758748">
          <pickID>quakeml:uw.anss.org/Arrival/UW/7758748</pickID>
          <phase>P</phase>
          <azimuth>186.3</azimuth>
          <distance>2.311</distance>
          <timeResidual>0.22</timeResidual>
          <creationInfo>
            <agencyID>UW</agencyID>
            <creationTime>2012-03-05T13:09:23.000000Z</creationTime>
          </creationInfo>
        </arrival>
        <arrival publicID="quakeml:uw.anss.org/AssocArO/UW/7758753">
          <pickID>quakeml:uw.anss.org/Arrival/UW/7758753</pickID>
          <phase>P</phase>
          <azimuth>175.7</azimuth>
          <timeResidual>0.11</timeResidual>
          <creationInfo>
            <agencyID>UW</agencyID>
            <creationTime>2012-03-05T13:09:23.000000Z</creationTime>
          </creationInfo>
        </arrival>
        <arrival publicID="quakeml:uw.anss.org/AssocArO/UW/7758758">
          <pickID>quakeml:uw.anss.org/Arrival/UW/7758758</pickID>
          <phase>P</phase>
          <azimuth>150.3</azimuth>
          <distance>1.941</distance>
          <timeResidual>0.6</timeResidual>
          <creationInfo>
            <agencyID>UW</agencyID>
            <creationTime>2012-03-05T13:09:23.000000Z</creationTime>
          </creationInfo>
        </arrival>
        <arrival publicID="quakeml:uw.anss.org/AssocArO/UW/7758763">
          <pickID>quakeml:uw.anss.org/Arrival/UW/7758763</pickID>
          <phase>P</phase>
          <azimuth>172.9</azimuth>
          <timeResidual>0.14</timeResidual>
          <creationInfo>
            <agencyID>UW</agencyID>
            <creationTime>2012-03-05T13:09:23.000000Z</creationTime>
          </creationInfo>
        </arrival>
        <arrival publicID="quakeml:uw.anss.org/AssocArO/UW/7758768">
          <pickID>quakeml:uw.anss.org/Arrival/UW/7758768</pickID>
          <phase>P</phase>
          <azimuth>146.5</azimuth>
          <distance>1.61</distance>
          <timeResidual>0.59</timeResidual>
          <creationInfo>
            <agencyID>UW</agencyID>
            <creationTime>2012-03-05T13:09:23.000000Z</creationTime>
          </creationInfo>
        </arrival>
        <arrival publicID="quakeml:uw.anss.org/AssocArO/UW/7758773">
          <pickID>quakeml:uw.anss.org/Arrival/UW/7758773</pickID>
          <phase>S</phase>
          <azimuth>146.5</azimuth>
          <distance>1.61</distance>
          <timeResidual>-0.19</timeResidual>
          <creationInfo>
            <agencyID>UW</agencyID>
            <creationTime>2012-03-05T13:09:23.000000Z</creationTime>
          </creationInfo>
        </arrival>
        <arrival publicID="quakeml:uw.anss.org/AssocArO/UW/7758778">
          <pickID>quakeml:uw.anss.org/Arrival/UW/7758778</pickID>
          <phase>P</phase>
          <azimuth>142.4</azimuth>
          <distance>2.762</distance>
          <timeResidual>3.55</timeResidual>
          <creationInfo>
            <agencyID>UW</agencyID>
            <creationTime>2012-03-05T13:09:23.000000Z</creationTime>
          </creationInfo>
        </arrival>
        <arrival publicID="quakeml:uw.anss.org/AssocArO/UW/7758783">
          <pickID>quakeml:uw.anss.org/Arrival/UW/7758783</pickID>
          <phase>P</phase>
          <azimuth>248.7</azimuth>
          <distance>1.516</distance>
          <timeResidual>1.72</timeResidual>
          <creationInfo>
            <agencyID>UW</agencyID>
            <creationTime>2012-03-05T13:09:23.000000Z</creationTime>
          </creationInfo>
        </arrival>
        <arrival publicID="quakeml:uw.anss.org/AssocArO/UW/7758788">
          <pickID>quakeml:uw.anss.org/Arrival/UW/7758788</pickID>
          <phase>P</phase>
          <azimuth>112.0</azimuth>
          <distance>1.594</distance>
          <timeResidual>1.11</timeResidual>
          <creationInfo>
            <agencyID>UW</agencyID>
            <creationTime>2012-03-05T13:09:23.000000Z</creationTime>
          </creationInfo>
        </arrival>
        <arrival publicID="quakeml:uw.anss.org/AssocArO/UW/7758793">
          <pickID>quakeml:uw.anss.org/Arrival/UW/7758793</pickID>
          <phase>P</phase>
          <azimuth>135.4</azimuth>
          <distance>1.043</distance>
          <timeResidual>0.0</timeResidual>
          <creationInfo>
            <agencyID>UW</agencyID>
            <creationTime>2012-03-05T13:09:23.000000Z</creationTime>
          </creationInfo>
        </arrival>
        <arrival publicID="quakeml:uw.anss.org/AssocArO/UW/7758798">
          <pickID>quakeml:uw.anss.org/Arrival/UW/7758798</pickID>
          <phase>P</phase>
