<?xml version='1.0' encoding='utf-8'?>
<q:quakeml xmlns="http://quakeml.org/xmlns/bed/1.2" xmlns:q="http://quakeml.org/xmlns/quakeml/1.2" xmlns:ns0="http://anss.org/xmlns/catalog/0.1">
  <eventParameters publicID="smi:local/3d54b6f3-e15d-451f-9ebf-084e4883b5ad">
    <event publicID="quakeml:uw.anss.org/Event/UW/10568243" ns0:datasource="uw" ns0:dataid="uw10568243" ns0:eventsource="uw" ns0:eventid="10568243">
      <preferredOriginID>quakeml:uw.anss.org/Origin/UW/850478</preferredOriginID>
      <preferredMagnitudeID>quakeml:uw.anss.org/Netmag/UW/672483</preferredMagnitudeID>
      <type>earthquake</type>
      <creationInfo>
        <agencyID>UW</agencyID>
        <creationTime>2012-03-05T13:24:02.000000Z</creationTime>
        <version>3</version>
      </creationInfo>
      <origin publicID="quakeml:uw.anss.org/Origin/UW/850478" ns0:datasource="uw" ns0:dataid="uw10568243" ns0:eventsource="uw" ns0:eventid="10568243">
        <time>
          <value>2002-09-25T05:35:49.450000Z</value>
          <uncertainty>0.01</uncertainty>
        </time>
        <latitude>
          <value>48.6155</value>
          <uncertainty>0.04</uncertainty>
        </latitude>
        <longitude>
          <value>-121.952</value>
          <uncertainty>0.03</uncertainty>
        </longitude>
        <depth>
          <value>-949.0</value>
          <uncertainty>90.0</uncertainty>
        </depth>
        <depthType>operator assigned</depthType>
        <timeFixed>false</timeFixed>
        <epicenterFixed>false</epicenterFixed>
        <methodID>smi:uw.anss.org/origin/spong</methodID>
        <quality>
          <associatedPhaseCount>100</associatedPhaseCount>
          <usedPhaseCount>50</usedPhaseCount>
          <associatedStationCount>76</associatedStationCount>
          <usedStationCount>0</usedStationCount>
          <standardError>0.34</standardError>
          <azimuthalGap>105.0</azimuthalGap>
        </quality>
        <type>hypocenter</type>
        <evaluationMode>manual</evaluationMode>
        <evaluationStatus>final</evaluationStatus>
        <creationInfo>
          <agencyID>UW</agencyID>
          <creationTime>2012-03-05T13:24:02.000000Z</creationTime>
        </creationInfo>
        <originUncertainty>
          <preferredDescription>horizontal uncertainty</preferredDescription>
          <horizontalUncertainty>50.0</horizontalUncertainty>
        </originUncertainty>
        <arrival publicID="quakeml:uw.anss.org/AssocArO/UW/7801973">
          <pickID>quakeml:uw.anss.org/Arrival/UW/7801973</pickID>
          <phase>P</phase>
          <azimuth>157.6</azimuth>
          <distance>2.032</distance>
          <timeResidual>-0.21</timeResidual>
          <creationInfo>
            <agencyID>UW</agencyID>
            <creationTime>2012-03-05T13:24:02.000000Z</creationTime>
          </creationInfo>
        </arrival>
        <arrival publicID="quakeml:uw.anss.org/AssocArO/UW/7801978">
          <pickID>quakeml:uw.anss.org/Arrival/UW/7801978</pickID>
          <phase>P</phase>
          <azimuth>116.4</azimuth>
          <distance>1.205</distance>
          <timeResidual>0.49</timeResidual>
          <creationInfo>
            <agencyID>UW</agencyID>
            <creationTime>2012-03-05T13:24:02.000000Z</creationTime>
          </creationInfo>
        </arrival>
        <arrival publicID="quakeml:uw.anss.org/AssocArO/UW/7801983">
          <pickID>quakeml:uw.anss.org/Arrival/UW/7801983</pickID>
          <phase>S</phase>
          <azimuth>116.4</azimuth>
          <distance>1.205</distance>
          <timeResidual>-0.21</timeResidual>
          <creationInfo>
            <agencyID>UW</agencyID>
            <creationTime>2012-03-05T13:24:02.000000Z</creationTime>
          </creationInfo>
        </arrival>
        <arrival publicID="quakeml:uw.anss.org/AssocArO/UW/7801988">
          <pickID>quakeml:uw.anss.org/Arrival/UW/7801988</pickID>
          <phase>P</phase>
          <azimuth>250.3</azimuth>
          <distance>0.4763</distance>
          <timeResidual>-0.45</timeResidual>
          <creationInfo>
            <agencyID>UW</agencyID>
            <creationTime>2012-03-05T13:24:02.000000Z</creationTime>
          </creationInfo>
        </arrival>
        <arrival publicID="quakeml:uw.anss.org/AssocArO/UW/7801993">
          <pickID>quakeml:uw.anss.org/Arrival/UW/7801993</pickID>
          <phase>P</phase>
          <azimuth>141.2</azimuth>
          <distance>2.55</distance>
          <timeResidual>3.37</timeResidual>
          <creationInfo>
            <agencyID>UW</agencyID>
            <creationTime>2012-03-05T13:24:02.000000Z</creationTime>
          </creationInfo>
        </arrival>
        <arrival publicID="quakeml:uw.anss.org/AssocArO/UW/7801998">
          <pickID>quakeml:uw.anss.org/Arrival/UW/7801998</pickID>
          <phase>P</phase>
          <azimuth>209.3</azimuth>
          <distance>1.204</distance>
          <timeResidual>-0.42</timeResidual>
          <creationInfo>
            <agencyID>UW</agencyID>
            <creationTime>2012-03-05T13:24:02.000000Z</creationTime>
          </creationInfo>
        </arrival>
        <arrival publicID="quakeml:uw.anss.org/AssocArO/UW/7802003">
          <pickID>quakeml:uw.anss.org/Arrival/UW/7802003</pickID>
          <phase>S</phase>
          <azimuth>209.3</azimuth>
          <distance>1.204</distance>
          <timeResidual>-1.06</timeResidual>
          <creationInfo>
            <agencyID>UW</agencyID>
            <creationTime>2012-03-05T13:24:02.000000Z</creationTime>
          </creationInfo>
        </arrival>
        <arrival publicID="quakeml:uw.anss.org/AssocArO/UW/7802008">
          <pickID>quakeml:uw.anss.org/Arrival/UW/7802008</pickID>
          <phase>P</phase>
          <azimuth>177.6</azimuth>
          <timeResidual>-0.16</timeResidual>
          <creationInfo>
            <agencyID>UW</agencyID>
            <creationTime>2012-03-05T13:24:02.000000Z</creationTime>
          </creationInfo>
        </arrival>
        <arrival publicID="quakeml:uw.anss.org/AssocArO/UW/7802013">
          <pickID>quakeml:uw.anss.org/Arrival/UW/7802013</pickID>
          <phase>S</phase>
          <azimuth>206.9</azimuth>
          <distance>0.6765</distance>
          <timeResidual>0.45</timeResidual>
          <creationInfo>
            <agencyID>UW</agencyID>
            <creationTime>2012-03-05T13:24:02.000000Z</creationTime>
          </creationInfo>
        </arrival>
        <arrival publicID="quakeml:uw.anss.org/AssocArO/UW/7802018">
          <pickID>quakeml:uw.anss.org/Arrival/UW/7802018</pickID>
          <phase>P</phase>
          <azimuth>234.4</azimuth>
          <timeResidual>0.15</timeResidual>
          <creationInfo>
            <agencyID>UW</agencyID>
            <creationTime>2012-03-05T13:24:02.000000Z</creationTime>
          </creationInfo>
        </arrival>
        <arrival publicID="quakeml:uw.anss.org/AssocArO/UW/7802023">
          <pickID>quakeml:uw.anss.org/Arrival/UW/7802023</pickID>
          <phase>S</phase>
          <azimuth>234.4</azimuth>
          <timeResidual>-0.25</timeResidual>
          <creationInfo>
            <agencyID>UW</agencyID>
            <creationTime>2012-03-05T13:24:02.000000Z</creationTime>
          </creationInfo>
        </arrival>
        <arrival publicID="quakeml:uw.anss.org/AssocArO/UW/7802028">
          <pickID>quakeml:uw.anss.org/Arrival/UW/7802028</pickID>
          <phase>P</phase>
          <azimuth>296.6</azimuth>
          <distance>0.3435</distance>
          <timeResidual>0.16</timeResidual>
          <creationInfo>
            <agencyID>UW</agencyID>
            <creationTime>2012-03-05T13:24:02.000000Z</creationTime>
          </creationInfo>
        </arrival>
        <arrival publicID="quakeml:uw.anss.org/AssocArO/UW/7802033">
          <pickID>quakeml:uw.anss.org/Arrival/UW/7802033</pickID>
          <phase>S</phase>
          <azimuth>177.0</azimuth>
          <timeResidual>-1.49</timeResidual>
          <creationInfo>
            <agencyID>UW</agencyID>
            <creationTime>2012-03-05T13:24:02.000000Z</creationTime>
          </creationInfo>
        </arrival>
        <arrival publicID="quakeml:uw.anss.org/AssocArO/UW/7802038">
          <pickID>quakeml:uw.anss.org/Arrival/UW/7802038</pickID>
          <phase>P</phase>
          <azimuth>190.0</azimuth>
          <distance>2.214</distance>
          <timeResidual>-0.39</timeResidual>
          <creationInfo>
            <agencyID>UW</agencyID>
            <creationTime>2012-03-05T13:24:02.000000Z</creationTime>
          </creationInfo>
        </arrival>
        <arrival publicID="quakeml:uw.anss.org/AssocArO/UW/7802043">
          <pickID>quakeml:uw.anss.org/Arrival/UW/7802043</pickID>
          <phase>P</phase>
          <azimuth>175.1</azimuth>
          <distance>1.752</distance>
          <timeResidual>0.0</timeResidual>
          <creationInfo>
            <agencyID>UW</agencyID>
            <creationTime>2012-03-05T13:24:02.000000Z</creationTime>
          </creationInfo>
        </arrival>
        <arrival publicID="quakeml:uw.anss.org/AssocArO/UW/7802048">
          <pickID>quakeml:uw.anss.org/Arrival/UW/7802048</pickID>
          <phase>P</phase>
          <azimuth>175.2</azimuth>
          <timeResidual>0.08</timeResidual>
          <creationInfo>
            <agencyID>UW</agencyID>
            <creationTime>2012-03-05T13:24:02.000000Z</creationTime>
          </creationInfo>
        </arrival>
        <arrival publicID="quakeml:uw.anss.org/AssocArO/UW/7802053">
          <pickID>quakeml:uw.anss.org/Arrival/UW/7802053</pickID>
          <phase>P</phase>
          <distance>0.4229</distance>
          <timeResidual>-0.07</timeResidual>
          <creationInfo>
            <agencyID>UW</agencyID>
            <creationTime>2012-03-05T13:24:02.000000Z</creationTime>
          </creationInfo>
        </arrival>
        <arrival publicID="quakeml:uw.anss.org/AssocArO/UW/7802058">
          <pickID>quakeml:uw.anss.org/Arrival/UW/7802058</pickID>
          <phase>S</phase>
          <distance>0.4229</distance>
          <timeResidual>-0.27</timeResidual>
          <creationInfo>
            <agencyID>UW</agencyID>
            <creationTime>2012-03-05T13:24:02.000000Z</creationTime>
          </creationInfo>
        </arrival>
        <arrival publicID="quakeml:uw.anss.org/AssocArO/UW/7802063">
          <pickID>quakeml:uw.anss.org/Arrival/UW/7802063</pickID>
          <phase>P</phase>
          <azimuth>153.4</azimuth>
          <distance>1.648</distance>
          <timeResidual>0.8</timeResidual>
          <creationInfo>
            <agencyID>UW</agencyID>
            <creationTime>2012-03-05T13:24:02.000000Z</creationTime>
          </creationInfo>
        </arrival>
        <arrival publicID="quakeml:uw.anss.org/AssocArO/UW/7802068">
          <pickID>quakeml:uw.anss.org/Arrival/UW/7802068</pickID>
          <phase>P</phase>
          <azimuth>191.9</azimuth>
          <distance>0.915</distance>
          <timeResidual>0.5</timeResidual>
          <creationInfo>
            <agencyID>UW</agencyID>
            <creationTime>2012-03-05T13:24:02.000000Z</creationTime>
          </creationInfo>
        </arrival>
        <arrival publicID="quakeml:uw.anss.org/AssocArO/UW/7802073">
          <pickID>quakeml:uw.anss.org/Arrival/UW/7802073</pickID>
          <phase>S</phase>
          <azimuth>191.9</azimuth>
          <distance>0.915</distance>
          <timeResidual>1.11</timeResidual>
          <creationInfo>
            <agencyID>UW</agencyID>
            <creationTime>2012-03-05T13:24:02.000000Z</creationTime>
          </creationInfo>
        </arrival>
        <arrival publicID="quakeml:uw.anss.org/AssocArO/UW/7802078">
          <pickID>quakeml:uw.anss.org/Arrival/UW/7802078</pickID>
          <phase>P</phase>
          <azimuth>210.2</azimuth>
          <distance>0.2223</distance>
          <timeResidual>-0.78</timeResidual>
          <creationInfo>
            <agencyID>UW</agencyID>
            <creationTime>2012-03-05T13:24:02.000000Z</creationTime>
          </creationInfo>
        </arrival>
        <arrival publicID="quakeml:uw.anss.org/AssocArO/UW/7802083">
          <pickID>quakeml:uw.anss.org/Arrival/UW/7802083</pickID>
          <phase>P</phase>
          <azimuth>143.5</azimuth>
          <distance>2.584</distance>
          <timeResidual>3.21</timeResidual>
          <creationInfo>
            <agencyID>UW</agencyID>
            <creationTime>2012-03-05T13:24:02.000000Z</creationTime>
          </creationInfo>
        </arrival>
        <arrival publicID="quakeml:uw.anss.org/AssocArO/UW/7802088">
          <pickID>quakeml:uw.anss.org/Arrival/UW/7802088</pickID>
          <phase>P</phase>
          <azimuth>183.4</azimuth>
          <distance>0.971</distance>
          <timeResidual>0.53</timeResidual>
          <creationInfo>
            <agencyID>UW</agencyID>
            <creationTime>2012-03-05T13:24:02.000000Z</creationTime>
          </creationInfo>
        </arrival>
        <arrival publicID="quakeml:uw.anss.org/AssocArO/UW/7802093">
          <pickID>quakeml:uw.anss.org/Arrival/UW/7802093</pickID>
          <phase>P</phase>
          <azimuth>143.4</azimuth>
          <distance>2.654</distance>
          <timeResidual>3.42</timeResidual>
          <creationInfo>
            <agencyID>UW</agencyID>
            <creationTime>2012-03-05T13:24:02.000000Z</creationTime>
          </creationInfo>
        </arrival>
        <arrival publicID="quakeml:uw.anss.org/AssocArO/UW/7802098">
          <pickID>quakeml:uw.anss.org/Arrival/UW/7802098</pickID>
          <phase>P</phase>
          <azimuth>175.7</azimuth>
          <timeResidual>-0.17</timeResidual>
          <creationInfo>
            <agencyID>UW</agencyID>
            <creationTime>2012-03-05T13:24:02.000000Z</creationTime>
          </creationInfo>
        </arrival>
        <arrival publicID="quakeml:uw.anss.org/AssocArO/UW/7802103">
          <pickID>quakeml:uw.anss.org/Arrival/UW/7802103</pickID>
          <phase>S</phase>
          <azimuth>198.5</azimuth>
          <timeResidual>-1.36</timeResidual>
          <creationInfo>
            <agencyID>UW</agencyID>
            <creationTime>2012-03-05T13:24:02.000000Z</creationTime>
          </creationInfo>
        </arrival>
        <arrival publicID="quakeml:uw.anss.org/AssocArO/UW/7802108">
          <pickID>quakeml:uw.anss.org/Arrival/UW/7802108</pickID>
          <phase>P</phase>
          <azimuth>142.8</azimuth>
          <distance>2.879</distance>
          <timeResidual>3.68</timeResidual>
          <creationInfo>
            <agencyID>UW</agencyID>
            <creationTime>2012-03-05T13:24:02.000000Z</creationTime>
          </creationInfo>
        </arrival>
        <arrival publicID="quakeml:uw.anss.org/AssocArO/UW/7802113">
          <pickID>quakeml:uw.anss.org/Arrival/UW/7802113</pickID>
          <phase>P</phase>
          <azimuth>132.5</azimuth>
          <distance>1.484</distance>
          <timeResidual>0.88</timeResidual>
          <creationInfo>
            <agencyID>UW</agencyID>
            <creationTime>2012-03-05T13:24:03.000000Z</creationTime>
          </creationInfo>
        </arrival>
        <arrival publicID="quakeml:uw.anss.org/AssocArO/UW/7802118">
          <pickID>quakeml:uw.anss.org/Arrival/UW/7802118</pickID>
          <phase>P</phase>
          <azimuth>180.5</azimuth>
          <distance>1.673</distance>
          <timeResidual>-0.22</timeResidual>
          <creationInfo>
            <agencyID>UW</agencyID>
            <creationTime>2012-03-05T13:24:03.000000Z</creationTime>
          </creationInfo>
        </arrival>
        <arrival publicID="quakeml:uw.anss.org/AssocArO/UW/7802123">
          <pickID>quakeml:uw.anss.org/Arrival/UW/7802123</pickID>
          <phase>S</phase>
          <azimuth>180.5</azimuth>
          <distance>1.673</distance>
          <timeResidual>-1.04</timeResidual>
          <creationInfo>
            <agencyID>UW</agencyID>
            <creationTime>2012-03-05T13:24:03.000000Z</creationTime>
          </creationInfo>
        </arrival>
        <arrival publicID="quakeml:uw.anss.org/AssocArO/UW/7802128">
          <pickID>quakeml:uw.anss.org/Arrival/UW/7802128</pickID>
          <phase>P</phase>
          <azimuth>177.0</azimuth>
          <distance>1.869</distance>
          <timeResidual>-0.38</timeResidual>
          <creationInfo>
            <agencyID>UW</agencyID>
            <creationTime>2012-03-05T13:24:03.000000Z</creationTime>
          </creationInfo>
        </arrival>
        <arrival publicID="quakeml:uw.anss.org/AssocArO/UW/7802133">
          <pickID>quakeml:uw.anss.org/Arrival/UW/7802133</pickID>
          <phase>P</phase>
          <azimuth>123.8</azimuth>
          <distance>1.622</distance>
          <timeResidual>0.44</timeResidual>
          <creationInfo>
            <agencyID>UW</agencyID>
            <creationTime>2012-03-05T13:24:03.000000Z</creationTime>
          </creationInfo>
        </arrival>
        <arrival publicID="quakeml:uw.anss.org/AssocArO/UW/7802138">
          <pickID>quakeml:uw.anss.org/Arrival/UW/7802138</pickID>
          <phase>P</phase>
          <azimuth>175.1</azimuth>
          <distance>1.161</distance>
          <timeResidual>-0.05</timeResidual>
          <creationInfo>
            <agencyID>UW</agencyID>
            <creationTime>2012-03-05T13:24:03.000000Z</creationTime>
          </creationInfo>
        </arrival>
        <arrival publicID="quakeml:uw.anss.org/AssocArO/UW/7802143">
          <pickID>quakeml:uw.anss.org/Arrival/UW/7802143</pickID>
          <phase>P</phase>
          <azimuth>119.9</azimuth>
          <distance>0.3354</distance>
          <timeResidual>-0.02</timeResidual>
          <creationInfo>
            <agencyID>UW</agencyID>
            <creationTime>2012-03-05T13:24:03.000000Z</creationTime>
          </creationInfo>
        </arrival>
        <arrival publicID="quakeml:uw.anss.org/AssocArO/UW/7802148">
          <pickID>quakeml:uw.anss.org/Arrival/UW/7802148</pickID>
          <phase>S</phase>
          <azimuth>119.9</azimuth>
          <distance>0.3354</distance>
          <timeResidual>-0.23</timeResidual>
          <creationInfo>
            <agencyID>UW</agencyID>
            <creationTime>2012-03-05T13:24:03.000000Z</creationTime>
          </creationInfo>
        </arrival>
        <arrival publicID="quakeml:uw.anss.org/AssocArO/UW/7802153">
          <pickID>quakeml:uw.anss.org/Arrival/UW/7802153</pickID>
          <phase>P</phase>
          <azimuth>173.5</azimuth>
          <distance>2.072</distance>
          <timeResidual>-0.03</timeResidual>
          <creationInfo>
            <agencyID>UW</agencyID>
            <creationTime>2012-03-05T13:24:03.000000Z</creationTime>
          </creationInfo>
        </arrival>
        <arrival publicID="quakeml:uw.anss.org/AssocArO/UW/7802158">
          <pickID>quakeml:uw.anss.org/Arrival/UW/7802158</pickID>
          <phase>P</phase>
          <azimuth>171.6</azimuth>
          <distance>1.938</distance>
          <timeResidual>-0.2</timeResidual>
          <creationInfo>
            <agencyID>UW</agencyID>
            <creationTime>2012-03-05T13:24:03.000000Z</creationTime>
          </creationInfo>
        </arrival>
        <arrival publicID="quakeml:uw.anss.org/AssocArO/UW/7802163">
          <pickID>quakeml:uw.anss.org/Arrival/UW/7802163</pickID>
          <phase>P</phase>
          <azimuth>231.2</azimuth>
          <timeResidual>0.06</timeResidual>
          <creationInfo>
            <agencyID>UW</agencyID>
            <creationTime>2012-03-05T13:24:03.000000Z</creationTime>
          </creationInfo>
        </arrival>
        <arrival publicID="quakeml:uw.anss.org/AssocArO/UW/7802168">
          <pickID>quakeml:uw.anss.org/Arrival/UW/7802168</pickID>
          <phase>P</phase>
          <azimuth>169.2</azimuth>
          <distance>0.9382</distance>
