<?xml version='1.0' encoding='utf-8'?>
<q:quakeml xmlns="http://quakeml.org/xmlns/bed/1.2" xmlns:q="http://quakeml.org/xmlns/quakeml/1.2" xmlns:ns0="http://anss.org/xmlns/catalog/0.1">
  <eventParameters publicID="smi:local/ec5a5a63-9bcf-414b-a7a9-f6da4a95c10f">
    <event publicID="quakeml:uw.anss.org/Event/UW/10565513" ns0:datasource="uw" ns0:dataid="uw10565513" ns0:eventsource="uw" ns0:eventid="10565513">
      <preferredOriginID>quakeml:uw.anss.org/Origin/UW/847748</preferredOriginID>
      <preferredMagnitudeID>quakeml:uw.anss.org/Netmag/UW/671228</preferredMagnitudeID>
      <type>earthquake</type>
      <creationInfo>
        <agencyID>UW</agencyID>
        <creationTime>2012-03-05T13:17:47.000000Z</creationTime>
        <version>3</version>
      </creationInfo>
      <origin publicID="quakeml:uw.anss.org/Origin/UW/847748" ns0:datasource="uw" ns0:dataid="uw10565513" ns0:eventsource="uw" ns0:eventid="10565513">
        <time>
          <value>2002-07-24T15:30:51.040000Z</value>
          <uncertainty>0.08</uncertainty>
        </time>
        <latitude>
          <value>48.5711667</value>
          <uncertainty>0.77</uncertainty>
        </latitude>
        <longitude>
          <value>-121.5823333</value>
          <uncertainty>0.43</uncertainty>
        </longitude>
        <depth>
          <value>3212.0</value>
          <uncertainty>1330.0</uncertainty>
        </depth>
        <depthType>from location</depthType>
        <timeFixed>false</timeFixed>
        <epicenterFixed>false</epicenterFixed>
        <methodID>smi:uw.anss.org/origin/spong</methodID>
        <quality>
          <associatedPhaseCount>21</associatedPhaseCount>
          <usedPhaseCount>14</usedPhaseCount>
          <associatedStationCount>18</associatedStationCount>
          <usedStationCount>0</usedStationCount>
          <standardError>0.18</standardError>
          <azimuthalGap>158.0</azimuthalGap>
        </quality>
        <type>hypocenter</type>
        <evaluationMode>manual</evaluationMode>
        <evaluationStatus>final</evaluationStatus>
        <creationInfo>
          <agencyID>UW</agencyID>
          <creationTime>2012-03-05T13:17:47.000000Z</creationTime>
        </creationInfo>
        <originUncertainty>
          <preferredDescription>horizontal uncertainty</preferredDescription>
          <horizontalUncertainty>882.0</horizontalUncertainty>
        </originUncertainty>
        <arrival publicID="quakeml:uw.anss.org/AssocArO/UW/7781418">
          <pickID>quakeml:uw.anss.org/Arrival/UW/7781418</pickID>
          <phase>P</phase>
          <azimuth>189.3</azimuth>
          <distance>1.649</distance>
          <timeResidual>0.11</timeResidual>
          <creationInfo>
            <agencyID>UW</agencyID>
            <creationTime>2012-03-05T13:17:47.000000Z</creationTime>
          </creationInfo>
        </arrival>
        <arrival publicID="quakeml:uw.anss.org/AssocArO/UW/7781423">
          <pickID>quakeml:uw.anss.org/Arrival/UW/7781423</pickID>
          <phase>P</phase>
          <azimuth>120.8</azimuth>
          <distance>0.9683</distance>
          <timeResidual>0.04</timeResidual>
          <creationInfo>
            <agencyID>UW</agencyID>
            <creationTime>2012-03-05T13:17:47.000000Z</creationTime>
          </creationInfo>
        </arrival>
        <arrival publicID="quakeml:uw.anss.org/AssocArO/UW/7781428">
          <pickID>quakeml:uw.anss.org/Arrival/UW/7781428</pickID>
          <phase>P</phase>
          <azimuth>211.5</azimuth>
          <timeResidual>0.0</timeResidual>
          <creationInfo>
            <agencyID>UW</agencyID>
            <creationTime>2012-03-05T13:17:47.000000Z</creationTime>
          </creationInfo>
        </arrival>
        <arrival publicID="quakeml:uw.anss.org/AssocArO/UW/7781433">
          <pickID>quakeml:uw.anss.org/Arrival/UW/7781433</pickID>
          <phase>P</phase>
          <azimuth>187.8</azimuth>
          <distance>1.123</distance>
          <timeResidual>0.07</timeResidual>
          <creationInfo>
            <agencyID>UW</agencyID>
            <creationTime>2012-03-05T13:17:47.000000Z</creationTime>
          </creationInfo>
        </arrival>
        <arrival publicID="quakeml:uw.anss.org/AssocArO/UW/7781438">
          <pickID>quakeml:uw.anss.org/Arrival/UW/7781438</pickID>
          <phase>P</phase>
          <azimuth>160.0</azimuth>
          <distance>0.131</distance>
          <timeResidual>0.11</timeResidual>
          <creationInfo>
            <agencyID>UW</agencyID>
            <creationTime>2012-03-05T13:17:47.000000Z</creationTime>
          </creationInfo>
        </arrival>
        <arrival publicID="quakeml:uw.anss.org/AssocArO/UW/7781443">
          <pickID>quakeml:uw.anss.org/Arrival/UW/7781443</pickID>
          <phase>S</phase>
          <azimuth>160.0</azimuth>
          <distance>0.131</distance>
          <timeResidual>0.0</timeResidual>
          <creationInfo>
            <agencyID>UW</agencyID>
            <creationTime>2012-03-05T13:17:47.000000Z</creationTime>
          </creationInfo>
        </arrival>
        <arrival publicID="quakeml:uw.anss.org/AssocArO/UW/7781448">
          <pickID>quakeml:uw.anss.org/Arrival/UW/7781448</pickID>
          <phase>P</phase>
          <azimuth>182.1</azimuth>
          <timeResidual>-0.11</timeResidual>
          <creationInfo>
            <agencyID>UW</agencyID>
            <creationTime>2012-03-05T13:17:47.000000Z</creationTime>
          </creationInfo>
        </arrival>
        <arrival publicID="quakeml:uw.anss.org/AssocArO/UW/7781453">
          <pickID>quakeml:uw.anss.org/Arrival/UW/7781453</pickID>
          <phase>P</phase>
          <azimuth>59.3</azimuth>
          <distance>1.493</distance>
          <timeResidual>1.53</timeResidual>
          <creationInfo>
            <agencyID>UW</agencyID>
            <creationTime>2012-03-05T13:17:47.000000Z</creationTime>
          </creationInfo>
        </arrival>
        <arrival publicID="quakeml:uw.anss.org/AssocArO/UW/7781458">
          <pickID>quakeml:uw.anss.org/Arrival/UW/7781458</pickID>
          <phase>P</phase>
          <azimuth>115.3</azimuth>
          <distance>1.343</distance>
          <timeResidual>0.67</timeResidual>
          <creationInfo>
            <agencyID>UW</agencyID>
            <creationTime>2012-03-05T13:17:47.000000Z</creationTime>
          </creationInfo>
        </arrival>
        <arrival publicID="quakeml:uw.anss.org/AssocArO/UW/7781463">
          <pickID>quakeml:uw.anss.org/Arrival/UW/7781463</pickID>
          <phase>P</phase>
          <azimuth>189.3</azimuth>
          <distance>0.778</distance>
          <timeResidual>0.03</timeResidual>
          <creationInfo>
            <agencyID>UW</agencyID>
            <creationTime>2012-03-05T13:17:47.000000Z</creationTime>
          </creationInfo>
        </arrival>
        <arrival publicID="quakeml:uw.anss.org/AssocArO/UW/7781468">
          <pickID>quakeml:uw.anss.org/Arrival/UW/7781468</pickID>
          <phase>P</phase>
          <azimuth>146.6</azimuth>
          <distance>0.8546</distance>
          <timeResidual>-0.37</timeResidual>
          <creationInfo>
            <agencyID>UW</agencyID>
            <creationTime>2012-03-05T13:17:47.000000Z</creationTime>
          </creationInfo>
        </arrival>
        <arrival publicID="quakeml:uw.anss.org/AssocArO/UW/7781473">
          <pickID>quakeml:uw.anss.org/Arrival/UW/7781473</pickID>
          <phase>P</phase>
          <distance>0.5707</distance>
          <timeResidual>0.19</timeResidual>
          <creationInfo>
            <agencyID>UW</agencyID>
            <creationTime>2012-03-05T13:17:47.000000Z</creationTime>
          </creationInfo>
        </arrival>
        <arrival publicID="quakeml:uw.anss.org/AssocArO/UW/7781478">
          <pickID>quakeml:uw.anss.org/Arrival/UW/7781478</pickID>
          <phase>P</phase>
          <azimuth>157.3</azimuth>
          <distance>1.798</distance>
          <timeResidual>1.73</timeResidual>
          <creationInfo>
            <agencyID>UW</agencyID>
            <creationTime>2012-03-05T13:17:47.000000Z</creationTime>
          </creationInfo>
        </arrival>
        <arrival publicID="quakeml:uw.anss.org/AssocArO/UW/7781483">
          <pickID>quakeml:uw.anss.org/Arrival/UW/7781483</pickID>
          <phase>P</phase>
          <azimuth>262.9</azimuth>
          <distance>1.17</distance>
          <timeResidual>0.35</timeResidual>
          <creationInfo>
            <agencyID>UW</agencyID>
            <creationTime>2012-03-05T13:17:47.000000Z</creationTime>
          </creationInfo>
        </arrival>
        <arrival publicID="quakeml:uw.anss.org/AssocArO/UW/7781488">
          <pickID>quakeml:uw.anss.org/Arrival/UW/7781488</pickID>
          <phase>P</phase>
          <azimuth>138.7</azimuth>
          <distance>1.075</distance>
          <timeResidual>0.1</timeResidual>
          <creationInfo>
            <agencyID>UW</agencyID>
            <creationTime>2012-03-05T13:17:47.000000Z</creationTime>
          </creationInfo>
        </arrival>
        <arrival publicID="quakeml:uw.anss.org/AssocArO/UW/7781493">
          <pickID>quakeml:uw.anss.org/Arrival/UW/7781493</pickID>
          <phase>P</phase>
          <azimuth>315.4</azimuth>
          <distance>0.2998</distance>
          <timeResidual>-0.07</timeResidual>
          <creationInfo>
            <agencyID>UW</agencyID>
            <creationTime>2012-03-05T13:17:47.000000Z</creationTime>
          </creationInfo>
        </arrival>
        <arrival publicID="quakeml:uw.anss.org/AssocArO/UW/7781498">
          <pickID>quakeml:uw.anss.org/Arrival/UW/7781498</pickID>
          <phase>S</phase>
          <azimuth>315.4</azimuth>
          <distance>0.2998</distance>
          <timeResidual>-0.25</timeResidual>
          <creationInfo>
            <agencyID>UW</agencyID>
            <creationTime>2012-03-05T13:17:47.000000Z</creationTime>
          </creationInfo>
        </arrival>
        <arrival publicID="quakeml:uw.anss.org/AssocArO/UW/7781503">
          <pickID>quakeml:uw.anss.org/Arrival/UW/7781503</pickID>
          <phase>P</phase>
          <azimuth>120.0</azimuth>
          <distance>1.7</distance>
          <timeResidual>1.21</timeResidual>
          <creationInfo>
            <agencyID>UW</agencyID>
            <creationTime>2012-03-05T13:17:48.000000Z</creationTime>
          </creationInfo>
        </arrival>
        <arrival publicID="quakeml:uw.anss.org/AssocArO/UW/7781508">
          <pickID>quakeml:uw.anss.org/Arrival/UW/7781508</pickID>
          <phase>P</phase>
          <azimuth>128.2</azimuth>
          <distance>1.397</distance>
          <timeResidual>0.13</timeResidual>
          <creationInfo>
            <agencyID>UW</agencyID>
            <creationTime>2012-03-05T13:17:48.000000Z</creationTime>
          </creationInfo>
        </arrival>
        <arrival publicID="quakeml:uw.anss.org/AssocArO/UW/7781513">
          <pickID>quakeml:uw.anss.org/Arrival/UW/7781513</pickID>
          <phase>P</phase>
          <azimuth>220.0</azimuth>
          <distance>1.308</distance>
          <timeResidual>-0.27</timeResidual>
          <creationInfo>
            <agencyID>UW</agencyID>
            <creationTime>2012-03-05T13:17:48.000000Z</creationTime>
          </creationInfo>
        </arrival>
        <arrival publicID="quakeml:uw.anss.org/AssocArO/UW/7781518">
          <pickID>quakeml:uw.anss.org/Arrival/UW/7781518</pickID>
          <phase>S</phase>
          <azimuth>220.0</azimuth>
          <distance>1.308</distance>
          <timeResidual>-1.04</timeResidual>
          <creationInfo>
            <agencyID>UW</agencyID>
            <creationTime>2012-03-05T13:17:48.000000Z</creationTime>
          </creationInfo>
        </arrival>
      </origin>
      <magnitude publicID="quakeml:uw.anss.org/Netmag/UW/671228">
        <mag>
          <value>1.7</value>
          <uncertainty>0.03</uncertainty>
        </mag>
        <type>Md</type>
        <originID>quakeml:uw.anss.org/Origin/UW/847748</originID>
        <methodID>smi:uw.anss.org/magnitude/Crosson</methodID>
        <stationCount>7</stationCount>
        <evaluationMode>manual</evaluationMode>
        <evaluationStatus>final</evaluationStatus>
        <stationMagnitudeContribution>
          <stationMagnitudeID>quakeml:uw.anss.org/AssocCoM/UW/1817798</stationMagnitudeID>
          <weight>1.0</weight>
          <residual>0.12</residual>
        </stationMagnitudeContribution>
        <stationMagnitudeContribution>
          <stationMagnitudeID>quakeml:uw.anss.org/AssocCoM/UW/1817808</stationMagnitudeID>
          <weight>1.0</weight>
          <residual>-0.62</residual>
        </stationMagnitudeContribution>
        <stationMagnitudeContribution>
          <stationMagnitudeID>quakeml:uw.anss.org/AssocCoM/UW/1817803</stationMagnitudeID>
          <weight>1.0</weight>
          <residual>-0.27</residual>
        </stationMagnitudeContribution>
        <stationMagnitudeContribution>
          <stationMagnitudeID>quakeml:uw.anss.org/AssocCoM/UW/1817788</stationMagnitudeID>
          <weight>1.0</weight>
          <residual>-0.12</residual>
        </stationMagnitudeContribution>
        <stationMagnitudeContribution>
          <stationMagnitudeID>quakeml:uw.anss.org/AssocCoM/UW/1817778</stationMagnitudeID>
          <weight>1.0</weight>
          <residual>0.33</residual>
        </stationMagnitudeContribution>
        <stationMagnitudeContribution>
          <stationMagnitudeID>quakeml:uw.anss.org/AssocCoM/UW/1817783</stationMagnitudeID>
          <weight>1.0</weight>
          <residual>0.08</residual>
        </stationMagnitudeContribution>
        <stationMagnitudeContribution>
          <stationMagnitudeID>quakeml:uw.anss.org/AssocCoM/UW/1817793</stationMagnitudeID>
          <weight>1.0</weight>
          <residual>0.12</residual>
        </stationMagnitudeContribution>
        <creationInfo>
          <agencyID>UW</agencyID>
          <creationTime>2012-03-05T13:17:47.000000Z</creationTime>
        </creationInfo>
      </magnitude>
      <stationMagnitude publicID="quakeml:uw.anss.org/AssocCoM/UW/1817778">
        <originID>quakeml:uw.anss.org/Origin/UW/847748</originID>
        <mag>
          <value>2.03</value>
        </mag>
        <type>MD</type>
        <amplitudeID>quakeml:uw.anss.org/Coda/UW/1817778</amplitudeID>
        <waveformID networkCode="UW" stationCode="NEL" locationCode="" channelCode="EHZ"></waveformID>
      </stationMagnitude>
      <stationMagnitude publicID="quakeml:uw.anss.org/AssocCoM/UW/1817783">
        <originID>quakeml:uw.anss.org/Origin/UW/847748</originID>
        <mag>
          <value>1.78</value>
        </mag>
        <type>MD</type>
        <amplitudeID>quakeml:uw.anss.org/Coda/UW/1817783</amplitudeID>
        <waveformID networkCode="UW" stationCode="JCW" locationCode="" channelCode="EHZ"></waveformID>
      </stationMagnitude>
      <stationMagnitude publicID="quakeml:uw.anss.org/AssocCoM/UW/1817788">
        <originID>quakeml:uw.anss.org/Origin/UW/847748</originID>
        <mag>
          <value>1.58</value>
        </mag>
        <type>MD</type>
        <amplitudeID>quakeml:uw.anss.org/Coda/UW/1817788</amplitudeID>
        <waveformID networkCode="UW" stationCode="RPW" locationCode="" channelCode="EHZ"></waveformID>
      </stationMagnitude>
      <stationMagnitude publicID="quakeml:uw.anss.org/AssocCoM/UW/1817793">
        <originID>quakeml:uw.anss.org/Origin/UW/847748</originID>
        <mag>
          <value>1.82</value>
        </mag>
        <type>MD</type>
        <amplitudeID>quakeml:uw.anss.org/Coda/UW/1817793</amplitudeID>
        <waveformID networkCode="UW" stationCode="HTW" locationCode="" channelCode="EHZ"></waveformID>
      </stationMagnitude>
      <stationMagnitude publicID="quakeml:uw.anss.org/AssocCoM/UW/1817798">
        <originID>quakeml:uw.anss.org/Origin/UW/847748</originID>
        <mag>
          <value>1.82</value>
        </mag>
        <type>MD</type>
        <amplitudeID>quakeml:uw.anss.org/Coda/UW/1817798</amplitudeID>
        <waveformID networkCode="UW" stationCode="WRW" locationCode="" channelCode="EHZ"></waveformID>
      </stationMagnitude>
      <stationMagnitude publicID="quakeml:uw.anss.org/AssocCoM/UW/1817803">
        <originID>quakeml:uw.anss.org/Origin/UW/847748</originID>
        <mag>
          <value>1.43</value>
        </mag>
        <type>MD</type>
        <amplitudeID>quakeml:uw.anss.org/Coda/UW/1817803</amplitudeID>
        <waveformID networkCode="CN" stationCode="VDB" locationCode="" channelCode="EHZ"></waveformID>
      </stationMagnitude>
      <stationMagnitude publicID="quakeml:uw.anss.org/AssocCoM/UW/1817808">
        <originID>quakeml:uw.anss.org/Origin/UW/847748</originID>
        <mag>
          <value>1.08</value>
        </mag>
        <type>MD</type>
        <amplitudeID>quakeml:uw.anss.org/Coda/UW/1817808</amplitudeID>
        <waveformID networkCode="UW" stationCode="MBW" locationCode="" channelCode="EHZ"></waveformID>
      </stationMagnitude>
      <pick publicID="quakeml:uw.anss.org/Arrival/UW/7781418">
        <time>
          <value>2002-07-24T15:31:19.950000Z</value>
          <uncertainty>0.04</uncertainty>
        </time>
        <waveformID networkCode="UW" stationCode="RVC" locationCode="" channelCode="EHZ"></waveformID>
        <polarity>undecidable</polarity>
        <evaluationMode>manual</evaluationMode>
        <evaluationStatus>final</evaluationStatus>
        <creationInfo>
          <agencyID>UW</agencyID>
          <creationTime>2012-03-05T13:17:47.000000Z</creationTime>
        </creationInfo>
      </pick>
      <pick publicID="quakeml:uw.anss.org/Arrival/UW/7781423">
        <time>
          <value>2002-07-24T15:31:08.540000Z</value>
          <uncertainty>0.04</uncertainty>
        </time>
        <waveformID networkCode="UW" stationCode="NEL" locationCode="" channelCode="EHZ"></waveformID>
        <polarity>undecidable</polarity>
        <evaluationMode>manual</evaluationMode>
        <evaluationStatus>final</evaluationStatus>
        <creationInfo>
          <agencyID>UW</agencyID>
          <creationTime>2012-03-05T13:17:47.000000Z</creationTime>
        </creationInfo>
      </pick>
      <pick publicID="quakeml:uw.anss.org/Arrival/UW/7781428">
        <time>
          <value>2002-07-24T15:30:59.420000Z</value>
          <uncertainty>0.01</uncertainty>
        </time>
        <waveformID networkCode="UW" stationCode="JCW" locationCode="" channelCode="EHZ"></waveformID>
        <polarity>negative</polarity>
        <evaluationMode>manual</evaluationMode>
        <evaluationStatus>final</evaluationStatus>
        <creationInfo>
          <agencyID>UW</agencyID>
          <creationTime>2012-03-05T13:17:47.000000Z</creationTime>
        </creationInfo>
      </pick>
      <pick publicID="quakeml:uw.anss.org/Arrival/UW/7781433">
        <time>
          <value>2002-07-24T15:31:11.110000Z</value>
          <uncertainty>0.04</uncertainty>
        </time>
        <waveformID networkCode="UW" stationCode="RMW" locationCode="" channelCode="EHZ"></waveformID>
        <polarity>undecidable</polarity>
        <evaluationMode>manual</evaluationMode>
        <evaluationStatus>final</evaluationStatus>
        <creationInfo>
          <agencyID>UW</agencyID>
          <creationTime>2012-03-05T13:17:47.000000Z</creationTime>
        </creationInfo>
      </pick>
      <pick publicID="quakeml:uw.anss.org/Arrival/UW/7781438">
        <time>
          <value>2002-07-24T15:30:53.940000Z</value>
          <uncertainty>0.01</uncertainty>
        </time>
        <waveformID networkCode="UW" stationCode="RPW" locationCode="" channelCode="EHZ"></waveformID>
        <polarity>positive</polarity>
        <evaluationMode>manual</evaluationMode>
        <evaluationStatus>final</evaluationStatus>
        <creationInfo>
          <agencyID>UW</agencyID>
