<?xml version='1.0' encoding='utf-8'?>
<q:quakeml xmlns="http://quakeml.org/xmlns/bed/1.2" xmlns:q="http://quakeml.org/xmlns/quakeml/1.2" xmlns:ns0="http://anss.org/xmlns/catalog/0.1">
  <eventParameters publicID="smi:local/43374df7-9091-4dc8-9356-19c9ecc62a33">
    <event publicID="quakeml:uw.anss.org/Event/UW/10562948" ns0:datasource="uw" ns0:dataid="uw10562948" ns0:eventsource="uw" ns0:eventid="10562948">
      <preferredOriginID>quakeml:uw.anss.org/Origin/UW/845183</preferredOriginID>
      <preferredMagnitudeID>quakeml:uw.anss.org/Netmag/UW/669923</preferredMagnitudeID>
      <type>earthquake</type>
      <creationInfo>
        <agencyID>UW</agencyID>
        <creationTime>2012-03-05T13:09:10.000000Z</creationTime>
        <version>3</version>
      </creationInfo>
      <origin publicID="quakeml:uw.anss.org/Origin/UW/845183" ns0:datasource="uw" ns0:dataid="uw10562948" ns0:eventsource="uw" ns0:eventid="10562948">
        <time>
          <value>2002-09-13T14:33:04.670000Z</value>
          <uncertainty>0.01</uncertainty>
        </time>
        <latitude>
          <value>48.606</value>
          <uncertainty>0.04</uncertainty>
        </latitude>
        <longitude>
          <value>-121.9621667</value>
          <uncertainty>0.03</uncertainty>
        </longitude>
        <depth>
          <value>-939.0</value>
          <uncertainty>90.0</uncertainty>
        </depth>
        <depthType>operator assigned</depthType>
        <timeFixed>false</timeFixed>
        <epicenterFixed>false</epicenterFixed>
        <methodID>smi:uw.anss.org/origin/spong</methodID>
        <quality>
          <associatedPhaseCount>59</associatedPhaseCount>
          <usedPhaseCount>24</usedPhaseCount>
          <associatedStationCount>48</associatedStationCount>
          <usedStationCount>0</usedStationCount>
          <standardError>0.29</standardError>
          <azimuthalGap>103.0</azimuthalGap>
        </quality>
        <type>hypocenter</type>
        <evaluationMode>manual</evaluationMode>
        <evaluationStatus>final</evaluationStatus>
        <creationInfo>
          <agencyID>UW</agencyID>
          <creationTime>2012-03-05T13:09:10.000000Z</creationTime>
        </creationInfo>
        <originUncertainty>
          <preferredDescription>horizontal uncertainty</preferredDescription>
          <horizontalUncertainty>50.0</horizontalUncertainty>
        </originUncertainty>
        <arrival publicID="quakeml:uw.anss.org/AssocArO/UW/7757948">
          <pickID>quakeml:uw.anss.org/Arrival/UW/7757948</pickID>
          <phase>P</phase>
          <azimuth>105.0</azimuth>
          <distance>2.618</distance>
          <timeResidual>4.1</timeResidual>
          <creationInfo>
            <agencyID>UW</agencyID>
            <creationTime>2012-03-05T13:09:10.000000Z</creationTime>
          </creationInfo>
        </arrival>
        <arrival publicID="quakeml:uw.anss.org/AssocArO/UW/7757953">
          <pickID>quakeml:uw.anss.org/Arrival/UW/7757953</pickID>
          <phase>P</phase>
          <azimuth>157.3</azimuth>
          <distance>2.026</distance>
          <timeResidual>0.66</timeResidual>
          <creationInfo>
            <agencyID>UW</agencyID>
            <creationTime>2012-03-05T13:09:10.000000Z</creationTime>
          </creationInfo>
        </arrival>
        <arrival publicID="quakeml:uw.anss.org/AssocArO/UW/7757958">
          <pickID>quakeml:uw.anss.org/Arrival/UW/7757958</pickID>
          <phase>P</phase>
          <azimuth>115.8</azimuth>
          <distance>1.207</distance>
          <timeResidual>0.68</timeResidual>
          <creationInfo>
            <agencyID>UW</agencyID>
            <creationTime>2012-03-05T13:09:10.000000Z</creationTime>
          </creationInfo>
        </arrival>
        <arrival publicID="quakeml:uw.anss.org/AssocArO/UW/7757963">
          <pickID>quakeml:uw.anss.org/Arrival/UW/7757963</pickID>
          <phase>P</phase>
          <azimuth>187.7</azimuth>
          <distance>1.58</distance>
          <timeResidual>-0.2</timeResidual>
          <creationInfo>
            <agencyID>UW</agencyID>
            <creationTime>2012-03-05T13:09:10.000000Z</creationTime>
          </creationInfo>
        </arrival>
        <arrival publicID="quakeml:uw.anss.org/AssocArO/UW/7757968">
          <pickID>quakeml:uw.anss.org/Arrival/UW/7757968</pickID>
          <phase>P</phase>
          <azimuth>209.3</azimuth>
          <distance>1.192</distance>
          <timeResidual>-0.19</timeResidual>
          <creationInfo>
            <agencyID>UW</agencyID>
            <creationTime>2012-03-05T13:09:10.000000Z</creationTime>
          </creationInfo>
        </arrival>
        <arrival publicID="quakeml:uw.anss.org/AssocArO/UW/7757973">
          <pickID>quakeml:uw.anss.org/Arrival/UW/7757973</pickID>
          <phase>S</phase>
          <azimuth>209.3</azimuth>
          <distance>1.192</distance>
          <timeResidual>-0.62</timeResidual>
          <creationInfo>
            <agencyID>UW</agencyID>
            <creationTime>2012-03-05T13:09:10.000000Z</creationTime>
          </creationInfo>
        </arrival>
        <arrival publicID="quakeml:uw.anss.org/AssocArO/UW/7757978">
          <pickID>quakeml:uw.anss.org/Arrival/UW/7757978</pickID>
          <phase>P</phase>
          <azimuth>139.0</azimuth>
          <distance>2.627</distance>
          <timeResidual>4.45</timeResidual>
          <creationInfo>
            <agencyID>UW</agencyID>
            <creationTime>2012-03-05T13:09:10.000000Z</creationTime>
          </creationInfo>
        </arrival>
        <arrival publicID="quakeml:uw.anss.org/AssocArO/UW/7757983">
          <pickID>quakeml:uw.anss.org/Arrival/UW/7757983</pickID>
          <phase>P</phase>
          <azimuth>298.6</azimuth>
          <distance>0.3419</distance>
          <timeResidual>0.18</timeResidual>
          <creationInfo>
            <agencyID>UW</agencyID>
            <creationTime>2012-03-05T13:09:10.000000Z</creationTime>
          </creationInfo>
        </arrival>
        <arrival publicID="quakeml:uw.anss.org/AssocArO/UW/7757988">
          <pickID>quakeml:uw.anss.org/Arrival/UW/7757988</pickID>
          <phase>S</phase>
          <azimuth>298.6</azimuth>
          <distance>0.3419</distance>
          <timeResidual>1.85</timeResidual>
          <creationInfo>
            <agencyID>UW</agencyID>
            <creationTime>2012-03-05T13:09:10.000000Z</creationTime>
          </creationInfo>
        </arrival>
        <arrival publicID="quakeml:uw.anss.org/AssocArO/UW/7757993">
          <pickID>quakeml:uw.anss.org/Arrival/UW/7757993</pickID>
          <phase>S</phase>
          <azimuth>176.8</azimuth>
          <timeResidual>-0.97</timeResidual>
          <creationInfo>
            <agencyID>UW</agencyID>
            <creationTime>2012-03-05T13:09:10.000000Z</creationTime>
          </creationInfo>
        </arrival>
        <arrival publicID="quakeml:uw.anss.org/AssocArO/UW/7757998">
          <pickID>quakeml:uw.anss.org/Arrival/UW/7757998</pickID>
          <phase>P</phase>
          <azimuth>189.8</azimuth>
          <distance>2.203</distance>
          <timeResidual>-0.22</timeResidual>
          <creationInfo>
            <agencyID>UW</agencyID>
            <creationTime>2012-03-05T13:09:10.000000Z</creationTime>
          </creationInfo>
        </arrival>
        <arrival publicID="quakeml:uw.anss.org/AssocArO/UW/7758003">
          <pickID>quakeml:uw.anss.org/Arrival/UW/7758003</pickID>
          <phase>P</phase>
          <azimuth>174.8</azimuth>
          <distance>1.743</distance>
          <timeResidual>0.19</timeResidual>
          <creationInfo>
            <agencyID>UW</agencyID>
            <creationTime>2012-03-05T13:09:10.000000Z</creationTime>
          </creationInfo>
        </arrival>
        <arrival publicID="quakeml:uw.anss.org/AssocArO/UW/7758008">
          <pickID>quakeml:uw.anss.org/Arrival/UW/7758008</pickID>
          <phase>P</phase>
          <azimuth>174.9</azimuth>
          <timeResidual>0.24</timeResidual>
          <creationInfo>
            <agencyID>UW</agencyID>
            <creationTime>2012-03-05T13:09:10.000000Z</creationTime>
          </creationInfo>
        </arrival>
        <arrival publicID="quakeml:uw.anss.org/AssocArO/UW/7758013">
          <pickID>quakeml:uw.anss.org/Arrival/UW/7758013</pickID>
          <phase>P</phase>
          <distance>0.4306</distance>
          <timeResidual>-0.22</timeResidual>
          <creationInfo>
            <agencyID>UW</agencyID>
            <creationTime>2012-03-05T13:09:10.000000Z</creationTime>
          </creationInfo>
        </arrival>
        <arrival publicID="quakeml:uw.anss.org/AssocArO/UW/7758018">
          <pickID>quakeml:uw.anss.org/Arrival/UW/7758018</pickID>
          <phase>S</phase>
          <distance>0.4306</distance>
          <timeResidual>-0.57</timeResidual>
          <creationInfo>
            <agencyID>UW</agencyID>
            <creationTime>2012-03-05T13:09:10.000000Z</creationTime>
          </creationInfo>
        </arrival>
        <arrival publicID="quakeml:uw.anss.org/AssocArO/UW/7758023">
          <pickID>quakeml:uw.anss.org/Arrival/UW/7758023</pickID>
          <phase>P</phase>
          <azimuth>153.1</azimuth>
          <distance>1.643</distance>
          <timeResidual>1.04</timeResidual>
          <creationInfo>
            <agencyID>UW</agencyID>
            <creationTime>2012-03-05T13:09:10.000000Z</creationTime>
          </creationInfo>
        </arrival>
        <arrival publicID="quakeml:uw.anss.org/AssocArO/UW/7758028">
          <pickID>quakeml:uw.anss.org/Arrival/UW/7758028</pickID>
          <phase>P</phase>
          <azimuth>209.9</azimuth>
          <distance>0.2107</distance>
          <timeResidual>-0.36</timeResidual>
          <creationInfo>
            <agencyID>UW</agencyID>
            <creationTime>2012-03-05T13:09:10.000000Z</creationTime>
          </creationInfo>
        </arrival>
        <arrival publicID="quakeml:uw.anss.org/AssocArO/UW/7758033">
          <pickID>quakeml:uw.anss.org/Arrival/UW/7758033</pickID>
          <phase>P</phase>
          <azimuth>175.4</azimuth>
          <timeResidual>0.27</timeResidual>
          <creationInfo>
            <agencyID>UW</agencyID>
            <creationTime>2012-03-05T13:09:10.000000Z</creationTime>
          </creationInfo>
        </arrival>
        <arrival publicID="quakeml:uw.anss.org/AssocArO/UW/7758038">
          <pickID>quakeml:uw.anss.org/Arrival/UW/7758038</pickID>
          <phase>P</phase>
          <azimuth>132.0</azimuth>
          <distance>1.482</distance>
          <timeResidual>0.78</timeResidual>
          <creationInfo>
            <agencyID>UW</agencyID>
            <creationTime>2012-03-05T13:09:10.000000Z</creationTime>
          </creationInfo>
        </arrival>
        <arrival publicID="quakeml:uw.anss.org/AssocArO/UW/7758043">
          <pickID>quakeml:uw.anss.org/Arrival/UW/7758043</pickID>
          <phase>P</phase>
          <azimuth>180.3</azimuth>
          <distance>1.663</distance>
          <timeResidual>-0.01</timeResidual>
          <creationInfo>
            <agencyID>UW</agencyID>
            <creationTime>2012-03-05T13:09:10.000000Z</creationTime>
          </creationInfo>
        </arrival>
        <arrival publicID="quakeml:uw.anss.org/AssocArO/UW/7758048">
          <pickID>quakeml:uw.anss.org/Arrival/UW/7758048</pickID>
          <phase>P</phase>
          <azimuth>176.8</azimuth>
          <distance>1.859</distance>
          <timeResidual>-0.21</timeResidual>
          <creationInfo>
            <agencyID>UW</agencyID>
            <creationTime>2012-03-05T13:09:10.000000Z</creationTime>
          </creationInfo>
        </arrival>
        <arrival publicID="quakeml:uw.anss.org/AssocArO/UW/7758053">
          <pickID>quakeml:uw.anss.org/Arrival/UW/7758053</pickID>
          <phase>P</phase>
          <azimuth>174.8</azimuth>
          <distance>1.152</distance>
          <timeResidual>0.17</timeResidual>
          <creationInfo>
            <agencyID>UW</agencyID>
            <creationTime>2012-03-05T13:09:10.000000Z</creationTime>
          </creationInfo>
        </arrival>
        <arrival publicID="quakeml:uw.anss.org/AssocArO/UW/7758058">
          <pickID>quakeml:uw.anss.org/Arrival/UW/7758058</pickID>
          <phase>P</phase>
          <azimuth>117.9</azimuth>
          <distance>0.3367</distance>
          <timeResidual>0.01</timeResidual>
          <creationInfo>
            <agencyID>UW</agencyID>
            <creationTime>2012-03-05T13:09:10.000000Z</creationTime>
          </creationInfo>
        </arrival>
        <arrival publicID="quakeml:uw.anss.org/AssocArO/UW/7758063">
          <pickID>quakeml:uw.anss.org/Arrival/UW/7758063</pickID>
          <phase>S</phase>
          <azimuth>117.9</azimuth>
          <distance>0.3367</distance>
          <timeResidual>-0.2</timeResidual>
          <creationInfo>
            <agencyID>UW</agencyID>
            <creationTime>2012-03-05T13:09:10.000000Z</creationTime>
          </creationInfo>
        </arrival>
        <arrival publicID="quakeml:uw.anss.org/AssocArO/UW/7758068">
          <pickID>quakeml:uw.anss.org/Arrival/UW/7758068</pickID>
          <phase>P</phase>
          <azimuth>173.3</azimuth>
          <distance>2.063</distance>
          <timeResidual>0.23</timeResidual>
          <creationInfo>
            <agencyID>UW</agencyID>
            <creationTime>2012-03-05T13:09:10.000000Z</creationTime>
          </creationInfo>
        </arrival>
        <arrival publicID="quakeml:uw.anss.org/AssocArO/UW/7758073">
          <pickID>quakeml:uw.anss.org/Arrival/UW/7758073</pickID>
          <phase>P</phase>
          <azimuth>171.3</azimuth>
          <distance>1.93</distance>
          <timeResidual>-0.03</timeResidual>
          <creationInfo>
            <agencyID>UW</agencyID>
            <creationTime>2012-03-05T13:09:10.000000Z</creationTime>
          </creationInfo>
        </arrival>
        <arrival publicID="quakeml:uw.anss.org/AssocArO/UW/7758078">
          <pickID>quakeml:uw.anss.org/Arrival/UW/7758078</pickID>
          <phase>S</phase>
          <azimuth>171.3</azimuth>
          <distance>1.93</distance>
          <timeResidual>-1.05</timeResidual>
          <creationInfo>
            <agencyID>UW</agencyID>
            <creationTime>2012-03-05T13:09:10.000000Z</creationTime>
          </creationInfo>
        </arrival>
        <arrival publicID="quakeml:uw.anss.org/AssocArO/UW/7758083">
          <pickID>quakeml:uw.anss.org/Arrival/UW/7758083</pickID>
          <phase>P</phase>
          <azimuth>168.6</azimuth>
          <distance>0.9302</distance>
          <timeResidual>0.22</timeResidual>
          <creationInfo>
            <agencyID>UW</agencyID>
            <creationTime>2012-03-05T13:09:10.000000Z</creationTime>
          </creationInfo>
        </arrival>
        <arrival publicID="quakeml:uw.anss.org/AssocArO/UW/7758088">
          <pickID>quakeml:uw.anss.org/Arrival/UW/7758088</pickID>
          <phase>S</phase>
          <azimuth>168.6</azimuth>
          <distance>0.9302</distance>
          <timeResidual>1.48</timeResidual>
          <creationInfo>
            <agencyID>UW</agencyID>
            <creationTime>2012-03-05T13:09:10.000000Z</creationTime>
          </creationInfo>
        </arrival>
        <arrival publicID="quakeml:uw.anss.org/AssocArO/UW/7758093">
          <pickID>quakeml:uw.anss.org/Arrival/UW/7758093</pickID>
          <phase>P</phase>
          <azimuth>339.3</azimuth>
          <distance>0.3326</distance>
          <timeResidual>0.32</timeResidual>
          <creationInfo>
            <agencyID>UW</agencyID>
            <creationTime>2012-03-05T13:09:10.000000Z</creationTime>
          </creationInfo>
        </arrival>
        <arrival publicID="quakeml:uw.anss.org/AssocArO/UW/7758098">
          <pickID>quakeml:uw.anss.org/Arrival/UW/7758098</pickID>
          <phase>S</phase>
          <azimuth>339.3</azimuth>
          <distance>0.3326</distance>
          <timeResidual>0.73</timeResidual>
          <creationInfo>
            <agencyID>UW</agencyID>
            <creationTime>2012-03-05T13:09:10.000000Z</creationTime>
          </creationInfo>
        </arrival>
        <arrival publicID="quakeml:uw.anss.org/AssocArO/UW/7758103">
          <pickID>quakeml:uw.anss.org/Arrival/UW/7758103</pickID>
          <phase>P</phase>
          <azimuth>12.8</azimuth>
          <distance>0.1825</distance>
          <timeResidual>0.01</timeResidual>
          <creationInfo>
            <agencyID>UW</agencyID>
            <creationTime>2012-03-05T13:09:10.000000Z</creationTime>
          </creationInfo>
        </arrival>
        <arrival publicID="quakeml:uw.anss.org/AssocArO/UW/7758108">
          <pickID>quakeml:uw.anss.org/Arrival/UW/7758108</pickID>
          <phase>P</phase>
          <azimuth>116.9</azimuth>
          <distance>1.939</distance>
          <timeResidual>2.33</timeResidual>
          <creationInfo>
            <agencyID>UW</agencyID>
            <creationTime>2012-03-05T13:09:10.000000Z</creationTime>
          </creationInfo>
        </arrival>
        <arrival publicID="quakeml:uw.anss.org/AssocArO/UW/7758113">
          <pickID>quakeml:uw.anss.org/Arrival/UW/7758113</pickID>
          <phase>P</phase>
          <azimuth>118.0</azimuth>
          <distance>2.501</distance>
          <timeResidual>3.61</timeResidual>
          <creationInfo>
            <agencyID>UW</agencyID>
            <creationTime>2012-03-05T13:09:10.000000Z</creationTime>
          </creationInfo>
        </arrival>
        <arrival publicID="quakeml:uw.anss.org/AssocArO/UW/7758118">
          <pickID>quakeml:uw.anss.org/Arrival/UW/7758118</pickID>
          <phase>S</phase>
          <azimuth>118.0</azimuth>
          <distance>2.501</distance>
          <timeResidual>3.65</timeResidual>
          <creationInfo>
            <agencyID>UW</agencyID>
            <creationTime>2012-03-05T13:09:10.000000Z</creationTime>
          </creationInfo>
        </arrival>
        <arrival publicID="quakeml:uw.anss.org/AssocArO/UW/7758123">
          <pickID>quakeml:uw.anss.org/Arrival/UW/7758123</pickID>
          <phase>P</phase>
          <azimuth>186.5</azimuth>
          <distance>2.316</distance>
          <timeResidual>0.03</timeResidual>
          <creationInfo>
            <agencyID>UW</agencyID>
            <creationTime>2012-03-05T13:09:10.000000Z</creationTime>
          </creationInfo>
        </arrival>
        <arrival publicID="quakeml:uw.anss.org/AssocArO/UW/7758128">
          <pickID>quakeml:uw.anss.org/Arrival/UW/7758128</pickID>
          <phase>P</phase>
          <azimuth>176.8</azimuth>
          <timeResidual>0.0</timeResidual>
          <creationInfo>
            <agencyID>UW</agencyID>
            <creationTime>2012-03-05T13:09:10.000000Z</creationTime>
          </creationInfo>
        </arrival>
        <arrival publicID="quakeml:uw.anss.org/AssocArO/UW/7758133">
          <pickID>quakeml:uw.anss.org/Arrival/UW/7758133</pickID>
          <phase>P</phase>
          <azimuth>150.6</azimuth>
          <distance>1.941</distance>
          <timeResidual>0.53</timeResidual>
          <creationInfo>
            <agencyID>UW</agencyID>
            <creationTime>2012-03-05T13:09:10.000000Z</creationTime>
          </creationInfo>
        </arrival>
        <arrival publicID="quakeml:uw.anss.org/AssocArO/UW/7758138">
          <pickID>quakeml:uw.anss.org/Arrival/UW/7758138</pickID>
          <phase>P</phase>
          <azimuth>173.2</azimuth>
          <timeResidual>0.01</timeResidual>
          <creationInfo>
            <agencyID>UW</agencyID>
            <creationTime>2012-03-05T13:09:10.000000Z</creationTime>
          </creationInfo>
        </arrival>
        <arrival publicID="quakeml:uw.anss.org/AssocArO/UW/7758143">
          <pickID>quakeml:uw.anss.org/Arrival/UW/7758143</pickID>
          <phase>P</phase>
