<?xml version='1.0' encoding='utf-8'?>
<q:quakeml xmlns="http://quakeml.org/xmlns/bed/1.2" xmlns:q="http://quakeml.org/xmlns/quakeml/1.2" xmlns:ns0="http://anss.org/xmlns/catalog/0.1">
  <eventParameters publicID="smi:local/f17b79ff-f654-4fb5-82b0-afa6c3af1e73">
    <event publicID="quakeml:uw.anss.org/Event/UW/10568488" ns0:datasource="uw" ns0:dataid="uw10568488" ns0:eventsource="uw" ns0:eventid="10568488">
      <preferredOriginID>quakeml:uw.anss.org/Origin/UW/850723</preferredOriginID>
      <preferredMagnitudeID>quakeml:uw.anss.org/Netmag/UW/672653</preferredMagnitudeID>
      <type>earthquake</type>
      <creationInfo>
        <agencyID>UW</agencyID>
        <creationTime>2012-03-05T13:25:07.000000Z</creationTime>
        <version>3</version>
      </creationInfo>
      <origin publicID="quakeml:uw.anss.org/Origin/UW/850723" ns0:datasource="uw" ns0:dataid="uw10568488" ns0:eventsource="uw" ns0:eventid="10568488">
        <time>
          <value>2002-09-25T10:33:53.380000Z</value>
          <uncertainty>1.22</uncertainty>
        </time>
        <latitude>
          <value>48.6036667</value>
          <uncertainty>1.13</uncertainty>
        </latitude>
        <longitude>
          <value>-121.9576667</value>
          <uncertainty>0.6</uncertainty>
        </longitude>
        <depth>
          <value>4221.0</value>
          <uncertainty>10460.0</uncertainty>
        </depth>
        <depthType>operator assigned</depthType>
        <timeFixed>false</timeFixed>
        <epicenterFixed>true</epicenterFixed>
        <methodID>smi:uw.anss.org/origin/spong</methodID>
        <quality>
          <associatedPhaseCount>53</associatedPhaseCount>
          <usedPhaseCount>37</usedPhaseCount>
          <associatedStationCount>40</associatedStationCount>
          <usedStationCount>0</usedStationCount>
          <standardError>0.48</standardError>
          <azimuthalGap>104.0</azimuthalGap>
        </quality>
        <type>hypocenter</type>
        <evaluationMode>manual</evaluationMode>
        <evaluationStatus>final</evaluationStatus>
        <creationInfo>
          <agencyID>UW</agencyID>
          <creationTime>2012-03-05T13:25:07.000000Z</creationTime>
        </creationInfo>
        <originUncertainty>
          <preferredDescription>horizontal uncertainty</preferredDescription>
          <horizontalUncertainty>1279.0</horizontalUncertainty>
        </originUncertainty>
        <arrival publicID="quakeml:uw.anss.org/AssocArO/UW/7805648">
          <pickID>quakeml:uw.anss.org/Arrival/UW/7805648</pickID>
          <phase>P</phase>
          <azimuth>115.8</azimuth>
          <distance>1.203</distance>
          <timeResidual>0.52</timeResidual>
          <creationInfo>
            <agencyID>UW</agencyID>
            <creationTime>2012-03-05T13:25:07.000000Z</creationTime>
          </creationInfo>
        </arrival>
        <arrival publicID="quakeml:uw.anss.org/AssocArO/UW/7805653">
          <pickID>quakeml:uw.anss.org/Arrival/UW/7805653</pickID>
          <phase>S</phase>
          <azimuth>115.8</azimuth>
          <distance>1.203</distance>
          <timeResidual>-0.05</timeResidual>
          <creationInfo>
            <agencyID>UW</agencyID>
            <creationTime>2012-03-05T13:25:07.000000Z</creationTime>
          </creationInfo>
        </arrival>
        <arrival publicID="quakeml:uw.anss.org/AssocArO/UW/7805658">
          <pickID>quakeml:uw.anss.org/Arrival/UW/7805658</pickID>
          <phase>P</phase>
          <azimuth>209.5</azimuth>
          <distance>1.192</distance>
          <timeResidual>-0.34</timeResidual>
          <creationInfo>
            <agencyID>UW</agencyID>
            <creationTime>2012-03-05T13:25:07.000000Z</creationTime>
          </creationInfo>
        </arrival>
        <arrival publicID="quakeml:uw.anss.org/AssocArO/UW/7805663">
          <pickID>quakeml:uw.anss.org/Arrival/UW/7805663</pickID>
          <phase>S</phase>
          <azimuth>209.5</azimuth>
          <distance>1.192</distance>
          <timeResidual>-0.29</timeResidual>
          <creationInfo>
            <agencyID>UW</agencyID>
            <creationTime>2012-03-05T13:25:07.000000Z</creationTime>
          </creationInfo>
        </arrival>
        <arrival publicID="quakeml:uw.anss.org/AssocArO/UW/7805668">
          <pickID>quakeml:uw.anss.org/Arrival/UW/7805668</pickID>
          <phase>P</phase>
          <azimuth>177.5</azimuth>
          <timeResidual>-0.09</timeResidual>
          <creationInfo>
            <agencyID>UW</agencyID>
            <creationTime>2012-03-05T13:25:07.000000Z</creationTime>
          </creationInfo>
        </arrival>
        <arrival publicID="quakeml:uw.anss.org/AssocArO/UW/7805673">
          <pickID>quakeml:uw.anss.org/Arrival/UW/7805673</pickID>
          <phase>P</phase>
          <azimuth>298.7</azimuth>
          <distance>0.3457</distance>
          <timeResidual>-0.12</timeResidual>
          <creationInfo>
            <agencyID>UW</agencyID>
            <creationTime>2012-03-05T13:25:07.000000Z</creationTime>
          </creationInfo>
        </arrival>
        <arrival publicID="quakeml:uw.anss.org/AssocArO/UW/7805678">
          <pickID>quakeml:uw.anss.org/Arrival/UW/7805678</pickID>
          <phase>S</phase>
          <azimuth>176.9</azimuth>
          <timeResidual>-0.71</timeResidual>
          <creationInfo>
            <agencyID>UW</agencyID>
            <creationTime>2012-03-05T13:25:07.000000Z</creationTime>
          </creationInfo>
        </arrival>
        <arrival publicID="quakeml:uw.anss.org/AssocArO/UW/7805683">
          <pickID>quakeml:uw.anss.org/Arrival/UW/7805683</pickID>
          <phase>P</phase>
          <azimuth>174.9</azimuth>
          <distance>1.741</distance>
          <timeResidual>0.19</timeResidual>
          <creationInfo>
            <agencyID>UW</agencyID>
            <creationTime>2012-03-05T13:25:07.000000Z</creationTime>
          </creationInfo>
        </arrival>
        <arrival publicID="quakeml:uw.anss.org/AssocArO/UW/7805688">
          <pickID>quakeml:uw.anss.org/Arrival/UW/7805688</pickID>
          <phase>P</phase>
          <azimuth>175.0</azimuth>
          <timeResidual>0.25</timeResidual>
          <creationInfo>
            <agencyID>UW</agencyID>
            <creationTime>2012-03-05T13:25:07.000000Z</creationTime>
          </creationInfo>
        </arrival>
        <arrival publicID="quakeml:uw.anss.org/AssocArO/UW/7805693">
          <pickID>quakeml:uw.anss.org/Arrival/UW/7805693</pickID>
          <phase>P</phase>
          <distance>0.4335</distance>
          <timeResidual>-0.49</timeResidual>
          <creationInfo>
            <agencyID>UW</agencyID>
            <creationTime>2012-03-05T13:25:07.000000Z</creationTime>
          </creationInfo>
        </arrival>
        <arrival publicID="quakeml:uw.anss.org/AssocArO/UW/7805698">
          <pickID>quakeml:uw.anss.org/Arrival/UW/7805698</pickID>
          <phase>S</phase>
          <distance>0.4335</distance>
          <timeResidual>-0.53</timeResidual>
          <creationInfo>
            <agencyID>UW</agencyID>
            <creationTime>2012-03-05T13:25:07.000000Z</creationTime>
          </creationInfo>
        </arrival>
        <arrival publicID="quakeml:uw.anss.org/AssocArO/UW/7805703">
          <pickID>quakeml:uw.anss.org/Arrival/UW/7805703</pickID>
          <phase>P</phase>
          <azimuth>210.9</azimuth>
          <distance>0.2102</distance>
          <timeResidual>-0.93</timeResidual>
          <creationInfo>
            <agencyID>UW</agencyID>
            <creationTime>2012-03-05T13:25:07.000000Z</creationTime>
          </creationInfo>
        </arrival>
        <arrival publicID="quakeml:uw.anss.org/AssocArO/UW/7805708">
          <pickID>quakeml:uw.anss.org/Arrival/UW/7805708</pickID>
          <phase>S</phase>
          <azimuth>210.9</azimuth>
          <distance>0.2102</distance>
          <timeResidual>-1.1</timeResidual>
          <creationInfo>
            <agencyID>UW</agencyID>
            <creationTime>2012-03-05T13:25:07.000000Z</creationTime>
          </creationInfo>
        </arrival>
        <arrival publicID="quakeml:uw.anss.org/AssocArO/UW/7805713">
          <pickID>quakeml:uw.anss.org/Arrival/UW/7805713</pickID>
          <phase>P</phase>
          <azimuth>175.5</azimuth>
          <timeResidual>-0.18</timeResidual>
          <creationInfo>
            <agencyID>UW</agencyID>
            <creationTime>2012-03-05T13:25:07.000000Z</creationTime>
          </creationInfo>
        </arrival>
        <arrival publicID="quakeml:uw.anss.org/AssocArO/UW/7805718">
          <pickID>quakeml:uw.anss.org/Arrival/UW/7805718</pickID>
          <phase>P</phase>
          <azimuth>132.1</azimuth>
          <distance>1.479</distance>
          <timeResidual>0.74</timeResidual>
          <creationInfo>
            <agencyID>UW</agencyID>
            <creationTime>2012-03-05T13:25:07.000000Z</creationTime>
          </creationInfo>
        </arrival>
        <arrival publicID="quakeml:uw.anss.org/AssocArO/UW/7805723">
          <pickID>quakeml:uw.anss.org/Arrival/UW/7805723</pickID>
          <phase>P</phase>
          <azimuth>180.4</azimuth>
          <distance>1.661</distance>
          <timeResidual>-0.1</timeResidual>
          <creationInfo>
            <agencyID>UW</agencyID>
            <creationTime>2012-03-05T13:25:07.000000Z</creationTime>
          </creationInfo>
        </arrival>
        <arrival publicID="quakeml:uw.anss.org/AssocArO/UW/7805728">
          <pickID>quakeml:uw.anss.org/Arrival/UW/7805728</pickID>
          <phase>P</phase>
          <azimuth>174.9</azimuth>
          <distance>1.149</distance>
          <timeResidual>-0.05</timeResidual>
          <creationInfo>
            <agencyID>UW</agencyID>
            <creationTime>2012-03-05T13:25:07.000000Z</creationTime>
          </creationInfo>
        </arrival>
        <arrival publicID="quakeml:uw.anss.org/AssocArO/UW/7805733">
          <pickID>quakeml:uw.anss.org/Arrival/UW/7805733</pickID>
          <phase>P</phase>
          <azimuth>117.8</azimuth>
          <distance>0.333</distance>
          <timeResidual>-0.25</timeResidual>
          <creationInfo>
            <agencyID>UW</agencyID>
            <creationTime>2012-03-05T13:25:07.000000Z</creationTime>
          </creationInfo>
        </arrival>
        <arrival publicID="quakeml:uw.anss.org/AssocArO/UW/7805738">
          <pickID>quakeml:uw.anss.org/Arrival/UW/7805738</pickID>
          <phase>S</phase>
          <azimuth>117.8</azimuth>
          <distance>0.333</distance>
          <timeResidual>-0.18</timeResidual>
          <creationInfo>
            <agencyID>UW</agencyID>
            <creationTime>2012-03-05T13:25:07.000000Z</creationTime>
          </creationInfo>
        </arrival>
        <arrival publicID="quakeml:uw.anss.org/AssocArO/UW/7805743">
          <pickID>quakeml:uw.anss.org/Arrival/UW/7805743</pickID>
          <phase>P</phase>
          <azimuth>168.8</azimuth>
          <distance>0.9273</distance>
          <timeResidual>-0.05</timeResidual>
          <creationInfo>
            <agencyID>UW</agencyID>
            <creationTime>2012-03-05T13:25:07.000000Z</creationTime>
          </creationInfo>
        </arrival>
        <arrival publicID="quakeml:uw.anss.org/AssocArO/UW/7805748">
          <pickID>quakeml:uw.anss.org/Arrival/UW/7805748</pickID>
          <phase>P</phase>
          <azimuth>338.9</azimuth>
          <distance>0.3358</distance>
          <timeResidual>0.01</timeResidual>
          <creationInfo>
            <agencyID>UW</agencyID>
            <creationTime>2012-03-05T13:25:07.000000Z</creationTime>
          </creationInfo>
        </arrival>
        <arrival publicID="quakeml:uw.anss.org/AssocArO/UW/7805753">
          <pickID>quakeml:uw.anss.org/Arrival/UW/7805753</pickID>
          <phase>S</phase>
          <azimuth>338.9</azimuth>
          <distance>0.3358</distance>
          <timeResidual>0.32</timeResidual>
          <creationInfo>
            <agencyID>UW</agencyID>
            <creationTime>2012-03-05T13:25:07.000000Z</creationTime>
          </creationInfo>
        </arrival>
        <arrival publicID="quakeml:uw.anss.org/AssocArO/UW/7805758">
          <pickID>quakeml:uw.anss.org/Arrival/UW/7805758</pickID>
          <phase>P</phase>
          <azimuth>265.7</azimuth>
          <distance>0.7034</distance>
          <timeResidual>0.24</timeResidual>
          <creationInfo>
            <agencyID>UW</agencyID>
            <creationTime>2012-03-05T13:25:07.000000Z</creationTime>
          </creationInfo>
        </arrival>
        <arrival publicID="quakeml:uw.anss.org/AssocArO/UW/7805763">
          <pickID>quakeml:uw.anss.org/Arrival/UW/7805763</pickID>
          <phase>P</phase>
          <azimuth>11.7</azimuth>
          <distance>0.1842</distance>
          <timeResidual>-0.46</timeResidual>
          <creationInfo>
            <agencyID>UW</agencyID>
            <creationTime>2012-03-05T13:25:07.000000Z</creationTime>
          </creationInfo>
        </arrival>
        <arrival publicID="quakeml:uw.anss.org/AssocArO/UW/7805768">
          <pickID>quakeml:uw.anss.org/Arrival/UW/7805768</pickID>
          <phase>P</phase>
          <azimuth>236.6</azimuth>
          <distance>1.41</distance>
          <timeResidual>1.97</timeResidual>
          <creationInfo>
            <agencyID>UW</agencyID>
            <creationTime>2012-03-05T13:25:07.000000Z</creationTime>
          </creationInfo>
        </arrival>
        <arrival publicID="quakeml:uw.anss.org/AssocArO/UW/7805773">
          <pickID>quakeml:uw.anss.org/Arrival/UW/7805773</pickID>
          <phase>P</phase>
          <azimuth>177.2</azimuth>
          <timeResidual>-0.3</timeResidual>
          <creationInfo>
            <agencyID>UW</agencyID>
            <creationTime>2012-03-05T13:25:07.000000Z</creationTime>
          </creationInfo>
        </arrival>
        <arrival publicID="quakeml:uw.anss.org/AssocArO/UW/7805778">
          <pickID>quakeml:uw.anss.org/Arrival/UW/7805778</pickID>
          <phase>S</phase>
          <azimuth>177.2</azimuth>
          <timeResidual>-0.33</timeResidual>
          <creationInfo>
            <agencyID>UW</agencyID>
            <creationTime>2012-03-05T13:25:07.000000Z</creationTime>
          </creationInfo>
        </arrival>
        <arrival publicID="quakeml:uw.anss.org/AssocArO/UW/7805783">
          <pickID>quakeml:uw.anss.org/Arrival/UW/7805783</pickID>
          <phase>P</phase>
          <azimuth>150.6</azimuth>
          <distance>1.937</distance>
          <timeResidual>0.48</timeResidual>
          <creationInfo>
            <agencyID>UW</agencyID>
            <creationTime>2012-03-05T13:25:07.000000Z</creationTime>
          </creationInfo>
        </arrival>
        <arrival publicID="quakeml:uw.anss.org/AssocArO/UW/7805788">
          <pickID>quakeml:uw.anss.org/Arrival/UW/7805788</pickID>
          <phase>P</phase>
          <azimuth>173.3</azimuth>
          <timeResidual>-0.09</timeResidual>
          <creationInfo>
            <agencyID>UW</agencyID>
            <creationTime>2012-03-05T13:25:07.000000Z</creationTime>
          </creationInfo>
        </arrival>
        <arrival publicID="quakeml:uw.anss.org/AssocArO/UW/7805793">
          <pickID>quakeml:uw.anss.org/Arrival/UW/7805793</pickID>
          <phase>P</phase>
          <azimuth>146.8</azimuth>
          <distance>1.605</distance>
          <timeResidual>0.42</timeResidual>
          <creationInfo>
            <agencyID>UW</agencyID>
            <creationTime>2012-03-05T13:25:07.000000Z</creationTime>
          </creationInfo>
        </arrival>
        <arrival publicID="quakeml:uw.anss.org/AssocArO/UW/7805798">
          <pickID>quakeml:uw.anss.org/Arrival/UW/7805798</pickID>
          <phase>S</phase>
          <azimuth>146.8</azimuth>
          <distance>1.605</distance>
          <timeResidual>0.01</timeResidual>
          <creationInfo>
            <agencyID>UW</agencyID>
            <creationTime>2012-03-05T13:25:07.000000Z</creationTime>
          </creationInfo>
        </arrival>
        <arrival publicID="quakeml:uw.anss.org/AssocArO/UW/7805803">
          <pickID>quakeml:uw.anss.org/Arrival/UW/7805803</pickID>
          <phase>S</phase>
          <azimuth>112.2</azimuth>
          <distance>1.585</distance>
          <timeResidual>0.66</timeResidual>
          <creationInfo>
            <agencyID>UW</agencyID>
            <creationTime>2012-03-05T13:25:07.000000Z</creationTime>
          </creationInfo>
        </arrival>
        <arrival publicID="quakeml:uw.anss.org/AssocArO/UW/7805808">
          <pickID>quakeml:uw.anss.org/Arrival/UW/7805808</pickID>
          <phase>P</phase>
          <azimuth>135.8</azimuth>
          <distance>1.037</distance>
          <timeResidual>-0.21</timeResidual>
          <creationInfo>
            <agencyID>UW</agencyID>
            <creationTime>2012-03-05T13:25:07.000000Z</creationTime>
          </creationInfo>
        </arrival>
        <arrival publicID="quakeml:uw.anss.org/AssocArO/UW/7805813">
          <pickID>quakeml:uw.anss.org/Arrival/UW/7805813</pickID>
          <phase>P</phase>
          <azimuth>228.9</azimuth>
          <distance>0.9034</distance>
          <timeResidual>0.31</timeResidual>
          <creationInfo>
            <agencyID>UW</agencyID>
            <creationTime>2012-03-05T13:25:07.000000Z</creationTime>
          </creationInfo>
        </arrival>
        <arrival publicID="quakeml:uw.anss.org/AssocArO/UW/7805818">
          <pickID>quakeml:uw.anss.org/Arrival/UW/7805818</pickID>
          <phase>P</phase>
          <azimuth>258.7</azimuth>
          <distance>0.9291</distance>
          <timeResidual>-0.24</timeResidual>
          <creationInfo>
            <agencyID>UW</agencyID>
            <creationTime>2012-03-05T13:25:07.000000Z</creationTime>
          </creationInfo>
        </arrival>
        <arrival publicID="quakeml:uw.anss.org/AssocArO/UW/7805823">
          <pickID>quakeml:uw.anss.org/Arrival/UW/7805823</pickID>
          <phase>S</phase>
          <azimuth>258.7</azimuth>
          <distance>0.9291</distance>
          <timeResidual>-0.74</timeResidual>
          <creationInfo>
            <agencyID>UW</agencyID>
            <creationTime>2012-03-05T13:25:07.000000Z</creationTime>
          </creationInfo>
        </arrival>
        <arrival publicID="quakeml:uw.anss.org/AssocArO/UW/7805828">
          <pickID>quakeml:uw.anss.org/Arrival/UW/7805828</pickID>
          <phase>P</phase>
          <azimuth>190.6</azimuth>
          <distance>0.3741</distance>
          <timeResidual>-0.25</timeResidual>
          <creationInfo>
            <agencyID>UW</agencyID>
            <creationTime>2012-03-05T13:25:07.000000Z</creationTime>
          </creationInfo>
        </arrival>
        <arrival publicID="quakeml:uw.anss.org/AssocArO/UW/7805833">
          <pickID>quakeml:uw.anss.org/Arrival/UW/7805833</pickID>
          <phase>S</phase>
          <azimuth>190.6</azimuth>
          <distance>0.3741</distance>
          <timeResidual>0.36</timeResidual>
          <creationInfo>
            <agencyID>UW</agencyID>
            <creationTime>2012-03-05T13:25:07.000000Z</creationTime>
          </creationInfo>
        </arrival>
        <arrival publicID="quakeml:uw.anss.org/AssocArO/UW/7805838">
          <pickID>quakeml:uw.anss.org/Arrival/UW/7805838</pickID>
          <phase>P</phase>
          <azimuth>123.4</azimuth>
          <distance>1.618</distance>
          <timeResidual>0.37</timeResidual>
          <creationInfo>
            <agencyID>UW</agencyID>
            <creationTime>2012-03-05T13:25:07.000000Z</creationTime>
          </creationInfo>
        </arrival>
        <arrival publicID="quakeml:uw.anss.org/AssocArO/UW/7805843">
          <pickID>quakeml:uw.anss.org/Arrival/UW/7805843</pickID>
          <phase>P</phase>
          <azimuth>177.0</azimuth>
