<?xml version='1.0' encoding='utf-8'?>
<q:quakeml xmlns="http://quakeml.org/xmlns/bed/1.2" xmlns:q="http://quakeml.org/xmlns/quakeml/1.2" xmlns:ns0="http://anss.org/xmlns/catalog/0.1">
  <eventParameters publicID="smi:local/4179a9ce-d61f-4837-ac8e-e64a50d40739">
    <event publicID="quakeml:uw.anss.org/Event/UW/10565878" ns0:datasource="uw" ns0:dataid="uw10565878" ns0:eventsource="uw" ns0:eventid="10565878">
      <preferredOriginID>quakeml:uw.anss.org/Origin/UW/848113</preferredOriginID>
      <preferredMagnitudeID>quakeml:uw.anss.org/Netmag/UW/671423</preferredMagnitudeID>
      <type>earthquake</type>
      <creationInfo>
        <agencyID>UW</agencyID>
        <creationTime>2012-03-05T13:18:47.000000Z</creationTime>
        <version>3</version>
      </creationInfo>
      <origin publicID="quakeml:uw.anss.org/Origin/UW/848113" ns0:datasource="uw" ns0:dataid="uw10565878" ns0:eventsource="uw" ns0:eventid="10565878">
        <time>
          <value>2002-09-21T08:07:14.360000Z</value>
          <uncertainty>0.01</uncertainty>
        </time>
        <latitude>
          <value>48.5278333</value>
          <uncertainty>0.04</uncertainty>
        </latitude>
        <longitude>
          <value>-122.0588333</value>
          <uncertainty>0.03</uncertainty>
        </longitude>
        <depth>
          <value>-748.0</value>
          <uncertainty>130.0</uncertainty>
        </depth>
        <depthType>operator assigned</depthType>
        <timeFixed>false</timeFixed>
        <epicenterFixed>false</epicenterFixed>
        <methodID>smi:uw.anss.org/origin/spong</methodID>
        <quality>
          <associatedPhaseCount>49</associatedPhaseCount>
          <usedPhaseCount>28</usedPhaseCount>
          <associatedStationCount>42</associatedStationCount>
          <usedStationCount>0</usedStationCount>
          <standardError>0.29</standardError>
          <azimuthalGap>79.0</azimuthalGap>
        </quality>
        <type>hypocenter</type>
        <evaluationMode>manual</evaluationMode>
        <evaluationStatus>final</evaluationStatus>
        <creationInfo>
          <agencyID>UW</agencyID>
          <creationTime>2012-03-05T13:18:47.000000Z</creationTime>
        </creationInfo>
        <originUncertainty>
          <preferredDescription>horizontal uncertainty</preferredDescription>
          <horizontalUncertainty>50.0</horizontalUncertainty>
        </originUncertainty>
        <arrival publicID="quakeml:uw.anss.org/AssocArO/UW/7784478">
          <pickID>quakeml:uw.anss.org/Arrival/UW/7784478</pickID>
          <phase>P</phase>
          <azimuth>154.7</azimuth>
          <distance>1.98</distance>
          <timeResidual>-0.48</timeResidual>
          <creationInfo>
            <agencyID>UW</agencyID>
            <creationTime>2012-03-05T13:18:47.000000Z</creationTime>
          </creationInfo>
        </arrival>
        <arrival publicID="quakeml:uw.anss.org/AssocArO/UW/7784483">
          <pickID>quakeml:uw.anss.org/Arrival/UW/7784483</pickID>
          <phase>P</phase>
          <azimuth>111.2</azimuth>
          <distance>1.235</distance>
          <timeResidual>0.35</timeResidual>
          <creationInfo>
            <agencyID>UW</agencyID>
            <creationTime>2012-03-05T13:18:47.000000Z</creationTime>
          </creationInfo>
        </arrival>
        <arrival publicID="quakeml:uw.anss.org/AssocArO/UW/7784488">
          <pickID>quakeml:uw.anss.org/Arrival/UW/7784488</pickID>
          <phase>P</phase>
          <azimuth>208.3</azimuth>
          <distance>1.093</distance>
          <timeResidual>-0.16</timeResidual>
          <creationInfo>
            <agencyID>UW</agencyID>
            <creationTime>2012-03-05T13:18:47.000000Z</creationTime>
          </creationInfo>
        </arrival>
        <arrival publicID="quakeml:uw.anss.org/AssocArO/UW/7784493">
          <pickID>quakeml:uw.anss.org/Arrival/UW/7784493</pickID>
          <phase>S</phase>
          <azimuth>208.3</azimuth>
          <distance>1.093</distance>
          <timeResidual>-0.62</timeResidual>
          <creationInfo>
            <agencyID>UW</agencyID>
            <creationTime>2012-03-05T13:18:47.000000Z</creationTime>
          </creationInfo>
        </arrival>
        <arrival publicID="quakeml:uw.anss.org/AssocArO/UW/7784498">
          <pickID>quakeml:uw.anss.org/Arrival/UW/7784498</pickID>
          <phase>P</phase>
          <azimuth>175.0</azimuth>
          <timeResidual>0.12</timeResidual>
          <creationInfo>
            <agencyID>UW</agencyID>
            <creationTime>2012-03-05T13:18:47.000000Z</creationTime>
          </creationInfo>
        </arrival>
        <arrival publicID="quakeml:uw.anss.org/AssocArO/UW/7784503">
          <pickID>quakeml:uw.anss.org/Arrival/UW/7784503</pickID>
          <phase>P</phase>
          <azimuth>238.2</azimuth>
          <timeResidual>0.24</timeResidual>
          <creationInfo>
            <agencyID>UW</agencyID>
            <creationTime>2012-03-05T13:18:47.000000Z</creationTime>
          </creationInfo>
        </arrival>
        <arrival publicID="quakeml:uw.anss.org/AssocArO/UW/7784508">
          <pickID>quakeml:uw.anss.org/Arrival/UW/7784508</pickID>
          <phase>P</phase>
          <azimuth>315.6</azimuth>
          <distance>0.3377</distance>
          <timeResidual>0.45</timeResidual>
          <creationInfo>
            <agencyID>UW</agencyID>
            <creationTime>2012-03-05T13:18:47.000000Z</creationTime>
          </creationInfo>
        </arrival>
        <arrival publicID="quakeml:uw.anss.org/AssocArO/UW/7784513">
          <pickID>quakeml:uw.anss.org/Arrival/UW/7784513</pickID>
          <phase>S</phase>
          <azimuth>315.6</azimuth>
          <distance>0.3377</distance>
          <timeResidual>1.41</timeResidual>
          <creationInfo>
            <agencyID>UW</agencyID>
            <creationTime>2012-03-05T13:18:47.000000Z</creationTime>
          </creationInfo>
        </arrival>
        <arrival publicID="quakeml:uw.anss.org/AssocArO/UW/7784518">
          <pickID>quakeml:uw.anss.org/Arrival/UW/7784518</pickID>
          <phase>S</phase>
          <azimuth>174.5</azimuth>
          <timeResidual>-1.33</timeResidual>
          <creationInfo>
            <agencyID>UW</agencyID>
            <creationTime>2012-03-05T13:18:47.000000Z</creationTime>
          </creationInfo>
        </arrival>
        <arrival publicID="quakeml:uw.anss.org/AssocArO/UW/7784523">
          <pickID>quakeml:uw.anss.org/Arrival/UW/7784523</pickID>
          <phase>P</phase>
          <azimuth>172.3</azimuth>
          <distance>1.673</distance>
          <timeResidual>0.16</timeResidual>
          <creationInfo>
            <agencyID>UW</agencyID>
            <creationTime>2012-03-05T13:18:47.000000Z</creationTime>
          </creationInfo>
        </arrival>
        <arrival publicID="quakeml:uw.anss.org/AssocArO/UW/7784528">
          <pickID>quakeml:uw.anss.org/Arrival/UW/7784528</pickID>
          <phase>P</phase>
          <azimuth>172.5</azimuth>
          <timeResidual>0.18</timeResidual>
          <creationInfo>
            <agencyID>UW</agencyID>
            <creationTime>2012-03-05T13:18:47.000000Z</creationTime>
          </creationInfo>
        </arrival>
        <arrival publicID="quakeml:uw.anss.org/AssocArO/UW/7784533">
          <pickID>quakeml:uw.anss.org/Arrival/UW/7784533</pickID>
          <phase>P</phase>
          <azimuth>182.9</azimuth>
          <distance>0.7621</distance>
          <timeResidual>0.61</timeResidual>
          <creationInfo>
            <agencyID>UW</agencyID>
            <creationTime>2012-03-05T13:18:47.000000Z</creationTime>
          </creationInfo>
        </arrival>
        <arrival publicID="quakeml:uw.anss.org/AssocArO/UW/7784538">
          <pickID>quakeml:uw.anss.org/Arrival/UW/7784538</pickID>
          <phase>P</phase>
          <azimuth>201.3</azimuth>
          <distance>0.1121</distance>
          <timeResidual>-0.11</timeResidual>
          <creationInfo>
            <agencyID>UW</agencyID>
            <creationTime>2012-03-05T13:18:47.000000Z</creationTime>
          </creationInfo>
        </arrival>
        <arrival publicID="quakeml:uw.anss.org/AssocArO/UW/7784543">
          <pickID>quakeml:uw.anss.org/Arrival/UW/7784543</pickID>
          <phase>P</phase>
          <azimuth>172.3</azimuth>
          <timeResidual>-0.17</timeResidual>
          <creationInfo>
            <agencyID>UW</agencyID>
            <creationTime>2012-03-05T13:18:47.000000Z</creationTime>
          </creationInfo>
        </arrival>
        <arrival publicID="quakeml:uw.anss.org/AssocArO/UW/7784548">
          <pickID>quakeml:uw.anss.org/Arrival/UW/7784548</pickID>
          <phase>S</phase>
          <azimuth>172.3</azimuth>
          <timeResidual>-0.79</timeResidual>
          <creationInfo>
            <agencyID>UW</agencyID>
            <creationTime>2012-03-05T13:18:47.000000Z</creationTime>
          </creationInfo>
        </arrival>
        <arrival publicID="quakeml:uw.anss.org/AssocArO/UW/7784553">
          <pickID>quakeml:uw.anss.org/Arrival/UW/7784553</pickID>
          <phase>P</phase>
          <azimuth>128.1</azimuth>
          <distance>1.481</distance>
          <timeResidual>0.62</timeResidual>
          <creationInfo>
            <agencyID>UW</agencyID>
            <creationTime>2012-03-05T13:18:47.000000Z</creationTime>
          </creationInfo>
        </arrival>
        <arrival publicID="quakeml:uw.anss.org/AssocArO/UW/7784558">
          <pickID>quakeml:uw.anss.org/Arrival/UW/7784558</pickID>
          <phase>P</phase>
          <azimuth>177.9</azimuth>
          <distance>1.586</distance>
          <timeResidual>-0.15</timeResidual>
          <creationInfo>
            <agencyID>UW</agencyID>
            <creationTime>2012-03-05T13:18:47.000000Z</creationTime>
          </creationInfo>
        </arrival>
        <arrival publicID="quakeml:uw.anss.org/AssocArO/UW/7784563">
          <pickID>quakeml:uw.anss.org/Arrival/UW/7784563</pickID>
          <phase>P</phase>
          <azimuth>174.5</azimuth>
          <distance>1.786</distance>
          <timeResidual>-0.24</timeResidual>
          <creationInfo>
            <agencyID>UW</agencyID>
            <creationTime>2012-03-05T13:18:47.000000Z</creationTime>
          </creationInfo>
        </arrival>
        <arrival publicID="quakeml:uw.anss.org/AssocArO/UW/7784568">
          <pickID>quakeml:uw.anss.org/Arrival/UW/7784568</pickID>
          <phase>P</phase>
          <azimuth>119.8</azimuth>
          <distance>1.636</distance>
          <timeResidual>0.23</timeResidual>
          <creationInfo>
            <agencyID>UW</agencyID>
            <creationTime>2012-03-05T13:18:47.000000Z</creationTime>
          </creationInfo>
        </arrival>
        <arrival publicID="quakeml:uw.anss.org/AssocArO/UW/7784573">
          <pickID>quakeml:uw.anss.org/Arrival/UW/7784573</pickID>
          <phase>P</phase>
          <azimuth>170.9</azimuth>
          <distance>1.082</distance>
          <timeResidual>0.0</timeResidual>
          <creationInfo>
            <agencyID>UW</agencyID>
            <creationTime>2012-03-05T13:18:47.000000Z</creationTime>
          </creationInfo>
        </arrival>
        <arrival publicID="quakeml:uw.anss.org/AssocArO/UW/7784578">
          <pickID>quakeml:uw.anss.org/Arrival/UW/7784578</pickID>
          <phase>P</phase>
          <azimuth>102.3</azimuth>
          <distance>0.3706</distance>
          <timeResidual>0.02</timeResidual>
          <creationInfo>
            <agencyID>UW</agencyID>
            <creationTime>2012-03-05T13:18:47.000000Z</creationTime>
          </creationInfo>
        </arrival>
        <arrival publicID="quakeml:uw.anss.org/AssocArO/UW/7784583">
          <pickID>quakeml:uw.anss.org/Arrival/UW/7784583</pickID>
          <phase>S</phase>
          <azimuth>102.3</azimuth>
          <distance>0.3706</distance>
          <timeResidual>-0.12</timeResidual>
          <creationInfo>
            <agencyID>UW</agencyID>
            <creationTime>2012-03-05T13:18:47.000000Z</creationTime>
          </creationInfo>
        </arrival>
        <arrival publicID="quakeml:uw.anss.org/AssocArO/UW/7784588">
          <pickID>quakeml:uw.anss.org/Arrival/UW/7784588</pickID>
          <phase>P</phase>
          <azimuth>163.4</azimuth>
          <distance>0.8698</distance>
          <timeResidual>-0.03</timeResidual>
          <creationInfo>
            <agencyID>UW</agencyID>
            <creationTime>2012-03-05T13:18:47.000000Z</creationTime>
          </creationInfo>
        </arrival>
        <arrival publicID="quakeml:uw.anss.org/AssocArO/UW/7784593">
          <pickID>quakeml:uw.anss.org/Arrival/UW/7784593</pickID>
          <phase>S</phase>
          <azimuth>163.4</azimuth>
          <distance>0.8698</distance>
          <timeResidual>-0.86</timeResidual>
          <creationInfo>
            <agencyID>UW</agencyID>
            <creationTime>2012-03-05T13:18:47.000000Z</creationTime>
          </creationInfo>
        </arrival>
        <arrival publicID="quakeml:uw.anss.org/AssocArO/UW/7784598">
          <pickID>quakeml:uw.anss.org/Arrival/UW/7784598</pickID>
          <phase>P</phase>
          <azimuth>352.1</azimuth>
          <distance>0.3927</distance>
          <timeResidual>0.31</timeResidual>
          <creationInfo>
            <agencyID>UW</agencyID>
            <creationTime>2012-03-05T13:18:47.000000Z</creationTime>
          </creationInfo>
        </arrival>
        <arrival publicID="quakeml:uw.anss.org/AssocArO/UW/7784603">
          <pickID>quakeml:uw.anss.org/Arrival/UW/7784603</pickID>
          <phase>P</phase>
          <azimuth>152.2</azimuth>
          <distance>2.254</distance>
          <timeResidual>1.5</timeResidual>
          <creationInfo>
            <agencyID>UW</agencyID>
            <creationTime>2012-03-05T13:18:47.000000Z</creationTime>
          </creationInfo>
        </arrival>
        <arrival publicID="quakeml:uw.anss.org/AssocArO/UW/7784608">
          <pickID>quakeml:uw.anss.org/Arrival/UW/7784608</pickID>
          <phase>P</phase>
          <azimuth>272.0</azimuth>
          <distance>0.6346</distance>
          <timeResidual>-0.31</timeResidual>
          <creationInfo>
            <agencyID>UW</agencyID>
            <creationTime>2012-03-05T13:18:47.000000Z</creationTime>
          </creationInfo>
        </arrival>
        <arrival publicID="quakeml:uw.anss.org/AssocArO/UW/7784613">
          <pickID>quakeml:uw.anss.org/Arrival/UW/7784613</pickID>
          <phase>P</phase>
          <azimuth>22.1</azimuth>
          <distance>0.2768</distance>
          <timeResidual>-0.25</timeResidual>
          <creationInfo>
            <agencyID>UW</agencyID>
            <creationTime>2012-03-05T13:18:47.000000Z</creationTime>
          </creationInfo>
        </arrival>
        <arrival publicID="quakeml:uw.anss.org/AssocArO/UW/7784618">
          <pickID>quakeml:uw.anss.org/Arrival/UW/7784618</pickID>
          <phase>P</phase>
          <azimuth>185.0</azimuth>
          <distance>2.231</distance>
          <timeResidual>-0.1</timeResidual>
          <creationInfo>
            <agencyID>UW</agencyID>
            <creationTime>2012-03-05T13:18:47.000000Z</creationTime>
          </creationInfo>
        </arrival>
        <arrival publicID="quakeml:uw.anss.org/AssocArO/UW/7784623">
          <pickID>quakeml:uw.anss.org/Arrival/UW/7784623</pickID>
          <phase>P</phase>
          <azimuth>165.2</azimuth>
          <timeResidual>-0.17</timeResidual>
          <creationInfo>
            <agencyID>UW</agencyID>
            <creationTime>2012-03-05T13:18:47.000000Z</creationTime>
          </creationInfo>
        </arrival>
        <arrival publicID="quakeml:uw.anss.org/AssocArO/UW/7784628">
          <pickID>quakeml:uw.anss.org/Arrival/UW/7784628</pickID>
          <phase>P</phase>
          <azimuth>147.6</azimuth>
          <distance>1.907</distance>
          <timeResidual>0.37</timeResidual>
          <creationInfo>
            <agencyID>UW</agencyID>
            <creationTime>2012-03-05T13:18:47.000000Z</creationTime>
          </creationInfo>
        </arrival>
        <arrival publicID="quakeml:uw.anss.org/AssocArO/UW/7784633">
          <pickID>quakeml:uw.anss.org/Arrival/UW/7784633</pickID>
          <phase>P</phase>
          <azimuth>170.5</azimuth>
          <timeResidual>-0.11</timeResidual>
          <creationInfo>
            <agencyID>UW</agencyID>
            <creationTime>2012-03-05T13:18:47.000000Z</creationTime>
          </creationInfo>
        </arrival>
        <arrival publicID="quakeml:uw.anss.org/AssocArO/UW/7784638">
          <pickID>quakeml:uw.anss.org/Arrival/UW/7784638</pickID>
          <phase>S</phase>
          <azimuth>170.5</azimuth>
          <timeResidual>-1.09</timeResidual>
          <creationInfo>
            <agencyID>UW</agencyID>
            <creationTime>2012-03-05T13:18:47.000000Z</creationTime>
          </creationInfo>
        </arrival>
        <arrival publicID="quakeml:uw.anss.org/AssocArO/UW/7784643">
          <pickID>quakeml:uw.anss.org/Arrival/UW/7784643</pickID>
          <phase>P</phase>
          <azimuth>143.2</azimuth>
          <distance>1.582</distance>
          <timeResidual>0.18</timeResidual>
          <creationInfo>
            <agencyID>UW</agencyID>
            <creationTime>2012-03-05T13:18:47.000000Z</creationTime>
          </creationInfo>
        </arrival>
        <arrival publicID="quakeml:uw.anss.org/AssocArO/UW/7784648">
          <pickID>quakeml:uw.anss.org/Arrival/UW/7784648</pickID>
          <phase>S</phase>
          <azimuth>143.2</azimuth>
          <distance>1.582</distance>
          <timeResidual>-0.87</timeResidual>
          <creationInfo>
            <agencyID>UW</agencyID>
            <creationTime>2012-03-05T13:18:47.000000Z</creationTime>
          </creationInfo>
        </arrival>
        <arrival publicID="quakeml:uw.anss.org/AssocArO/UW/7784653">
          <pickID>quakeml:uw.anss.org/Arrival/UW/7784653</pickID>
          <phase>P</phase>
          <azimuth>130.1</azimuth>
          <distance>1.035</distance>
          <timeResidual>-0.31</timeResidual>
          <creationInfo>
            <agencyID>UW</agencyID>
            <creationTime>2012-03-05T13:18:47.000000Z</creationTime>
          </creationInfo>
        </arrival>
        <arrival publicID="quakeml:uw.anss.org/AssocArO/UW/7784658">
          <pickID>quakeml:uw.anss.org/Arrival/UW/7784658</pickID>
          <phase>P</phase>
          <azimuth>251.2</azimuth>
          <timeResidual>0.08</timeResidual>
          <creationInfo>
            <agencyID>UW</agencyID>
            <creationTime>2012-03-05T13:18:47.000000Z</creationTime>
          </creationInfo>
        </arrival>
        <arrival publicID="quakeml:uw.anss.org/AssocArO/UW/7784663">
          <pickID>quakeml:uw.anss.org/Arrival/UW/7784663</pickID>
          <phase>P</phase>
          <azimuth>180.2</azimuth>
          <distance>0.2919</distance>
          <timeResidual>-0.08</timeResidual>
          <creationInfo>
            <agencyID>UW</agencyID>
            <creationTime>2012-03-05T13:18:47.000000Z</creationTime>
          </creationInfo>
        </arrival>
        <arrival publicID="quakeml:uw.anss.org/AssocArO/UW/7784668">
          <pickID>quakeml:uw.anss.org/Arrival/UW/7784668</pickID>
          <phase>P</phase>
          <azimuth>126.4</azimuth>
          <distance>1.28</distance>
          <timeResidual>0.09</timeResidual>
          <creationInfo>
            <agencyID>UW</agencyID>
            <creationTime>2012-03-05T13:18:47.000000Z</creationTime>
          </creationInfo>
        </arrival>
        <arrival publicID="quakeml:uw.anss.org/AssocArO/UW/7784673">
          <pickID>quakeml:uw.anss.org/Arrival/UW/7784673</pickID>
          <phase>P</phase>
          <azimuth>123.5</azimuth>
          <distance>0.739</distance>
