<?xml version='1.0' encoding='utf-8'?>
<q:quakeml xmlns="http://quakeml.org/xmlns/bed/1.2" xmlns:q="http://quakeml.org/xmlns/quakeml/1.2" xmlns:ns0="http://anss.org/xmlns/catalog/0.1">
  <eventParameters publicID="smi:local/57e77bb4-7a6b-4dd9-9976-da70354b5184">
    <event publicID="quakeml:uw.anss.org/Event/UW/10568218" ns0:datasource="uw" ns0:dataid="uw10568218" ns0:eventsource="uw" ns0:eventid="10568218">
      <preferredOriginID>quakeml:uw.anss.org/Origin/UW/850453</preferredOriginID>
      <preferredMagnitudeID>quakeml:uw.anss.org/Netmag/UW/672468</preferredMagnitudeID>
      <type>earthquake</type>
      <creationInfo>
        <agencyID>UW</agencyID>
        <creationTime>2012-03-05T13:23:47.000000Z</creationTime>
        <version>3</version>
      </creationInfo>
      <origin publicID="quakeml:uw.anss.org/Origin/UW/850453" ns0:datasource="uw" ns0:dataid="uw10568218" ns0:eventsource="uw" ns0:eventid="10568218">
        <time>
          <value>2002-09-25T05:30:54.220000Z</value>
          <uncertainty>0.01</uncertainty>
        </time>
        <latitude>
          <value>48.6083333</value>
          <uncertainty>0.05</uncertainty>
        </latitude>
        <longitude>
          <value>-121.9645</value>
          <uncertainty>0.03</uncertainty>
        </longitude>
        <depth>
          <value>-949.0</value>
          <uncertainty>100.0</uncertainty>
        </depth>
        <depthType>operator assigned</depthType>
        <timeFixed>false</timeFixed>
        <epicenterFixed>false</epicenterFixed>
        <methodID>smi:uw.anss.org/origin/spong</methodID>
        <quality>
          <associatedPhaseCount>95</associatedPhaseCount>
          <usedPhaseCount>45</usedPhaseCount>
          <associatedStationCount>75</associatedStationCount>
          <usedStationCount>0</usedStationCount>
          <standardError>0.4</standardError>
          <azimuthalGap>102.0</azimuthalGap>
        </quality>
        <type>hypocenter</type>
        <evaluationMode>manual</evaluationMode>
        <evaluationStatus>final</evaluationStatus>
        <creationInfo>
          <agencyID>UW</agencyID>
          <creationTime>2012-03-05T13:23:47.000000Z</creationTime>
        </creationInfo>
        <originUncertainty>
          <preferredDescription>horizontal uncertainty</preferredDescription>
          <horizontalUncertainty>58.0</horizontalUncertainty>
        </originUncertainty>
        <arrival publicID="quakeml:uw.anss.org/AssocArO/UW/7801343">
          <pickID>quakeml:uw.anss.org/Arrival/UW/7801343</pickID>
          <phase>P</phase>
          <azimuth>157.3</azimuth>
          <distance>2.028</distance>
          <timeResidual>-0.27</timeResidual>
          <creationInfo>
            <agencyID>UW</agencyID>
            <creationTime>2012-03-05T13:23:47.000000Z</creationTime>
          </creationInfo>
        </arrival>
        <arrival publicID="quakeml:uw.anss.org/AssocArO/UW/7801348">
          <pickID>quakeml:uw.anss.org/Arrival/UW/7801348</pickID>
          <phase>P</phase>
          <azimuth>115.9</azimuth>
          <distance>1.21</distance>
          <timeResidual>0.57</timeResidual>
          <creationInfo>
            <agencyID>UW</agencyID>
            <creationTime>2012-03-05T13:23:47.000000Z</creationTime>
          </creationInfo>
        </arrival>
        <arrival publicID="quakeml:uw.anss.org/AssocArO/UW/7801353">
          <pickID>quakeml:uw.anss.org/Arrival/UW/7801353</pickID>
          <phase>P</phase>
          <azimuth>187.7</azimuth>
          <distance>1.582</distance>
          <timeResidual>-0.25</timeResidual>
          <creationInfo>
            <agencyID>UW</agencyID>
            <creationTime>2012-03-05T13:23:47.000000Z</creationTime>
          </creationInfo>
        </arrival>
        <arrival publicID="quakeml:uw.anss.org/AssocArO/UW/7801358">
          <pickID>quakeml:uw.anss.org/Arrival/UW/7801358</pickID>
          <phase>P</phase>
          <azimuth>143.2</azimuth>
          <distance>2.583</distance>
          <timeResidual>3.25</timeResidual>
          <creationInfo>
            <agencyID>UW</agencyID>
            <creationTime>2012-03-05T13:23:47.000000Z</creationTime>
          </creationInfo>
        </arrival>
        <arrival publicID="quakeml:uw.anss.org/AssocArO/UW/7801363">
          <pickID>quakeml:uw.anss.org/Arrival/UW/7801363</pickID>
          <phase>P</phase>
          <azimuth>209.2</azimuth>
          <distance>1.194</distance>
          <timeResidual>-0.38</timeResidual>
          <creationInfo>
            <agencyID>UW</agencyID>
            <creationTime>2012-03-05T13:23:47.000000Z</creationTime>
          </creationInfo>
        </arrival>
        <arrival publicID="quakeml:uw.anss.org/AssocArO/UW/7801368">
          <pickID>quakeml:uw.anss.org/Arrival/UW/7801368</pickID>
          <phase>S</phase>
          <azimuth>209.2</azimuth>
          <distance>1.194</distance>
          <timeResidual>-0.65</timeResidual>
          <creationInfo>
            <agencyID>UW</agencyID>
            <creationTime>2012-03-05T13:23:47.000000Z</creationTime>
          </creationInfo>
        </arrival>
        <arrival publicID="quakeml:uw.anss.org/AssocArO/UW/7801373">
          <pickID>quakeml:uw.anss.org/Arrival/UW/7801373</pickID>
          <phase>P</phase>
          <azimuth>177.3</azimuth>
          <timeResidual>-0.09</timeResidual>
          <creationInfo>
            <agencyID>UW</agencyID>
            <creationTime>2012-03-05T13:23:47.000000Z</creationTime>
          </creationInfo>
        </arrival>
        <arrival publicID="quakeml:uw.anss.org/AssocArO/UW/7801378">
          <pickID>quakeml:uw.anss.org/Arrival/UW/7801378</pickID>
          <phase>S</phase>
          <azimuth>177.3</azimuth>
          <timeResidual>-1.14</timeResidual>
          <creationInfo>
            <agencyID>UW</agencyID>
            <creationTime>2012-03-05T13:23:47.000000Z</creationTime>
          </creationInfo>
        </arrival>
        <arrival publicID="quakeml:uw.anss.org/AssocArO/UW/7801383">
          <pickID>quakeml:uw.anss.org/Arrival/UW/7801383</pickID>
          <phase>S</phase>
          <azimuth>206.5</azimuth>
          <distance>0.6663</distance>
          <timeResidual>1.48</timeResidual>
          <creationInfo>
            <agencyID>UW</agencyID>
            <creationTime>2012-03-05T13:23:47.000000Z</creationTime>
          </creationInfo>
        </arrival>
        <arrival publicID="quakeml:uw.anss.org/AssocArO/UW/7801388">
          <pickID>quakeml:uw.anss.org/Arrival/UW/7801388</pickID>
          <phase>P</phase>
          <azimuth>234.5</azimuth>
          <timeResidual>0.34</timeResidual>
          <creationInfo>
            <agencyID>UW</agencyID>
            <creationTime>2012-03-05T13:23:47.000000Z</creationTime>
          </creationInfo>
        </arrival>
        <arrival publicID="quakeml:uw.anss.org/AssocArO/UW/7801393">
          <pickID>quakeml:uw.anss.org/Arrival/UW/7801393</pickID>
          <phase>P</phase>
          <azimuth>298.4</azimuth>
          <distance>0.3394</distance>
          <timeResidual>0.16</timeResidual>
          <creationInfo>
            <agencyID>UW</agencyID>
            <creationTime>2012-03-05T13:23:47.000000Z</creationTime>
          </creationInfo>
        </arrival>
        <arrival publicID="quakeml:uw.anss.org/AssocArO/UW/7801398">
          <pickID>quakeml:uw.anss.org/Arrival/UW/7801398</pickID>
          <phase>S</phase>
          <azimuth>176.7</azimuth>
          <timeResidual>-1.05</timeResidual>
          <creationInfo>
            <agencyID>UW</agencyID>
            <creationTime>2012-03-05T13:23:47.000000Z</creationTime>
          </creationInfo>
        </arrival>
        <arrival publicID="quakeml:uw.anss.org/AssocArO/UW/7801403">
          <pickID>quakeml:uw.anss.org/Arrival/UW/7801403</pickID>
          <phase>P</phase>
          <azimuth>189.8</azimuth>
          <distance>2.205</distance>
          <timeResidual>-0.52</timeResidual>
          <creationInfo>
            <agencyID>UW</agencyID>
            <creationTime>2012-03-05T13:23:47.000000Z</creationTime>
          </creationInfo>
        </arrival>
        <arrival publicID="quakeml:uw.anss.org/AssocArO/UW/7801408">
          <pickID>quakeml:uw.anss.org/Arrival/UW/7801408</pickID>
          <phase>S</phase>
          <azimuth>189.8</azimuth>
          <distance>2.205</distance>
          <timeResidual>-1.41</timeResidual>
          <creationInfo>
            <agencyID>UW</agencyID>
            <creationTime>2012-03-05T13:23:47.000000Z</creationTime>
          </creationInfo>
        </arrival>
        <arrival publicID="quakeml:uw.anss.org/AssocArO/UW/7801413">
          <pickID>quakeml:uw.anss.org/Arrival/UW/7801413</pickID>
          <phase>P</phase>
          <azimuth>174.8</azimuth>
          <distance>1.746</distance>
          <timeResidual>0.04</timeResidual>
          <creationInfo>
            <agencyID>UW</agencyID>
            <creationTime>2012-03-05T13:23:47.000000Z</creationTime>
          </creationInfo>
        </arrival>
        <arrival publicID="quakeml:uw.anss.org/AssocArO/UW/7801418">
          <pickID>quakeml:uw.anss.org/Arrival/UW/7801418</pickID>
          <phase>P</phase>
          <azimuth>174.9</azimuth>
          <timeResidual>0.09</timeResidual>
          <creationInfo>
            <agencyID>UW</agencyID>
            <creationTime>2012-03-05T13:23:47.000000Z</creationTime>
          </creationInfo>
        </arrival>
        <arrival publicID="quakeml:uw.anss.org/AssocArO/UW/7801423">
          <pickID>quakeml:uw.anss.org/Arrival/UW/7801423</pickID>
          <phase>P</phase>
          <distance>0.428</distance>
          <timeResidual>-0.22</timeResidual>
          <creationInfo>
            <agencyID>UW</agencyID>
            <creationTime>2012-03-05T13:23:47.000000Z</creationTime>
          </creationInfo>
        </arrival>
        <arrival publicID="quakeml:uw.anss.org/AssocArO/UW/7801428">
          <pickID>quakeml:uw.anss.org/Arrival/UW/7801428</pickID>
          <phase>S</phase>
          <distance>0.428</distance>
          <timeResidual>-0.48</timeResidual>
          <creationInfo>
            <agencyID>UW</agencyID>
            <creationTime>2012-03-05T13:23:47.000000Z</creationTime>
          </creationInfo>
        </arrival>
        <arrival publicID="quakeml:uw.anss.org/AssocArO/UW/7801433">
          <pickID>quakeml:uw.anss.org/Arrival/UW/7801433</pickID>
          <phase>P</phase>
          <azimuth>186.9</azimuth>
          <distance>0.8479</distance>
          <timeResidual>0.61</timeResidual>
          <creationInfo>
            <agencyID>UW</agencyID>
            <creationTime>2012-03-05T13:23:47.000000Z</creationTime>
          </creationInfo>
        </arrival>
        <arrival publicID="quakeml:uw.anss.org/AssocArO/UW/7801438">
          <pickID>quakeml:uw.anss.org/Arrival/UW/7801438</pickID>
          <phase>S</phase>
          <azimuth>186.9</azimuth>
          <distance>0.8479</distance>
          <timeResidual>0.54</timeResidual>
          <creationInfo>
            <agencyID>UW</agencyID>
            <creationTime>2012-03-05T13:23:47.000000Z</creationTime>
          </creationInfo>
        </arrival>
        <arrival publicID="quakeml:uw.anss.org/AssocArO/UW/7801443">
          <pickID>quakeml:uw.anss.org/Arrival/UW/7801443</pickID>
          <phase>P</phase>
          <azimuth>153.0</azimuth>
          <distance>1.646</distance>
          <timeResidual>0.88</timeResidual>
          <creationInfo>
            <agencyID>UW</agencyID>
            <creationTime>2012-03-05T13:23:47.000000Z</creationTime>
          </creationInfo>
        </arrival>
        <arrival publicID="quakeml:uw.anss.org/AssocArO/UW/7801448">
          <pickID>quakeml:uw.anss.org/Arrival/UW/7801448</pickID>
          <phase>P</phase>
          <azimuth>191.5</azimuth>
          <distance>0.9063</distance>
          <timeResidual>0.45</timeResidual>
          <creationInfo>
            <agencyID>UW</agencyID>
            <creationTime>2012-03-05T13:23:47.000000Z</creationTime>
          </creationInfo>
        </arrival>
        <arrival publicID="quakeml:uw.anss.org/AssocArO/UW/7801453">
          <pickID>quakeml:uw.anss.org/Arrival/UW/7801453</pickID>
          <phase>S</phase>
          <azimuth>191.5</azimuth>
          <distance>0.9063</distance>
          <timeResidual>1.27</timeResidual>
          <creationInfo>
            <agencyID>UW</agencyID>
            <creationTime>2012-03-05T13:23:47.000000Z</creationTime>
          </creationInfo>
        </arrival>
        <arrival publicID="quakeml:uw.anss.org/AssocArO/UW/7801458">
          <pickID>quakeml:uw.anss.org/Arrival/UW/7801458</pickID>
          <phase>P</phase>
          <azimuth>209.2</azimuth>
          <distance>0.212</distance>
          <timeResidual>-0.62</timeResidual>
          <creationInfo>
            <agencyID>UW</agencyID>
            <creationTime>2012-03-05T13:23:47.000000Z</creationTime>
          </creationInfo>
        </arrival>
        <arrival publicID="quakeml:uw.anss.org/AssocArO/UW/7801463">
          <pickID>quakeml:uw.anss.org/Arrival/UW/7801463</pickID>
          <phase>P</phase>
          <azimuth>182.9</azimuth>
          <distance>0.9634</distance>
          <timeResidual>0.67</timeResidual>
          <creationInfo>
            <agencyID>UW</agencyID>
            <creationTime>2012-03-05T13:23:47.000000Z</creationTime>
          </creationInfo>
        </arrival>
        <arrival publicID="quakeml:uw.anss.org/AssocArO/UW/7801468">
          <pickID>quakeml:uw.anss.org/Arrival/UW/7801468</pickID>
          <phase>P</phase>
          <azimuth>143.2</azimuth>
          <distance>2.653</distance>
          <timeResidual>3.37</timeResidual>
          <creationInfo>
            <agencyID>UW</agencyID>
            <creationTime>2012-03-05T13:23:47.000000Z</creationTime>
          </creationInfo>
        </arrival>
        <arrival publicID="quakeml:uw.anss.org/AssocArO/UW/7801473">
          <pickID>quakeml:uw.anss.org/Arrival/UW/7801473</pickID>
          <phase>P</phase>
          <azimuth>175.3</azimuth>
          <timeResidual>-0.12</timeResidual>
          <creationInfo>
            <agencyID>UW</agencyID>
            <creationTime>2012-03-05T13:23:47.000000Z</creationTime>
          </creationInfo>
        </arrival>
        <arrival publicID="quakeml:uw.anss.org/AssocArO/UW/7801478">
          <pickID>quakeml:uw.anss.org/Arrival/UW/7801478</pickID>
          <phase>P</phase>
          <azimuth>184.3</azimuth>
          <distance>2.152</distance>
          <timeResidual>-0.17</timeResidual>
          <creationInfo>
            <agencyID>UW</agencyID>
            <creationTime>2012-03-05T13:23:47.000000Z</creationTime>
          </creationInfo>
        </arrival>
        <arrival publicID="quakeml:uw.anss.org/AssocArO/UW/7801483">
          <pickID>quakeml:uw.anss.org/Arrival/UW/7801483</pickID>
          <phase>S</phase>
          <azimuth>206.2</azimuth>
          <distance>1.817</distance>
          <timeResidual>-1.61</timeResidual>
          <creationInfo>
            <agencyID>UW</agencyID>
            <creationTime>2012-03-05T13:23:47.000000Z</creationTime>
          </creationInfo>
        </arrival>
        <arrival publicID="quakeml:uw.anss.org/AssocArO/UW/7801488">
          <pickID>quakeml:uw.anss.org/Arrival/UW/7801488</pickID>
          <phase>P</phase>
          <azimuth>180.2</azimuth>
          <distance>1.665</distance>
          <timeResidual>-0.18</timeResidual>
          <creationInfo>
            <agencyID>UW</agencyID>
            <creationTime>2012-03-05T13:23:47.000000Z</creationTime>
          </creationInfo>
        </arrival>
        <arrival publicID="quakeml:uw.anss.org/AssocArO/UW/7801493">
          <pickID>quakeml:uw.anss.org/Arrival/UW/7801493</pickID>
          <phase>P</phase>
          <azimuth>176.7</azimuth>
          <distance>1.862</distance>
          <timeResidual>-0.29</timeResidual>
          <creationInfo>
            <agencyID>UW</agencyID>
            <creationTime>2012-03-05T13:23:47.000000Z</creationTime>
          </creationInfo>
        </arrival>
        <arrival publicID="quakeml:uw.anss.org/AssocArO/UW/7801498">
          <pickID>quakeml:uw.anss.org/Arrival/UW/7801498</pickID>
          <phase>P</phase>
          <azimuth>123.4</azimuth>
          <distance>1.625</distance>
          <timeResidual>0.36</timeResidual>
          <creationInfo>
            <agencyID>UW</agencyID>
            <creationTime>2012-03-05T13:23:47.000000Z</creationTime>
          </creationInfo>
        </arrival>
        <arrival publicID="quakeml:uw.anss.org/AssocArO/UW/7801503">
          <pickID>quakeml:uw.anss.org/Arrival/UW/7801503</pickID>
          <phase>S</phase>
          <azimuth>123.4</azimuth>
          <distance>1.625</distance>
          <timeResidual>0.46</timeResidual>
          <creationInfo>
            <agencyID>UW</agencyID>
            <creationTime>2012-03-05T13:23:47.000000Z</creationTime>
          </creationInfo>
        </arrival>
        <arrival publicID="quakeml:uw.anss.org/AssocArO/UW/7801508">
          <pickID>quakeml:uw.anss.org/Arrival/UW/7801508</pickID>
          <phase>P</phase>
          <azimuth>174.7</azimuth>
          <distance>1.154</distance>
          <timeResidual>-0.02</timeResidual>
          <creationInfo>
            <agencyID>UW</agencyID>
            <creationTime>2012-03-05T13:23:47.000000Z</creationTime>
          </creationInfo>
        </arrival>
        <arrival publicID="quakeml:uw.anss.org/AssocArO/UW/7801513">
          <pickID>quakeml:uw.anss.org/Arrival/UW/7801513</pickID>
          <phase>P</phase>
          <azimuth>118.1</azimuth>
          <distance>0.3392</distance>
          <timeResidual>-0.14</timeResidual>
          <creationInfo>
            <agencyID>UW</agencyID>
            <creationTime>2012-03-05T13:23:47.000000Z</creationTime>
          </creationInfo>
        </arrival>
        <arrival publicID="quakeml:uw.anss.org/AssocArO/UW/7801518">
          <pickID>quakeml:uw.anss.org/Arrival/UW/7801518</pickID>
          <phase>S</phase>
          <azimuth>118.1</azimuth>
          <distance>0.3392</distance>
          <timeResidual>-0.4</timeResidual>
          <creationInfo>
            <agencyID>UW</agencyID>
            <creationTime>2012-03-05T13:23:47.000000Z</creationTime>
          </creationInfo>
        </arrival>
        <arrival publicID="quakeml:uw.anss.org/AssocArO/UW/7801523">
          <pickID>quakeml:uw.anss.org/Arrival/UW/7801523</pickID>
          <phase>P</phase>
          <azimuth>173.2</azimuth>
          <distance>2.066</distance>
          <timeResidual>-0.05</timeResidual>
          <creationInfo>
            <agencyID>UW</agencyID>
            <creationTime>2012-03-05T13:23:47.000000Z</creationTime>
          </creationInfo>
        </arrival>
        <arrival publicID="quakeml:uw.anss.org/AssocArO/UW/7801528">
          <pickID>quakeml:uw.anss.org/Arrival/UW/7801528</pickID>
          <phase>P</phase>
          <azimuth>171.3</azimuth>
          <distance>1.933</distance>
          <timeResidual>-0.2</timeResidual>
          <creationInfo>
            <agencyID>UW</agencyID>
            <creationTime>2012-03-05T13:23:47.000000Z</creationTime>
          </creationInfo>
        </arrival>
        <arrival publicID="quakeml:uw.anss.org/AssocArO/UW/7801533">
          <pickID>quakeml:uw.anss.org/Arrival/UW/7801533</pickID>
          <phase>P</phase>
          <azimuth>168.6</azimuth>
          <distance>0.9328</distance>
          <timeResidual>-0.04</timeResidual>
          <creationInfo>
            <agencyID>UW</agencyID>
            <creationTime>2012-03-05T13:23:47.000000Z</creationTime>
          </creationInfo>
        </arrival>
        <arrival publicID="quakeml:uw.anss.org/AssocArO/UW/7801538">
          <pickID>quakeml:uw.anss.org/Arrival/UW/7801538</pickID>
          <phase>P</phase>
