<?xml version='1.0' encoding='utf-8'?>
<q:quakeml xmlns="http://quakeml.org/xmlns/bed/1.2" xmlns:q="http://quakeml.org/xmlns/quakeml/1.2" xmlns:ns0="http://anss.org/xmlns/catalog/0.1">
  <eventParameters publicID="smi:local/63c57ec6-5056-4a55-96ca-f0fec3451062">
    <event publicID="quakeml:uw.anss.org/Event/UW/10581643" ns0:datasource="uw" ns0:dataid="uw10581643" ns0:eventsource="uw" ns0:eventid="10581643">
      <preferredOriginID>quakeml:uw.anss.org/Origin/UW/863883</preferredOriginID>
      <preferredMagnitudeID>quakeml:uw.anss.org/Netmag/UW/680218</preferredMagnitudeID>
      <type>earthquake</type>
      <creationInfo>
        <agencyID>UW</agencyID>
        <creationTime>2012-03-05T14:03:23.000000Z</creationTime>
        <version>3</version>
      </creationInfo>
      <origin publicID="quakeml:uw.anss.org/Origin/UW/863883" ns0:datasource="uw" ns0:dataid="uw10581643" ns0:eventsource="uw" ns0:eventid="10581643">
        <time>
          <value>2002-11-23T21:45:16.170000Z</value>
          <uncertainty>0.19</uncertainty>
        </time>
        <latitude>
          <value>49.0408333</value>
          <uncertainty>0.93</uncertainty>
        </latitude>
        <longitude>
          <value>-122.09</value>
          <uncertainty>1.48</uncertainty>
        </longitude>
        <depth>
          <value>4268.0</value>
          <uncertainty>820.0</uncertainty>
        </depth>
        <depthType>from location</depthType>
        <timeFixed>false</timeFixed>
        <epicenterFixed>false</epicenterFixed>
        <methodID>smi:uw.anss.org/origin/spong</methodID>
        <quality>
          <associatedPhaseCount>9</associatedPhaseCount>
          <usedPhaseCount>5</usedPhaseCount>
          <associatedStationCount>9</associatedStationCount>
          <usedStationCount>0</usedStationCount>
          <standardError>0.04</standardError>
          <azimuthalGap>297.0</azimuthalGap>
        </quality>
        <type>hypocenter</type>
        <evaluationMode>manual</evaluationMode>
        <evaluationStatus>final</evaluationStatus>
        <creationInfo>
          <agencyID>UW</agencyID>
          <creationTime>2012-03-05T14:03:23.000000Z</creationTime>
        </creationInfo>
        <originUncertainty>
          <preferredDescription>horizontal uncertainty</preferredDescription>
          <horizontalUncertainty>1748.0</horizontalUncertainty>
        </originUncertainty>
        <arrival publicID="quakeml:uw.anss.org/AssocArO/UW/7937783">
          <pickID>quakeml:uw.anss.org/Arrival/UW/7937783</pickID>
          <phase>P</phase>
          <azimuth>172.7</azimuth>
          <timeResidual>-0.03</timeResidual>
          <creationInfo>
            <agencyID>UW</agencyID>
            <creationTime>2012-03-05T14:03:23.000000Z</creationTime>
          </creationInfo>
        </arrival>
        <arrival publicID="quakeml:uw.anss.org/AssocArO/UW/7937788">
          <pickID>quakeml:uw.anss.org/Arrival/UW/7937788</pickID>
          <phase>P</phase>
          <azimuth>134.5</azimuth>
          <distance>2.371</distance>
          <timeResidual>23.27</timeResidual>
          <creationInfo>
            <agencyID>UW</agencyID>
            <creationTime>2012-03-05T14:03:23.000000Z</creationTime>
          </creationInfo>
        </arrival>
        <arrival publicID="quakeml:uw.anss.org/AssocArO/UW/7937793">
          <pickID>quakeml:uw.anss.org/Arrival/UW/7937793</pickID>
          <phase>P</phase>
          <azimuth>147.2</azimuth>
          <distance>0.7048</distance>
          <timeResidual>0.0</timeResidual>
          <creationInfo>
            <agencyID>UW</agencyID>
            <creationTime>2012-03-05T14:03:23.000000Z</creationTime>
          </creationInfo>
        </arrival>
        <arrival publicID="quakeml:uw.anss.org/AssocArO/UW/7937798">
          <pickID>quakeml:uw.anss.org/Arrival/UW/7937798</pickID>
          <phase>P</phase>
          <azimuth>219.8</azimuth>
          <timeResidual>22.96</timeResidual>
          <creationInfo>
            <agencyID>UW</agencyID>
            <creationTime>2012-03-05T14:03:23.000000Z</creationTime>
          </creationInfo>
        </arrival>
        <arrival publicID="quakeml:uw.anss.org/AssocArO/UW/7937803">
          <pickID>quakeml:uw.anss.org/Arrival/UW/7937803</pickID>
          <phase>P</phase>
          <azimuth>170.1</azimuth>
          <distance>1.256</distance>
          <timeResidual>0.08</timeResidual>
          <creationInfo>
            <agencyID>UW</agencyID>
            <creationTime>2012-03-05T14:03:23.000000Z</creationTime>
          </creationInfo>
        </arrival>
        <arrival publicID="quakeml:uw.anss.org/AssocArO/UW/7937808">
          <pickID>quakeml:uw.anss.org/Arrival/UW/7937808</pickID>
          <phase>P</phase>
          <distance>0.01698</distance>
          <timeResidual>0.0</timeResidual>
          <creationInfo>
            <agencyID>UW</agencyID>
            <creationTime>2012-03-05T14:03:23.000000Z</creationTime>
          </creationInfo>
        </arrival>
        <arrival publicID="quakeml:uw.anss.org/AssocArO/UW/7937813">
          <pickID>quakeml:uw.anss.org/Arrival/UW/7937813</pickID>
          <phase>P</phase>
          <azimuth>231.2</azimuth>
          <distance>0.7862</distance>
          <timeResidual>58.82</timeResidual>
          <creationInfo>
            <agencyID>UW</agencyID>
            <creationTime>2012-03-05T14:03:23.000000Z</creationTime>
          </creationInfo>
        </arrival>
        <arrival publicID="quakeml:uw.anss.org/AssocArO/UW/7937818">
          <pickID>quakeml:uw.anss.org/Arrival/UW/7937818</pickID>
          <phase>P</phase>
          <azimuth>154.1</azimuth>
          <distance>0.2859</distance>
          <timeResidual>0.0</timeResidual>
          <creationInfo>
            <agencyID>UW</agencyID>
            <creationTime>2012-03-05T14:03:23.000000Z</creationTime>
          </creationInfo>
        </arrival>
        <arrival publicID="quakeml:uw.anss.org/AssocArO/UW/7937823">
          <pickID>quakeml:uw.anss.org/Arrival/UW/7937823</pickID>
          <phase>P</phase>
          <azimuth>204.7</azimuth>
          <distance>2.957</distance>
          <timeResidual>9.85</timeResidual>
          <creationInfo>
            <agencyID>UW</agencyID>
            <creationTime>2012-03-05T14:03:23.000000Z</creationTime>
          </creationInfo>
        </arrival>
      </origin>
      <magnitude publicID="quakeml:uw.anss.org/Netmag/UW/680218">
        <mag>
          <value>1.3</value>
          <uncertainty>0.03</uncertainty>
        </mag>
        <type>Md</type>
        <originID>quakeml:uw.anss.org/Origin/UW/863883</originID>
        <methodID>smi:uw.anss.org/magnitude/Crosson</methodID>
        <stationCount>3</stationCount>
        <evaluationMode>manual</evaluationMode>
        <evaluationStatus>final</evaluationStatus>
        <stationMagnitudeContribution>
          <stationMagnitudeID>quakeml:uw.anss.org/AssocCoM/UW/1849608</stationMagnitudeID>
          <weight>1.0</weight>
          <residual>0.28</residual>
        </stationMagnitudeContribution>
        <stationMagnitudeContribution>
          <stationMagnitudeID>quakeml:uw.anss.org/AssocCoM/UW/1849603</stationMagnitudeID>
          <weight>1.0</weight>
          <residual>-0.03</residual>
        </stationMagnitudeContribution>
        <stationMagnitudeContribution>
          <stationMagnitudeID>quakeml:uw.anss.org/AssocCoM/UW/1849613</stationMagnitudeID>
          <weight>1.0</weight>
          <residual>-0.44</residual>
        </stationMagnitudeContribution>
        <creationInfo>
          <agencyID>UW</agencyID>
          <creationTime>2012-03-05T14:03:23.000000Z</creationTime>
        </creationInfo>
      </magnitude>
      <stationMagnitude publicID="quakeml:uw.anss.org/AssocCoM/UW/1849603">
        <originID>quakeml:uw.anss.org/Origin/UW/863883</originID>
        <mag>
          <value>1.27</value>
        </mag>
        <type>MD</type>
        <amplitudeID>quakeml:uw.anss.org/Coda/UW/1849603</amplitudeID>
        <waveformID networkCode="UW" stationCode="JCW" locationCode="" channelCode="EHZ"></waveformID>
      </stationMagnitude>
      <stationMagnitude publicID="quakeml:uw.anss.org/AssocCoM/UW/1849608">
        <originID>quakeml:uw.anss.org/Origin/UW/863883</originID>
        <mag>
          <value>1.58</value>
        </mag>
        <type>MD</type>
        <amplitudeID>quakeml:uw.anss.org/Coda/UW/1849608</amplitudeID>
        <waveformID networkCode="CN" stationCode="VDB" locationCode="" channelCode="EHZ"></waveformID>
      </stationMagnitude>
      <stationMagnitude publicID="quakeml:uw.anss.org/AssocCoM/UW/1849613">
        <originID>quakeml:uw.anss.org/Origin/UW/863883</originID>
        <mag>
          <value>0.86</value>
        </mag>
        <type>MD</type>
        <amplitudeID>quakeml:uw.anss.org/Coda/UW/1849613</amplitudeID>
        <waveformID networkCode="UW" stationCode="MBW" locationCode="" channelCode="EHZ"></waveformID>
      </stationMagnitude>
      <pick publicID="quakeml:uw.anss.org/Arrival/UW/7937783">
        <time>
          <value>2002-11-23T21:45:31.240000Z</value>
          <uncertainty>0.04</uncertainty>
        </time>
        <waveformID networkCode="UW" stationCode="JCW" locationCode="" channelCode="EHZ"></waveformID>
        <polarity>undecidable</polarity>
        <evaluationMode>manual</evaluationMode>
        <evaluationStatus>final</evaluationStatus>
        <creationInfo>
          <agencyID>UW</agencyID>
          <creationTime>2012-03-05T14:03:23.000000Z</creationTime>
        </creationInfo>
      </pick>
      <pick publicID="quakeml:uw.anss.org/Arrival/UW/7937788">
        <time>
          <value>2002-11-23T21:46:19.000000Z</value>
          <uncertainty>0.5</uncertainty>
        </time>
        <waveformID networkCode="UW" stationCode="EPH" locationCode="" channelCode="EHZ"></waveformID>
        <polarity>undecidable</polarity>
        <evaluationMode>manual</evaluationMode>
        <evaluationStatus>final</evaluationStatus>
        <creationInfo>
          <agencyID>UW</agencyID>
          <creationTime>2012-03-05T14:03:23.000000Z</creationTime>
        </creationInfo>
      </pick>
      <pick publicID="quakeml:uw.anss.org/Arrival/UW/7937793">
        <time>
          <value>2002-11-23T21:45:29.020000Z</value>
          <uncertainty>0.03</uncertainty>
        </time>
        <waveformID networkCode="UW" stationCode="RPW" locationCode="" channelCode="EHZ"></waveformID>
        <polarity>undecidable</polarity>
        <evaluationMode>manual</evaluationMode>
        <evaluationStatus>final</evaluationStatus>
        <creationInfo>
          <agencyID>UW</agencyID>
          <creationTime>2012-03-05T14:03:23.000000Z</creationTime>
        </creationInfo>
      </pick>
      <pick publicID="quakeml:uw.anss.org/Arrival/UW/7937798">
        <time>
          <value>2002-11-23T21:46:13.000000Z</value>
          <uncertainty>0.5</uncertainty>
        </time>
        <waveformID networkCode="UW" stationCode="OSR" locationCode="" channelCode="EHZ"></waveformID>
        <polarity>undecidable</polarity>
        <evaluationMode>manual</evaluationMode>
        <evaluationStatus>final</evaluationStatus>
        <creationInfo>
          <agencyID>UW</agencyID>
          <creationTime>2012-03-05T14:03:23.000000Z</creationTime>
        </creationInfo>
      </pick>
      <pick publicID="quakeml:uw.anss.org/Arrival/UW/7937803">
        <time>
          <value>2002-11-23T21:45:38.210000Z</value>
          <uncertainty>0.06</uncertainty>
        </time>
        <waveformID networkCode="UW" stationCode="HTW" locationCode="" channelCode="EHZ"></waveformID>
        <polarity>undecidable</polarity>
        <evaluationMode>manual</evaluationMode>
        <evaluationStatus>final</evaluationStatus>
        <creationInfo>
          <agencyID>UW</agencyID>
          <creationTime>2012-03-05T14:03:23.000000Z</creationTime>
        </creationInfo>
      </pick>
      <pick publicID="quakeml:uw.anss.org/Arrival/UW/7937808">
        <time>
          <value>2002-11-23T21:45:17.140000Z</value>
          <uncertainty>0.01</uncertainty>
        </time>
        <waveformID networkCode="CN" stationCode="VDB" locationCode="" channelCode="EHZ"></waveformID>
        <polarity>negative</polarity>
        <evaluationMode>manual</evaluationMode>
        <evaluationStatus>final</evaluationStatus>
        <creationInfo>
          <agencyID>UW</agencyID>
          <creationTime>2012-03-05T14:03:23.000000Z</creationTime>
        </creationInfo>
      </pick>
      <pick publicID="quakeml:uw.anss.org/Arrival/UW/7937813">
        <time>
          <value>2002-11-23T21:46:29.000000Z</value>
          <uncertainty>0.3</uncertainty>
        </time>
        <waveformID networkCode="UW" stationCode="UWFH" locationCode="" channelCode="EHZ"></waveformID>
        <polarity>undecidable</polarity>
        <evaluationMode>manual</evaluationMode>
        <evaluationStatus>final</evaluationStatus>
        <creationInfo>
          <agencyID>UW</agencyID>
          <creationTime>2012-03-05T14:03:23.000000Z</creationTime>
        </creationInfo>
      </pick>
      <pick publicID="quakeml:uw.anss.org/Arrival/UW/7937818">
        <time>
          <value>2002-11-23T21:45:21.870000Z</value>
          <uncertainty>0.01</uncertainty>
        </time>
        <waveformID networkCode="UW" stationCode="MBW" locationCode="" channelCode="EHZ"></waveformID>
        <polarity>negative</polarity>
        <evaluationMode>manual</evaluationMode>
        <evaluationStatus>final</evaluationStatus>
        <creationInfo>
          <agencyID>UW</agencyID>
          <creationTime>2012-03-05T14:03:23.000000Z</creationTime>
        </creationInfo>
      </pick>
      <pick publicID="quakeml:uw.anss.org/Arrival/UW/7937823">
        <time>
          <value>2002-11-23T21:46:14.000000Z</value>
          <uncertainty>0.3</uncertainty>
        </time>
        <waveformID networkCode="UW" stationCode="WIB" locationCode="" channelCode="EHZ"></waveformID>
        <polarity>undecidable</polarity>
        <evaluationMode>manual</evaluationMode>
        <evaluationStatus>final</evaluationStatus>
        <creationInfo>
          <agencyID>UW</agencyID>
          <creationTime>2012-03-05T14:03:23.000000Z</creationTime>
        </creationInfo>
      </pick>
      <amplitude publicID="quakeml:uw.anss.org/Coda/UW/1849608">
        <genericAmplitude>
          <value>27.0</value>
        </genericAmplitude>
        <type>END</type>
        <category>duration</category>
        <unit>s</unit>
        <waveformID networkCode="CN" stationCode="VDB" locationCode="" channelCode="EHZ"></waveformID>
        <magnitudeHint>MD</magnitudeHint>
        <evaluationMode>manual</evaluationMode>
        <evaluationStatus>final</evaluationStatus>
      </amplitude>
      <amplitude publicID="quakeml:uw.anss.org/Coda/UW/1849603">
        <genericAmplitude>
          <value>21.0</value>
        </genericAmplitude>
        <type>END</type>
        <category>duration</category>
        <unit>s</unit>
        <waveformID networkCode="UW" stationCode="JCW" locationCode="" channelCode="EHZ"></waveformID>
        <magnitudeHint>MD</magnitudeHint>
        <evaluationMode>manual</evaluationMode>
        <evaluationStatus>final</evaluationStatus>
      </amplitude>
      <amplitude publicID="quakeml:uw.anss.org/Coda/UW/1849613">
        <genericAmplitude>
          <value>15.0</value>
        </genericAmplitude>
        <type>END</type>
        <category>duration</category>
        <unit>s</unit>
        <waveformID networkCode="UW" stationCode="MBW" locationCode="" channelCode="EHZ"></waveformID>
        <magnitudeHint>MD</magnitudeHint>
        <evaluationMode>manual</evaluationMode>
        <evaluationStatus>final</evaluationStatus>
      </amplitude>
    </event>
  </eventParameters>
</q:quakeml>
