<?xml version='1.0' encoding='utf-8'?>
<q:quakeml xmlns="http://quakeml.org/xmlns/bed/1.2" xmlns:q="http://quakeml.org/xmlns/quakeml/1.2" xmlns:ns0="http://anss.org/xmlns/catalog/0.1">
  <eventParameters publicID="smi:local/531b420a-1d08-44b1-a0cf-2e0f8d95802b">
    <event publicID="quakeml:uw.anss.org/Event/UW/10568943" ns0:datasource="uw" ns0:dataid="uw10568943" ns0:eventsource="uw" ns0:eventid="10568943">
      <preferredOriginID>quakeml:uw.anss.org/Origin/UW/851178</preferredOriginID>
      <preferredMagnitudeID>quakeml:uw.anss.org/Netmag/UW/672913</preferredMagnitudeID>
      <type>earthquake</type>
      <creationInfo>
        <agencyID>UW</agencyID>
        <creationTime>2012-03-05T13:26:57.000000Z</creationTime>
        <version>3</version>
      </creationInfo>
      <origin publicID="quakeml:uw.anss.org/Origin/UW/851178" ns0:datasource="uw" ns0:dataid="uw10568943" ns0:eventsource="uw" ns0:eventid="10568943">
        <time>
          <value>2002-09-27T06:11:57.070000Z</value>
          <uncertainty>0.01</uncertainty>
        </time>
        <latitude>
          <value>48.5223333</value>
          <uncertainty>0.04</uncertainty>
        </latitude>
        <longitude>
          <value>-122.0521667</value>
          <uncertainty>0.02</uncertainty>
        </longitude>
        <depth>
          <value>-748.0</value>
          <uncertainty>90.0</uncertainty>
        </depth>
        <depthType>operator assigned</depthType>
        <timeFixed>false</timeFixed>
        <epicenterFixed>false</epicenterFixed>
        <methodID>smi:uw.anss.org/origin/spong</methodID>
        <quality>
          <associatedPhaseCount>15</associatedPhaseCount>
          <usedPhaseCount>10</usedPhaseCount>
          <associatedStationCount>11</associatedStationCount>
          <usedStationCount>0</usedStationCount>
          <standardError>0.17</standardError>
          <azimuthalGap>80.0</azimuthalGap>
        </quality>
        <type>hypocenter</type>
        <evaluationMode>manual</evaluationMode>
        <evaluationStatus>final</evaluationStatus>
        <creationInfo>
          <agencyID>UW</agencyID>
          <creationTime>2012-03-05T13:26:57.000000Z</creationTime>
        </creationInfo>
        <originUncertainty>
          <preferredDescription>horizontal uncertainty</preferredDescription>
          <horizontalUncertainty>45.0</horizontalUncertainty>
        </originUncertainty>
        <arrival publicID="quakeml:uw.anss.org/AssocArO/UW/7810113">
          <pickID>quakeml:uw.anss.org/Arrival/UW/7810113</pickID>
          <phase>P</phase>
          <azimuth>165.7</azimuth>
          <timeResidual>-0.06</timeResidual>
          <creationInfo>
            <agencyID>UW</agencyID>
            <creationTime>2012-03-05T13:26:57.000000Z</creationTime>
          </creationInfo>
        </arrival>
        <arrival publicID="quakeml:uw.anss.org/AssocArO/UW/7810118">
          <pickID>quakeml:uw.anss.org/Arrival/UW/7810118</pickID>
          <phase>P</phase>
          <azimuth>171.1</azimuth>
          <distance>1.076</distance>
          <timeResidual>0.78</timeResidual>
          <creationInfo>
            <agencyID>UW</agencyID>
            <creationTime>2012-03-05T13:26:57.000000Z</creationTime>
          </creationInfo>
        </arrival>
        <arrival publicID="quakeml:uw.anss.org/AssocArO/UW/7810123">
          <pickID>quakeml:uw.anss.org/Arrival/UW/7810123</pickID>
          <phase>P</phase>
          <azimuth>101.6</azimuth>
          <distance>0.3651</distance>
          <timeResidual>0.12</timeResidual>
          <creationInfo>
            <agencyID>UW</agencyID>
            <creationTime>2012-03-05T13:26:57.000000Z</creationTime>
          </creationInfo>
        </arrival>
        <arrival publicID="quakeml:uw.anss.org/AssocArO/UW/7810128">
          <pickID>quakeml:uw.anss.org/Arrival/UW/7810128</pickID>
          <phase>S</phase>
          <azimuth>101.6</azimuth>
          <distance>0.3651</distance>
          <timeResidual>0.06</timeResidual>
          <creationInfo>
            <agencyID>UW</agencyID>
            <creationTime>2012-03-05T13:26:57.000000Z</creationTime>
          </creationInfo>
        </arrival>
        <arrival publicID="quakeml:uw.anss.org/AssocArO/UW/7810133">
          <pickID>quakeml:uw.anss.org/Arrival/UW/7810133</pickID>
          <phase>P</phase>
          <azimuth>170.6</azimuth>
          <timeResidual>0.23</timeResidual>
          <creationInfo>
            <agencyID>UW</agencyID>
            <creationTime>2012-03-05T13:26:57.000000Z</creationTime>
          </creationInfo>
        </arrival>
        <arrival publicID="quakeml:uw.anss.org/AssocArO/UW/7810138">
          <pickID>quakeml:uw.anss.org/Arrival/UW/7810138</pickID>
          <phase>S</phase>
          <azimuth>170.6</azimuth>
          <timeResidual>-0.9</timeResidual>
          <creationInfo>
            <agencyID>UW</agencyID>
            <creationTime>2012-03-05T13:26:57.000000Z</creationTime>
          </creationInfo>
        </arrival>
        <arrival publicID="quakeml:uw.anss.org/AssocArO/UW/7810143">
          <pickID>quakeml:uw.anss.org/Arrival/UW/7810143</pickID>
          <phase>P</phase>
          <azimuth>315.7</azimuth>
          <distance>0.3447</distance>
          <timeResidual>0.34</timeResidual>
          <creationInfo>
            <agencyID>UW</agencyID>
            <creationTime>2012-03-05T13:26:57.000000Z</creationTime>
          </creationInfo>
        </arrival>
        <arrival publicID="quakeml:uw.anss.org/AssocArO/UW/7810148">
          <pickID>quakeml:uw.anss.org/Arrival/UW/7810148</pickID>
          <phase>S</phase>
          <azimuth>315.7</azimuth>
          <distance>0.3447</distance>
          <timeResidual>1.23</timeResidual>
          <creationInfo>
            <agencyID>UW</agencyID>
            <creationTime>2012-03-05T13:26:57.000000Z</creationTime>
          </creationInfo>
        </arrival>
        <arrival publicID="quakeml:uw.anss.org/AssocArO/UW/7810153">
          <pickID>quakeml:uw.anss.org/Arrival/UW/7810153</pickID>
          <phase>P</phase>
          <azimuth>130.1</azimuth>
          <distance>1.028</distance>
          <timeResidual>0.2</timeResidual>
          <creationInfo>
            <agencyID>UW</agencyID>
            <creationTime>2012-03-05T13:26:57.000000Z</creationTime>
          </creationInfo>
        </arrival>
        <arrival publicID="quakeml:uw.anss.org/AssocArO/UW/7810158">
          <pickID>quakeml:uw.anss.org/Arrival/UW/7810158</pickID>
          <phase>P</phase>
          <distance>0.5053</distance>
          <timeResidual>-0.31</timeResidual>
          <creationInfo>
            <agencyID>UW</agencyID>
            <creationTime>2012-03-05T13:26:57.000000Z</creationTime>
          </creationInfo>
        </arrival>
        <arrival publicID="quakeml:uw.anss.org/AssocArO/UW/7810163">
          <pickID>quakeml:uw.anss.org/Arrival/UW/7810163</pickID>
          <phase>P</phase>
          <azimuth>263.2</azimuth>
          <distance>0.8542</distance>
          <timeResidual>0.15</timeResidual>
          <creationInfo>
            <agencyID>UW</agencyID>
            <creationTime>2012-03-05T13:26:57.000000Z</creationTime>
          </creationInfo>
        </arrival>
        <arrival publicID="quakeml:uw.anss.org/AssocArO/UW/7810168">
          <pickID>quakeml:uw.anss.org/Arrival/UW/7810168</pickID>
          <phase>S</phase>
          <azimuth>263.2</azimuth>
          <distance>0.8542</distance>
          <timeResidual>-0.7</timeResidual>
          <creationInfo>
            <agencyID>UW</agencyID>
            <creationTime>2012-03-05T13:26:57.000000Z</creationTime>
          </creationInfo>
        </arrival>
        <arrival publicID="quakeml:uw.anss.org/AssocArO/UW/7810173">
          <pickID>quakeml:uw.anss.org/Arrival/UW/7810173</pickID>
          <phase>P</phase>
          <azimuth>181.1</azimuth>
          <distance>0.2864</distance>
          <timeResidual>0.02</timeResidual>
          <creationInfo>
            <agencyID>UW</agencyID>
            <creationTime>2012-03-05T13:26:57.000000Z</creationTime>
          </creationInfo>
        </arrival>
        <arrival publicID="quakeml:uw.anss.org/AssocArO/UW/7810178">
          <pickID>quakeml:uw.anss.org/Arrival/UW/7810178</pickID>
          <phase>P</phase>
          <azimuth>204.6</azimuth>
          <distance>0.1088</distance>
          <timeResidual>-0.06</timeResidual>
          <creationInfo>
            <agencyID>UW</agencyID>
            <creationTime>2012-03-05T13:26:57.000000Z</creationTime>
          </creationInfo>
        </arrival>
        <arrival publicID="quakeml:uw.anss.org/AssocArO/UW/7810183">
          <pickID>quakeml:uw.anss.org/Arrival/UW/7810183</pickID>
          <phase>P</phase>
          <azimuth>20.9</azimuth>
          <distance>0.2803</distance>
          <timeResidual>-0.04</timeResidual>
          <creationInfo>
            <agencyID>UW</agencyID>
            <creationTime>2012-03-05T13:26:57.000000Z</creationTime>
          </creationInfo>
        </arrival>
      </origin>
      <magnitude publicID="quakeml:uw.anss.org/Netmag/UW/672913">
        <mag>
          <value>1.0</value>
          <uncertainty>0.03</uncertainty>
        </mag>
        <type>Md</type>
        <originID>quakeml:uw.anss.org/Origin/UW/851178</originID>
        <methodID>smi:uw.anss.org/magnitude/Crosson</methodID>
        <stationCount>5</stationCount>
        <evaluationMode>manual</evaluationMode>
        <evaluationStatus>final</evaluationStatus>
        <stationMagnitudeContribution>
          <stationMagnitudeID>quakeml:uw.anss.org/AssocCoM/UW/1823708</stationMagnitudeID>
          <weight>1.0</weight>
          <residual>0.38</residual>
        </stationMagnitudeContribution>
        <stationMagnitudeContribution>
          <stationMagnitudeID>quakeml:uw.anss.org/AssocCoM/UW/1823728</stationMagnitudeID>
          <weight>1.0</weight>
          <residual>-0.52</residual>
        </stationMagnitudeContribution>
        <stationMagnitudeContribution>
          <stationMagnitudeID>quakeml:uw.anss.org/AssocCoM/UW/1823713</stationMagnitudeID>
          <weight>1.0</weight>
          <residual>0.33</residual>
        </stationMagnitudeContribution>
        <stationMagnitudeContribution>
          <stationMagnitudeID>quakeml:uw.anss.org/AssocCoM/UW/1823723</stationMagnitudeID>
          <weight>1.0</weight>
          <residual>0.01</residual>
        </stationMagnitudeContribution>
        <stationMagnitudeContribution>
          <stationMagnitudeID>quakeml:uw.anss.org/AssocCoM/UW/1823718</stationMagnitudeID>
          <weight>1.0</weight>
          <residual>-0.23</residual>
        </stationMagnitudeContribution>
        <creationInfo>
          <agencyID>UW</agencyID>
          <creationTime>2012-03-05T13:26:57.000000Z</creationTime>
        </creationInfo>
      </magnitude>
      <stationMagnitude publicID="quakeml:uw.anss.org/AssocCoM/UW/1823708">
        <originID>quakeml:uw.anss.org/Origin/UW/851178</originID>
        <mag>
          <value>1.38</value>
        </mag>
        <type>MD</type>
        <amplitudeID>quakeml:uw.anss.org/Coda/UW/1823708</amplitudeID>
        <waveformID networkCode="UW" stationCode="JCW" locationCode="" channelCode="EHZ"></waveformID>
      </stationMagnitude>
      <stationMagnitude publicID="quakeml:uw.anss.org/AssocCoM/UW/1823713">
        <originID>quakeml:uw.anss.org/Origin/UW/851178</originID>
        <mag>
          <value>1.33</value>
        </mag>
        <type>MD</type>
        <amplitudeID>quakeml:uw.anss.org/Coda/UW/1823713</amplitudeID>
        <waveformID networkCode="UW" stationCode="RMW" locationCode="" channelCode="EHZ"></waveformID>
      </stationMagnitude>
      <stationMagnitude publicID="quakeml:uw.anss.org/AssocCoM/UW/1823718">
        <originID>quakeml:uw.anss.org/Origin/UW/851178</originID>
        <mag>
          <value>0.77</value>
        </mag>
        <type>MD</type>
        <amplitudeID>quakeml:uw.anss.org/Coda/UW/1823718</amplitudeID>
        <waveformID networkCode="UW" stationCode="RPW" locationCode="" channelCode="EHZ"></waveformID>
      </stationMagnitude>
      <stationMagnitude publicID="quakeml:uw.anss.org/AssocCoM/UW/1823723">
        <originID>quakeml:uw.anss.org/Origin/UW/851178</originID>
        <mag>
          <value>1.01</value>
        </mag>
        <type>MD</type>
        <amplitudeID>quakeml:uw.anss.org/Coda/UW/1823723</amplitudeID>
        <waveformID networkCode="CN" stationCode="VDB" locationCode="" channelCode="EHZ"></waveformID>
      </stationMagnitude>
      <stationMagnitude publicID="quakeml:uw.anss.org/AssocCoM/UW/1823728">
        <originID>quakeml:uw.anss.org/Origin/UW/851178</originID>
        <mag>
          <value>0.48</value>
        </mag>
        <type>MD</type>
        <amplitudeID>quakeml:uw.anss.org/Coda/UW/1823728</amplitudeID>
        <waveformID networkCode="UW" stationCode="MBW" locationCode="" channelCode="EHZ"></waveformID>
      </stationMagnitude>
      <pick publicID="quakeml:uw.anss.org/Arrival/UW/7810113">
        <time>
          <value>2002-09-27T06:12:03.630000Z</value>
          <uncertainty>0.01</uncertainty>
        </time>
        <waveformID networkCode="UW" stationCode="JCW" locationCode="" channelCode="EHZ"></waveformID>
        <polarity>negative</polarity>
        <evaluationMode>manual</evaluationMode>
        <evaluationStatus>final</evaluationStatus>
        <creationInfo>
          <agencyID>UW</agencyID>
          <creationTime>2012-03-05T13:26:57.000000Z</creationTime>
        </creationInfo>
      </pick>
      <pick publicID="quakeml:uw.anss.org/Arrival/UW/7810118">
        <time>
          <value>2002-09-27T06:12:17.510000Z</value>
          <uncertainty>0.06</uncertainty>
        </time>
        <waveformID networkCode="UW" stationCode="RMW" locationCode="" channelCode="EHZ"></waveformID>
        <polarity>undecidable</polarity>
        <evaluationMode>manual</evaluationMode>
        <evaluationStatus>final</evaluationStatus>
        <creationInfo>
          <agencyID>UW</agencyID>
          <creationTime>2012-03-05T13:26:57.000000Z</creationTime>
        </creationInfo>
      </pick>
      <pick publicID="quakeml:uw.anss.org/Arrival/UW/7810123">
        <time>
          <value>2002-09-27T06:12:04.540000Z</value>
          <uncertainty>0.04</uncertainty>
        </time>
        <waveformID networkCode="UW" stationCode="RPW" locationCode="" channelCode="EHZ"></waveformID>
        <polarity>undecidable</polarity>
        <evaluationMode>manual</evaluationMode>
        <evaluationStatus>final</evaluationStatus>
        <creationInfo>
          <agencyID>UW</agencyID>
          <creationTime>2012-03-05T13:26:57.000000Z</creationTime>
        </creationInfo>
      </pick>
      <pick publicID="quakeml:uw.anss.org/Arrival/UW/7810128">
        <time>
          <value>2002-09-27T06:12:10.210000Z</value>
          <uncertainty>0.05</uncertainty>
        </time>
        <waveformID networkCode="UW" stationCode="RPW" locationCode="" channelCode="EHZ"></waveformID>
        <polarity>undecidable</polarity>
        <evaluationMode>manual</evaluationMode>
        <evaluationStatus>final</evaluationStatus>
        <creationInfo>
          <agencyID>UW</agencyID>
          <creationTime>2012-03-05T13:26:57.000000Z</creationTime>
        </creationInfo>
      </pick>
      <pick publicID="quakeml:uw.anss.org/Arrival/UW/7810133">
        <time>
          <value>2002-09-27T06:12:25.590000Z</value>
          <uncertainty>0.05</uncertainty>
        </time>
        <waveformID networkCode="UW" stationCode="FMW" locationCode="" channelCode="EHZ"></waveformID>
        <polarity>undecidable</polarity>
        <evaluationMode>manual</evaluationMode>
        <evaluationStatus>final</evaluationStatus>
        <creationInfo>
          <agencyID>UW</agencyID>
          <creationTime>2012-03-05T13:26:57.000000Z</creationTime>
        </creationInfo>
      </pick>
      <pick publicID="quakeml:uw.anss.org/Arrival/UW/7810138">
        <time>
          <value>2002-09-27T06:12:46.530000Z</value>
          <uncertainty>0.04</uncertainty>
        </time>
        <waveformID networkCode="UW" stationCode="FMW" locationCode="" channelCode="EHZ"></waveformID>
        <polarity>undecidable</polarity>
        <evaluationMode>manual</evaluationMode>
        <evaluationStatus>final</evaluationStatus>
        <creationInfo>
          <agencyID>UW</agencyID>
          <creationTime>2012-03-05T13:26:57.000000Z</creationTime>
        </creationInfo>
      </pick>
      <pick publicID="quakeml:uw.anss.org/Arrival/UW/7810143">
        <time>
          <value>2002-09-27T06:12:03.640000Z</value>
          <uncertainty>0.03</uncertainty>
        </time>
        <waveformID networkCode="UW" stationCode="SBES" locationCode="" channelCode="EHZ"></waveformID>
        <polarity>undecidable</polarity>
        <evaluationMode>manual</evaluationMode>
        <evaluationStatus>final</evaluationStatus>
        <creationInfo>
          <agencyID>UW</agencyID>
          <creationTime>2012-03-05T13:26:57.000000Z</creationTime>
        </creationInfo>
      </pick>
      <pick publicID="quakeml:uw.anss.org/Arrival/UW/7810148">
        <time>
          <value>2002-09-27T06:12:09.390000Z</value>
          <uncertainty>0.08</uncertainty>
        </time>
        <waveformID networkCode="UW" stationCode="SBES" locationCode="" channelCode="EHZ"></waveformID>
        <polarity>undecidable</polarity>
        <evaluationMode>manual</evaluationMode>
        <evaluationStatus>final</evaluationStatus>
        <creationInfo>
          <agencyID>UW</agencyID>
          <creationTime>2012-03-05T13:26:57.000000Z</creationTime>
        </creationInfo>
      </pick>
      <pick publicID="quakeml:uw.anss.org/Arrival/UW/7810153">
        <time>
          <value>2002-09-27T06:12:15.850000Z</value>
          <uncertainty>0.05</uncertainty>
        </time>
        <waveformID networkCode="UW" stationCode="WRW" locationCode="" channelCode="EHZ"></waveformID>
        <polarity>undecidable</polarity>
        <evaluationMode>manual</evaluationMode>
        <evaluationStatus>final</evaluationStatus>
        <creationInfo>
          <agencyID>UW</agencyID>
          <creationTime>2012-03-05T13:26:57.000000Z</creationTime>
        </creationInfo>
      </pick>
      <pick publicID="quakeml:uw.anss.org/Arrival/UW/7810158">
        <time>
          <value>2002-09-27T06:12:06.340000Z</value>
          <uncertainty>0.03</uncertainty>
        </time>
        <waveformID networkCode="CN" stationCode="VDB" locationCode="" channelCode="EHZ"></waveformID>
        <polarity>negative</polarity>
        <evaluationMode>manual</evaluationMode>
        <evaluationStatus>final</evaluationStatus>
        <creationInfo>
          <agencyID>UW</agencyID>
          <creationTime>2012-03-05T13:26:57.000000Z</creationTime>
        </creationInfo>
      </pick>
      <pick publicID="quakeml:uw.anss.org/Arrival/UW/7810163">
        <time>
          <value>2002-09-27T06:12:12.210000Z</value>
          <uncertainty>0.09</uncertainty>
        </time>
        <waveformID networkCode="CN" stationCode="VGZ" locationCode="" channelCode="EHZ"></waveformID>
        <polarity>undecidable</polarity>
        <evaluationMode>manual</evaluationMode>
        <evaluationStatus>final</evaluationStatus>
        <creationInfo>
          <agencyID>UW</agencyID>
          <creationTime>2012-03-05T13:26:57.000000Z</creationTime>
        </creationInfo>
      </pick>
      <pick publicID="quakeml:uw.anss.org/Arrival/UW/7810168">
        <time>
          <value>2002-09-27T06:12:23.050000Z</value>
          <uncertainty>0.05</uncertainty>
        </time>
        <waveformID networkCode="CN" stationCode="VGZ" locationCode="" channelCode="EHZ"></waveformID>
        <polarity>undecidable</polarity>
        <evaluationMode>manual</evaluationMode>
        <evaluationStatus>final</evaluationStatus>
