<?xml version='1.0' encoding='utf-8'?>
<q:quakeml xmlns="http://quakeml.org/xmlns/bed/1.2" xmlns:q="http://quakeml.org/xmlns/quakeml/1.2" xmlns:ns0="http://anss.org/xmlns/catalog/0.1">
  <eventParameters publicID="smi:local/46bba88a-f1e9-4a49-a41b-780a3b4391fa">
    <event publicID="quakeml:uw.anss.org/Event/UW/10575403" ns0:datasource="uw" ns0:dataid="uw10575403" ns0:eventsource="uw" ns0:eventid="10575403">
      <preferredOriginID>quakeml:uw.anss.org/Origin/UW/857638</preferredOriginID>
      <preferredMagnitudeID>quakeml:uw.anss.org/Netmag/UW/676578</preferredMagnitudeID>
      <type>earthquake</type>
      <creationInfo>
        <agencyID>UW</agencyID>
        <creationTime>2012-03-05T13:45:29.000000Z</creationTime>
        <version>3</version>
      </creationInfo>
      <origin publicID="quakeml:uw.anss.org/Origin/UW/857638" ns0:datasource="uw" ns0:dataid="uw10575403" ns0:eventsource="uw" ns0:eventid="10575403">
        <time>
          <value>2002-12-24T00:23:53.070000Z</value>
          <uncertainty>0.12</uncertainty>
        </time>
        <latitude>
          <value>48.841</value>
          <uncertainty>2.89</uncertainty>
        </latitude>
        <longitude>
          <value>-122.1996667</value>
          <uncertainty>2.06</uncertainty>
        </longitude>
        <depth>
          <value>1012.0</value>
          <uncertainty>60200.0</uncertainty>
        </depth>
        <depthType>operator assigned</depthType>
        <timeFixed>false</timeFixed>
        <epicenterFixed>true</epicenterFixed>
        <methodID>smi:uw.anss.org/origin/spong</methodID>
        <quality>
          <associatedPhaseCount>22</associatedPhaseCount>
          <usedPhaseCount>15</usedPhaseCount>
          <associatedStationCount>19</associatedStationCount>
          <usedStationCount>0</usedStationCount>
          <standardError>0.37</standardError>
          <azimuthalGap>130.0</azimuthalGap>
        </quality>
        <type>hypocenter</type>
        <evaluationMode>manual</evaluationMode>
        <evaluationStatus>final</evaluationStatus>
        <creationInfo>
          <agencyID>UW</agencyID>
          <creationTime>2012-03-05T13:45:29.000000Z</creationTime>
        </creationInfo>
        <originUncertainty>
          <preferredDescription>horizontal uncertainty</preferredDescription>
          <horizontalUncertainty>3549.0</horizontalUncertainty>
        </originUncertainty>
        <arrival publicID="quakeml:uw.anss.org/AssocArO/UW/7873058">
          <pickID>quakeml:uw.anss.org/Arrival/UW/7873058</pickID>
          <phase>P</phase>
          <azimuth>175.4</azimuth>
          <distance>1.904</distance>
          <timeResidual>-0.29</timeResidual>
          <creationInfo>
            <agencyID>UW</agencyID>
            <creationTime>2012-03-05T13:45:29.000000Z</creationTime>
          </creationInfo>
        </arrival>
        <arrival publicID="quakeml:uw.anss.org/AssocArO/UW/7873063">
          <pickID>quakeml:uw.anss.org/Arrival/UW/7873063</pickID>
          <phase>P</phase>
          <azimuth>172.7</azimuth>
          <distance>2.108</distance>
          <timeResidual>-0.45</timeResidual>
          <creationInfo>
            <agencyID>UW</agencyID>
            <creationTime>2012-03-05T13:45:29.000000Z</creationTime>
          </creationInfo>
        </arrival>
        <arrival publicID="quakeml:uw.anss.org/AssocArO/UW/7873068">
          <pickID>quakeml:uw.anss.org/Arrival/UW/7873068</pickID>
          <phase>P</phase>
          <azimuth>121.3</azimuth>
          <distance>1.458</distance>
          <timeResidual>0.68</timeResidual>
          <creationInfo>
            <agencyID>UW</agencyID>
            <creationTime>2012-03-05T13:45:29.000000Z</creationTime>
          </creationInfo>
        </arrival>
        <arrival publicID="quakeml:uw.anss.org/AssocArO/UW/7873073">
          <pickID>quakeml:uw.anss.org/Arrival/UW/7873073</pickID>
          <phase>P</phase>
          <azimuth>164.3</azimuth>
          <timeResidual>0.05</timeResidual>
          <creationInfo>
            <agencyID>UW</agencyID>
            <creationTime>2012-03-05T13:45:29.000000Z</creationTime>
          </creationInfo>
        </arrival>
        <arrival publicID="quakeml:uw.anss.org/AssocArO/UW/7873078">
          <pickID>quakeml:uw.anss.org/Arrival/UW/7873078</pickID>
          <phase>P</phase>
          <azimuth>216.6</azimuth>
          <distance>0.9532</distance>
          <timeResidual>0.26</timeResidual>
          <creationInfo>
            <agencyID>UW</agencyID>
            <creationTime>2012-03-05T13:45:29.000000Z</creationTime>
          </creationInfo>
        </arrival>
        <arrival publicID="quakeml:uw.anss.org/AssocArO/UW/7873083">
          <pickID>quakeml:uw.anss.org/Arrival/UW/7873083</pickID>
          <phase>S</phase>
          <azimuth>216.6</azimuth>
          <distance>0.9532</distance>
          <timeResidual>0.53</timeResidual>
          <creationInfo>
            <agencyID>UW</agencyID>
            <creationTime>2012-03-05T13:45:29.000000Z</creationTime>
          </creationInfo>
        </arrival>
        <arrival publicID="quakeml:uw.anss.org/AssocArO/UW/7873088">
          <pickID>quakeml:uw.anss.org/Arrival/UW/7873088</pickID>
          <phase>P</phase>
          <azimuth>130.7</azimuth>
          <distance>0.6007</distance>
          <timeResidual>-0.45</timeResidual>
          <creationInfo>
            <agencyID>UW</agencyID>
            <creationTime>2012-03-05T13:45:29.000000Z</creationTime>
          </creationInfo>
        </arrival>
        <arrival publicID="quakeml:uw.anss.org/AssocArO/UW/7873093">
          <pickID>quakeml:uw.anss.org/Arrival/UW/7873093</pickID>
          <phase>S</phase>
          <azimuth>130.7</azimuth>
          <distance>0.6007</distance>
          <timeResidual>-0.52</timeResidual>
          <creationInfo>
            <agencyID>UW</agencyID>
            <creationTime>2012-03-05T13:45:29.000000Z</creationTime>
          </creationInfo>
        </arrival>
        <arrival publicID="quakeml:uw.anss.org/AssocArO/UW/7873098">
          <pickID>quakeml:uw.anss.org/Arrival/UW/7873098</pickID>
          <phase>P</phase>
          <azimuth>169.2</azimuth>
          <timeResidual>-0.09</timeResidual>
          <creationInfo>
            <agencyID>UW</agencyID>
            <creationTime>2012-03-05T13:45:29.000000Z</creationTime>
          </creationInfo>
        </arrival>
        <arrival publicID="quakeml:uw.anss.org/AssocArO/UW/7873103">
          <pickID>quakeml:uw.anss.org/Arrival/UW/7873103</pickID>
          <phase>P</phase>
          <azimuth>243.0</azimuth>
          <distance>0.1607</distance>
          <timeResidual>-0.12</timeResidual>
          <creationInfo>
            <agencyID>UW</agencyID>
            <creationTime>2012-03-05T13:45:29.000000Z</creationTime>
          </creationInfo>
        </arrival>
        <arrival publicID="quakeml:uw.anss.org/AssocArO/UW/7873108">
          <pickID>quakeml:uw.anss.org/Arrival/UW/7873108</pickID>
          <phase>S</phase>
          <azimuth>243.0</azimuth>
          <distance>0.1607</distance>
          <timeResidual>1.35</timeResidual>
          <creationInfo>
            <agencyID>UW</agencyID>
            <creationTime>2012-03-05T13:45:29.000000Z</creationTime>
          </creationInfo>
        </arrival>
        <arrival publicID="quakeml:uw.anss.org/AssocArO/UW/7873113">
          <pickID>quakeml:uw.anss.org/Arrival/UW/7873113</pickID>
          <phase>P</phase>
          <azimuth>163.3</azimuth>
          <distance>1.197</distance>
          <timeResidual>0.36</timeResidual>
          <creationInfo>
            <agencyID>UW</agencyID>
            <creationTime>2012-03-05T13:45:29.000000Z</creationTime>
          </creationInfo>
        </arrival>
        <arrival publicID="quakeml:uw.anss.org/AssocArO/UW/7873118">
          <pickID>quakeml:uw.anss.org/Arrival/UW/7873118</pickID>
          <phase>P</phase>
          <azimuth>26.7</azimuth>
          <distance>0.08458</distance>
          <timeResidual>0.32</timeResidual>
          <creationInfo>
            <agencyID>UW</agencyID>
            <creationTime>2012-03-05T13:45:29.000000Z</creationTime>
          </creationInfo>
        </arrival>
        <arrival publicID="quakeml:uw.anss.org/AssocArO/UW/7873123">
          <pickID>quakeml:uw.anss.org/Arrival/UW/7873123</pickID>
          <phase>P</phase>
          <azimuth>235.3</azimuth>
          <timeResidual>-0.51</timeResidual>
          <creationInfo>
            <agencyID>UW</agencyID>
            <creationTime>2012-03-05T13:45:29.000000Z</creationTime>
          </creationInfo>
        </arrival>
        <arrival publicID="quakeml:uw.anss.org/AssocArO/UW/7873128">
          <pickID>quakeml:uw.anss.org/Arrival/UW/7873128</pickID>
          <phase>P</phase>
          <azimuth>164.4</azimuth>
          <distance>1.077</distance>
          <timeResidual>0.55</timeResidual>
          <creationInfo>
            <agencyID>UW</agencyID>
            <creationTime>2012-03-05T13:45:29.000000Z</creationTime>
          </creationInfo>
        </arrival>
        <arrival publicID="quakeml:uw.anss.org/AssocArO/UW/7873133">
          <pickID>quakeml:uw.anss.org/Arrival/UW/7873133</pickID>
          <phase>P</phase>
          <azimuth>249.0</azimuth>
          <distance>0.4491</distance>
          <timeResidual>-0.53</timeResidual>
          <creationInfo>
            <agencyID>UW</agencyID>
            <creationTime>2012-03-05T13:45:29.000000Z</creationTime>
          </creationInfo>
        </arrival>
        <arrival publicID="quakeml:uw.anss.org/AssocArO/UW/7873138">
          <pickID>quakeml:uw.anss.org/Arrival/UW/7873138</pickID>
          <phase>P</phase>
          <distance>0.196</distance>
          <timeResidual>-0.3</timeResidual>
          <creationInfo>
            <agencyID>UW</agencyID>
            <creationTime>2012-03-05T13:45:29.000000Z</creationTime>
          </creationInfo>
        </arrival>
        <arrival publicID="quakeml:uw.anss.org/AssocArO/UW/7873143">
          <pickID>quakeml:uw.anss.org/Arrival/UW/7873143</pickID>
          <phase>P</phase>
          <azimuth>240.5</azimuth>
          <distance>0.8608</distance>
          <timeResidual>-0.23</timeResidual>
          <creationInfo>
            <agencyID>UW</agencyID>
            <creationTime>2012-03-05T13:45:29.000000Z</creationTime>
          </creationInfo>
        </arrival>
        <arrival publicID="quakeml:uw.anss.org/AssocArO/UW/7873148">
          <pickID>quakeml:uw.anss.org/Arrival/UW/7873148</pickID>
          <phase>P</phase>
          <azimuth>172.8</azimuth>
          <distance>0.4211</distance>
          <timeResidual>-0.52</timeResidual>
          <creationInfo>
            <agencyID>UW</agencyID>
            <creationTime>2012-03-05T13:45:29.000000Z</creationTime>
          </creationInfo>
        </arrival>
        <arrival publicID="quakeml:uw.anss.org/AssocArO/UW/7873153">
          <pickID>quakeml:uw.anss.org/Arrival/UW/7873153</pickID>
          <phase>P</phase>
          <azimuth>126.6</azimuth>
          <distance>1.886</distance>
          <timeResidual>1.36</timeResidual>
          <creationInfo>
            <agencyID>UW</agencyID>
            <creationTime>2012-03-05T13:45:29.000000Z</creationTime>
          </creationInfo>
        </arrival>
        <arrival publicID="quakeml:uw.anss.org/AssocArO/UW/7873158">
          <pickID>quakeml:uw.anss.org/Arrival/UW/7873158</pickID>
          <phase>P</phase>
          <azimuth>106.1</azimuth>
          <distance>0.2056</distance>
          <timeResidual>-0.33</timeResidual>
          <creationInfo>
            <agencyID>UW</agencyID>
            <creationTime>2012-03-05T13:45:29.000000Z</creationTime>
          </creationInfo>
        </arrival>
        <arrival publicID="quakeml:uw.anss.org/AssocArO/UW/7873163">
          <pickID>quakeml:uw.anss.org/Arrival/UW/7873163</pickID>
          <phase>P</phase>
          <azimuth>134.2</azimuth>
          <distance>1.758</distance>
          <timeResidual>1.18</timeResidual>
          <creationInfo>
            <agencyID>UW</agencyID>
            <creationTime>2012-03-05T13:45:29.000000Z</creationTime>
          </creationInfo>
        </arrival>
      </origin>
      <magnitude publicID="quakeml:uw.anss.org/Netmag/UW/676578">
        <mag>
          <value>2.0</value>
          <uncertainty>0.05</uncertainty>
        </mag>
        <type>Md</type>
        <originID>quakeml:uw.anss.org/Origin/UW/857638</originID>
        <methodID>smi:uw.anss.org/magnitude/Crosson</methodID>
        <stationCount>6</stationCount>
        <evaluationMode>manual</evaluationMode>
        <evaluationStatus>final</evaluationStatus>
        <stationMagnitudeContribution>
          <stationMagnitudeID>quakeml:uw.anss.org/AssocCoM/UW/1835828</stationMagnitudeID>
          <weight>1.0</weight>
          <residual>-0.07</residual>
        </stationMagnitudeContribution>
        <stationMagnitudeContribution>
          <stationMagnitudeID>quakeml:uw.anss.org/AssocCoM/UW/1835833</stationMagnitudeID>
          <weight>1.0</weight>
          <residual>0.28</residual>
        </stationMagnitudeContribution>
        <stationMagnitudeContribution>
          <stationMagnitudeID>quakeml:uw.anss.org/AssocCoM/UW/1835838</stationMagnitudeID>
          <weight>1.0</weight>
          <residual>0.09</residual>
        </stationMagnitudeContribution>
        <stationMagnitudeContribution>
          <stationMagnitudeID>quakeml:uw.anss.org/AssocCoM/UW/1835843</stationMagnitudeID>
          <weight>1.0</weight>
          <residual>0.12</residual>
        </stationMagnitudeContribution>
        <stationMagnitudeContribution>
          <stationMagnitudeID>quakeml:uw.anss.org/AssocCoM/UW/1835848</stationMagnitudeID>
          <weight>1.0</weight>
          <residual>-0.38</residual>
        </stationMagnitudeContribution>
        <stationMagnitudeContribution>
          <stationMagnitudeID>quakeml:uw.anss.org/AssocCoM/UW/1835853</stationMagnitudeID>
          <weight>1.0</weight>
          <residual>-0.34</residual>
        </stationMagnitudeContribution>
        <creationInfo>
          <agencyID>UW</agencyID>
          <creationTime>2012-03-05T13:45:29.000000Z</creationTime>
        </creationInfo>
      </magnitude>
      <stationMagnitude publicID="quakeml:uw.anss.org/AssocCoM/UW/1835828">
        <originID>quakeml:uw.anss.org/Origin/UW/857638</originID>
        <mag>
          <value>1.93</value>
        </mag>
        <type>MD</type>
        <amplitudeID>quakeml:uw.anss.org/Coda/UW/1835828</amplitudeID>
        <waveformID networkCode="UW" stationCode="JCW" locationCode="" channelCode="EHZ"></waveformID>
      </stationMagnitude>
      <stationMagnitude publicID="quakeml:uw.anss.org/AssocCoM/UW/1835833">
        <originID>quakeml:uw.anss.org/Origin/UW/857638</originID>
        <mag>
          <value>2.28</value>
        </mag>
        <type>MD</type>
        <amplitudeID>quakeml:uw.anss.org/Coda/UW/1835833</amplitudeID>
        <waveformID networkCode="UW" stationCode="RPW" locationCode="" channelCode="EHZ"></waveformID>
      </stationMagnitude>
      <stationMagnitude publicID="quakeml:uw.anss.org/AssocCoM/UW/1835838">
        <originID>quakeml:uw.anss.org/Origin/UW/857638</originID>
        <mag>
          <value>2.09</value>
        </mag>
        <type>MD</type>
        <amplitudeID>quakeml:uw.anss.org/Coda/UW/1835838</amplitudeID>
        <waveformID networkCode="UW" stationCode="HTW" locationCode="" channelCode="EHZ"></waveformID>
      </stationMagnitude>
      <stationMagnitude publicID="quakeml:uw.anss.org/AssocCoM/UW/1835843">
        <originID>quakeml:uw.anss.org/Origin/UW/857638</originID>
        <mag>
          <value>2.12</value>
        </mag>
        <type>MD</type>
        <amplitudeID>quakeml:uw.anss.org/Coda/UW/1835843</amplitudeID>
        <waveformID networkCode="CN" stationCode="VDB" locationCode="" channelCode="EHZ"></waveformID>
      </stationMagnitude>
      <stationMagnitude publicID="quakeml:uw.anss.org/AssocCoM/UW/1835848">
        <originID>quakeml:uw.anss.org/Origin/UW/857638</originID>
        <mag>
          <value>1.62</value>
        </mag>
        <type>MD</type>
        <amplitudeID>quakeml:uw.anss.org/Coda/UW/1835848</amplitudeID>
        <waveformID networkCode="UW" stationCode="CMW" locationCode="" channelCode="EHZ"></waveformID>
      </stationMagnitude>
      <stationMagnitude publicID="quakeml:uw.anss.org/AssocCoM/UW/1835853">
        <originID>quakeml:uw.anss.org/Origin/UW/857638</originID>
        <mag>
          <value>1.66</value>
        </mag>
        <type>MD</type>
        <amplitudeID>quakeml:uw.anss.org/Coda/UW/1835853</amplitudeID>
        <waveformID networkCode="UW" stationCode="MBW" locationCode="" channelCode="EHZ"></waveformID>
      </stationMagnitude>
      <pick publicID="quakeml:uw.anss.org/Arrival/UW/7873058">
        <time>
          <value>2002-12-24T00:24:25.890000Z</value>
          <uncertainty>0.06</uncertainty>
        </time>
        <waveformID networkCode="UW" stationCode="RVC" locationCode="" channelCode="EHZ"></waveformID>
        <polarity>undecidable</polarity>
        <evaluationMode>manual</evaluationMode>
        <evaluationStatus>final</evaluationStatus>
        <creationInfo>
          <agencyID>UW</agencyID>
          <creationTime>2012-03-05T13:45:29.000000Z</creationTime>
        </creationInfo>
      </pick>
      <pick publicID="quakeml:uw.anss.org/Arrival/UW/7873063">
        <time>
          <value>2002-12-24T00:24:28.870000Z</value>
          <uncertainty>0.05</uncertainty>
        </time>
        <waveformID networkCode="UW" stationCode="LO2" locationCode="" channelCode="EHZ"></waveformID>
        <polarity>undecidable</polarity>
        <evaluationMode>manual</evaluationMode>
        <evaluationStatus>final</evaluationStatus>
        <creationInfo>
          <agencyID>UW</agencyID>
          <creationTime>2012-03-05T13:45:29.000000Z</creationTime>
        </creationInfo>
      </pick>
      <pick publicID="quakeml:uw.anss.org/Arrival/UW/7873068">
        <time>
          <value>2002-12-24T00:24:19.380000Z</value>
          <uncertainty>0.05</uncertainty>
        </time>
        <waveformID networkCode="UW" stationCode="NEL" locationCode="" channelCode="EHZ"></waveformID>
        <polarity>undecidable</polarity>
        <evaluationMode>manual</evaluationMode>
        <evaluationStatus>final</evaluationStatus>
        <creationInfo>
          <agencyID>UW</agencyID>
          <creationTime>2012-03-05T13:45:29.000000Z</creationTime>
        </creationInfo>
      </pick>
      <pick publicID="quakeml:uw.anss.org/Arrival/UW/7873073">
        <time>
          <value>2002-12-24T00:24:05.350000Z</value>
          <uncertainty>0.02</uncertainty>
        </time>
        <waveformID networkCode="UW" stationCode="JCW" locationCode="" channelCode="EHZ"></waveformID>
        <polarity>negative</polarity>
        <evaluationMode>manual</evaluationMode>
        <evaluationStatus>final</evaluationStatus>
        <creationInfo>
          <agencyID>UW</agencyID>
          <creationTime>2012-03-05T13:45:29.000000Z</creationTime>
        </creationInfo>
      </pick>
      <pick publicID="quakeml:uw.anss.org/Arrival/UW/7873078">
        <time>
          <value>2002-12-24T00:24:10.360000Z</value>
          <uncertainty>0.08</uncertainty>
        </time>
        <waveformID networkCode="UW" stationCode="SQM" locationCode="" channelCode="BHZ"></waveformID>
        <polarity>undecidable</polarity>
        <evaluationMode>manual</evaluationMode>
        <evaluationStatus>final</evaluationStatus>
        <creationInfo>
          <agencyID>UW</agencyID>
          <creationTime>2012-03-05T13:45:29.000000Z</creationTime>
        </creationInfo>
      </pick>
      <pick publicID="quakeml:uw.anss.org/Arrival/UW/7873083">
        <time>
          <value>2002-12-24T00:24:23.920000Z</value>
