<?xml version='1.0' encoding='utf-8'?>
<q:quakeml xmlns="http://quakeml.org/xmlns/bed/1.2" xmlns:q="http://quakeml.org/xmlns/quakeml/1.2" xmlns:ns0="http://anss.org/xmlns/catalog/0.1">
  <eventParameters publicID="smi:local/18af7107-ca46-4c27-b9a6-e57c3d86835d">
    <event publicID="quakeml:uw.anss.org/Event/UW/10564053" ns0:datasource="uw" ns0:dataid="uw10564053" ns0:eventsource="uw" ns0:eventid="10564053">
      <preferredOriginID>quakeml:uw.anss.org/Origin/UW/846288</preferredOriginID>
      <preferredMagnitudeID>quakeml:uw.anss.org/Netmag/UW/670498</preferredMagnitudeID>
      <type>earthquake</type>
      <creationInfo>
        <agencyID>UW</agencyID>
        <creationTime>2012-03-05T13:13:05.000000Z</creationTime>
        <version>3</version>
      </creationInfo>
      <origin publicID="quakeml:uw.anss.org/Origin/UW/846288" ns0:datasource="uw" ns0:dataid="uw10564053" ns0:eventsource="uw" ns0:eventid="10564053">
        <time>
          <value>2002-08-12T10:58:23.570000Z</value>
          <uncertainty>0.08</uncertainty>
        </time>
        <latitude>
          <value>48.5866667</value>
          <uncertainty>0.42</uncertainty>
        </latitude>
        <longitude>
          <value>-122.4013333</value>
          <uncertainty>0.42</uncertainty>
        </longitude>
        <depth>
          <value>11887.0</value>
          <uncertainty>2270.0</uncertainty>
        </depth>
        <depthType>from location</depthType>
        <timeFixed>false</timeFixed>
        <epicenterFixed>false</epicenterFixed>
        <methodID>smi:uw.anss.org/origin/spong</methodID>
        <quality>
          <associatedPhaseCount>29</associatedPhaseCount>
          <usedPhaseCount>24</usedPhaseCount>
          <associatedStationCount>22</associatedStationCount>
          <usedStationCount>0</usedStationCount>
          <standardError>0.24</standardError>
          <azimuthalGap>69.0</azimuthalGap>
        </quality>
        <type>hypocenter</type>
        <evaluationMode>manual</evaluationMode>
        <evaluationStatus>final</evaluationStatus>
        <creationInfo>
          <agencyID>UW</agencyID>
          <creationTime>2012-03-05T13:13:05.000000Z</creationTime>
        </creationInfo>
        <originUncertainty>
          <preferredDescription>horizontal uncertainty</preferredDescription>
          <horizontalUncertainty>594.0</horizontalUncertainty>
        </originUncertainty>
        <arrival publicID="quakeml:uw.anss.org/AssocArO/UW/7768093">
          <pickID>quakeml:uw.anss.org/Arrival/UW/7768093</pickID>
          <phase>P</phase>
          <azimuth>228.2</azimuth>
          <distance>0.2</distance>
          <timeResidual>-0.49</timeResidual>
          <creationInfo>
            <agencyID>UW</agencyID>
            <creationTime>2012-03-05T13:13:05.000000Z</creationTime>
          </creationInfo>
        </arrival>
        <arrival publicID="quakeml:uw.anss.org/AssocArO/UW/7768098">
          <pickID>quakeml:uw.anss.org/Arrival/UW/7768098</pickID>
          <phase>S</phase>
          <azimuth>228.2</azimuth>
          <distance>0.2</distance>
          <timeResidual>-0.37</timeResidual>
          <creationInfo>
            <agencyID>UW</agencyID>
            <creationTime>2012-03-05T13:13:05.000000Z</creationTime>
          </creationInfo>
        </arrival>
        <arrival publicID="quakeml:uw.anss.org/AssocArO/UW/7768103">
          <pickID>quakeml:uw.anss.org/Arrival/UW/7768103</pickID>
          <phase>P</phase>
          <azimuth>207.4</azimuth>
          <timeResidual>0.1</timeResidual>
          <creationInfo>
            <agencyID>UW</agencyID>
            <creationTime>2012-03-05T13:13:05.000000Z</creationTime>
          </creationInfo>
        </arrival>
        <arrival publicID="quakeml:uw.anss.org/AssocArO/UW/7768148">
          <pickID>quakeml:uw.anss.org/Arrival/UW/7768148</pickID>
          <phase>P</phase>
          <azimuth>356.9</azimuth>
          <distance>0.1819</distance>
          <timeResidual>0.57</timeResidual>
          <creationInfo>
            <agencyID>UW</agencyID>
            <creationTime>2012-03-05T13:13:05.000000Z</creationTime>
          </creationInfo>
        </arrival>
        <arrival publicID="quakeml:uw.anss.org/AssocArO/UW/7768153">
          <pickID>quakeml:uw.anss.org/Arrival/UW/7768153</pickID>
          <phase>P</phase>
          <azimuth>167.5</azimuth>
          <timeResidual>-0.27</timeResidual>
          <creationInfo>
            <agencyID>UW</agencyID>
            <creationTime>2012-03-05T13:13:05.000000Z</creationTime>
          </creationInfo>
        </arrival>
        <arrival publicID="quakeml:uw.anss.org/AssocArO/UW/7768158">
          <pickID>quakeml:uw.anss.org/Arrival/UW/7768158</pickID>
          <phase>S</phase>
          <azimuth>167.5</azimuth>
          <timeResidual>-1.12</timeResidual>
          <creationInfo>
            <agencyID>UW</agencyID>
            <creationTime>2012-03-05T13:13:05.000000Z</creationTime>
          </creationInfo>
        </arrival>
        <arrival publicID="quakeml:uw.anss.org/AssocArO/UW/7768163">
          <pickID>quakeml:uw.anss.org/Arrival/UW/7768163</pickID>
          <phase>P</phase>
          <distance>0.4821</distance>
          <timeResidual>-0.35</timeResidual>
          <creationInfo>
            <agencyID>UW</agencyID>
            <creationTime>2012-03-05T13:13:05.000000Z</creationTime>
          </creationInfo>
        </arrival>
        <arrival publicID="quakeml:uw.anss.org/AssocArO/UW/7768168">
          <pickID>quakeml:uw.anss.org/Arrival/UW/7768168</pickID>
          <phase>P</phase>
          <azimuth>144.1</azimuth>
          <distance>1.779</distance>
          <timeResidual>1.33</timeResidual>
          <creationInfo>
            <agencyID>UW</agencyID>
            <creationTime>2012-03-05T13:13:05.000000Z</creationTime>
          </creationInfo>
        </arrival>
        <arrival publicID="quakeml:uw.anss.org/AssocArO/UW/7768173">
          <pickID>quakeml:uw.anss.org/Arrival/UW/7768173</pickID>
          <phase>P</phase>
          <azimuth>131.1</azimuth>
          <distance>0.2482</distance>
          <timeResidual>-0.29</timeResidual>
          <creationInfo>
            <agencyID>UW</agencyID>
            <creationTime>2012-03-05T13:13:05.000000Z</creationTime>
          </creationInfo>
        </arrival>
        <arrival publicID="quakeml:uw.anss.org/AssocArO/UW/7768178">
          <pickID>quakeml:uw.anss.org/Arrival/UW/7768178</pickID>
          <phase>S</phase>
          <azimuth>131.1</azimuth>
          <distance>0.2482</distance>
          <timeResidual>0.34</timeResidual>
          <creationInfo>
            <agencyID>UW</agencyID>
            <creationTime>2012-03-05T13:13:05.000000Z</creationTime>
          </creationInfo>
        </arrival>
        <arrival publicID="quakeml:uw.anss.org/AssocArO/UW/7768183">
          <pickID>quakeml:uw.anss.org/Arrival/UW/7768183</pickID>
          <phase>P</phase>
          <azimuth>160.3</azimuth>
          <distance>1.196</distance>
          <timeResidual>-0.02</timeResidual>
          <creationInfo>
            <agencyID>UW</agencyID>
            <creationTime>2012-03-05T13:13:05.000000Z</creationTime>
          </creationInfo>
        </arrival>
        <arrival publicID="quakeml:uw.anss.org/AssocArO/UW/7768188">
          <pickID>quakeml:uw.anss.org/Arrival/UW/7768188</pickID>
          <phase>P</phase>
          <azimuth>102.9</azimuth>
          <distance>0.6055</distance>
          <timeResidual>0.12</timeResidual>
          <creationInfo>
            <agencyID>UW</agencyID>
            <creationTime>2012-03-05T13:13:05.000000Z</creationTime>
          </creationInfo>
        </arrival>
        <arrival publicID="quakeml:uw.anss.org/AssocArO/UW/7768193">
          <pickID>quakeml:uw.anss.org/Arrival/UW/7768193</pickID>
          <phase>P</phase>
          <azimuth>27.3</azimuth>
          <distance>0.372</distance>
          <timeResidual>0.05</timeResidual>
          <creationInfo>
            <agencyID>UW</agencyID>
            <creationTime>2012-03-05T13:13:05.000000Z</creationTime>
          </creationInfo>
        </arrival>
        <arrival publicID="quakeml:uw.anss.org/AssocArO/UW/7768198">
          <pickID>quakeml:uw.anss.org/Arrival/UW/7768198</pickID>
          <phase>S</phase>
          <azimuth>27.3</azimuth>
          <distance>0.372</distance>
          <timeResidual>0.44</timeResidual>
          <creationInfo>
            <agencyID>UW</agencyID>
            <creationTime>2012-03-05T13:13:05.000000Z</creationTime>
          </creationInfo>
        </arrival>
        <arrival publicID="quakeml:uw.anss.org/AssocArO/UW/7768203">
          <pickID>quakeml:uw.anss.org/Arrival/UW/7768203</pickID>
          <phase>P</phase>
          <azimuth>264.5</azimuth>
          <distance>0.4085</distance>
          <timeResidual>-0.27</timeResidual>
          <creationInfo>
            <agencyID>UW</agencyID>
            <creationTime>2012-03-05T13:13:05.000000Z</creationTime>
          </creationInfo>
        </arrival>
        <arrival publicID="quakeml:uw.anss.org/AssocArO/UW/7768208">
          <pickID>quakeml:uw.anss.org/Arrival/UW/7768208</pickID>
          <phase>P</phase>
          <azimuth>59.0</azimuth>
          <distance>0.3859</distance>
          <timeResidual>-0.2</timeResidual>
          <creationInfo>
            <agencyID>UW</agencyID>
            <creationTime>2012-03-05T13:13:05.000000Z</creationTime>
          </creationInfo>
        </arrival>
        <arrival publicID="quakeml:uw.anss.org/AssocArO/UW/7768213">
          <pickID>quakeml:uw.anss.org/Arrival/UW/7768213</pickID>
          <phase>P</phase>
          <azimuth>141.0</azimuth>
          <timeResidual>-0.09</timeResidual>
          <creationInfo>
            <agencyID>UW</agencyID>
            <creationTime>2012-03-05T13:13:05.000000Z</creationTime>
          </creationInfo>
        </arrival>
        <arrival publicID="quakeml:uw.anss.org/AssocArO/UW/7768218">
          <pickID>quakeml:uw.anss.org/Arrival/UW/7768218</pickID>
          <phase>P</phase>
          <azimuth>163.1</azimuth>
          <timeResidual>-0.22</timeResidual>
          <creationInfo>
            <agencyID>UW</agencyID>
            <creationTime>2012-03-05T13:13:05.000000Z</creationTime>
          </creationInfo>
        </arrival>
        <arrival publicID="quakeml:uw.anss.org/AssocArO/UW/7768223">
          <pickID>quakeml:uw.anss.org/Arrival/UW/7768223</pickID>
          <phase>S</phase>
          <azimuth>163.1</azimuth>
          <timeResidual>-0.66</timeResidual>
          <creationInfo>
            <agencyID>UW</agencyID>
            <creationTime>2012-03-05T13:13:05.000000Z</creationTime>
          </creationInfo>
        </arrival>
        <arrival publicID="quakeml:uw.anss.org/AssocArO/UW/7768228">
          <pickID>quakeml:uw.anss.org/Arrival/UW/7768228</pickID>
          <phase>P</phase>
          <azimuth>125.3</azimuth>
          <distance>1.251</distance>
          <timeResidual>0.16</timeResidual>
          <creationInfo>
            <agencyID>UW</agencyID>
            <creationTime>2012-03-05T13:13:05.000000Z</creationTime>
          </creationInfo>
        </arrival>
        <arrival publicID="quakeml:uw.anss.org/AssocArO/UW/7768233">
          <pickID>quakeml:uw.anss.org/Arrival/UW/7768233</pickID>
          <phase>P</phase>
          <azimuth>243.1</azimuth>
          <timeResidual>-0.1</timeResidual>
          <creationInfo>
            <agencyID>UW</agencyID>
            <creationTime>2012-03-05T13:13:05.000000Z</creationTime>
          </creationInfo>
        </arrival>
        <arrival publicID="quakeml:uw.anss.org/AssocArO/UW/7768238">
          <pickID>quakeml:uw.anss.org/Arrival/UW/7768238</pickID>
          <phase>P</phase>
          <azimuth>254.6</azimuth>
          <distance>0.6385</distance>
          <timeResidual>0.2</timeResidual>
          <creationInfo>
            <agencyID>UW</agencyID>
            <creationTime>2012-03-05T13:13:05.000000Z</creationTime>
          </creationInfo>
        </arrival>
        <arrival publicID="quakeml:uw.anss.org/AssocArO/UW/7768243">
          <pickID>quakeml:uw.anss.org/Arrival/UW/7768243</pickID>
          <phase>S</phase>
          <azimuth>254.6</azimuth>
          <distance>0.6385</distance>
          <timeResidual>0.38</timeResidual>
          <creationInfo>
            <agencyID>UW</agencyID>
            <creationTime>2012-03-05T13:13:05.000000Z</creationTime>
          </creationInfo>
        </arrival>
        <arrival publicID="quakeml:uw.anss.org/AssocArO/UW/7768248">
          <pickID>quakeml:uw.anss.org/Arrival/UW/7768248</pickID>
          <phase>P</phase>
          <azimuth>151.5</azimuth>
          <distance>0.8904</distance>
          <timeResidual>0.12</timeResidual>
          <creationInfo>
            <agencyID>UW</agencyID>
            <creationTime>2012-03-05T13:13:05.000000Z</creationTime>
          </creationInfo>
        </arrival>
        <arrival publicID="quakeml:uw.anss.org/AssocArO/UW/7768253">
          <pickID>quakeml:uw.anss.org/Arrival/UW/7768253</pickID>
          <phase>S</phase>
          <azimuth>151.5</azimuth>
          <distance>0.8904</distance>
          <timeResidual>0.16</timeResidual>
          <creationInfo>
            <agencyID>UW</agencyID>
            <creationTime>2012-03-05T13:13:05.000000Z</creationTime>
          </creationInfo>
        </arrival>
        <arrival publicID="quakeml:uw.anss.org/AssocArO/UW/7768258">
          <pickID>quakeml:uw.anss.org/Arrival/UW/7768258</pickID>
          <phase>P</phase>
          <azimuth>213.5</azimuth>
          <distance>0.6946</distance>
          <timeResidual>0.27</timeResidual>
          <creationInfo>
            <agencyID>UW</agencyID>
            <creationTime>2012-03-05T13:13:05.000000Z</creationTime>
          </creationInfo>
        </arrival>
        <arrival publicID="quakeml:uw.anss.org/AssocArO/UW/7768263">
          <pickID>quakeml:uw.anss.org/Arrival/UW/7768263</pickID>
          <phase>S</phase>
          <azimuth>234.5</azimuth>
          <distance>0.8322</distance>
          <timeResidual>0.18</timeResidual>
          <creationInfo>
            <agencyID>UW</agencyID>
            <creationTime>2012-03-05T13:13:05.000000Z</creationTime>
          </creationInfo>
        </arrival>
        <arrival publicID="quakeml:uw.anss.org/AssocArO/UW/7768268">
          <pickID>quakeml:uw.anss.org/Arrival/UW/7768268</pickID>
          <phase>P</phase>
          <azimuth>288.1</azimuth>
          <distance>0.3006</distance>
          <timeResidual>-0.12</timeResidual>
          <creationInfo>
            <agencyID>UW</agencyID>
            <creationTime>2012-03-05T13:13:05.000000Z</creationTime>
          </creationInfo>
        </arrival>
        <arrival publicID="quakeml:uw.anss.org/AssocArO/UW/7768273">
          <pickID>quakeml:uw.anss.org/Arrival/UW/7768273</pickID>
          <phase>P</phase>
          <azimuth>161.8</azimuth>
          <distance>0.7905</distance>
          <timeResidual>0.35</timeResidual>
          <creationInfo>
            <agencyID>UW</agencyID>
            <creationTime>2012-03-05T13:13:05.000000Z</creationTime>
          </creationInfo>
        </arrival>
      </origin>
      <magnitude publicID="quakeml:uw.anss.org/Netmag/UW/670498">
        <mag>
          <value>1.8</value>
          <uncertainty>0.04</uncertainty>
        </mag>
        <type>Md</type>
        <originID>quakeml:uw.anss.org/Origin/UW/846288</originID>
        <methodID>smi:uw.anss.org/magnitude/Crosson</methodID>
        <stationCount>9</stationCount>
        <evaluationMode>manual</evaluationMode>
        <evaluationStatus>final</evaluationStatus>
        <stationMagnitudeContribution>
          <stationMagnitudeID>quakeml:uw.anss.org/AssocCoM/UW/1815358</stationMagnitudeID>
          <weight>1.0</weight>
          <residual>0.53</residual>
        </stationMagnitudeContribution>
        <stationMagnitudeContribution>
          <stationMagnitudeID>quakeml:uw.anss.org/AssocCoM/UW/1815383</stationMagnitudeID>
          <weight>1.0</weight>
          <residual>0.29</residual>
        </stationMagnitudeContribution>
        <stationMagnitudeContribution>
          <stationMagnitudeID>quakeml:uw.anss.org/AssocCoM/UW/1815373</stationMagnitudeID>
          <weight>1.0</weight>
          <residual>0.48</residual>
        </stationMagnitudeContribution>
        <stationMagnitudeContribution>
          <stationMagnitudeID>quakeml:uw.anss.org/AssocCoM/UW/1815353</stationMagnitudeID>
          <weight>1.0</weight>
          <residual>-0.86</residual>
        </stationMagnitudeContribution>
        <stationMagnitudeContribution>
          <stationMagnitudeID>quakeml:uw.anss.org/AssocCoM/UW/1815378</stationMagnitudeID>
          <weight>1.0</weight>
          <residual>0.06</residual>
        </stationMagnitudeContribution>
        <stationMagnitudeContribution>
          <stationMagnitudeID>quakeml:uw.anss.org/AssocCoM/UW/1815348</stationMagnitudeID>
          <weight>1.0</weight>
          <residual>-0.05</residual>
        </stationMagnitudeContribution>
        <stationMagnitudeContribution>
          <stationMagnitudeID>quakeml:uw.anss.org/AssocCoM/UW/1815363</stationMagnitudeID>
          <weight>1.0</weight>
          <residual>-0.27</residual>
        </stationMagnitudeContribution>
        <stationMagnitudeContribution>
          <stationMagnitudeID>quakeml:uw.anss.org/AssocCoM/UW/1815368</stationMagnitudeID>
          <weight>1.0</weight>
          <residual>-0.32</residual>
        </stationMagnitudeContribution>
        <stationMagnitudeContribution>
          <stationMagnitudeID>quakeml:uw.anss.org/AssocCoM/UW/1815388</stationMagnitudeID>
          <weight>1.0</weight>
          <residual>-0.05</residual>
        </stationMagnitudeContribution>
        <creationInfo>
          <agencyID>UW</agencyID>
          <creationTime>2012-03-05T13:13:05.000000Z</creationTime>
        </creationInfo>
      </magnitude>
      <stationMagnitude publicID="quakeml:uw.anss.org/AssocCoM/UW/1815348">
        <originID>quakeml:uw.anss.org/Origin/UW/846288</originID>
        <mag>
          <value>1.75</value>
        </mag>
        <type>MD</type>
        <amplitudeID>quakeml:uw.anss.org/Coda/UW/1815348</amplitudeID>
        <waveformID networkCode="UW" stationCode="SVOH" locationCode="" channelCode="EHZ"></waveformID>
      </stationMagnitude>
      <stationMagnitude publicID="quakeml:uw.anss.org/AssocCoM/UW/1815353">
        <originID>quakeml:uw.anss.org/Origin/UW/846288</originID>
        <mag>
          <value>0.94</value>
        </mag>
        <type>MD</type>
        <amplitudeID>quakeml:uw.anss.org/Coda/UW/1815353</amplitudeID>
        <waveformID networkCode="UW" stationCode="SBES" locationCode="" channelCode="EHZ"></waveformID>
      </stationMagnitude>
      <stationMagnitude publicID="quakeml:uw.anss.org/AssocCoM/UW/1815358">
        <originID>quakeml:uw.anss.org/Origin/UW/846288</originID>
        <mag>
          <value>2.33</value>
        </mag>
        <type>MD</type>
        <amplitudeID>quakeml:uw.anss.org/Coda/UW/1815358</amplitudeID>
        <waveformID networkCode="CN" stationCode="VDB" locationCode="" channelCode="EHZ"></waveformID>
      </stationMagnitude>
      <stationMagnitude publicID="quakeml:uw.anss.org/AssocCoM/UW/1815363">
        <originID>quakeml:uw.anss.org/Origin/UW/846288</originID>
        <mag>
          <value>1.53</value>
        </mag>
        <type>MD</type>
        <amplitudeID>quakeml:uw.anss.org/Coda/UW/1815363</amplitudeID>
        <waveformID networkCode="UW" stationCode="CMW" locationCode="" channelCode="EHZ"></waveformID>
      </stationMagnitude>
      <stationMagnitude publicID="quakeml:uw.anss.org/AssocCoM/UW/1815368">
        <originID>quakeml:uw.anss.org/Origin/UW/846288</originID>
        <mag>
          <value>1.48</value>
        </mag>
        <type>MD</type>
