<?xml version='1.0' encoding='utf-8'?>
<q:quakeml xmlns="http://quakeml.org/xmlns/bed/1.2" xmlns:q="http://quakeml.org/xmlns/quakeml/1.2" xmlns:ns0="http://anss.org/xmlns/catalog/0.1">
  <eventParameters publicID="smi:local/a4f2d8fc-a532-4464-a08f-d01f9545278e">
    <event publicID="quakeml:uw.anss.org/Event/UW/10432193" ns0:datasource="uw" ns0:dataid="uw10432193" ns0:eventsource="uw" ns0:eventid="10432193">
      <preferredOriginID>quakeml:uw.anss.org/Origin/UW/709618</preferredOriginID>
      <preferredMagnitudeID>quakeml:uw.anss.org/Netmag/UW/586778</preferredMagnitudeID>
      <type>earthquake</type>
      <creationInfo>
        <agencyID>UW</agencyID>
        <creationTime>2012-02-28T14:25:16.000000Z</creationTime>
        <version>3</version>
      </creationInfo>
      <origin publicID="quakeml:uw.anss.org/Origin/UW/709618" ns0:datasource="uw" ns0:dataid="uw10432193" ns0:eventsource="uw" ns0:eventid="10432193">
        <time>
          <value>1998-03-04T11:02:30.580000Z</value>
          <uncertainty>0.37</uncertainty>
        </time>
        <latitude>
          <value>48.769</value>
          <uncertainty>0.83</uncertainty>
        </latitude>
        <longitude>
          <value>-122.1796667</value>
          <uncertainty>1.36</uncertainty>
        </longitude>
        <depth>
          <value>1690.0</value>
          <uncertainty>3560.0</uncertainty>
        </depth>
        <depthType>from location</depthType>
        <timeFixed>false</timeFixed>
        <epicenterFixed>false</epicenterFixed>
        <methodID>smi:uw.anss.org/origin/spong</methodID>
        <quality>
          <associatedPhaseCount>43</associatedPhaseCount>
          <usedPhaseCount>24</usedPhaseCount>
          <associatedStationCount>31</associatedStationCount>
          <usedStationCount>0</usedStationCount>
          <standardError>0.48</standardError>
          <azimuthalGap>187.0</azimuthalGap>
        </quality>
        <type>hypocenter</type>
        <evaluationMode>manual</evaluationMode>
        <evaluationStatus>final</evaluationStatus>
        <creationInfo>
          <agencyID>UW</agencyID>
          <creationTime>2012-02-28T14:25:16.000000Z</creationTime>
        </creationInfo>
        <originUncertainty>
          <preferredDescription>horizontal uncertainty</preferredDescription>
          <horizontalUncertainty>1593.0</horizontalUncertainty>
        </originUncertainty>
        <arrival publicID="quakeml:uw.anss.org/AssocArO/UW/6414498">
          <pickID>quakeml:uw.anss.org/Arrival/UW/6414498</pickID>
          <phase>P</phase>
          <azimuth>207.8</azimuth>
          <distance>1.265</distance>
          <timeResidual>-0.29</timeResidual>
          <creationInfo>
            <agencyID>UW</agencyID>
            <creationTime>2012-02-28T14:25:16.000000Z</creationTime>
          </creationInfo>
        </arrival>
        <arrival publicID="quakeml:uw.anss.org/AssocArO/UW/6414503">
          <pickID>quakeml:uw.anss.org/Arrival/UW/6414503</pickID>
          <phase>S</phase>
          <azimuth>207.8</azimuth>
          <distance>1.265</distance>
          <timeResidual>-0.86</timeResidual>
          <creationInfo>
            <agencyID>UW</agencyID>
            <creationTime>2012-02-28T14:25:16.000000Z</creationTime>
          </creationInfo>
        </arrival>
        <arrival publicID="quakeml:uw.anss.org/AssocArO/UW/6414508">
          <pickID>quakeml:uw.anss.org/Arrival/UW/6414508</pickID>
          <phase>P</phase>
          <azimuth>155.4</azimuth>
          <distance>2.233</distance>
          <timeResidual>0.94</timeResidual>
          <creationInfo>
            <agencyID>UW</agencyID>
            <creationTime>2012-02-28T14:25:16.000000Z</creationTime>
          </creationInfo>
        </arrival>
        <arrival publicID="quakeml:uw.anss.org/AssocArO/UW/6414513">
          <pickID>quakeml:uw.anss.org/Arrival/UW/6414513</pickID>
          <phase>S</phase>
          <azimuth>155.4</azimuth>
          <distance>2.233</distance>
          <timeResidual>0.28</timeResidual>
          <creationInfo>
            <agencyID>UW</agencyID>
            <creationTime>2012-02-28T14:25:16.000000Z</creationTime>
          </creationInfo>
        </arrival>
        <arrival publicID="quakeml:uw.anss.org/AssocArO/UW/6414518">
          <pickID>quakeml:uw.anss.org/Arrival/UW/6414518</pickID>
          <phase>P</phase>
          <azimuth>119.1</azimuth>
          <distance>1.41</distance>
          <timeResidual>0.46</timeResidual>
          <creationInfo>
            <agencyID>UW</agencyID>
            <creationTime>2012-02-28T14:25:16.000000Z</creationTime>
          </creationInfo>
        </arrival>
        <arrival publicID="quakeml:uw.anss.org/AssocArO/UW/6414523">
          <pickID>quakeml:uw.anss.org/Arrival/UW/6414523</pickID>
          <phase>S</phase>
          <azimuth>119.1</azimuth>
          <distance>1.41</distance>
          <timeResidual>0.04</timeResidual>
          <creationInfo>
            <agencyID>UW</agencyID>
            <creationTime>2012-02-28T14:25:16.000000Z</creationTime>
          </creationInfo>
        </arrival>
        <arrival publicID="quakeml:uw.anss.org/AssocArO/UW/6414528">
          <pickID>quakeml:uw.anss.org/Arrival/UW/6414528</pickID>
          <phase>P</phase>
          <azimuth>223.2</azimuth>
          <distance>0.4327</distance>
          <timeResidual>-0.65</timeResidual>
          <creationInfo>
            <agencyID>UW</agencyID>
            <creationTime>2012-02-28T14:25:16.000000Z</creationTime>
          </creationInfo>
        </arrival>
        <arrival publicID="quakeml:uw.anss.org/AssocArO/UW/6414533">
          <pickID>quakeml:uw.anss.org/Arrival/UW/6414533</pickID>
          <phase>S</phase>
          <azimuth>223.2</azimuth>
          <distance>0.4327</distance>
          <timeResidual>-0.32</timeResidual>
          <creationInfo>
            <agencyID>UW</agencyID>
            <creationTime>2012-02-28T14:25:16.000000Z</creationTime>
          </creationInfo>
        </arrival>
        <arrival publicID="quakeml:uw.anss.org/AssocArO/UW/6414538">
          <pickID>quakeml:uw.anss.org/Arrival/UW/6414538</pickID>
          <phase>P</phase>
          <azimuth>132.7</azimuth>
          <distance>1.699</distance>
          <timeResidual>0.82</timeResidual>
          <creationInfo>
            <agencyID>UW</agencyID>
            <creationTime>2012-02-28T14:25:16.000000Z</creationTime>
          </creationInfo>
        </arrival>
        <arrival publicID="quakeml:uw.anss.org/AssocArO/UW/6414543">
          <pickID>quakeml:uw.anss.org/Arrival/UW/6414543</pickID>
          <phase>P</phase>
          <azimuth>170.8</azimuth>
          <distance>1.923</distance>
          <timeResidual>0.17</timeResidual>
          <creationInfo>
            <agencyID>UW</agencyID>
            <creationTime>2012-02-28T14:25:16.000000Z</creationTime>
          </creationInfo>
        </arrival>
        <arrival publicID="quakeml:uw.anss.org/AssocArO/UW/6414548">
          <pickID>quakeml:uw.anss.org/Arrival/UW/6414548</pickID>
          <phase>S</phase>
          <azimuth>170.0</azimuth>
          <distance>2.246</distance>
          <timeResidual>0.07</timeResidual>
          <creationInfo>
            <agencyID>UW</agencyID>
            <creationTime>2012-02-28T14:25:16.000000Z</creationTime>
          </creationInfo>
        </arrival>
        <arrival publicID="quakeml:uw.anss.org/AssocArO/UW/6414553">
          <pickID>quakeml:uw.anss.org/Arrival/UW/6414553</pickID>
          <phase>P</phase>
          <azimuth>151.2</azimuth>
          <distance>1.854</distance>
          <timeResidual>1.17</timeResidual>
          <creationInfo>
            <agencyID>UW</agencyID>
            <creationTime>2012-02-28T14:25:16.000000Z</creationTime>
          </creationInfo>
        </arrival>
        <arrival publicID="quakeml:uw.anss.org/AssocArO/UW/6414558">
          <pickID>quakeml:uw.anss.org/Arrival/UW/6414558</pickID>
          <phase>S</phase>
          <azimuth>151.2</azimuth>
          <distance>1.854</distance>
          <timeResidual>1.22</timeResidual>
          <creationInfo>
            <agencyID>UW</agencyID>
            <creationTime>2012-02-28T14:25:16.000000Z</creationTime>
          </creationInfo>
        </arrival>
        <arrival publicID="quakeml:uw.anss.org/AssocArO/UW/6414563">
          <pickID>quakeml:uw.anss.org/Arrival/UW/6414563</pickID>
          <phase>P</phase>
          <azimuth>173.5</azimuth>
          <distance>0.348</distance>
          <timeResidual>-0.73</timeResidual>
          <creationInfo>
            <agencyID>UW</agencyID>
            <creationTime>2012-02-28T14:25:16.000000Z</creationTime>
          </creationInfo>
        </arrival>
        <arrival publicID="quakeml:uw.anss.org/AssocArO/UW/6414568">
          <pickID>quakeml:uw.anss.org/Arrival/UW/6414568</pickID>
          <phase>S</phase>
          <azimuth>173.5</azimuth>
          <distance>0.348</distance>
          <timeResidual>-0.32</timeResidual>
          <creationInfo>
            <agencyID>UW</agencyID>
            <creationTime>2012-02-28T14:25:16.000000Z</creationTime>
          </creationInfo>
        </arrival>
        <arrival publicID="quakeml:uw.anss.org/AssocArO/UW/6414573">
          <pickID>quakeml:uw.anss.org/Arrival/UW/6414573</pickID>
          <phase>P</phase>
          <azimuth>170.5</azimuth>
          <timeResidual>-0.37</timeResidual>
          <creationInfo>
            <agencyID>UW</agencyID>
            <creationTime>2012-02-28T14:25:16.000000Z</creationTime>
          </creationInfo>
        </arrival>
        <arrival publicID="quakeml:uw.anss.org/AssocArO/UW/6414578">
          <pickID>quakeml:uw.anss.org/Arrival/UW/6414578</pickID>
          <phase>S</phase>
          <azimuth>170.5</azimuth>
          <timeResidual>-0.81</timeResidual>
          <creationInfo>
            <agencyID>UW</agencyID>
            <creationTime>2012-02-28T14:25:16.000000Z</creationTime>
          </creationInfo>
        </arrival>
        <arrival publicID="quakeml:uw.anss.org/AssocArO/UW/6414583">
          <pickID>quakeml:uw.anss.org/Arrival/UW/6414583</pickID>
          <phase>P</phase>
          <azimuth>199.9</azimuth>
          <distance>1.281</distance>
          <timeResidual>16.51</timeResidual>
          <creationInfo>
            <agencyID>UW</agencyID>
            <creationTime>2012-02-28T14:25:16.000000Z</creationTime>
          </creationInfo>
        </arrival>
        <arrival publicID="quakeml:uw.anss.org/AssocArO/UW/6414588">
          <pickID>quakeml:uw.anss.org/Arrival/UW/6414588</pickID>
          <phase>S</phase>
          <azimuth>172.8</azimuth>
          <distance>2.035</distance>
          <timeResidual>-1.87</timeResidual>
          <creationInfo>
            <agencyID>UW</agencyID>
            <creationTime>2012-02-28T14:25:16.000000Z</creationTime>
          </creationInfo>
        </arrival>
        <arrival publicID="quakeml:uw.anss.org/AssocArO/UW/6414593">
          <pickID>quakeml:uw.anss.org/Arrival/UW/6414593</pickID>
          <phase>P</phase>
          <azimuth>169.1</azimuth>
          <distance>1.334</distance>
          <timeResidual>-0.08</timeResidual>
          <creationInfo>
            <agencyID>UW</agencyID>
            <creationTime>2012-02-28T14:25:16.000000Z</creationTime>
          </creationInfo>
        </arrival>
        <arrival publicID="quakeml:uw.anss.org/AssocArO/UW/6414598">
          <pickID>quakeml:uw.anss.org/Arrival/UW/6414598</pickID>
          <phase>S</phase>
          <azimuth>168.0</azimuth>
          <distance>2.117</distance>
          <timeResidual>-1.59</timeResidual>
          <creationInfo>
            <agencyID>UW</agencyID>
            <creationTime>2012-02-28T14:25:16.000000Z</creationTime>
          </creationInfo>
        </arrival>
        <arrival publicID="quakeml:uw.anss.org/AssocArO/UW/6414603">
          <pickID>quakeml:uw.anss.org/Arrival/UW/6414603</pickID>
          <phase>P</phase>
          <azimuth>162.9</azimuth>
          <distance>1.124</distance>
          <timeResidual>0.05</timeResidual>
          <creationInfo>
            <agencyID>UW</agencyID>
            <creationTime>2012-02-28T14:25:17.000000Z</creationTime>
          </creationInfo>
        </arrival>
        <arrival publicID="quakeml:uw.anss.org/AssocArO/UW/6414608">
          <pickID>quakeml:uw.anss.org/Arrival/UW/6414608</pickID>
          <phase>S</phase>
          <azimuth>162.9</azimuth>
          <distance>1.124</distance>
          <timeResidual>-0.91</timeResidual>
          <creationInfo>
            <agencyID>UW</agencyID>
            <creationTime>2012-02-28T14:25:17.000000Z</creationTime>
          </creationInfo>
        </arrival>
        <arrival publicID="quakeml:uw.anss.org/AssocArO/UW/6414613">
          <pickID>quakeml:uw.anss.org/Arrival/UW/6414613</pickID>
          <phase>P</phase>
          <azimuth>161.7</azimuth>
          <distance>1.833</distance>
          <timeResidual>0.7</timeResidual>
          <creationInfo>
            <agencyID>UW</agencyID>
            <creationTime>2012-02-28T14:25:17.000000Z</creationTime>
          </creationInfo>
        </arrival>
        <arrival publicID="quakeml:uw.anss.org/AssocArO/UW/6414618">
          <pickID>quakeml:uw.anss.org/Arrival/UW/6414618</pickID>
          <phase>P</phase>
          <azimuth>196.6</azimuth>
          <distance>0.9888</distance>
          <timeResidual>-0.07</timeResidual>
          <creationInfo>
            <agencyID>UW</agencyID>
            <creationTime>2012-02-28T14:25:17.000000Z</creationTime>
          </creationInfo>
        </arrival>
        <arrival publicID="quakeml:uw.anss.org/AssocArO/UW/6414623">
          <pickID>quakeml:uw.anss.org/Arrival/UW/6414623</pickID>
          <phase>S</phase>
          <azimuth>179.3</azimuth>
          <distance>2.527</distance>
          <timeResidual>0.07</timeResidual>
          <creationInfo>
            <agencyID>UW</agencyID>
            <creationTime>2012-02-28T14:25:17.000000Z</creationTime>
          </creationInfo>
        </arrival>
        <arrival publicID="quakeml:uw.anss.org/AssocArO/UW/6414628">
          <pickID>quakeml:uw.anss.org/Arrival/UW/6414628</pickID>
          <phase>P</phase>
          <azimuth>207.8</azimuth>
          <distance>0.5042</distance>
          <timeResidual>0.16</timeResidual>
          <creationInfo>
            <agencyID>UW</agencyID>
            <creationTime>2012-02-28T14:25:17.000000Z</creationTime>
          </creationInfo>
        </arrival>
        <arrival publicID="quakeml:uw.anss.org/AssocArO/UW/6414633">
          <pickID>quakeml:uw.anss.org/Arrival/UW/6414633</pickID>
          <phase>S</phase>
          <azimuth>207.8</azimuth>
          <distance>0.5042</distance>
          <timeResidual>0.56</timeResidual>
          <creationInfo>
            <agencyID>UW</agencyID>
            <creationTime>2012-02-28T14:25:17.000000Z</creationTime>
          </creationInfo>
        </arrival>
        <arrival publicID="quakeml:uw.anss.org/AssocArO/UW/6414638">
          <pickID>quakeml:uw.anss.org/Arrival/UW/6414638</pickID>
          <phase>P</phase>
          <azimuth>227.4</azimuth>
          <distance>1.395</distance>
          <timeResidual>1.66</timeResidual>
          <creationInfo>
            <agencyID>UW</agencyID>
            <creationTime>2012-02-28T14:25:17.000000Z</creationTime>
          </creationInfo>
        </arrival>
        <arrival publicID="quakeml:uw.anss.org/AssocArO/UW/6414643">
          <pickID>quakeml:uw.anss.org/Arrival/UW/6414643</pickID>
          <phase>P</phase>
          <azimuth>163.7</azimuth>
          <timeResidual>-0.31</timeResidual>
          <creationInfo>
            <agencyID>UW</agencyID>
            <creationTime>2012-02-28T14:25:17.000000Z</creationTime>
          </creationInfo>
        </arrival>
        <arrival publicID="quakeml:uw.anss.org/AssocArO/UW/6414648">
          <pickID>quakeml:uw.anss.org/Arrival/UW/6414648</pickID>
          <phase>S</phase>
          <azimuth>163.7</azimuth>
          <timeResidual>0.78</timeResidual>
          <creationInfo>
            <agencyID>UW</agencyID>
            <creationTime>2012-02-28T14:25:17.000000Z</creationTime>
          </creationInfo>
        </arrival>
        <arrival publicID="quakeml:uw.anss.org/AssocArO/UW/6414653">
          <pickID>quakeml:uw.anss.org/Arrival/UW/6414653</pickID>
          <phase>P</phase>
          <azimuth>149.2</azimuth>
          <distance>2.154</distance>
          <timeResidual>0.54</timeResidual>
          <creationInfo>
            <agencyID>UW</agencyID>
            <creationTime>2012-02-28T14:25:17.000000Z</creationTime>
          </creationInfo>
        </arrival>
        <arrival publicID="quakeml:uw.anss.org/AssocArO/UW/6414658">
          <pickID>quakeml:uw.anss.org/Arrival/UW/6414658</pickID>
          <phase>S</phase>
          <azimuth>145.7</azimuth>
          <distance>1.825</distance>
          <timeResidual>-0.31</timeResidual>
          <creationInfo>
            <agencyID>UW</agencyID>
            <creationTime>2012-02-28T14:25:17.000000Z</creationTime>
          </creationInfo>
        </arrival>
        <arrival publicID="quakeml:uw.anss.org/AssocArO/UW/6414663">
          <pickID>quakeml:uw.anss.org/Arrival/UW/6414663</pickID>
          <phase>P</phase>
          <azimuth>115.2</azimuth>
          <distance>1.786</distance>
          <timeResidual>1.24</timeResidual>
          <creationInfo>
            <agencyID>UW</agencyID>
            <creationTime>2012-02-28T14:25:17.000000Z</creationTime>
          </creationInfo>
        </arrival>
        <arrival publicID="quakeml:uw.anss.org/AssocArO/UW/6414668">
          <pickID>quakeml:uw.anss.org/Arrival/UW/6414668</pickID>
          <phase>P</phase>
          <azimuth>238.5</azimuth>
          <timeResidual>-0.55</timeResidual>
          <creationInfo>
            <agencyID>UW</agencyID>
            <creationTime>2012-02-28T14:25:17.000000Z</creationTime>
          </creationInfo>
        </arrival>
        <arrival publicID="quakeml:uw.anss.org/AssocArO/UW/6414673">
          <pickID>quakeml:uw.anss.org/Arrival/UW/6414673</pickID>
          <phase>P</phase>
          <azimuth>85.3</azimuth>
          <distance>0.185</distance>
          <timeResidual>0.05</timeResidual>
          <creationInfo>
            <agencyID>UW</agencyID>
            <creationTime>2012-02-28T14:25:17.000000Z</creationTime>
          </creationInfo>
        </arrival>
        <arrival publicID="quakeml:uw.anss.org/AssocArO/UW/6414678">
          <pickID>quakeml:uw.anss.org/Arrival/UW/6414678</pickID>
          <phase>P</phase>
          <azimuth>164.0</azimuth>
          <distance>1.004</distance>
          <timeResidual>-0.03</timeResidual>
          <creationInfo>
            <agencyID>UW</agencyID>
            <creationTime>2012-02-28T14:25:17.000000Z</creationTime>
          </creationInfo>
        </arrival>
        <arrival publicID="quakeml:uw.anss.org/AssocArO/UW/6414683">
          <pickID>quakeml:uw.anss.org/Arrival/UW/6414683</pickID>
          <phase>S</phase>
          <azimuth>164.0</azimuth>
          <distance>1.004</distance>
          <timeResidual>0.13</timeResidual>
          <creationInfo>
            <agencyID>UW</agencyID>
            <creationTime>2012-02-28T14:25:17.000000Z</creationTime>
          </creationInfo>
        </arrival>
        <arrival publicID="quakeml:uw.anss.org/AssocArO/UW/6414688">
          <pickID>quakeml:uw.anss.org/Arrival/UW/6414688</pickID>
          <phase>P</phase>
          <azimuth>233.0</azimuth>
          <distance>1.695</distance>
          <timeResidual>0.37</timeResidual>
          <creationInfo>
            <agencyID>UW</agencyID>
            <creationTime>2012-02-28T14:25:17.000000Z</creationTime>
          </creationInfo>
        </arrival>
        <arrival publicID="quakeml:uw.anss.org/AssocArO/UW/6414693">
