<?xml version='1.0' encoding='utf-8'?>
<q:quakeml xmlns="http://quakeml.org/xmlns/bed/1.2" xmlns:q="http://quakeml.org/xmlns/quakeml/1.2" xmlns:ns0="http://anss.org/xmlns/catalog/0.1">
  <eventParameters publicID="smi:local/e6d36d7c-713c-46c5-8fcb-159058509cff">
    <event publicID="quakeml:uw.anss.org/Event/UW/10462473" ns0:datasource="uw" ns0:dataid="uw10462473" ns0:eventsource="uw" ns0:eventid="10462473">
      <preferredOriginID>quakeml:uw.anss.org/Origin/UW/739898</preferredOriginID>
      <preferredMagnitudeID>quakeml:uw.anss.org/Netmag/UW/608293</preferredMagnitudeID>
      <type>earthquake</type>
      <creationInfo>
        <agencyID>UW</agencyID>
        <creationTime>2012-02-28T15:12:04.000000Z</creationTime>
        <version>3</version>
      </creationInfo>
      <origin publicID="quakeml:uw.anss.org/Origin/UW/739898" ns0:datasource="uw" ns0:dataid="uw10462473" ns0:eventsource="uw" ns0:eventid="10462473">
        <time>
          <value>1998-11-20T17:39:20.200000Z</value>
          <uncertainty>0.41</uncertainty>
        </time>
        <latitude>
          <value>48.848</value>
          <uncertainty>0.71</uncertainty>
        </latitude>
        <longitude>
          <value>-122.1883333</value>
          <uncertainty>0.8</uncertainty>
        </longitude>
        <depth>
          <value>734.0</value>
          <uncertainty>3560.0</uncertainty>
        </depth>
        <depthType>operator assigned</depthType>
        <timeFixed>false</timeFixed>
        <epicenterFixed>true</epicenterFixed>
        <methodID>smi:uw.anss.org/origin/spong</methodID>
        <quality>
          <associatedPhaseCount>59</associatedPhaseCount>
          <usedPhaseCount>35</usedPhaseCount>
          <associatedStationCount>46</associatedStationCount>
          <usedStationCount>0</usedStationCount>
          <standardError>0.43</standardError>
          <azimuthalGap>90.0</azimuthalGap>
        </quality>
        <type>hypocenter</type>
        <evaluationMode>manual</evaluationMode>
        <evaluationStatus>final</evaluationStatus>
        <creationInfo>
          <agencyID>UW</agencyID>
          <creationTime>2012-02-28T15:12:04.000000Z</creationTime>
        </creationInfo>
        <originUncertainty>
          <preferredDescription>horizontal uncertainty</preferredDescription>
          <horizontalUncertainty>1070.0</horizontalUncertainty>
        </originUncertainty>
        <arrival publicID="quakeml:uw.anss.org/AssocArO/UW/6764338">
          <pickID>quakeml:uw.anss.org/Arrival/UW/6764338</pickID>
          <phase>P</phase>
          <azimuth>288.2</azimuth>
          <distance>1.252</distance>
          <timeResidual>-0.36</timeResidual>
          <creationInfo>
            <agencyID>UW</agencyID>
            <creationTime>2012-02-28T15:12:04.000000Z</creationTime>
          </creationInfo>
        </arrival>
        <arrival publicID="quakeml:uw.anss.org/AssocArO/UW/6764343">
          <pickID>quakeml:uw.anss.org/Arrival/UW/6764343</pickID>
          <phase>S</phase>
          <azimuth>288.2</azimuth>
          <distance>1.252</distance>
          <timeResidual>-1.03</timeResidual>
          <creationInfo>
            <agencyID>UW</agencyID>
            <creationTime>2012-02-28T15:12:04.000000Z</creationTime>
          </creationInfo>
        </arrival>
        <arrival publicID="quakeml:uw.anss.org/AssocArO/UW/6764348">
          <pickID>quakeml:uw.anss.org/Arrival/UW/6764348</pickID>
          <phase>P</phase>
          <azimuth>206.0</azimuth>
          <distance>1.333</distance>
          <timeResidual>0.04</timeResidual>
          <creationInfo>
            <agencyID>UW</agencyID>
            <creationTime>2012-02-28T15:12:04.000000Z</creationTime>
          </creationInfo>
        </arrival>
        <arrival publicID="quakeml:uw.anss.org/AssocArO/UW/6764353">
          <pickID>quakeml:uw.anss.org/Arrival/UW/6764353</pickID>
          <phase>S</phase>
          <azimuth>206.0</azimuth>
          <distance>1.333</distance>
          <timeResidual>-0.04</timeResidual>
          <creationInfo>
            <agencyID>UW</agencyID>
            <creationTime>2012-02-28T15:12:04.000000Z</creationTime>
          </creationInfo>
        </arrival>
        <arrival publicID="quakeml:uw.anss.org/AssocArO/UW/6764358">
          <pickID>quakeml:uw.anss.org/Arrival/UW/6764358</pickID>
          <phase>P</phase>
          <azimuth>121.7</azimuth>
          <distance>1.455</distance>
          <timeResidual>0.87</timeResidual>
          <creationInfo>
            <agencyID>UW</agencyID>
            <creationTime>2012-02-28T15:12:04.000000Z</creationTime>
          </creationInfo>
        </arrival>
        <arrival publicID="quakeml:uw.anss.org/AssocArO/UW/6764363">
          <pickID>quakeml:uw.anss.org/Arrival/UW/6764363</pickID>
          <phase>S</phase>
          <azimuth>121.7</azimuth>
          <distance>1.455</distance>
          <timeResidual>1.16</timeResidual>
          <creationInfo>
            <agencyID>UW</agencyID>
            <creationTime>2012-02-28T15:12:04.000000Z</creationTime>
          </creationInfo>
        </arrival>
        <arrival publicID="quakeml:uw.anss.org/AssocArO/UW/6764368">
          <pickID>quakeml:uw.anss.org/Arrival/UW/6764368</pickID>
          <phase>P</phase>
          <azimuth>329.2</azimuth>
          <distance>0.4983</distance>
          <timeResidual>0.24</timeResidual>
          <creationInfo>
            <agencyID>UW</agencyID>
            <creationTime>2012-02-28T15:12:04.000000Z</creationTime>
          </creationInfo>
        </arrival>
        <arrival publicID="quakeml:uw.anss.org/AssocArO/UW/6764373">
          <pickID>quakeml:uw.anss.org/Arrival/UW/6764373</pickID>
          <phase>S</phase>
          <azimuth>198.5</azimuth>
          <distance>1.354</distance>
          <timeResidual>-0.78</timeResidual>
          <creationInfo>
            <agencyID>UW</agencyID>
            <creationTime>2012-02-28T15:12:04.000000Z</creationTime>
          </creationInfo>
        </arrival>
        <arrival publicID="quakeml:uw.anss.org/AssocArO/UW/6764378">
          <pickID>quakeml:uw.anss.org/Arrival/UW/6764378</pickID>
          <phase>P</phase>
          <azimuth>173.3</azimuth>
          <timeResidual>0.14</timeResidual>
          <creationInfo>
            <agencyID>UW</agencyID>
            <creationTime>2012-02-28T15:12:04.000000Z</creationTime>
          </creationInfo>
        </arrival>
        <arrival publicID="quakeml:uw.anss.org/AssocArO/UW/6764383">
          <pickID>quakeml:uw.anss.org/Arrival/UW/6764383</pickID>
          <phase>P</phase>
          <azimuth>163.8</azimuth>
          <distance>1.201</distance>
          <timeResidual>0.34</timeResidual>
          <creationInfo>
            <agencyID>UW</agencyID>
            <creationTime>2012-02-28T15:12:04.000000Z</creationTime>
          </creationInfo>
        </arrival>
        <arrival publicID="quakeml:uw.anss.org/AssocArO/UW/6764388">
          <pickID>quakeml:uw.anss.org/Arrival/UW/6764388</pickID>
          <phase>S</phase>
          <azimuth>163.8</azimuth>
          <distance>1.201</distance>
          <timeResidual>0.07</timeResidual>
          <creationInfo>
            <agencyID>UW</agencyID>
            <creationTime>2012-02-28T15:12:04.000000Z</creationTime>
          </creationInfo>
        </arrival>
        <arrival publicID="quakeml:uw.anss.org/AssocArO/UW/6764393">
          <pickID>quakeml:uw.anss.org/Arrival/UW/6764393</pickID>
          <phase>P</phase>
          <azimuth>172.9</azimuth>
          <timeResidual>-0.17</timeResidual>
          <creationInfo>
            <agencyID>UW</agencyID>
            <creationTime>2012-02-28T15:12:04.000000Z</creationTime>
          </creationInfo>
        </arrival>
        <arrival publicID="quakeml:uw.anss.org/AssocArO/UW/6764398">
          <pickID>quakeml:uw.anss.org/Arrival/UW/6764398</pickID>
          <phase>S</phase>
          <azimuth>172.9</azimuth>
          <timeResidual>-0.88</timeResidual>
          <creationInfo>
            <agencyID>UW</agencyID>
            <creationTime>2012-02-28T15:12:04.000000Z</creationTime>
          </creationInfo>
        </arrival>
        <arrival publicID="quakeml:uw.anss.org/AssocArO/UW/6764403">
          <pickID>quakeml:uw.anss.org/Arrival/UW/6764403</pickID>
          <phase>P</phase>
          <azimuth>171.0</azimuth>
          <distance>2.002</distance>
          <timeResidual>0.3</timeResidual>
          <creationInfo>
            <agencyID>UW</agencyID>
            <creationTime>2012-02-28T15:12:04.000000Z</creationTime>
          </creationInfo>
        </arrival>
        <arrival publicID="quakeml:uw.anss.org/AssocArO/UW/6764408">
          <pickID>quakeml:uw.anss.org/Arrival/UW/6764408</pickID>
          <phase>S</phase>
          <azimuth>171.0</azimuth>
          <distance>2.002</distance>
          <timeResidual>0.06</timeResidual>
          <creationInfo>
            <agencyID>UW</agencyID>
            <creationTime>2012-02-28T15:12:04.000000Z</creationTime>
          </creationInfo>
        </arrival>
        <arrival publicID="quakeml:uw.anss.org/AssocArO/UW/6764413">
          <pickID>quakeml:uw.anss.org/Arrival/UW/6764413</pickID>
          <phase>P</phase>
          <azimuth>216.4</azimuth>
          <distance>0.4898</distance>
          <timeResidual>0.0</timeResidual>
          <creationInfo>
            <agencyID>UW</agencyID>
            <creationTime>2012-02-28T15:12:04.000000Z</creationTime>
          </creationInfo>
        </arrival>
        <arrival publicID="quakeml:uw.anss.org/AssocArO/UW/6764418">
          <pickID>quakeml:uw.anss.org/Arrival/UW/6764418</pickID>
          <phase>P</phase>
          <azimuth>216.4</azimuth>
          <distance>0.4898</distance>
          <timeResidual>0.43</timeResidual>
          <creationInfo>
            <agencyID>UW</agencyID>
            <creationTime>2012-02-28T15:12:04.000000Z</creationTime>
          </creationInfo>
        </arrival>
        <arrival publicID="quakeml:uw.anss.org/AssocArO/UW/6764423">
          <pickID>quakeml:uw.anss.org/Arrival/UW/6764423</pickID>
          <phase>S</phase>
          <azimuth>216.4</azimuth>
          <distance>0.4898</distance>
          <timeResidual>0.55</timeResidual>
          <creationInfo>
            <agencyID>UW</agencyID>
            <creationTime>2012-02-28T15:12:04.000000Z</creationTime>
          </creationInfo>
        </arrival>
        <arrival publicID="quakeml:uw.anss.org/AssocArO/UW/6764428">
          <pickID>quakeml:uw.anss.org/Arrival/UW/6764428</pickID>
          <phase>P</phase>
          <azimuth>152.2</azimuth>
          <distance>1.927</distance>
          <timeResidual>1.67</timeResidual>
          <creationInfo>
            <agencyID>UW</agencyID>
            <creationTime>2012-02-28T15:12:04.000000Z</creationTime>
          </creationInfo>
        </arrival>
        <arrival publicID="quakeml:uw.anss.org/AssocArO/UW/6764433">
          <pickID>quakeml:uw.anss.org/Arrival/UW/6764433</pickID>
          <phase>P</phase>
          <azimuth>173.9</azimuth>
          <distance>0.4272</distance>
          <timeResidual>-0.77</timeResidual>
          <creationInfo>
            <agencyID>UW</agencyID>
            <creationTime>2012-02-28T15:12:04.000000Z</creationTime>
          </creationInfo>
        </arrival>
        <arrival publicID="quakeml:uw.anss.org/AssocArO/UW/6764438">
          <pickID>quakeml:uw.anss.org/Arrival/UW/6764438</pickID>
          <phase>P</phase>
          <distance>1.525</distance>
          <timeResidual>-0.85</timeResidual>
          <creationInfo>
            <agencyID>UW</agencyID>
            <creationTime>2012-02-28T15:12:04.000000Z</creationTime>
          </creationInfo>
        </arrival>
        <arrival publicID="quakeml:uw.anss.org/AssocArO/UW/6764443">
          <pickID>quakeml:uw.anss.org/Arrival/UW/6764443</pickID>
          <phase>P</phase>
          <azimuth>172.9</azimuth>
          <distance>2.114</distance>
          <timeResidual>-0.23</timeResidual>
          <creationInfo>
            <agencyID>UW</agencyID>
            <creationTime>2012-02-28T15:12:04.000000Z</creationTime>
          </creationInfo>
        </arrival>
        <arrival publicID="quakeml:uw.anss.org/AssocArO/UW/6764448">
          <pickID>quakeml:uw.anss.org/Arrival/UW/6764448</pickID>
          <phase>P</phase>
          <distance>0.8596</distance>
          <timeResidual>0.11</timeResidual>
          <creationInfo>
            <agencyID>UW</agencyID>
            <creationTime>2012-02-28T15:12:04.000000Z</creationTime>
          </creationInfo>
        </arrival>
        <arrival publicID="quakeml:uw.anss.org/AssocArO/UW/6764453">
          <pickID>quakeml:uw.anss.org/Arrival/UW/6764453</pickID>
          <phase>S</phase>
          <distance>0.8596</distance>
          <timeResidual>0.62</timeResidual>
          <creationInfo>
            <agencyID>UW</agencyID>
            <creationTime>2012-02-28T15:12:04.000000Z</creationTime>
          </creationInfo>
        </arrival>
        <arrival publicID="quakeml:uw.anss.org/AssocArO/UW/6764458">
          <pickID>quakeml:uw.anss.org/Arrival/UW/6764458</pickID>
          <phase>P</phase>
          <azimuth>131.7</azimuth>
          <distance>0.5997</distance>
          <timeResidual>-0.19</timeResidual>
          <creationInfo>
            <agencyID>UW</agencyID>
            <creationTime>2012-02-28T15:12:04.000000Z</creationTime>
          </creationInfo>
        </arrival>
        <arrival publicID="quakeml:uw.anss.org/AssocArO/UW/6764463">
          <pickID>quakeml:uw.anss.org/Arrival/UW/6764463</pickID>
          <phase>S</phase>
          <azimuth>168.3</azimuth>
          <distance>2.195</distance>
          <timeResidual>-1.01</timeResidual>
          <creationInfo>
            <agencyID>UW</agencyID>
            <creationTime>2012-02-28T15:12:04.000000Z</creationTime>
          </creationInfo>
        </arrival>
        <arrival publicID="quakeml:uw.anss.org/AssocArO/UW/6764468">
          <pickID>quakeml:uw.anss.org/Arrival/UW/6764468</pickID>
          <phase>P</phase>
          <azimuth>307.9</azimuth>
          <distance>0.9274</distance>
          <timeResidual>-0.07</timeResidual>
          <creationInfo>
            <agencyID>UW</agencyID>
            <creationTime>2012-02-28T15:12:04.000000Z</creationTime>
          </creationInfo>
        </arrival>
        <arrival publicID="quakeml:uw.anss.org/AssocArO/UW/6764473">
          <pickID>quakeml:uw.anss.org/Arrival/UW/6764473</pickID>
          <phase>S</phase>
          <azimuth>307.9</azimuth>
          <distance>0.9274</distance>
          <timeResidual>-0.67</timeResidual>
          <creationInfo>
            <agencyID>UW</agencyID>
            <creationTime>2012-02-28T15:12:04.000000Z</creationTime>
          </creationInfo>
        </arrival>
        <arrival publicID="quakeml:uw.anss.org/AssocArO/UW/6764478">
          <pickID>quakeml:uw.anss.org/Arrival/UW/6764478</pickID>
          <phase>P</phase>
          <azimuth>300.9</azimuth>
          <distance>1.701</distance>
          <timeResidual>-0.22</timeResidual>
          <creationInfo>
            <agencyID>UW</agencyID>
            <creationTime>2012-02-28T15:12:04.000000Z</creationTime>
          </creationInfo>
        </arrival>
        <arrival publicID="quakeml:uw.anss.org/AssocArO/UW/6764483">
          <pickID>quakeml:uw.anss.org/Arrival/UW/6764483</pickID>
          <phase>P</phase>
          <azimuth>195.1</azimuth>
          <distance>1.063</distance>
          <timeResidual>0.29</timeResidual>
          <creationInfo>
            <agencyID>UW</agencyID>
            <creationTime>2012-02-28T15:12:04.000000Z</creationTime>
          </creationInfo>
        </arrival>
        <arrival publicID="quakeml:uw.anss.org/AssocArO/UW/6764488">
          <pickID>quakeml:uw.anss.org/Arrival/UW/6764488</pickID>
          <phase>P</phase>
          <azimuth>150.1</azimuth>
          <distance>2.225</distance>
          <timeResidual>1.13</timeResidual>
          <creationInfo>
            <agencyID>UW</agencyID>
            <creationTime>2012-02-28T15:12:04.000000Z</creationTime>
          </creationInfo>
        </arrival>
        <arrival publicID="quakeml:uw.anss.org/AssocArO/UW/6764493">
          <pickID>quakeml:uw.anss.org/Arrival/UW/6764493</pickID>
          <phase>P</phase>
          <azimuth>203.6</azimuth>
          <distance>0.573</distance>
          <timeResidual>0.42</timeResidual>
          <creationInfo>
            <agencyID>UW</agencyID>
            <creationTime>2012-02-28T15:12:04.000000Z</creationTime>
          </creationInfo>
        </arrival>
        <arrival publicID="quakeml:uw.anss.org/AssocArO/UW/6764498">
          <pickID>quakeml:uw.anss.org/Arrival/UW/6764498</pickID>
          <phase>P</phase>
          <azimuth>120.7</azimuth>
          <distance>2.187</distance>
          <timeResidual>2.82</timeResidual>
          <creationInfo>
            <agencyID>UW</agencyID>
            <creationTime>2012-02-28T15:12:04.000000Z</creationTime>
          </creationInfo>
        </arrival>
        <arrival publicID="quakeml:uw.anss.org/AssocArO/UW/6764503">
          <pickID>quakeml:uw.anss.org/Arrival/UW/6764503</pickID>
          <phase>P</phase>
          <azimuth>320.6</azimuth>
          <distance>1.043</distance>
          <timeResidual>0.23</timeResidual>
          <creationInfo>
            <agencyID>UW</agencyID>
            <creationTime>2012-02-28T15:12:04.000000Z</creationTime>
          </creationInfo>
        </arrival>
        <arrival publicID="quakeml:uw.anss.org/AssocArO/UW/6764508">
          <pickID>quakeml:uw.anss.org/Arrival/UW/6764508</pickID>
          <phase>S</phase>
          <azimuth>320.6</azimuth>
          <distance>1.043</distance>
          <timeResidual>-0.46</timeResidual>
          <creationInfo>
            <agencyID>UW</agencyID>
            <creationTime>2012-02-28T15:12:04.000000Z</creationTime>
          </creationInfo>
        </arrival>
        <arrival publicID="quakeml:uw.anss.org/AssocArO/UW/6764513">
          <pickID>quakeml:uw.anss.org/Arrival/UW/6764513</pickID>
          <phase>P</phase>
          <azimuth>165.1</azimuth>
          <timeResidual>-0.18</timeResidual>
          <creationInfo>
            <agencyID>UW</agencyID>
            <creationTime>2012-02-28T15:12:04.000000Z</creationTime>
          </creationInfo>
        </arrival>
        <arrival publicID="quakeml:uw.anss.org/AssocArO/UW/6764518">
          <pickID>quakeml:uw.anss.org/Arrival/UW/6764518</pickID>
          <phase>S</phase>
          <azimuth>165.1</azimuth>
          <timeResidual>1.44</timeResidual>
          <creationInfo>
            <agencyID>UW</agencyID>
            <creationTime>2012-02-28T15:12:04.000000Z</creationTime>
          </creationInfo>
        </arrival>
        <arrival publicID="quakeml:uw.anss.org/AssocArO/UW/6764523">
          <pickID>quakeml:uw.anss.org/Arrival/UW/6764523</pickID>
          <phase>P</phase>
          <azimuth>134.5</azimuth>
          <distance>1.757</distance>
          <timeResidual>1.53</timeResidual>
          <creationInfo>
            <agencyID>UW</agencyID>
            <creationTime>2012-02-28T15:12:04.000000Z</creationTime>
          </creationInfo>
        </arrival>
        <arrival publicID="quakeml:uw.anss.org/AssocArO/UW/6764528">
          <pickID>quakeml:uw.anss.org/Arrival/UW/6764528</pickID>
          <phase>P</phase>
          <azimuth>212.1</azimuth>
          <distance>0.9909</distance>
          <timeResidual>0.33</timeResidual>
          <creationInfo>
            <agencyID>UW</agencyID>
            <creationTime>2012-02-28T15:12:04.000000Z</creationTime>
          </creationInfo>
        </arrival>
        <arrival publicID="quakeml:uw.anss.org/AssocArO/UW/6764533">
          <pickID>quakeml:uw.anss.org/Arrival/UW/6764533</pickID>
          <phase>P</phase>
