<?xml version='1.0' encoding='utf-8'?>
<q:quakeml xmlns="http://quakeml.org/xmlns/bed/1.2" xmlns:q="http://quakeml.org/xmlns/quakeml/1.2" xmlns:ns0="http://anss.org/xmlns/catalog/0.1">
  <eventParameters publicID="smi:local/a11c548d-aef6-456a-8306-1016ab44b7fb">
    <event publicID="quakeml:uw.anss.org/Event/UW/10457788" ns0:datasource="uw" ns0:dataid="uw10457788" ns0:eventsource="uw" ns0:eventid="10457788">
      <preferredOriginID>quakeml:uw.anss.org/Origin/UW/735213</preferredOriginID>
      <preferredMagnitudeID>quakeml:uw.anss.org/Netmag/UW/605088</preferredMagnitudeID>
      <type>earthquake</type>
      <creationInfo>
        <agencyID>UW</agencyID>
        <creationTime>2012-02-28T15:05:20.000000Z</creationTime>
        <version>3</version>
      </creationInfo>
      <origin publicID="quakeml:uw.anss.org/Origin/UW/735213" ns0:datasource="uw" ns0:dataid="uw10457788" ns0:eventsource="uw" ns0:eventid="10457788">
        <time>
          <value>1998-08-25T16:07:19.170000Z</value>
          <uncertainty>0.12</uncertainty>
        </time>
        <latitude>
          <value>48.5573333</value>
          <uncertainty>0.9</uncertainty>
        </latitude>
        <longitude>
          <value>-122.2901667</value>
          <uncertainty>0.95</uncertainty>
        </longitude>
        <depth>
          <value>3739.0</value>
          <uncertainty>3850.0</uncertainty>
        </depth>
        <depthType>operator assigned</depthType>
        <timeFixed>false</timeFixed>
        <epicenterFixed>true</epicenterFixed>
        <methodID>smi:uw.anss.org/origin/spong</methodID>
        <quality>
          <associatedPhaseCount>27</associatedPhaseCount>
          <usedPhaseCount>16</usedPhaseCount>
          <associatedStationCount>18</associatedStationCount>
          <usedStationCount>0</usedStationCount>
          <standardError>0.33</standardError>
          <azimuthalGap>120.0</azimuthalGap>
        </quality>
        <type>hypocenter</type>
        <evaluationMode>manual</evaluationMode>
        <evaluationStatus>final</evaluationStatus>
        <creationInfo>
          <agencyID>UW</agencyID>
          <creationTime>2012-02-28T15:05:20.000000Z</creationTime>
        </creationInfo>
        <originUncertainty>
          <preferredDescription>horizontal uncertainty</preferredDescription>
          <horizontalUncertainty>1309.0</horizontalUncertainty>
        </originUncertainty>
        <arrival publicID="quakeml:uw.anss.org/AssocArO/UW/6716843">
          <pickID>quakeml:uw.anss.org/Arrival/UW/6716843</pickID>
          <phase>P</phase>
          <azimuth>209.6</azimuth>
          <distance>1.044</distance>
          <timeResidual>-0.5</timeResidual>
          <creationInfo>
            <agencyID>UW</agencyID>
            <creationTime>2012-02-28T15:05:20.000000Z</creationTime>
          </creationInfo>
        </arrival>
        <arrival publicID="quakeml:uw.anss.org/AssocArO/UW/6716848">
          <pickID>quakeml:uw.anss.org/Arrival/UW/6716848</pickID>
          <phase>S</phase>
          <azimuth>209.6</azimuth>
          <distance>1.044</distance>
          <timeResidual>-0.53</timeResidual>
          <creationInfo>
            <agencyID>UW</agencyID>
            <creationTime>2012-02-28T15:05:20.000000Z</creationTime>
          </creationInfo>
        </arrival>
        <arrival publicID="quakeml:uw.anss.org/AssocArO/UW/6716853">
          <pickID>quakeml:uw.anss.org/Arrival/UW/6716853</pickID>
          <phase>S</phase>
          <azimuth>169.7</azimuth>
          <distance>1.837</distance>
          <timeResidual>-1.66</timeResidual>
          <creationInfo>
            <agencyID>UW</agencyID>
            <creationTime>2012-02-28T15:05:20.000000Z</creationTime>
          </creationInfo>
        </arrival>
        <arrival publicID="quakeml:uw.anss.org/AssocArO/UW/6716858">
          <pickID>quakeml:uw.anss.org/Arrival/UW/6716858</pickID>
          <phase>P</phase>
          <azimuth>48.5</azimuth>
          <distance>0.3434</distance>
          <timeResidual>-0.01</timeResidual>
          <creationInfo>
            <agencyID>UW</agencyID>
            <creationTime>2012-02-28T15:05:20.000000Z</creationTime>
          </creationInfo>
        </arrival>
        <arrival publicID="quakeml:uw.anss.org/AssocArO/UW/6716863">
          <pickID>quakeml:uw.anss.org/Arrival/UW/6716863</pickID>
          <phase>S</phase>
          <azimuth>48.5</azimuth>
          <distance>0.3434</distance>
          <timeResidual>0.61</timeResidual>
          <creationInfo>
            <agencyID>UW</agencyID>
            <creationTime>2012-02-28T15:05:20.000000Z</creationTime>
          </creationInfo>
        </arrival>
        <arrival publicID="quakeml:uw.anss.org/AssocArO/UW/6716868">
          <pickID>quakeml:uw.anss.org/Arrival/UW/6716868</pickID>
          <phase>P</phase>
          <azimuth>163.4</azimuth>
          <distance>1.146</distance>
          <timeResidual>0.31</timeResidual>
          <creationInfo>
            <agencyID>UW</agencyID>
            <creationTime>2012-02-28T15:05:20.000000Z</creationTime>
          </creationInfo>
        </arrival>
        <arrival publicID="quakeml:uw.anss.org/AssocArO/UW/6716873">
          <pickID>quakeml:uw.anss.org/Arrival/UW/6716873</pickID>
          <phase>S</phase>
          <azimuth>163.4</azimuth>
          <distance>1.146</distance>
          <timeResidual>-0.1</timeResidual>
          <creationInfo>
            <agencyID>UW</agencyID>
            <creationTime>2012-02-28T15:05:20.000000Z</creationTime>
          </creationInfo>
        </arrival>
        <arrival publicID="quakeml:uw.anss.org/AssocArO/UW/6716878">
          <pickID>quakeml:uw.anss.org/Arrival/UW/6716878</pickID>
          <phase>P</phase>
          <azimuth>144.2</azimuth>
          <distance>2.018</distance>
          <timeResidual>0.76</timeResidual>
          <creationInfo>
            <agencyID>UW</agencyID>
            <creationTime>2012-02-28T15:05:20.000000Z</creationTime>
          </creationInfo>
        </arrival>
        <arrival publicID="quakeml:uw.anss.org/AssocArO/UW/6716883">
          <pickID>quakeml:uw.anss.org/Arrival/UW/6716883</pickID>
          <phase>P</phase>
          <azimuth>151.0</azimuth>
          <distance>2.077</distance>
          <timeResidual>1.59</timeResidual>
          <creationInfo>
            <agencyID>UW</agencyID>
            <creationTime>2012-02-28T15:05:20.000000Z</creationTime>
          </creationInfo>
        </arrival>
        <arrival publicID="quakeml:uw.anss.org/AssocArO/UW/6716888">
          <pickID>quakeml:uw.anss.org/Arrival/UW/6716888</pickID>
          <phase>P</phase>
          <azimuth>165.3</azimuth>
          <timeResidual>-0.35</timeResidual>
          <creationInfo>
            <agencyID>UW</agencyID>
            <creationTime>2012-02-28T15:05:20.000000Z</creationTime>
          </creationInfo>
        </arrival>
        <arrival publicID="quakeml:uw.anss.org/AssocArO/UW/6716893">
          <pickID>quakeml:uw.anss.org/Arrival/UW/6716893</pickID>
          <phase>S</phase>
          <azimuth>165.3</azimuth>
          <timeResidual>-1.22</timeResidual>
          <creationInfo>
            <agencyID>UW</agencyID>
            <creationTime>2012-02-28T15:05:20.000000Z</creationTime>
          </creationInfo>
        </arrival>
        <arrival publicID="quakeml:uw.anss.org/AssocArO/UW/6716898">
          <pickID>quakeml:uw.anss.org/Arrival/UW/6716898</pickID>
          <phase>S</phase>
          <azimuth>164.5</azimuth>
          <distance>1.928</distance>
          <timeResidual>-1.23</timeResidual>
          <creationInfo>
            <agencyID>UW</agencyID>
            <creationTime>2012-02-28T15:05:20.000000Z</creationTime>
          </creationInfo>
        </arrival>
        <arrival publicID="quakeml:uw.anss.org/AssocArO/UW/6716903">
          <pickID>quakeml:uw.anss.org/Arrival/UW/6716903</pickID>
          <phase>S</phase>
          <azimuth>177.7</azimuth>
          <distance>2.413</distance>
          <timeResidual>-0.56</timeResidual>
          <creationInfo>
            <agencyID>UW</agencyID>
            <creationTime>2012-02-28T15:05:21.000000Z</creationTime>
          </creationInfo>
        </arrival>
        <arrival publicID="quakeml:uw.anss.org/AssocArO/UW/6716908">
          <pickID>quakeml:uw.anss.org/Arrival/UW/6716908</pickID>
          <phase>P</phase>
          <azimuth>146.2</azimuth>
          <timeResidual>-0.23</timeResidual>
          <creationInfo>
            <agencyID>UW</agencyID>
            <creationTime>2012-02-28T15:05:21.000000Z</creationTime>
          </creationInfo>
        </arrival>
        <arrival publicID="quakeml:uw.anss.org/AssocArO/UW/6716913">
          <pickID>quakeml:uw.anss.org/Arrival/UW/6716913</pickID>
          <phase>S</phase>
          <azimuth>146.2</azimuth>
          <timeResidual>0.26</timeResidual>
          <creationInfo>
            <agencyID>UW</agencyID>
            <creationTime>2012-02-28T15:05:21.000000Z</creationTime>
          </creationInfo>
        </arrival>
        <arrival publicID="quakeml:uw.anss.org/AssocArO/UW/6716918">
          <pickID>quakeml:uw.anss.org/Arrival/UW/6716918</pickID>
          <phase>P</phase>
          <azimuth>155.0</azimuth>
          <distance>0.8309</distance>
          <timeResidual>0.91</timeResidual>
          <creationInfo>
            <agencyID>UW</agencyID>
            <creationTime>2012-02-28T15:05:21.000000Z</creationTime>
          </creationInfo>
        </arrival>
        <arrival publicID="quakeml:uw.anss.org/AssocArO/UW/6716923">
          <pickID>quakeml:uw.anss.org/Arrival/UW/6716923</pickID>
          <phase>S</phase>
          <azimuth>155.0</azimuth>
          <distance>0.8309</distance>
          <timeResidual>-0.06</timeResidual>
          <creationInfo>
            <agencyID>UW</agencyID>
            <creationTime>2012-02-28T15:05:21.000000Z</creationTime>
          </creationInfo>
        </arrival>
        <arrival publicID="quakeml:uw.anss.org/AssocArO/UW/6716928">
          <pickID>quakeml:uw.anss.org/Arrival/UW/6716928</pickID>
          <phase>P</phase>
          <azimuth>288.9</azimuth>
          <distance>0.38</distance>
          <timeResidual>-0.26</timeResidual>
          <creationInfo>
            <agencyID>UW</agencyID>
            <creationTime>2012-02-28T15:05:21.000000Z</creationTime>
          </creationInfo>
        </arrival>
        <arrival publicID="quakeml:uw.anss.org/AssocArO/UW/6716933">
          <pickID>quakeml:uw.anss.org/Arrival/UW/6716933</pickID>
          <phase>P</phase>
          <azimuth>219.8</azimuth>
          <distance>0.7152</distance>
          <timeResidual>0.03</timeResidual>
          <creationInfo>
            <agencyID>UW</agencyID>
            <creationTime>2012-02-28T15:05:21.000000Z</creationTime>
          </creationInfo>
        </arrival>
        <arrival publicID="quakeml:uw.anss.org/AssocArO/UW/6716938">
          <pickID>quakeml:uw.anss.org/Arrival/UW/6716938</pickID>
          <phase>S</phase>
          <azimuth>219.8</azimuth>
          <distance>0.7152</distance>
          <timeResidual>0.33</timeResidual>
          <creationInfo>
            <agencyID>UW</agencyID>
            <creationTime>2012-02-28T15:05:21.000000Z</creationTime>
          </creationInfo>
        </arrival>
        <arrival publicID="quakeml:uw.anss.org/AssocArO/UW/6716943">
          <pickID>quakeml:uw.anss.org/Arrival/UW/6716943</pickID>
          <phase>P</phase>
          <azimuth>140.1</azimuth>
          <distance>1.795</distance>
          <timeResidual>0.05</timeResidual>
          <creationInfo>
            <agencyID>UW</agencyID>
            <creationTime>2012-02-28T15:05:21.000000Z</creationTime>
          </creationInfo>
        </arrival>
        <arrival publicID="quakeml:uw.anss.org/AssocArO/UW/6716948">
          <pickID>quakeml:uw.anss.org/Arrival/UW/6716948</pickID>
          <phase>S</phase>
          <azimuth>140.1</azimuth>
          <distance>1.795</distance>
          <timeResidual>-0.25</timeResidual>
          <creationInfo>
            <agencyID>UW</agencyID>
            <creationTime>2012-02-28T15:05:21.000000Z</creationTime>
          </creationInfo>
        </arrival>
        <arrival publicID="quakeml:uw.anss.org/AssocArO/UW/6716953">
          <pickID>quakeml:uw.anss.org/Arrival/UW/6716953</pickID>
          <phase>P</phase>
          <azimuth>139.9</azimuth>
          <distance>0.1752</distance>
          <timeResidual>-0.32</timeResidual>
          <creationInfo>
            <agencyID>UW</agencyID>
            <creationTime>2012-02-28T15:05:21.000000Z</creationTime>
          </creationInfo>
        </arrival>
        <arrival publicID="quakeml:uw.anss.org/AssocArO/UW/6716958">
          <pickID>quakeml:uw.anss.org/Arrival/UW/6716958</pickID>
          <phase>S</phase>
          <azimuth>139.9</azimuth>
          <distance>0.1752</distance>
          <timeResidual>0.38</timeResidual>
          <creationInfo>
            <agencyID>UW</agencyID>
            <creationTime>2012-02-28T15:05:21.000000Z</creationTime>
          </creationInfo>
        </arrival>
        <arrival publicID="quakeml:uw.anss.org/AssocArO/UW/6716963">
          <pickID>quakeml:uw.anss.org/Arrival/UW/6716963</pickID>
          <phase>S</phase>
          <azimuth>178.7</azimuth>
          <distance>2.208</distance>
          <timeResidual>-1.05</timeResidual>
          <creationInfo>
            <agencyID>UW</agencyID>
            <creationTime>2012-02-28T15:05:21.000000Z</creationTime>
          </creationInfo>
        </arrival>
        <arrival publicID="quakeml:uw.anss.org/AssocArO/UW/6716968">
          <pickID>quakeml:uw.anss.org/Arrival/UW/6716968</pickID>
          <phase>P</phase>
          <azimuth>214.6</azimuth>
          <distance>0.2848</distance>
          <timeResidual>0.31</timeResidual>
          <creationInfo>
            <agencyID>UW</agencyID>
            <creationTime>2012-02-28T15:05:21.000000Z</creationTime>
          </creationInfo>
        </arrival>
        <arrival publicID="quakeml:uw.anss.org/AssocArO/UW/6716973">
          <pickID>quakeml:uw.anss.org/Arrival/UW/6716973</pickID>
          <phase>S</phase>
          <azimuth>181.8</azimuth>
          <distance>2.494</distance>
          <timeResidual>-0.5</timeResidual>
          <creationInfo>
            <agencyID>UW</agencyID>
            <creationTime>2012-02-28T15:05:21.000000Z</creationTime>
          </creationInfo>
        </arrival>
      </origin>
      <magnitude publicID="quakeml:uw.anss.org/Netmag/UW/605088">
        <mag>
          <value>2.0</value>
          <uncertainty>0.09</uncertainty>
        </mag>
        <type>Md</type>
        <originID>quakeml:uw.anss.org/Origin/UW/735213</originID>
        <methodID>smi:uw.anss.org/magnitude/Crosson</methodID>
        <stationCount>6</stationCount>
        <evaluationMode>manual</evaluationMode>
        <evaluationStatus>final</evaluationStatus>
        <stationMagnitudeContribution>
          <stationMagnitudeID>quakeml:uw.anss.org/AssocCoM/UW/1615873</stationMagnitudeID>
          <weight>1.0</weight>
          <residual>-0.18</residual>
        </stationMagnitudeContribution>
        <stationMagnitudeContribution>
          <stationMagnitudeID>quakeml:uw.anss.org/AssocCoM/UW/1615883</stationMagnitudeID>
          <weight>1.0</weight>
          <residual>-0.34</residual>
        </stationMagnitudeContribution>
        <stationMagnitudeContribution>
          <stationMagnitudeID>quakeml:uw.anss.org/AssocCoM/UW/1615868</stationMagnitudeID>
          <weight>1.0</weight>
          <residual>-0.14</residual>
        </stationMagnitudeContribution>
        <stationMagnitudeContribution>
          <stationMagnitudeID>quakeml:uw.anss.org/AssocCoM/UW/1615878</stationMagnitudeID>
          <weight>1.0</weight>
          <residual>0.23</residual>
        </stationMagnitudeContribution>
        <stationMagnitudeContribution>
          <stationMagnitudeID>quakeml:uw.anss.org/AssocCoM/UW/1615888</stationMagnitudeID>
          <weight>1.0</weight>
          <residual>-0.07</residual>
        </stationMagnitudeContribution>
        <stationMagnitudeContribution>
          <stationMagnitudeID>quakeml:uw.anss.org/AssocCoM/UW/1615893</stationMagnitudeID>
          <weight>1.0</weight>
          <residual>0.2</residual>
        </stationMagnitudeContribution>
        <creationInfo>
          <agencyID>UW</agencyID>
          <creationTime>2012-02-28T15:05:20.000000Z</creationTime>
        </creationInfo>
      </magnitude>
      <stationMagnitude publicID="quakeml:uw.anss.org/AssocCoM/UW/1615868">
        <originID>quakeml:uw.anss.org/Origin/UW/735213</originID>
        <mag>
          <value>1.86</value>
        </mag>
        <type>MD</type>
        <amplitudeID>quakeml:uw.anss.org/Coda/UW/1615868</amplitudeID>
        <waveformID networkCode="UW" stationCode="HDW" locationCode="" channelCode="EHZ"></waveformID>
      </stationMagnitude>
      <stationMagnitude publicID="quakeml:uw.anss.org/AssocCoM/UW/1615873">
        <originID>quakeml:uw.anss.org/Origin/UW/735213</originID>
        <mag>
          <value>1.82</value>
        </mag>
        <type>MD</type>
        <amplitudeID>quakeml:uw.anss.org/Coda/UW/1615873</amplitudeID>
        <waveformID networkCode="UW" stationCode="MBW" locationCode="" channelCode="EHZ"></waveformID>
      </stationMagnitude>
      <stationMagnitude publicID="quakeml:uw.anss.org/AssocCoM/UW/1615878">
        <originID>quakeml:uw.anss.org/Origin/UW/735213</originID>
        <mag>
          <value>2.23</value>
        </mag>
        <type>MD</type>
        <amplitudeID>quakeml:uw.anss.org/Coda/UW/1615878</amplitudeID>
        <waveformID networkCode="UW" stationCode="JCW" locationCode="" channelCode="EHZ"></waveformID>
      </stationMagnitude>
      <stationMagnitude publicID="quakeml:uw.anss.org/AssocCoM/UW/1615883">
        <originID>quakeml:uw.anss.org/Origin/UW/735213</originID>
        <mag>
          <value>1.66</value>
        </mag>
        <type>MD</type>
        <amplitudeID>quakeml:uw.anss.org/Coda/UW/1615883</amplitudeID>
        <waveformID networkCode="UW" stationCode="HTW" locationCode="" channelCode="EHZ"></waveformID>
      </stationMagnitude>
      <stationMagnitude publicID="quakeml:uw.anss.org/AssocCoM/UW/1615888">
        <originID>quakeml:uw.anss.org/Origin/UW/735213</originID>
        <mag>
          <value>1.93</value>
        </mag>
        <type>MD</type>
        <amplitudeID>quakeml:uw.anss.org/Coda/UW/1615888</amplitudeID>
        <waveformID networkCode="UW" stationCode="MCW" locationCode="" channelCode="EHZ"></waveformID>
      </stationMagnitude>
      <stationMagnitude publicID="quakeml:uw.anss.org/AssocCoM/UW/1615893">
        <originID>quakeml:uw.anss.org/Origin/UW/735213</originID>
        <mag>
          <value>2.2</value>
        </mag>
        <type>MD</type>
        <amplitudeID>quakeml:uw.anss.org/Coda/UW/1615893</amplitudeID>
        <waveformID networkCode="UW" stationCode="CMW" locationCode="" channelCode="EHZ"></waveformID>
      </stationMagnitude>
      <pick publicID="quakeml:uw.anss.org/Arrival/UW/6716843">
        <time>
          <value>1998-08-25T16:07:36.950000Z</value>
          <uncertainty>0.02</uncertainty>
        </time>
        <waveformID networkCode="UW" stationCode="HDW" locationCode="" channelCode="EHZ"></waveformID>
        <polarity>undecidable</polarity>
        <evaluationMode>manual</evaluationMode>
        <evaluationStatus>final</evaluationStatus>
        <creationInfo>
          <agencyID>UW</agencyID>
          <creationTime>2012-02-28T15:05:20.000000Z</creationTime>
        </creationInfo>
      </pick>
      <pick publicID="quakeml:uw.anss.org/Arrival/UW/6716848">
        <time>
          <value>1998-08-25T16:07:51.180000Z</value>
          <uncertainty>0.05</uncertainty>
        </time>
